RESPONSE AND FOURIER AMPLITUDE SPECTRA (83 PERIODS,  .04 -  8.5 SEC)   FOR
CORRECTED ACCELEROGRAM   24207-S1672-94021.02       CHAN  1: 265 DEG     FROM   
UNCORRECTED ACCELEROGRAM DATA              PROCESSED: 02/04/94, CDMG QN94A207   
NORTHRIDGE EARTHQUAKE                                                           
JANUARY 17, 1994 04:31 PST              (ORIGIN(CIT): 01/17/94, 12:30:55.4 GMT) 
24207-S1672-94021.02                                                            
STATION NO. 24207   34.334N, 118.396W     SMA-1  S/N 1672                       
PACOIMA DAM - DOWNSTREAM                                                        
CHAN  1: 265 DEG                                                                
NORTHRIDGE EARTHQUAKE     JANUARY 17, 1994 04:31 PST                            
HYPOCENTER(CIT): 34.215N, 118.538W, H=18KM. ML=6.6, MW=6.7(CIT); MS=6.7(NEIC)   
INSTR PERIOD =  .0385 SEC,  DAMPING =  .581,  SENSITIVITY = 1.78 CM/G.          
                        RECORD LENGTH = 29.980 SEC.                             
                                     UNCOR MAX  =   .446 G, AT   3.744 SEC.     
RMS ACCEL OF (UNCOR) RECORD  =  .040 G.                                         
ACCELEROGRAM BANDPASS FILTERED WITH RAMPS AT  .080- .160 AND 23.00-25.00 CYC/SEC
                 INSTRUMENT- AND BASELINE-CORRECTED 





NORTHRIDGE EARTHQUAKE     JANUARY 17, 1994 04:31 PST                            
                                                                                
24207-S1672-94021.02      PACOIMA DAM - DOWNSTREAM    CHAN  1: 265 DEG          
                                                                                
24207-S1672-94021.02      PACOIMA DAM - DOWNSTREAM    CHAN  1: 265 DEG          
                                                                                
UNITS FOR SPECTRA ARE INCHES AND SEC, EXCEPT SA IS IN FRACTION OF G.
 
    1    1    1    3    3    0    1    1    1 2048    0    0    0    0    0    0
    0    0    0    0    0    0    0    0    0    0  265 6013   21   24   52    0
    0    0    0    0    0    0    0    0    0    0    0    0    0    0    0    0
    0    0 6013 6013 1500    4   10   10    0    0   52   70   10   10    0 1500
    0 1500   71   83    5    0    0    0    0    0    0    0    0    0    0    0
    0    0    0    0    0    0    0    0    0    0    0    0    0    0    0    0
    0    0    0    0
      .038      .581    29.997      .040     1.000     1.780      .446     3.744
    26.000    50.000     2.809    50.000     4.989      .130      .393     5.379
      .000      .000      .000      .000      .000      .000      .000      .000
      .000      .000      .000      .000      .000      .000      .000      .000
      .000      .000      .000      .000      .000      .000      .000      .000
      .000      .000      .000      .000      .000      .000      .000      .000
      .000      .000      .000    98.066      .005    29.997   163.363      .000
      .000    25.000     2.000    29.980      .020      .160      .080      .000
     3.740   425.552     3.800    30.600     6.400    -4.990      .275      .160
    23.000      .020      .020      .151      .000      .000      .000      .000
      .000      .000      .000      .000      .000      .000      .000      .000
      .000      .000      .000      .000      .000      .000      .000      .000
      .000      .000      .000      .000
      .000      .020      .050      .100      .200
      .040      .042      .044      .046      .048      .050      .055      .060
      .065      .070      .075      .080      .085      .090      .095      .100
      .110      .120      .130      .140      .150      .160      .170      .180
      .190      .200      .220      .240      .260      .280      .300      .320
      .340      .360      .380      .400      .420      .440      .460      .480
      .500      .550      .600      .650      .700      .750      .800      .850
      .900      .950     1.000     1.100     1.200     1.300     1.400     1.500
     1.600     1.700     1.800     1.900     2.000     2.200     2.400     2.600
     2.800     3.000     3.200     3.400     3.600     3.800     4.000     4.200
     4.400     4.600     4.800     5.000     5.500     6.000     6.500     7.000
     7.500     8.000     8.500     9.000     9.500    10.000    11.000    12.000
    13.000    14.000    15.000      .000      .000      .000      .000      .000
      .000      .000      .000      .000
FOURIER AMPLITUDE SPECTRA IN IN/SEC.
  .199E-01  .153E+00  .197E+00  .404E+00  .478E+00  .698E+00  .137E+01  .273E+01
  .243E+01  .348E+01  .233E+01  .185E+01  .468E+01  .503E+01  .350E+01  .558E+01
  .436E+01  .906E+00  .100E+02  .788E+01  .366E+01  .682E+01  .817E+01  .135E+02
  .163E+02  .105E+02  .152E+02  .617E+01  .136E+02  .150E+02  .241E+02  .178E+02
  .294E+02  .286E+02  .341E+02  .177E+02  .345E+02  .339E+02  .298E+02  .459E+02
  .343E+02  .353E+02  .342E+02  .230E+02  .367E+02  .153E+02  .492E+01  .199E+02
  .232E+02  .292E+02  .328E+02  .320E+02  .208E+02  .280E+02  .305E+02  .310E+02
  .202E+02  .124E+02  .189E+01  .133E+01  .589E+01  .105E+02  .124E+02  .193E+02
  .111E+02  .126E+02  .138E+02  .136E+02  .111E+02  .147E+02  .129E+02  .715E+01
  .406E+01  .484E+01  .441E+01  .273E+01  .831E+00  .162E+01  .359E+01  .458E+01
  .431E+01  .346E+01  .258E+01  .000E+00  .000E+00  .000E+00  .000E+00  .000E+00
  .000E+00  .000E+00  .000E+00  .000E+00  .000E+00  .000E+00  .000E+00  .000E+00
  .000E+00  .000E+00  .000E+00  .000E+00
DAMPING =  .00. DATA OF SD,SV,SA,PSSV,TTSD,TTSV,TTSA :
  .739E-02  .102E-01  .101E-01  .204E-01  .141E-01  .135E-01  .210E-01  .371E-01
  .332E-01  .486E-01  .460E-01  .461E-01  .726E-01  .821E-01  .731E-01  .925E-01
  .110E+00  .108E+00  .209E+00  .180E+00  .147E+00  .230E+00  .368E+00  .480E+00
  .560E+00  .594E+00  .764E+00  .578E+00  .887E+00  .894E+00  .126E+01  .130E+01
  .162E+01  .176E+01  .207E+01  .214E+01  .243E+01  .253E+01  .274E+01  .360E+01
  .342E+01  .398E+01  .331E+01  .272E+01  .429E+01  .240E+01  .187E+01  .273E+01
  .380E+01  .466E+01  .541E+01  .601E+01  .518E+01  .584E+01  .710E+01  .755E+01
  .544E+01  .415E+01  .301E+01  .324E+01  .339E+01  .373E+01  .558E+01  .799E+01
  .685E+01  .772E+01  .785E+01  .791E+01  .792E+01  .888E+01  .824E+01  .593E+01
  .492E+01  .441E+01  .436E+01  .426E+01  .388E+01  .346E+01  .373E+01  .511E+01
  .514E+01  .500E+01  .427E+01  .000E+00  .000E+00  .000E+00  .000E+00  .000E+00
  .000E+00  .000E+00  .000E+00  .000E+00  .000E+00  .000E+00  .000E+00  .000E+00
  .000E+00  .000E+00  .000E+00  .000E+00
  .454E+00  .746E+00  .842E+00  .166E+01  .809E+00  .815E+00  .149E+01  .343E+01
  .303E+01  .359E+01  .345E+01  .259E+01  .515E+01  .535E+01  .429E+01  .570E+01
  .475E+01  .496E+01  .101E+02  .789E+01  .444E+01  .770E+01  .118E+02  .164E+02
  .174E+02  .176E+02  .216E+02  .148E+02  .212E+02  .193E+02  .247E+02  .249E+02
  .298E+02  .297E+02  .343E+02  .317E+02  .363E+02  .349E+02  .367E+02  .472E+02
  .423E+02  .429E+02  .346E+02  .262E+02  .380E+02  .194E+02  .154E+02  .201E+02
  .254E+02  .304E+02  .336E+02  .342E+02  .266E+02  .281E+02  .319E+02  .314E+02
  .225E+02  .197E+02  .172E+02  .134E+02  .121E+02  .124E+02  .162E+02  .194E+02
  .190E+02  .169E+02  .168E+02  .184E+02  .189E+02  .187E+02  .180E+02  .171E+02
  .162E+02  .152E+02  .143E+02  .136E+02  .134E+02  .133E+02  .132E+02  .131E+02
  .130E+02  .129E+02  .128E+02  .000E+00  .000E+00  .000E+00  .000E+00  .000E+00
  .000E+00  .000E+00  .000E+00  .000E+00  .000E+00  .000E+00  .000E+00  .000E+00
  .000E+00  .000E+00  .000E+00  .000E+00
  .472E+00  .594E+00  .535E+00  .987E+00  .626E+00  .553E+00  .710E+00  .106E+01
  .805E+00  .102E+01  .837E+00  .736E+00  .103E+01  .104E+01  .828E+00  .946E+00
  .932E+00  .768E+00  .126E+01  .941E+00  .667E+00  .918E+00  .130E+01  .152E+01
  .159E+01  .152E+01  .161E+01  .103E+01  .134E+01  .117E+01  .143E+01  .130E+01
  .143E+01  .139E+01  .147E+01  .137E+01  .141E+01  .134E+01  .132E+01  .160E+01
  .140E+01  .134E+01  .941E+00  .658E+00  .895E+00  .436E+00  .298E+00  .386E+00
  .480E+00  .528E+00  .554E+00  .508E+00  .368E+00  .354E+00  .370E+00  .343E+00
  .218E+00  .147E+00  .951E-01  .918E-01  .866E-01  .789E-01  .991E-01  .121E+00
  .894E-01  .877E-01  .784E-01  .700E-01  .625E-01  .629E-01  .526E-01  .344E-01
  .260E-01  .213E-01  .194E-01  .174E-01  .131E-01  .982E-02  .903E-02  .107E-01
  .935E-02  .799E-02  .604E-02  .000E+00  .000E+00  .000E+00  .000E+00  .000E+00
  .000E+00  .000E+00  .000E+00  .000E+00  .000E+00  .000E+00  .000E+00  .000E+00
  .000E+00  .000E+00  .000E+00  .000E+00
  .116E+01  .153E+01  .145E+01  .279E+01  .185E+01  .170E+01  .240E+01  .389E+01
  .321E+01  .437E+01  .386E+01  .362E+01  .537E+01  .573E+01  .483E+01  .581E+01
  .630E+01  .566E+01  .101E+02  .810E+01  .615E+01  .902E+01  .136E+02  .168E+02
  .185E+02  .187E+02  .218E+02  .151E+02  .214E+02  .201E+02  .263E+02  .256E+02
  .299E+02  .308E+02  .343E+02  .336E+02  .363E+02  .361E+02  .374E+02  .472E+02
  .429E+02  .454E+02  .347E+02  .263E+02  .385E+02  .201E+02  .147E+02  .202E+02
  .265E+02  .308E+02  .340E+02  .343E+02  .271E+02  .282E+02  .318E+02  .316E+02
  .214E+02  .153E+02  .105E+02  .107E+02  .106E+02  .107E+02  .146E+02  .193E+02
  .154E+02  .162E+02  .154E+02  .146E+02  .138E+02  .147E+02  .129E+02  .887E+01
  .703E+01  .602E+01  .571E+01  .536E+01  .444E+01  .362E+01  .361E+01  .459E+01
  .431E+01  .393E+01  .315E+01  .000E+00  .000E+00  .000E+00  .000E+00  .000E+00
  .000E+00  .000E+00  .000E+00  .000E+00  .000E+00  .000E+00  .000E+00  .000E+00
  .000E+00  .000E+00  .000E+00  .000E+00
  .373E+01  .373E+01  .351E+01  .374E+01  .373E+01  .348E+01  .373E+01  .690E+01
  .403E+01  .686E+01  .424E+01  .373E+01  .685E+01  .685E+01  .688E+01  .159E+02
  .372E+01  .425E+01  .154E+02  .109E+02  .346E+01  .689E+01  .386E+01  .873E+01
  .388E+01  .410E+01  .580E+01  .490E+01  .664E+01  .696E+01  .688E+01  .662E+01
  .133E+02  .682E+01  .112E+02  .398E+01  .696E+01  .644E+01  .520E+01  .139E+02
  .734E+01  .688E+01  .155E+02  .105E+02  .848E+01  .584E+01  .592E+01  .296E+02
  .754E+01  .760E+01  .107E+02  .171E+02  .850E+01  .281E+02  .137E+02  .284E+02
  .163E+02  .694E+01  .640E+01  .570E+01  .576E+01  .744E+01  .760E+01  .299E+02
  .798E+01  .690E+01  .694E+01  .174E+02  .163E+02  .302E+02  .313E+02  .138E+02
  .141E+02  .630E+01  .632E+01  .634E+01  .636E+01  .638E+01  .416E+02  .435E+02
  .342E+02  .278E+02  .283E+02  .000E+00  .000E+00  .000E+00  .000E+00  .000E+00
  .000E+00  .000E+00  .000E+00  .000E+00  .000E+00  .000E+00  .000E+00  .000E+00
  .000E+00  .000E+00  .000E+00  .000E+00
  .382E+01  .397E+01  .341E+01  .372E+01  .762E+01  .395E+01  .828E+01  .910E+01
  .402E+01  .905E+01  .460E+01  .395E+01  .102E+02  .210E+02  .101E+02  .161E+02
  .510E+01  .428E+01  .100E+02  .109E+02  .342E+01  .829E+01  .390E+01  .877E+01
  .716E+01  .416E+01  .574E+01  .484E+01  .670E+01  .536E+01  .726E+01  .670E+01
  .128E+02  .674E+01  .130E+02  .408E+01  .832E+01  .392E+01  .510E+01  .138E+02
  .720E+01  .702E+01  .157E+02  .906E+01  .762E+01  .602E+01  .356E+01  .272E+02
  .776E+01  .159E+02  .104E+02  .174E+02  .820E+01  .285E+02  .133E+02  .288E+02
  .720E+01  .668E+01  .672E+01  .674E+01  .620E+01  .552E+01  .714E+01  .718E+01
  .730E+01  .734E+01  .666E+01  .668E+01  .670E+01  .670E+01  .672E+01  .672E+01
  .672E+01  .674E+01  .674E+01  .674E+01  .378E+01  .378E+01  .378E+01  .378E+01
  .378E+01  .378E+01  .378E+01  .000E+00  .000E+00  .000E+00  .000E+00  .000E+00
  .000E+00  .000E+00  .000E+00  .000E+00  .000E+00  .000E+00  .000E+00  .000E+00
  .000E+00  .000E+00  .000E+00  .000E+00
  .373E+01  .373E+01  .351E+01  .374E+01  .373E+01  .348E+01  .373E+01  .690E+01
  .403E+01  .686E+01  .424E+01  .373E+01  .685E+01  .685E+01  .688E+01  .159E+02
  .372E+01  .425E+01  .154E+02  .109E+02  .346E+01  .689E+01  .386E+01  .873E+01
  .388E+01  .410E+01  .580E+01  .490E+01  .664E+01  .696E+01  .688E+01  .662E+01
  .133E+02  .682E+01  .112E+02  .398E+01  .696E+01  .644E+01  .520E+01  .139E+02
  .734E+01  .688E+01  .155E+02  .105E+02  .848E+01  .584E+01  .592E+01  .296E+02
  .754E+01  .760E+01  .107E+02  .171E+02  .850E+01  .281E+02  .137E+02  .284E+02
  .163E+02  .694E+01  .640E+01  .570E+01  .576E+01  .744E+01  .760E+01  .299E+02
  .798E+01  .690E+01  .694E+01  .174E+02  .163E+02  .302E+02  .313E+02  .138E+02
  .141E+02  .630E+01  .632E+01  .634E+01  .636E+01  .638E+01  .416E+02  .435E+02
  .342E+02  .278E+02  .283E+02  .000E+00  .000E+00  .000E+00  .000E+00  .000E+00
  .000E+00  .000E+00  .000E+00  .000E+00  .000E+00  .000E+00  .000E+00  .000E+00
  .000E+00  .000E+00  .000E+00  .000E+00
DAMPING =  .02. DATA OF SD,SV,SA,PSSV,TTSD,TTSV,TTSA :
  .714E-02  .779E-02  .938E-02  .116E-01  .120E-01  .126E-01  .194E-01  .237E-01
  .270E-01  .361E-01  .364E-01  .370E-01  .483E-01  .572E-01  .587E-01  .691E-01
  .823E-01  .829E-01  .107E+00  .132E+00  .168E+00  .228E+00  .322E+00  .394E+00
  .455E+00  .476E+00  .497E+00  .452E+00  .510E+00  .682E+00  .863E+00  .987E+00
  .127E+01  .150E+01  .177E+01  .193E+01  .205E+01  .220E+01  .229E+01  .232E+01
  .237E+01  .245E+01  .237E+01  .216E+01  .298E+01  .200E+01  .160E+01  .243E+01
  .332E+01  .400E+01  .442E+01  .462E+01  .448E+01  .457E+01  .511E+01  .511E+01
  .443E+01  .377E+01  .270E+01  .293E+01  .306E+01  .343E+01  .496E+01  .582E+01
  .623E+01  .710E+01  .726E+01  .689E+01  .621E+01  .589E+01  .553E+01  .483E+01
  .409E+01  .414E+01  .412E+01  .405E+01  .374E+01  .337E+01  .303E+01  .398E+01
  .401E+01  .414E+01  .361E+01  .000E+00  .000E+00  .000E+00  .000E+00  .000E+00
  .000E+00  .000E+00  .000E+00  .000E+00  .000E+00  .000E+00  .000E+00  .000E+00
  .000E+00  .000E+00  .000E+00  .000E+00
  .397E+00  .430E+00  .537E+00  .586E+00  .456E+00  .483E+00  .109E+01  .170E+01
  .201E+01  .193E+01  .207E+01  .209E+01  .240E+01  .265E+01  .276E+01  .382E+01
  .396E+01  .377E+01  .401E+01  .448E+01  .494E+01  .727E+01  .100E+02  .121E+02
  .134E+02  .139E+02  .131E+02  .118E+02  .122E+02  .152E+02  .182E+02  .200E+02
  .238E+02  .253E+02  .270E+02  .280E+02  .296E+02  .315E+02  .323E+02  .322E+02
  .307E+02  .292E+02  .259E+02  .237E+02  .262E+02  .179E+02  .148E+02  .167E+02
  .214E+02  .252E+02  .277E+02  .277E+02  .236E+02  .229E+02  .238E+02  .232E+02
  .205E+02  .179E+02  .158E+02  .126E+02  .108E+02  .115E+02  .151E+02  .178E+02
  .174E+02  .157E+02  .158E+02  .174E+02  .180E+02  .179E+02  .174E+02  .167E+02
  .158E+02  .150E+02  .142E+02  .135E+02  .133E+02  .132E+02  .131E+02  .130E+02
  .129E+02  .128E+02  .128E+02  .000E+00  .000E+00  .000E+00  .000E+00  .000E+00
  .000E+00  .000E+00  .000E+00  .000E+00  .000E+00  .000E+00  .000E+00  .000E+00
  .000E+00  .000E+00  .000E+00  .000E+00
  .457E+00  .452E+00  .495E+00  .559E+00  .530E+00  .515E+00  .656E+00  .673E+00
  .656E+00  .751E+00  .663E+00  .593E+00  .683E+00  .725E+00  .666E+00  .704E+00
  .697E+00  .585E+00  .646E+00  .688E+00  .763E+00  .914E+00  .114E+01  .125E+01
  .129E+01  .122E+01  .104E+01  .809E+00  .777E+00  .884E+00  .983E+00  .982E+00
  .112E+01  .119E+01  .126E+01  .123E+01  .119E+01  .116E+01  .110E+01  .103E+01
  .970E+00  .830E+00  .675E+00  .525E+00  .622E+00  .363E+00  .256E+00  .344E+00
  .420E+00  .453E+00  .453E+00  .391E+00  .319E+00  .277E+00  .267E+00  .232E+00
  .177E+00  .134E+00  .852E-01  .832E-01  .783E-01  .725E-01  .881E-01  .881E-01
  .815E-01  .809E-01  .726E-01  .610E-01  .491E-01  .418E-01  .354E-01  .280E-01
  .216E-01  .200E-01  .184E-01  .166E-01  .127E-01  .965E-02  .739E-02  .832E-02
  .730E-02  .663E-02  .512E-02  .000E+00  .000E+00  .000E+00  .000E+00  .000E+00
  .000E+00  .000E+00  .000E+00  .000E+00  .000E+00  .000E+00  .000E+00  .000E+00
  .000E+00  .000E+00  .000E+00  .000E+00
  .112E+01  .117E+01  .134E+01  .158E+01  .157E+01  .158E+01  .222E+01  .249E+01
  .261E+01  .324E+01  .305E+01  .291E+01  .357E+01  .399E+01  .388E+01  .434E+01
  .470E+01  .434E+01  .515E+01  .592E+01  .705E+01  .897E+01  .119E+02  .137E+02
  .150E+02  .149E+02  .142E+02  .118E+02  .123E+02  .153E+02  .181E+02  .194E+02
  .235E+02  .261E+02  .293E+02  .303E+02  .307E+02  .314E+02  .313E+02  .304E+02
  .298E+02  .280E+02  .248E+02  .209E+02  .268E+02  .168E+02  .126E+02  .179E+02
  .232E+02  .264E+02  .278E+02  .264E+02  .234E+02  .221E+02  .229E+02  .214E+02
  .174E+02  .139E+02  .942E+01  .969E+01  .961E+01  .979E+01  .130E+02  .141E+02
  .140E+02  .149E+02  .142E+02  .127E+02  .108E+02  .975E+01  .869E+01  .723E+01
  .584E+01  .565E+01  .539E+01  .509E+01  .428E+01  .353E+01  .293E+01  .357E+01
  .336E+01  .326E+01  .267E+01  .000E+00  .000E+00  .000E+00  .000E+00  .000E+00
  .000E+00  .000E+00  .000E+00  .000E+00  .000E+00  .000E+00  .000E+00  .000E+00
  .000E+00  .000E+00  .000E+00  .000E+00
  .373E+01  .373E+01  .373E+01  .373E+01  .374E+01  .373E+01  .374E+01  .349E+01
  .350E+01  .375E+01  .351E+01  .352E+01  .375E+01  .376E+01  .377E+01  .415E+01
  .407E+01  .408E+01  .373E+01  .374E+01  .375E+01  .385E+01  .386E+01  .387E+01
  .389E+01  .410E+01  .426E+01  .440E+01  .442E+01  .446E+01  .434E+01  .392E+01
  .394E+01  .394E+01  .396E+01  .398E+01  .400E+01  .402E+01  .404E+01  .406E+01
  .434E+01  .440E+01  .420E+01  .424E+01  .708E+01  .754E+01  .590E+01  .750E+01
  .754E+01  .760E+01  .766E+01  .778E+01  .848E+01  .860E+01  .808E+01  .746E+01
  .688E+01  .692E+01  .564E+01  .570E+01  .574E+01  .744E+01  .760E+01  .776E+01
  .686E+01  .690E+01  .694E+01  .698E+01  .704E+01  .131E+02  .134E+02  .137E+02
  .140E+02  .630E+01  .632E+01  .634E+01  .636E+01  .638E+01  .638E+01  .296E+02
  .304E+02  .277E+02  .282E+02  .000E+00  .000E+00  .000E+00  .000E+00  .000E+00
  .000E+00  .000E+00  .000E+00  .000E+00  .000E+00  .000E+00  .000E+00  .000E+00
  .000E+00  .000E+00  .000E+00  .000E+00
  .382E+01  .382E+01  .400E+01  .410E+01  .410E+01  .347E+01  .381E+01  .401E+01
  .401E+01  .353E+01  .353E+01  .354E+01  .402E+01  .378E+01  .379E+01  .417E+01
  .404E+01  .405E+01  .405E+01  .406E+01  .379E+01  .381E+01  .382E+01  .383E+01
  .384E+01  .406E+01  .420E+01  .470E+01  .436E+01  .452E+01  .442E+01  .400E+01
  .402E+01  .402E+01  .406E+01  .388E+01  .390E+01  .392E+01  .392E+01  .394E+01
  .394E+01  .428E+01  .432E+01  .378E+01  .726E+01  .380E+01  .354E+01  .770E+01
  .778E+01  .784E+01  .744E+01  .750E+01  .820E+01  .828E+01  .840E+01  .714E+01
  .718E+01  .668E+01  .670E+01  .672E+01  .620E+01  .552E+01  .716E+01  .718E+01
  .720E+01  .732E+01  .666E+01  .668E+01  .668E+01  .670E+01  .672E+01  .672E+01
  .672E+01  .672E+01  .672E+01  .672E+01  .378E+01  .378E+01  .378E+01  .378E+01
  .378E+01  .378E+01  .378E+01  .000E+00  .000E+00  .000E+00  .000E+00  .000E+00
  .000E+00  .000E+00  .000E+00  .000E+00  .000E+00  .000E+00  .000E+00  .000E+00
  .000E+00  .000E+00  .000E+00  .000E+00
  .373E+01  .373E+01  .373E+01  .373E+01  .374E+01  .373E+01  .374E+01  .349E+01
  .350E+01  .375E+01  .351E+01  .351E+01  .375E+01  .375E+01  .377E+01  .415E+01
  .407E+01  .408E+01  .373E+01  .374E+01  .374E+01  .385E+01  .386E+01  .387E+01
  .388E+01  .410E+01  .426E+01  .440E+01  .442E+01  .446E+01  .434E+01  .392E+01
  .394E+01  .394E+01  .396E+01  .398E+01  .400E+01  .402E+01  .404E+01  .406E+01
  .434E+01  .440E+01  .418E+01  .422E+01  .708E+01  .754E+01  .590E+01  .750E+01
  .754E+01  .760E+01  .766E+01  .778E+01  .848E+01  .860E+01  .806E+01  .744E+01
  .686E+01  .690E+01  .564E+01  .568E+01  .574E+01  .744E+01  .760E+01  .774E+01
  .684E+01  .688E+01  .692E+01  .696E+01  .702E+01  .130E+02  .133E+02  .137E+02
  .140E+02  .628E+01  .628E+01  .630E+01  .632E+01  .634E+01  .634E+01  .296E+02
  .304E+02  .277E+02  .281E+02  .000E+00  .000E+00  .000E+00  .000E+00  .000E+00
  .000E+00  .000E+00  .000E+00  .000E+00  .000E+00  .000E+00  .000E+00  .000E+00
  .000E+00  .000E+00  .000E+00  .000E+00
DAMPING =  .05. DATA OF SD,SV,SA,PSSV,TTSD,TTSV,TTSA :
  .709E-02  .792E-02  .916E-02  .106E-01  .116E-01  .128E-01  .175E-01  .210E-01
