CORRECTED ACCELEROGRAM   24207-S1672-94021.02       CHAN  1: 265 DEG     FROM   
UNCORRECTED ACCELEROGRAM DATA              PROCESSED: 02/04/94, CDMG QN94A207   
NORTHRIDGE EARTHQUAKE                                                           
JANUARY 17, 1994 04:31 PST              (ORIGIN(CIT): 01/17/94, 12:30:55.4 GMT) 
24207-S1672-94021.02                                                            
STATION NO. 24207   34.334N, 118.396W     SMA-1  S/N 1672                       
PACOIMA DAM - DOWNSTREAM                                                        
CHAN  1: 265 DEG                                                                
NORTHRIDGE EARTHQUAKE     JANUARY 17, 1994 04:31 PST                            
HYPOCENTER(CIT): 34.215N, 118.538W, H=18KM. ML=6.6, MW=6.7(CIT); MS=6.7(NEIC)   
INSTR PERIOD =  .0385 SEC,  DAMPING =  .581,  SENSITIVITY = 1.78 CM/G.          
                        RECORD LENGTH = 29.980 SEC.                             
                                     UNCOR MAX  =   .446 G, AT   3.744 SEC.     
RMS ACCEL OF (UNCOR) RECORD  =  .040 G.                                         
ACCELEROGRAM BANDPASS FILTERED WITH RAMPS AT  .080- .160 AND 23.00-25.00 CYC/SEC
  1500 POINTS OF INSTRUMENT- AND BASELINE-CORRECTED ACCEL, VELOC AND DISPL DATA 
AT EQUALLY-SPACED INTERVALS OF    .020  SEC.                                    
PEAK ACCELERATION =   425.552    CM/SEC/SEC  AT    3.740   SEC.                 
PEAK   VELOCITY   =    30.600      CM/SEC    AT    3.800   SEC.                 
PEAK DISPLACEMENT =    -4.990        CM      AT    6.400   SEC.                 
INITIAL VELOCITY  =      .275   CM/SEC;   INITIAL DISPLACEMENT =     .151   CM  
NORTHRIDGE EARTHQUAKE     JANUARY 17, 1994 04:31 PST                            
                                                                                
24207-S1672-94021.02      PACOIMA DAM - DOWNSTREAM    CHAN  1: 265 DEG          
                                                                                
    1    1    1    3    3    0    1    1    1 2048    0    0    0    0    0    0
    0    0    0    0    0    0    0    0    0    0  265 6013   21   24   52    0
    0    0    0    0    0    0    0    0    0    0    0    0    0    0    0    0
    0    0 6013 6013 1500    4   10   10    0    0   52   70   10   10    0 1500
    0 1500    0    0    0    0    0    0    0    0    0    0    0    0    0    0
    0    0    0    0    0    0    0    0    0    0    0    0    0    0    0    0
    0    0    0    0
      .038      .581    29.997      .040     1.000     1.780      .446     3.744
    26.000    50.000     2.809    50.000     4.989      .130      .393     5.379
      .000      .000      .000      .000      .000      .000      .000      .000
      .000      .000      .000      .000      .000      .000      .000      .000
      .000      .000      .000      .000      .000      .000      .000      .000
      .000      .000      .000      .000      .000      .000      .000      .000
      .000      .000      .000    98.066      .005    29.997   163.363      .000
      .000    25.000     2.000    29.980      .020      .160      .080      .000
     3.740   425.552     3.800    30.600     6.400    -4.990      .275      .160
    23.000      .020      .020      .151      .000      .000      .000      .000
      .000      .000      .000      .000      .000      .000      .000      .000
      .000      .000      .000      .000      .000      .000      .000      .000
      .000      .000      .000      .000
 1500 POINTS OF ACCEL DATA EQUALLY SPACED AT  .020 SEC.  (UNITS: CM/SEC/SEC)
     2.556    -1.352    -1.739     6.854     5.575    11.501     -.688   -14.286
    -4.737     2.626    -3.318     -.584    -3.152    -4.305    22.750    17.859
     9.447      .233      .254   -29.432   -24.937    -1.863     1.854     8.715
    16.941    31.911   -11.312   -36.842     5.299     3.408   -18.099     9.507
    24.269    12.861     4.956    -5.009   -22.460     4.971     9.514    -6.620
    -9.658      .502     5.952     7.482    -5.286   -11.049    10.767    10.802
     4.974   -23.448   -10.916    10.479     4.393     2.293    21.182    36.306
   -26.999   -25.990   -13.661   -12.027   -20.792   -18.412    37.133     1.176
   -15.836   -22.016     4.783      .284   -13.519     1.417    30.703     6.864
   -11.423    -8.550   -13.337     6.260     7.783   -18.118    -7.880    14.047
   -22.779    16.813   -25.454     1.628    13.663     1.754    -8.480     2.520
    -1.683   -21.325    11.293    10.840    35.517   -29.331   -18.805     7.620
    -9.054     5.523    -1.470    14.002    -1.953    13.235     4.905   -30.725
   -16.315   -38.293   -14.314    -6.720    14.894    29.362     3.419    -9.621
   -12.645    -7.616   -17.061    -7.835   -11.355     5.544     9.200     -.598
    11.424    17.222     2.001   -25.229   -16.076      .661     5.123     2.613
    -5.136     7.570     5.479    -3.981    16.370     9.904   -24.852     3.754
     8.809    -2.543    10.575    -8.037     3.959    11.617    -8.170   -26.179
   -34.145    -9.659   -14.986   -17.964     -.935   -20.090   -27.520    -9.962
     7.044   -23.572   -18.918    -2.602    -2.488    31.470    73.261    81.624
    87.165    94.132    87.272   119.707   101.265    89.216   137.747   135.013
   130.354   176.211   125.561  -137.041  -191.324  -182.677  -316.850  -365.977
  -295.202  -145.138    -3.591    58.720    27.439    32.296    12.075    96.723
   205.596   203.226   345.889   425.552   337.229   223.648   134.627  -140.394
  -235.478  -159.890  -201.395  -169.186  -181.506  -178.005  -103.817   127.803
   125.085    14.958   -86.487  -137.072   -45.852   -97.879  -156.471  -130.253
   -73.457   -48.313     7.856   107.518   118.574   114.997    94.742    54.371
    21.629   -30.390   -47.581   -35.944   -39.747   -43.303   -42.870   -39.573
    10.358    21.324     7.044    24.021   -28.374   -91.769   -76.430   -42.510
    12.301    22.582    11.544    32.156    26.484    -4.388   -19.744    18.853
    24.576    -7.072   -24.896   -39.001   -27.795     4.209   -24.008   -65.544
   -78.529   -81.030   -37.338   -21.896   -13.653   -33.271   -19.761     6.459
    23.947    33.467    31.867    51.768     2.628    13.909    24.148    52.235
    64.982    63.492    54.506    48.300    66.404    46.632    26.542     3.548
   -25.201    -9.755    30.311    26.768    23.002    36.651     7.529   -29.633
   -59.054   -40.067   -37.999   -77.215   -57.273   -42.863   -40.226   -42.814
      .340   -16.332   -12.027   -10.034     9.842    51.917     3.674    -3.894
     4.614   -12.345   -29.501   -23.837   -18.496   -17.875   -12.361   -15.668
    -9.951   -11.825   -20.986   -18.133   -32.172   -22.261   -17.597     4.729
    35.453    30.097    33.240    57.914    86.505    72.929    66.030    81.231
    76.304    62.272    44.952    58.050    71.434    74.407    93.149   125.279
   141.514   128.029   120.844   112.307    91.887    43.861    50.096    31.870
    12.788     8.552   -16.207   -18.787   -30.187   -94.251  -156.223  -177.826
  -224.204  -205.984  -161.914  -136.570  -122.938   -91.892   -33.006   -35.395
   -64.360   -62.443   -49.430   -31.650   -15.671   -14.766   -34.315   -16.141
     9.535    19.534    28.244    21.901    13.635    -1.475     -.765    16.446
    28.261    30.304    38.246    73.121    80.254    72.050    66.425    55.814
    29.541   -44.523   -79.026   -53.670   -29.111    16.002    48.116    32.222
    26.075    27.222    25.107    26.378    13.856     7.199     -.768   -18.722
   -12.852      .385    32.564    47.996    34.734    15.826    -4.034    -5.763
     7.492    13.085    13.118    10.862     4.881   -13.186   -47.044   -58.232
   -57.794   -60.670   -53.993   -18.935     7.958   -14.828   -18.278     7.280
     3.625   -24.517   -36.671   -26.700   -11.754    17.360    14.730    25.756
    41.666    11.736    23.341    13.253    18.981    19.595    -3.985   -18.001
   -50.591   -53.594   -38.538   -18.810   -16.818   -28.339   -15.450    -9.546
   -13.073    13.130     3.715     1.612    -8.062     3.448    -4.504    -4.786
      .393    12.641    23.867    16.649    35.288    29.376    45.774    23.977
     -.044   -23.689   -12.927   -12.736   -11.350    -8.510   -13.067    -6.262
     2.694     6.938     7.312    16.743    13.595    14.074    20.106    21.258
    20.838    27.863    29.875    23.036     7.520   -12.649    -8.273     4.153
     6.786      .721    -9.195    -5.185    -9.558    -3.043     5.043     9.086
    11.735    17.001     3.414    -4.013      .700    -4.214    -7.667   -16.003
   -10.078     3.924     4.148    -8.063    -7.413   -10.455   -10.106    -6.198
   -15.417   -17.841   -25.731   -20.271    -8.886    12.986    14.815     2.690
      .086    -7.496    -3.135     7.023    15.644    11.738      .968      .574
     7.817    11.225     2.452     -.045    13.617     9.174     6.601     1.735
     1.043    13.170     9.150     -.725     1.116    10.068    13.825    13.543
    10.593     7.279     1.722    -1.991     -.424     6.973    18.936    25.691
    19.356    15.901    13.910     8.950    12.263     6.822    -1.424    -8.608
   -12.367    -6.277    -8.124   -14.027   -14.561    -9.112    -6.849    -1.858
     -.618      .512     -.548    -2.215    -5.133    -7.462    -2.835      .259
    -2.583    -3.356    11.408     8.248     2.314    -2.605    -2.467     4.622
     2.704     -.081      .055     4.181     7.424     2.505     1.117     1.146
    -7.374    -7.302   -10.704    -6.535    -1.191    -6.486      .391     3.487
    -1.017     3.862    10.223     3.171     2.227    -3.697    -6.558    -2.372
     5.684     6.225      .799     -.293     1.217    -1.005    -3.902    -6.343
    -8.408    -4.559    -5.024    -7.955    -4.865    -3.372    -7.190    -6.066
    -3.204    -2.282   -19.185   -23.780   -11.170    -5.990    -7.972    -4.063
     1.112     -.535    -1.751      .063    -1.347   -10.277   -10.816   -12.788
    -7.570    -3.898    -2.269    -2.019    -4.910     -.145     5.027     7.427
     4.147     4.509     2.081     1.997     1.141    -1.080      .682    -3.934
    -4.989     -.825     6.385     4.682     4.317     2.695     -.256    -3.364
    -4.017    -1.188     1.309     3.273      .972     3.491     7.308     9.564
     8.950     8.120     5.919     6.521     7.724     8.583     8.254    10.479
     8.408      .211    -6.959   -10.904   -13.132   -13.911   -13.093    -6.327
     1.152     1.125    -7.682   -20.652   -18.360   -13.436    -1.554    12.422
    12.235     8.583      .165    -2.376    -8.959    -4.909     2.309     4.030
     5.274     9.624    10.842     9.017     8.963     3.450     4.466     9.201
    10.961     2.893    -1.880     -.855     4.069     6.851     1.859    -1.938
    -2.668      .637     4.060    -1.167    -1.984    -4.572    -7.376     1.696
     2.199    -1.028    -1.137    -1.415     -.327     2.390    -4.742    -6.842
    -5.518    -1.765     -.600    -6.526    -2.266      .396     2.760    -2.809
    -4.004    -5.110    -5.748    -6.354    -5.451    -4.973    -6.821    -8.871
    -8.021    -5.410    -5.266    -1.620    -2.641     1.117     1.694     2.859
     2.566     3.913     1.577    -4.430    -5.847    -2.839     -.435     2.615
     2.952     1.496      .878    -1.538     2.183     1.655     3.870     -.105
    -4.033    -7.110    -5.935    -1.895    -6.012     -.319    -1.965      .072
     1.697    -5.595    -7.832    -6.498    -5.001    -4.576    -2.364     5.241
     1.494    -1.984    -6.915    -6.196    -7.224    -4.565    -6.932    -7.503
     -.561   -11.179    32.312    21.604     9.631    11.347     6.978     5.666
     1.291     -.800    -3.294      .640    -1.943      .861     -.927     -.835
    -4.612    -2.534    -3.282     -.837     -.423      .927     -.624     -.126
     3.521     7.425     6.671     7.489    10.488    16.634    15.709     5.959
     1.119     4.889     4.893     1.575     -.762      .276     1.763     3.971
      .183    -3.466    -2.390    -2.999    -3.025    -2.313     1.241     3.548
     3.372     5.510     4.732     1.792    -1.343      .945      .032    -4.658
    -7.219    -2.584     1.342     -.298     3.828     -.731    -3.357    -3.951
    -3.216    -2.242    -1.144     1.503     1.723     5.363    -2.239     -.360
    -1.832     1.180     2.198     1.335      .010    -1.125    -3.378    -5.063
    -4.189    -5.525    -1.667    -3.950    -4.378    -1.702    -2.966    -4.425
    -6.984    -4.462    -2.737    -2.938      .001    -5.309    -3.339    -3.904
    -1.099      .494    -2.343     1.264     -.602      .192     2.314     4.595
     2.220     3.059     6.110     5.437     4.658     5.132     3.007     3.872
     7.700    11.601     8.214     6.631     7.442     6.343     6.158     6.425
     6.577     5.791     5.715     4.959     5.562     5.022     5.339     1.889
     5.289     7.030     5.591     5.589      .588     1.984     2.145    -1.917
    -1.842    -1.225    -4.189    -2.766    -1.271      .108    -2.135     -.283
    -3.161    -3.182      .643     -.477    -1.639    -4.863      .665     3.951
     2.870     1.607     2.287     1.889     1.027    -4.546    -2.565     -.470
     2.304     2.411     1.623     1.554    -2.414     1.373     3.202     7.086
     9.079     4.453     2.227     2.419     3.076     2.436     3.980     -.036
     -.636    -1.909    -3.087    -3.947    -3.525    -1.300     -.889     -.506
    -2.501      .220     -.177      .404      .845    -2.089    -1.702    -1.197
    -2.630     -.982    -1.512    -2.581    -2.335    -1.906      .256    -1.111
    -1.356    -2.485     -.187    -2.056    -5.155    -3.656    -6.522    -3.524
    -6.313    -3.945    -2.995      .122    -1.521    -1.226    -4.033    -2.673
    -4.816    -3.270      .208    -1.175     -.701    -5.509    -2.522    -3.214
     -.800    -1.567      .917      .582     1.898     1.081    -2.036    -2.192
    -2.306    -2.094    -2.132    -2.095    -2.422    -5.217    -3.863    -4.702
    -3.560    -5.341    -3.942    -2.752    -4.031    -1.234    -3.653    -2.693
    -1.264     -.720    -1.455    -4.289    -4.163     -.781     -.325    -1.606
    -3.592    -4.230     -.103     -.138     1.624     3.088     1.126     -.116
     1.490     5.523     2.046     -.639     2.650    -1.203     4.326     5.869
     2.554     2.782     3.652     9.632     2.886     2.525     2.193     2.476
     1.869     6.042     4.766     4.062     2.093     2.098      .841      .859
     2.339      .527      .684    -3.208    -1.234    -3.347    -1.773    -1.139
     -.206     -.932     -.970     -.862    -1.276     -.203    -4.713    -6.117
    -4.955      .563    -3.205     -.969      .617      .491     -.321    -2.222
    -1.488    -1.402    -1.364     -.004     1.720    -1.684     -.696    -3.539
     -.354    -3.701     -.326     -.650     -.847    -3.655    -3.306    -2.854
     -.292     -.309     -.045     -.695      .980     2.890     -.622     1.089
     -.696     -.605     -.320     2.833     4.637     5.382     4.488     4.370
     2.931     3.026      .777     2.839     1.577     2.071     1.731      .189
      .626     -.383    -1.205    -1.810    -2.533    -2.106    -1.127    -2.764
      .625     -.589     1.508    -3.372    -1.132    -2.552    -2.092    -1.465
    -2.351      .326     -.094      .456    -1.588      .052     1.283     4.147
     2.681     2.323      .953     3.651     3.570     2.543     1.794     1.773
     2.827     3.112     3.560     4.254     2.679     -.360    -8.269   -11.394
   -10.828   -14.762    -9.466    -1.695     4.373    -2.898    -4.745    -3.911
    -1.997     2.322      .286    -1.804    -4.100    -1.594    -6.298    -3.951
    -2.869    -2.869     -.404    -1.144     -.778      .617     1.605     1.595
     1.795      .176    -1.587      .862     1.914     1.256      .258     4.026
     3.891     3.421     5.477     3.547     5.470     4.397     2.564      .674
      .651     1.676     1.396      .580     1.224     1.993     2.198    -2.316
      .017      .490     -.382     -.726     -.670    -1.224    -2.282    -3.255
    -2.753    -2.501    -2.402      .951     -.727     1.528     -.454     1.668
     -.943     -.758     -.270    -1.477      .342     -.413     2.119      .581
      .538      .013     -.676    -1.074     -.746      .122      .375     1.735
     2.525     1.560     1.681     1.760     1.212     1.574     1.956     2.165
     2.796     1.124     2.244      .785      .706     1.820     1.922     3.491
     1.845      .502    -1.919     -.963     -.337      .811     1.284     2.195
     2.754     4.667     5.590     4.393     4.220     2.347     2.854     2.234
     2.724     3.377     3.204     1.320     2.910     2.638     1.054     2.192
     1.117     3.420     -.196    -1.200     -.108     -.300     -.923    -1.278
    -2.407     -.279    -1.775    -2.318     -.499    -3.570     -.890    -2.172
    -2.008    -3.408    -2.288     -.848     -.719     -.958     -.546    -1.835
     -.306      .152    -2.027    -1.338    -1.793     -.924     1.361     2.132
     1.624     2.066     1.128     1.042     1.688     2.759     2.137     1.543
     2.027     1.585      .542     2.104     1.945     1.627     3.536     2.464
     3.093     3.743     3.971     4.047     2.298      .476     2.524     1.161
     -.249     1.196    -1.264      .553     -.375     -.978     -.929     -.849
    -1.294    -2.458    -1.736    -1.558     -.979    -1.171     -.197     -.957
     -.842     -.707    -1.568    -1.390    -1.319    -1.640    -2.164    -1.367
    -3.711    -1.441    -3.551    -2.639    -2.497    -3.589    -2.793    -3.784
    -3.193    -3.280    -2.473    -3.671    -3.719    -5.141    -3.666    -1.606
     -.379    -1.135     -.533    -2.717     -.143    -1.988    -3.309    -2.800
    -2.752    -1.431    -3.131    -1.317    -1.758    -1.837    -2.388    -3.167
    -2.675    -2.602    -1.942    -2.112    -1.628    -1.315     -.976    -1.045
    -1.826     -.881    -1.713    -2.161    -2.308    -2.170    -3.167     -.577
    -2.284     -.545     -.632    -2.256    -2.414    -2.616    -2.518    -1.180
    -1.246    -1.751    -1.429    -1.572     -.093    -1.340      .726      .430
      .467      .181      .599     -.093     1.266     2.842     1.906     2.806
     1.167     1.381     2.651     2.461     2.831     2.394     3.361     2.353
     3.489     1.294      .905     2.173     1.302     1.700     1.880     2.991
     3.036     3.423     3.727     2.830     2.158     2.220     2.770     2.088
     2.238     2.406     3.353     1.922     1.103      .954     1.036     2.002
     3.244     2.567     1.906     2.731     2.195     3.241     1.918     1.265
     2.858     3.437     2.203     4.176
