Response and Fourier amplitude spectra (80 periods,  .04 -  7.0 sec)   for      
Corrected accelerogram   24207-M0150-08211.01       Chan  5:  Radl       from   
Uncorrected Accelerogram Data             Processed: 08/04/08, CDMG  CE24207D   
Record of Tue Jul 29, 2008 11:42:12.0 PDT             (Avol1 v7.9 7/08 CSMIP)   
CSMIP Preliminary Processing            (Origin:  To be determined)             
24207-M0150-08211.01                 Start time:  7/29/08, 18:42:12.0 UTC (GPS) 
Station No. 24207   34.334N, 118.396W    MtWtny  s/n  150 (17 Channels)         
Sylmar - Pacoima Dam                      CGS                                   
Chan  5:  Radl                      Location: Crest: Left 1/4-length Point      
Record of Tue Jul 29, 2008 11:42:12.0 PDT    Tue Jul 29, 2008 11:42:12.0 PDT    
Hypocenter:  To be determined.               ML:  To be determined.
Instr Period =  .0200 sec,  Damping =  .700,  Sensitivity =  .63  v/g  (Nominal)
                        Record length = 59.000 sec.
                                     Uncor Max  =  -.043 g , at  27.910 sec.
RMS accel of (uncor) record  =        .   Chn. metadata effective date: 01/01/04
Accelerogram bandpass filtered with 3 dB pts at   .14 and 40.00 cyc/sec
                 instrument- and baseline-corrected





Record of Tue Jul 29, 2008 11:42:12.0 PDT    Tue Jul 29, 2008 11:42:12.0 PDT

24207-M0150-08211.01      Sylmar - Pacoima Dam    Chan  5:  Radl

24207-M0150-08211.01      Sylmar - Pacoima Dam    Chan  5:  Radl

Units for spectra are inches and sec, except Sa is in fraction of g.

    5  100    5   18   17  200    1    3    1   24   13  150    024207    5    0
   18   42   12    0  211    7   29 2008   10    3  70011800   41   20   76   -1
11800    0   50    3  150    1    1  590    2    0    0    0    0    0    0    0
    0    4    0    011800    1  220    1   18    4   76   20    1    1    011800
    311800   21   80    5   17    5    0    0    0   17    0    0    3    0    2
    2    2    4    0   68   99    0   32   32    0    1    1    0    0    0    0
    1    1   25    0
      .020      .700    59.000      .004      .000   625.000     -.043    27.910
    50.000      .298      .477      .000     5.000      .000     4.000      .000
     2.500   -10.686     2.500  2016.000    25.000    30.000      .000      .006
     -.005     -.010     2.000    15.000    34.334  -118.396      .018      .687
    39.075      .000      .000   594.000    25.500    28.800    12.700   119.840
     1.000    -1.167      .000      .000      .000      .000      .000      .000
     4.200     7.900     4.600   980.665      .005    59.000     7.958      .000
      .000    40.000      .000    59.000      .005      .143      .000      .000
    27.905   -42.446    27.470    -1.490    27.545     -.098      .000      .143
    40.000      .005      .005      .001      .005      .045      .000      .000
      .183      .240      .160      .097      .008      .001      .000      .000
      .000      .000      .000      .000      .000      .000      .000      .000
      .000      .000      .000      .000
      .000      .020      .050      .100      .200
      .040      .042      .044      .046      .048      .050      .055      .060
      .065      .070      .075      .080      .085      .090      .095      .100
      .110      .120      .130      .140      .150      .160      .170      .180
      .190      .200      .220      .240      .260      .280      .300      .320
      .340      .360      .380      .400      .420      .440      .460      .480
      .500      .550      .600      .650      .700      .750      .800      .850
      .900      .950     1.000     1.100     1.200     1.300     1.400     1.500
     1.600     1.700     1.800     1.900     2.000     2.200     2.400     2.600
     2.800     3.000     3.200     3.400     3.600     3.800     4.000     4.200
     4.400     4.600     4.800     5.000     5.500     6.000     6.500     7.000
      .000      .000      .000      .000      .000      .000      .000      .000
      .000      .000      .000      .000      .000      .000      .000      .000
      .000      .000      .000      .000
Fourier amplitude spectra in in/sec.
  .878E-01  .588E-01  .140E+00  .135E+00  .218E+00  .173E+00  .849E-01  .375E+00
  .620E+00  .400E+00  .471E+00  .667E+00  .895E+00  .818E+00  .737E+00  .718E+00
  .340E+00  .105E+01  .862E+00  .100E+01  .716E+00  .137E+01  .249E+01  .427E+01
  .541E+01  .610E+01  .363E+01  .496E+01  .457E+01  .456E+01  .187E+01  .998E+00
  .130E+01  .866E+00  .781E+00  .105E+01  .132E+01  .168E+01  .135E+01  .939E+00
  .193E+01  .228E+00  .146E+01  .369E+00  .904E+00  .765E+00  .678E+00  .832E+00
  .129E+00  .103E+01  .677E+00  .397E+00  .566E+00  .303E+00  .383E+00  .144E+00
  .528E+00  .580E+00  .102E+00  .173E+00  .333E+00  .142E+00  .566E-01  .372E-01
  .130E+00  .181E+00  .150E+00  .143E+00  .132E+00  .192E+00  .151E+00  .994E-01
  .912E-01  .842E-01  .667E-01  .506E-01  .679E-01  .544E-01  .350E-01  .250E-01
  .000E+00  .000E+00  .000E+00  .000E+00  .000E+00  .000E+00  .000E+00  .000E+00
  .000E+00  .000E+00  .000E+00  .000E+00  .000E+00  .000E+00  .000E+00  .000E+00
  .000E+00  .000E+00  .000E+00  .000E+00
Damping =  .00. Data of Sd,Sv,Sa,Pssv,ttSd,ttSv,ttSa :
  .124E-02  .989E-03  .178E-02  .154E-02  .232E-02  .210E-02  .345E-02  .553E-02
  .707E-02  .644E-02  .580E-02  .999E-02  .124E-01  .211E-01  .215E-01  .206E-01
  .217E-01  .410E-01  .200E-01  .252E-01  .263E-01  .540E-01  .837E-01  .149E+00
  .216E+00  .227E+00  .132E+00  .271E+00  .195E+00  .221E+00  .147E+00  .107E+00
  .103E+00  .605E-01  .774E-01  .924E-01  .130E+00  .141E+00  .116E+00  .119E+00
  .170E+00  .700E-01  .177E+00  .108E+00  .127E+00  .112E+00  .867E-01  .130E+00
  .113E+00  .171E+00  .138E+00  .893E-01  .129E+00  .655E-01  .126E+00  .999E-01
  .150E+00  .158E+00  .792E-01  .867E-01  .108E+00  .746E-01  .764E-01  .550E-01
  .589E-01  .904E-01  .929E-01  .100E+00  .963E-01  .116E+00  .105E+00  .841E-01
  .759E-01  .708E-01  .686E-01  .694E-01  .689E-01  .635E-01  .514E-01  .424E-01
  .000E+00  .000E+00  .000E+00  .000E+00  .000E+00  .000E+00  .000E+00  .000E+00
  .000E+00  .000E+00  .000E+00  .000E+00  .000E+00  .000E+00  .000E+00  .000E+00
  .000E+00  .000E+00  .000E+00  .000E+00
  .111E+00  .645E-01  .199E+00  .147E+00  .239E+00  .245E+00  .270E+00  .441E+00
  .669E+00  .552E+00  .483E+00  .732E+00  .907E+00  .142E+01  .132E+01  .127E+01
  .112E+01  .196E+01  .931E+00  .111E+01  .998E+00  .201E+01  .297E+01  .515E+01
  .712E+01  .715E+01  .380E+01  .722E+01  .474E+01  .497E+01  .316E+01  .235E+01
  .217E+01  .121E+01  .141E+01  .145E+01  .203E+01  .239E+01  .179E+01  .166E+01
  .214E+01  .932E+00  .191E+01  .121E+01  .127E+01  .110E+01  .927E+00  .101E+01
  .977E+00  .114E+01  .105E+01  .102E+01  .757E+00  .624E+00  .665E+00  .560E+00
  .647E+00  .711E+00  .715E+00  .737E+00  .678E+00  .625E+00  .664E+00  .658E+00
  .636E+00  .632E+00  .625E+00  .613E+00  .605E+00  .604E+00  .599E+00  .596E+00
  .595E+00  .591E+00  .585E+00  .582E+00  .586E+00  .586E+00  .587E+00  .587E+00
  .000E+00  .000E+00  .000E+00  .000E+00  .000E+00  .000E+00  .000E+00  .000E+00
  .000E+00  .000E+00  .000E+00  .000E+00  .000E+00  .000E+00  .000E+00  .000E+00
  .000E+00  .000E+00  .000E+00  .000E+00
  .796E-01  .574E-01  .940E-01  .743E-01  .103E+00  .859E-01  .116E+00  .157E+00
  .171E+00  .134E+00  .105E+00  .160E+00  .175E+00  .267E+00  .243E+00  .210E+00
  .184E+00  .291E+00  .121E+00  .131E+00  .120E+00  .216E+00  .296E+00  .469E+00
  .611E+00  .580E+00  .279E+00  .481E+00  .296E+00  .288E+00  .167E+00  .107E+00
  .913E-01  .477E-01  .548E-01  .591E-01  .752E-01  .745E-01  .560E-01  .528E-01
  .696E-01  .237E-01  .502E-01  .261E-01  .266E-01  .203E-01  .138E-01  .184E-01
  .142E-01  .193E-01  .141E-01  .755E-02  .913E-02  .396E-02  .659E-02  .454E-02
  .600E-02  .559E-02  .250E-02  .246E-02  .276E-02  .158E-02  .136E-02  .832E-03
  .769E-03  .103E-02  .928E-03  .886E-03  .760E-03  .824E-03  .669E-03  .487E-03
  .401E-03  .342E-03  .305E-03  .284E-03  .233E-03  .181E-03  .124E-03  .884E-04
  .000E+00  .000E+00  .000E+00  .000E+00  .000E+00  .000E+00  .000E+00  .000E+00
  .000E+00  .000E+00  .000E+00  .000E+00  .000E+00  .000E+00  .000E+00  .000E+00
  .000E+00  .000E+00  .000E+00  .000E+00
  .196E+00  .148E+00  .254E+00  .210E+00  .304E+00  .264E+00  .394E+00  .579E+00
  .683E+00  .578E+00  .486E+00  .785E+00  .913E+00  .147E+01  .142E+01  .129E+01
  .124E+01  .215E+01  .969E+00  .113E+01  .110E+01  .212E+01  .309E+01  .519E+01
  .714E+01  .713E+01  .377E+01  .709E+01  .472E+01  .496E+01  .308E+01  .210E+01
  .191E+01  .106E+01  .128E+01  .145E+01  .194E+01  .201E+01  .158E+01  .156E+01
  .214E+01  .800E+00  .185E+01  .104E+01  .114E+01  .936E+00  .681E+00  .960E+00
  .788E+00  .113E+01  .866E+00  .510E+00  .673E+00  .316E+00  .567E+00  .418E+00
  .590E+00  .584E+00  .277E+00  .287E+00  .340E+00  .213E+00  .200E+00  .133E+00
  .132E+00  .189E+00  .182E+00  .185E+00  .168E+00  .192E+00  .164E+00  .126E+00
  .108E+00  .967E-01  .898E-01  .873E-01  .787E-01  .665E-01  .497E-01  .380E-01
  .000E+00  .000E+00  .000E+00  .000E+00  .000E+00  .000E+00  .000E+00  .000E+00
  .000E+00  .000E+00  .000E+00  .000E+00  .000E+00  .000E+00  .000E+00  .000E+00
  .000E+00  .000E+00  .000E+00  .000E+00
  .279E+02  .279E+02  .279E+02  .253E+02  .279E+02  .293E+02  .279E+02  .279E+02
  .296E+02  .328E+02  .484E+02  .280E+02  .535E+02  .279E+02  .265E+02  .296E+02
  .254E+02  .275E+02  .306E+02  .362E+02  .280E+02  .264E+02  .255E+02  .346E+02
  .360E+02  .338E+02  .298E+02  .282E+02  .398E+02  .411E+02  .287E+02  .277E+02
  .278E+02  .295E+02  .294E+02  .426E+02  .328E+02  .276E+02  .277E+02  .386E+02
  .477E+02  .305E+02  .391E+02  .293E+02  .326E+02  .349E+02  .579E+02  .346E+02
  .279E+02  .485E+02  .335E+02  .403E+02  .466E+02  .561E+02  .419E+02  .339E+02
  .455E+02  .574E+02  .308E+02  .275E+02  .485E+02  .275E+02  .275E+02  .275E+02
  .575E+02  .557E+02  .396E+02  .370E+02  .356E+02  .568E+02  .558E+02  .465E+02
  .364E+02  .364E+02  .364E+02  .346E+02  .350E+02  .559E+02  .350E+02  .328E+02
  .000E+00  .000E+00  .000E+00  .000E+00  .000E+00  .000E+00  .000E+00  .000E+00
  .000E+00  .000E+00  .000E+00  .000E+00  .000E+00  .000E+00  .000E+00  .000E+00
  .000E+00  .000E+00  .000E+00  .000E+00
  .292E+02  .340E+02  .288E+02  .259E+02  .397E+02  .313E+02  .279E+02  .281E+02
  .296E+02  .341E+02  .488E+02  .396E+02  .538E+02  .276E+02  .263E+02  .296E+02
  .253E+02  .275E+02  .305E+02  .362E+02  .335E+02  .263E+02  .256E+02  .345E+02
  .360E+02  .339E+02  .299E+02  .281E+02  .397E+02  .412E+02  .288E+02  .277E+02
  .278E+02  .277E+02  .293E+02  .425E+02  .329E+02  .277E+02  .276E+02  .275E+02
  .468E+02  .277E+02  .396E+02  .289E+02  .279E+02  .279E+02  .276E+02  .348E+02
  .276E+02  .478E+02  .278E+02  .275E+02  .275E+02  .279E+02  .276E+02  .276E+02
  .276E+02  .276E+02  .278E+02  .278E+02  .278E+02  .278E+02  .275E+02  .275E+02
  .275E+02  .275E+02  .275E+02  .275E+02  .275E+02  .275E+02  .275E+02  .275E+02
  .275E+02  .275E+02  .275E+02  .275E+02  .275E+02  .275E+02  .275E+02  .275E+02
  .000E+00  .000E+00  .000E+00  .000E+00  .000E+00  .000E+00  .000E+00  .000E+00
  .000E+00  .000E+00  .000E+00  .000E+00  .000E+00  .000E+00  .000E+00  .000E+00
  .000E+00  .000E+00  .000E+00  .000E+00
  .279E+02  .279E+02  .279E+02  .253E+02  .279E+02  .293E+02  .279E+02  .279E+02
  .296E+02  .328E+02  .484E+02  .280E+02  .535E+02  .279E+02  .265E+02  .296E+02
  .254E+02  .275E+02  .306E+02  .362E+02  .280E+02  .264E+02  .255E+02  .346E+02
  .360E+02  .338E+02  .298E+02  .282E+02  .398E+02  .411E+02  .287E+02  .277E+02
  .278E+02  .295E+02  .294E+02  .426E+02  .328E+02  .276E+02  .277E+02  .386E+02
  .477E+02  .305E+02  .391E+02  .293E+02  .326E+02  .349E+02  .579E+02  .346E+02
  .279E+02  .485E+02  .335E+02  .403E+02  .466E+02  .561E+02  .419E+02  .339E+02
  .455E+02  .574E+02  .308E+02  .275E+02  .485E+02  .275E+02  .275E+02  .275E+02
  .575E+02  .557E+02  .396E+02  .370E+02  .356E+02  .568E+02  .558E+02  .465E+02
  .364E+02  .364E+02  .364E+02  .346E+02  .350E+02  .559E+02  .350E+02  .328E+02
  .000E+00  .000E+00  .000E+00  .000E+00  .000E+00  .000E+00  .000E+00  .000E+00
  .000E+00  .000E+00  .000E+00  .000E+00  .000E+00  .000E+00  .000E+00  .000E+00
  .000E+00  .000E+00  .000E+00  .000E+00
Damping =  .02. Data of Sd,Sv,Sa,Pssv,ttSd,ttSv,ttSa :
  .799E-03  .944E-03  .101E-02  .103E-02  .115E-02  .115E-02  .197E-02  .232E-02
  .253E-02  .305E-02  .349E-02  .449E-02  .675E-02  .785E-02  .141E-01  .114E-01
  .967E-02  .178E-01  .162E-01  .160E-01  .236E-01  .349E-01  .457E-01  .615E-01
  .104E+00  .941E-01  .848E-01  .160E+00  .115E+00  .105E+00  .108E+00  .882E-01
  .817E-01  .642E-01  .622E-01  .682E-01  .722E-01  .102E+00  .971E-01  .694E-01
  .537E-01  .570E-01  .889E-01  .979E-01  .948E-01  .791E-01  .795E-01  .791E-01
  .977E-01  .980E-01  .998E-01  .715E-01  .731E-01  .619E-01  .702E-01  .783E-01
  .900E-01  .878E-01  .696E-01  .774E-01  .786E-01  .730E-01  .719E-01  .563E-01
  .492E-01  .581E-01  .733E-01  .842E-01  .863E-01  .860E-01  .794E-01  .723E-01
  .683E-01  .656E-01  .628E-01  .644E-01  .636E-01  .587E-01  .501E-01  .420E-01
  .000E+00  .000E+00  .000E+00  .000E+00  .000E+00  .000E+00  .000E+00  .000E+00
  .000E+00  .000E+00  .000E+00  .000E+00  .000E+00  .000E+00  .000E+00  .000E+00
  .000E+00  .000E+00  .000E+00  .000E+00
  .312E-01  .422E-01  .543E-01  .596E-01  .609E-01  .702E-01  .104E+00  .133E+00
  .140E+00  .188E+00  .215E+00  .271E+00  .448E+00  .467E+00  .877E+00  .705E+00
  .551E+00  .780E+00  .713E+00  .594E+00  .920E+00  .119E+01  .150E+01  .204E+01
  .335E+01  .298E+01  .238E+01  .430E+01  .280E+01  .258E+01  .252E+01  .195E+01
  .173E+01  .136E+01  .123E+01  .118E+01  .134E+01  .176E+01  .157E+01  .120E+01
  .869E+00  .913E+00  .113E+01  .112E+01  .121E+01  .109E+01  .950E+00  .932E+00
  .939E+00  .843E+00  .927E+00  .950E+00  .743E+00  .595E+00  .616E+00  .584E+00
  .635E+00  .685E+00  .686E+00  .700E+00  .665E+00  .617E+00  .646E+00  .648E+00
  .633E+00  .628E+00  .621E+00  .612E+00  .605E+00  .602E+00  .598E+00  .595E+00
  .593E+00  .590E+00  .586E+00  .584E+00  .585E+00  .586E+00  .586E+00  .587E+00
  .000E+00  .000E+00  .000E+00  .000E+00  .000E+00  .000E+00  .000E+00  .000E+00
  .000E+00  .000E+00  .000E+00  .000E+00  .000E+00  .000E+00  .000E+00  .000E+00
  .000E+00  .000E+00  .000E+00  .000E+00
  .511E-01  .548E-01  .531E-01  .498E-01  .511E-01  .473E-01  .664E-01  .658E-01
  .610E-01  .639E-01  .635E-01  .716E-01  .957E-01  .987E-01  .161E+00  .117E+00
  .816E-01  .127E+00  .980E-01  .835E-01  .107E+00  .139E+00  .162E+00  .194E+00
  .294E+00  .241E+00  .180E+00  .284E+00  .175E+00  .138E+00  .123E+00  .881E-01
  .723E-01  .507E-01  .441E-01  .436E-01  .419E-01  .540E-01  .470E-01  .308E-01
  .220E-01  .193E-01  .253E-01  .237E-01  .198E-01  .144E-01  .127E-01  .112E-01
  .124E-01  .111E-01  .102E-01  .605E-02  .519E-02  .376E-02  .367E-02  .357E-02
  .360E-02  .312E-02  .224E-02  .222E-02  .203E-02  .157E-02  .130E-02  .876E-03
  .666E-03  .664E-03  .733E-03  .748E-03  .684E-03  .614E-03  .513E-03  .425E-03
  .366E-03  .322E-03  .284E-03  .270E-03  .220E-03  .172E-03  .126E-03  .107E-03
  .000E+00  .000E+00  .000E+00  .000E+00  .000E+00  .000E+00  .000E+00  .000E+00
  .000E+00  .000E+00  .000E+00  .000E+00  .000E+00  .000E+00  .000E+00  .000E+00
  .000E+00  .000E+00  .000E+00  .000E+00
  .126E+00  .141E+00  .144E+00  .141E+00  .151E+00  .145E+00  .225E+00  .243E+00
  .244E+00  .274E+00  .293E+00  .353E+00  .499E+00  .548E+00  .935E+00  .717E+00
  .553E+00  .932E+00  .785E+00  .717E+00  .989E+00  .137E+01  .169E+01  .215E+01
  .343E+01  .296E+01  .242E+01  .419E+01  .279E+01  .237E+01  .226E+01  .173E+01
  .151E+01  .112E+01  .103E+01  .107E+01  .108E+01  .146E+01  .133E+01  .908E+00
  .674E+00  .651E+00  .931E+00  .946E+00  .851E+00  .663E+00  .624E+00  .585E+00
  .682E+00  .648E+00  .627E+00  .408E+00  .383E+00  .299E+00  .315E+00  .328E+00
  .353E+00  .325E+00  .243E+00  .256E+00  .247E+00  .209E+00  .188E+00  .136E+00
  .110E+00  .122E+00  .144E+00  .156E+00  .151E+00  .142E+00  .125E+00  .108E+00
  .975E-01  .896E-01  .823E-01  .810E-01  .727E-01  .615E-01  .484E-01  .377E-01
  .000E+00  .000E+00  .000E+00  .000E+00  .000E+00  .000E+00  .000E+00  .000E+00
  .000E+00  .000E+00  .000E+00  .000E+00  .000E+00  .000E+00  .000E+00  .000E+00
  .000E+00  .000E+00  .000E+00  .000E+00
  .279E+02  .279E+02  .279E+02  .279E+02  .279E+02  .279E+02  .279E+02  .279E+02
  .279E+02  .253E+02  .279E+02  .264E+02  .263E+02  .274E+02  .281E+02  .282E+02
  .283E+02  .275E+02  .283E+02  .279E+02  .280E+02  .254E+02  .255E+02  .265E+02
  .265E+02  .266E+02  .282E+02  .281E+02  .297E+02  .280E+02  .279E+02  .278E+02
  .278E+02  .278E+02  .294E+02  .292E+02  .291E+02  .276E+02  .277E+02  .266E+02
  .291E+02  .291E+02  .289E+02  .290E+02  .285E+02  .285E+02  .279E+02  .279E+02
  .279E+02  .275E+02  .275E+02  .272E+02  .268E+02  .269E+02  .322E+02  .323E+02
  .318E+02  .396E+02  .279E+02  .275E+02  .275E+02  .275E+02  .275E+02  .275E+02
  .275E+02  .396E+02  .367E+02  .370E+02  .356E+02  .356E+02  .358E+02  .358E+02
  .362E+02  .364E+02  .364E+02  .346E+02  .350E+02  .350E+02  .350E+02  .350E+02
  .000E+00  .000E+00  .000E+00  .000E+00  .000E+00  .000E+00  .000E+00  .000E+00
  .000E+00  .000E+00  .000E+00  .000E+00  .000E+00  .000E+00  .000E+00  .000E+00
  .000E+00  .000E+00  .000E+00  .000E+00
  .279E+02  .281E+02  .271E+02  .271E+02  .271E+02  .255E+02  .261E+02  .262E+02
  .279E+02  .262E+02  .262E+02  .264E+02  .264E+02  .275E+02  .281E+02  .282E+02
  .282E+02  .275E+02  .284E+02  .280E+02  .260E+02  .254E+02  .255E+02  .263E+02
  .265E+02  .266E+02  .282E+02  .281E+02  .296E+02  .281E+02  .279E+02  .278E+02
  .278E+02  .277E+02  .277E+02  .293E+02  .277E+02  .277E+02  .276E+02  .276E+02
  .265E+02  .277E+02  .290E+02  .276E+02  .279E+02  .276E+02  .276E+02  .276E+02
  .276E+02  .276E+02  .275E+02  .275E+02  .275E+02  .279E+02  .276E+02  .276E+02
  .276E+02  .276E+02  .276E+02  .278E+02  .278E+02  .278E+02  .275E+02  .275E+02
  .275E+02  .275E+02  .275E+02  .275E+02  .275E+02  .275E+02  .275E+02  .275E+02
  .275E+02  .275E+02  .275E+02  .275E+02  .275E+02  .275E+02  .275E+02  .275E+02
  .000E+00  .000E+00  .000E+00  .000E+00  .000E+00  .000E+00  .000E+00  .000E+00
  .000E+00  .000E+00  .000E+00  .000E+00  .000E+00  .000E+00  .000E+00  .000E+00
  .000E+00  .000E+00  .000E+00  .000E+00
  .279E+02  .279E+02  .279E+02  .279E+02  .279E+02  .279E+02  .279E+02  .279E+02
  .279E+02  .253E+02  .279E+02  .264E+02  .263E+02  .274E+02  .281E+02  .282E+02
  .282E+02  .275E+02  .283E+02  .279E+02  .280E+02  .254E+02  .255E+02  .265E+02
  .265E+02  .266E+02  .282E+02  .281E+02  .297E+02  .280E+02  .279E+02  .278E+02
  .278E+02  .278E+02  .294E+02  .292E+02  .291E+02  .276E+02  .277E+02  .266E+02
  .291E+02  .291E+02  .289E+02  .290E+02  .284E+02  .285E+02  .279E+02  .279E+02
  .279E+02  .275E+02  .275E+02  .272E+02  .268E+02  .269E+02  .321E+02  .323E+02
  .318E+02  .396E+02  .279E+02  .275E+02  .275E+02  .275E+02  .275E+02  .275E+02
  .275E+02  .396E+02  .367E+02  .370E+02  .356E+02  .356E+02  .358E+02  .358E+02
  .361E+02  .363E+02  .363E+02  .346E+02  .350E+02  .350E+02  .350E+02  .275E+02
  .000E+00  .000E+00  .000E+00  .000E+00  .000E+00  .000E+00  .000E+00  .000E+00
  .000E+00  .000E+00  .000E+00  .000E+00  .000E+00  .000E+00  .000E+00  .000E+00
  .000E+00  .000E+00  .000E+00  .000E+00
Damping =  .05. Data of Sd,Sv,Sa,Pssv,ttSd,ttSv,ttSa :
  .778E-03  .883E-03  .960E-03  .103E-02  .112E-02  .121E-02  .167E-02  .211E-02
  .239E-02  .257E-02  .315E-02  .391E-02  .501E-02  .694E-02  .923E-02  .861E-02
  .856E-02  .119E-01  .122E-01  .152E-01  .206E-01  .289E-01  .369E-01  .474E-01
  .611E-01  .617E-01  .697E-01  .103E+00  .911E-01  .887E-01  .859E-01  .761E-01
  .698E-01  .621E-01  .572E-01  .570E-01  .639E-01  .774E-01  .744E-01  .559E-01
