Response and Fourier amplitude spectra (80 periods,  .04 -  7.0 sec)   for      
Corrected accelerogram   24207-M0150-08211.01       Chan 17: 360 Deg     from   
Uncorrected Accelerogram Data             Processed: 08/04/08, CDMG  CE24207D   
Record of Tue Jul 29, 2008 11:42:12.0 PDT             (Avol1 v7.9 7/08 CSMIP)   
CSMIP Preliminary Processing            (Origin:  To be determined)             
24207-M0150-08211.01                 Start time:  7/29/08, 18:42:12.0 UTC (GPS) 
Station No. 24207   34.334N, 118.396W    MtWtny  s/n  150 (17 Channels)         
Sylmar - Pacoima Dam                      CGS                                   
Chan 17: 360 DegR                   Location: Left (South) Abutment             
Record of Tue Jul 29, 2008 11:42:12.0 PDT    Tue Jul 29, 2008 11:42:12.0 PDT    
Hypocenter:  To be determined.               ML:  To be determined.
Instr Period =  .0200 sec,  Damping =  .700,  Sensitivity =  .63  v/g  (Nominal)
                        Record length = 59.000 sec.
                                     Uncor Max  =   .012 g , at  27.895 sec.
RMS accel of (uncor) record  =        .   Chn. metadata effective date: 01/01/04
Accelerogram bandpass filtered with 3 dB pts at   .14 and 40.00 cyc/sec
                 instrument- and baseline-corrected





Record of Tue Jul 29, 2008 11:42:12.0 PDT    Tue Jul 29, 2008 11:42:12.0 PDT

24207-M0150-08211.01      Sylmar - Pacoima Dam    Chan 17: 360 Deg

24207-M0150-08211.01      Sylmar - Pacoima Dam    Chan 17: 360 Deg

Units for spectra are inches and sec, except Sa is in fraction of g.

   17  100   17   18   17  200    1    3    1   24   13  150    024207    5    0
   18   42   12    0  211    7   29 2008   10    3  36011800   41   20   76   -1
11800    0   50    3  150    1    1  590    2    0    0    0    0    0    0    0
    0    4    0    011800    1  220    1   18    4   76   20    1    1    011800
    311800   21   80    5   17    5    0    0    0   17    0    0    3    0    2
    2    2    4    0   68   99    0   32   32    0    1    1    0    0    0    0
    1    1   85    0
      .020      .700    59.000      .001      .000   625.000      .012    27.895
    50.000      .298      .477      .000     5.000      .000     4.000      .000
     2.500    18.532     2.500  2016.000    25.000    30.000      .000      .001
      .008      .007     2.000    15.000    34.334  -118.396      .018      .338
    18.574      .000      .000   594.000    25.500    28.800    12.700   119.840
     1.000     1.292      .000      .000      .000      .000      .000      .000
     4.200     7.900     4.600   980.665      .005    59.000     7.958      .000
      .000    40.000      .000    59.000      .005      .143      .000      .000
    27.890    11.462    27.390      .728    27.115     -.136      .000      .143
    40.000      .005      .005      .000      .005      .031      .000      .000
      .040      .220      .039      .031      .011      .001      .000      .000
      .000      .000      .000      .000      .000      .000      .000      .000
      .000      .000      .000      .000
      .000      .020      .050      .100      .200
      .040      .042      .044      .046      .048      .050      .055      .060
      .065      .070      .075      .080      .085      .090      .095      .100
      .110      .120      .130      .140      .150      .160      .170      .180
      .190      .200      .220      .240      .260      .280      .300      .320
      .340      .360      .380      .400      .420      .440      .460      .480
      .500      .550      .600      .650      .700      .750      .800      .850
      .900      .950     1.000     1.100     1.200     1.300     1.400     1.500
     1.600     1.700     1.800     1.900     2.000     2.200     2.400     2.600
     2.800     3.000     3.200     3.400     3.600     3.800     4.000     4.200
     4.400     4.600     4.800     5.000     5.500     6.000     6.500     7.000
      .000      .000      .000      .000      .000      .000      .000      .000
      .000      .000      .000      .000      .000      .000      .000      .000
      .000      .000      .000      .000
Fourier amplitude spectra in in/sec.
  .482E-01  .923E-01  .104E+00  .120E+00  .320E+00  .267E+00  .187E+00  .158E+00
  .581E+00  .494E+00  .241E+00  .167E+00  .261E+00  .207E+00  .255E+00  .370E+00
  .261E+00  .387E+00  .200E+00  .984E-01  .170E+00  .168E+00  .247E+00  .924E+00
  .503E+00  .326E+00  .223E+01  .133E+01  .187E+01  .272E+01  .911E+00  .993E+00
  .110E+01  .958E+00  .608E+00  .431E+00  .228E+00  .606E-01  .607E+00  .393E+00
  .810E+00  .488E+00  .826E+00  .156E+01  .256E+01  .148E+01  .393E+00  .961E+00
  .110E+01  .428E+00  .783E+00  .986E+00  .366E+00  .289E+00  .493E+00  .228E+00
  .967E+00  .220E+00  .663E+00  .683E+00  .783E+00  .191E+00  .133E+00  .889E-01
  .216E+00  .657E-01  .336E-01  .256E-01  .158E+00  .203E+00  .127E+00  .917E-01
  .127E+00  .134E+00  .110E+00  .810E-01  .103E+00  .929E-01  .434E-01  .319E-01
  .000E+00  .000E+00  .000E+00  .000E+00  .000E+00  .000E+00  .000E+00  .000E+00
  .000E+00  .000E+00  .000E+00  .000E+00  .000E+00  .000E+00  .000E+00  .000E+00
  .000E+00  .000E+00  .000E+00  .000E+00
Damping =  .00. Data of Sd,Sv,Sa,Pssv,ttSd,ttSv,ttSa :
  .574E-03  .696E-03  .113E-02  .140E-02  .270E-02  .239E-02  .201E-02  .398E-02
  .798E-02  .586E-02  .316E-02  .290E-02  .392E-02  .362E-02  .477E-02  .674E-02
  .863E-02  .801E-02  .641E-02  .586E-02  .911E-02  .109E-01  .973E-02  .340E-01
  .229E-01  .243E-01  .798E-01  .537E-01  .780E-01  .129E+00  .572E-01  .773E-01
  .635E-01  .588E-01  .512E-01  .355E-01  .277E-01  .353E-01  .546E-01  .615E-01
  .706E-01  .710E-01  .149E+00  .229E+00  .312E+00  .187E+00  .107E+00  .135E+00
  .161E+00  .171E+00  .184E+00  .241E+00  .125E+00  .128E+00  .121E+00  .149E+00
  .271E+00  .168E+00  .198E+00  .217E+00  .274E+00  .120E+00  .845E-01  .857E-01
  .101E+00  .674E-01  .715E-01  .717E-01  .904E-01  .125E+00  .108E+00  .105E+00
  .970E-01  .103E+00  .101E+00  .988E-01  .100E+00  .952E-01  .730E-01  .646E-01
  .000E+00  .000E+00  .000E+00  .000E+00  .000E+00  .000E+00  .000E+00  .000E+00
  .000E+00  .000E+00  .000E+00  .000E+00  .000E+00  .000E+00  .000E+00  .000E+00
  .000E+00  .000E+00  .000E+00  .000E+00
  .678E-01  .953E-01  .161E+00  .179E+00  .350E+00  .267E+00  .226E+00  .397E+00
  .741E+00  .531E+00  .255E+00  .218E+00  .278E+00  .241E+00  .279E+00  .419E+00
  .482E+00  .416E+00  .277E+00  .253E+00  .348E+00  .375E+00  .344E+00  .113E+01
  .730E+00  .740E+00  .227E+01  .139E+01  .187E+01  .288E+01  .120E+01  .154E+01
  .117E+01  .102E+01  .844E+00  .557E+00  .375E+00  .449E+00  .748E+00  .797E+00
  .887E+00  .810E+00  .162E+01  .224E+01  .280E+01  .157E+01  .876E+00  .101E+01
  .112E+01  .130E+01  .127E+01  .138E+01  .854E+00  .692E+00  .588E+00  .810E+00
  .107E+01  .828E+00  .760E+00  .732E+00  .868E+00  .535E+00  .479E+00  .418E+00
  .350E+00  .334E+00  .324E+00  .305E+00  .293E+00  .284E+00  .284E+00  .290E+00
  .294E+00  .300E+00  .307E+00  .312E+00  .315E+00  .319E+00  .319E+00  .316E+00
  .000E+00  .000E+00  .000E+00  .000E+00  .000E+00  .000E+00  .000E+00  .000E+00
  .000E+00  .000E+00  .000E+00  .000E+00  .000E+00  .000E+00  .000E+00  .000E+00
  .000E+00  .000E+00  .000E+00  .000E+00
  .367E-01  .404E-01  .597E-01  .675E-01  .120E+00  .978E-01  .678E-01  .113E+00
  .193E+00  .122E+00  .575E-01  .464E-01  .555E-01  .458E-01  .541E-01  .690E-01
  .730E-01  .569E-01  .388E-01  .306E-01  .414E-01  .436E-01  .344E-01  .107E+00
  .649E-01  .621E-01  .169E+00  .953E-01  .118E+00  .168E+00  .650E-01  .772E-01
  .562E-01  .464E-01  .363E-01  .227E-01  .161E-01  .186E-01  .264E-01  .273E-01
  .289E-01  .240E-01  .425E-01  .554E-01  .652E-01  .339E-01  .171E-01  .192E-01
  .203E-01  .193E-01  .188E-01  .204E-01  .889E-02  .773E-02  .631E-02  .678E-02
  .108E-01  .595E-02  .626E-02  .615E-02  .700E-02  .254E-02  .150E-02  .130E-02
  .132E-02  .766E-03  .714E-03  .634E-03  .714E-03  .889E-03  .693E-03  .611E-03
  .513E-03  .498E-03  .447E-03  .404E-03  .339E-03  .270E-03  .177E-03  .135E-03
  .000E+00  .000E+00  .000E+00  .000E+00  .000E+00  .000E+00  .000E+00  .000E+00
  .000E+00  .000E+00  .000E+00  .000E+00  .000E+00  .000E+00  .000E+00  .000E+00
  .000E+00  .000E+00  .000E+00  .000E+00
  .901E-01  .104E+00  .161E+00  .191E+00  .354E+00  .300E+00  .229E+00  .417E+00
  .772E+00  .526E+00  .265E+00  .228E+00  .290E+00  .253E+00  .316E+00  .424E+00
  .493E+00  .419E+00  .310E+00  .263E+00  .381E+00  .428E+00  .360E+00  .119E+01
  .757E+00  .763E+00  .228E+01  .141E+01  .189E+01  .289E+01  .120E+01  .152E+01
  .117E+01  .103E+01  .847E+00  .557E+00  .415E+00  .503E+00  .745E+00  .805E+00
  .887E+00  .811E+00  .157E+01  .221E+01  .280E+01  .156E+01  .839E+00  .100E+01
  .112E+01  .113E+01  .115E+01  .138E+01  .655E+00  .618E+00  .543E+00  .625E+00
  .107E+01  .621E+00  .693E+00  .718E+00  .860E+00  .343E+00  .221E+00  .207E+00
  .227E+00  .141E+00  .140E+00  .132E+00  .158E+00  .207E+00  .170E+00  .158E+00
  .139E+00  .141E+00  .132E+00  .124E+00  .115E+00  .997E-01  .705E-01  .580E-01
  .000E+00  .000E+00  .000E+00  .000E+00  .000E+00  .000E+00  .000E+00  .000E+00
  .000E+00  .000E+00  .000E+00  .000E+00  .000E+00  .000E+00  .000E+00  .000E+00
  .000E+00  .000E+00  .000E+00  .000E+00
  .279E+02  .256E+02  .240E+02  .279E+02  .237E+02  .275E+02  .230E+02  .275E+02
  .281E+02  .372E+02  .297E+02  .263E+02  .293E+02  .304E+02  .279E+02  .343E+02
  .273E+02  .385E+02  .292E+02  .257E+02  .278E+02  .277E+02  .287E+02  .291E+02
  .303E+02  .280E+02  .470E+02  .356E+02  .298E+02  .411E+02  .329E+02  .278E+02
  .472E+02  .414E+02  .397E+02  .430E+02  .282E+02  .282E+02  .357E+02  .334E+02
  .521E+02  .278E+02  .289E+02  .322E+02  .476E+02  .475E+02  .265E+02  .296E+02
  .560E+02  .278E+02  .279E+02  .363E+02  .272E+02  .268E+02  .403E+02  .340E+02
  .480E+02  .290E+02  .534E+02  .534E+02  .465E+02  .330E+02  .271E+02  .271E+02
  .548E+02  .251E+02  .251E+02  .251E+02  .604E+02  .579E+02  .413E+02  .401E+02
  .320E+02  .321E+02  .321E+02  .350E+02  .412E+02  .512E+02  .402E+02  .281E+02
  .000E+00  .000E+00  .000E+00  .000E+00  .000E+00  .000E+00  .000E+00  .000E+00
  .000E+00  .000E+00  .000E+00  .000E+00  .000E+00  .000E+00  .000E+00  .000E+00
  .000E+00  .000E+00  .000E+00  .000E+00
  .276E+02  .467E+02  .240E+02  .222E+02  .237E+02  .279E+02  .230E+02  .274E+02
  .280E+02  .367E+02  .387E+02  .263E+02  .400E+02  .303E+02  .349E+02  .343E+02
  .274E+02  .385E+02  .294E+02  .256E+02  .278E+02  .276E+02  .286E+02  .291E+02
  .303E+02  .280E+02  .470E+02  .355E+02  .298E+02  .411E+02  .328E+02  .277E+02
  .472E+02  .415E+02  .384E+02  .429E+02  .374E+02  .281E+02  .310E+02  .333E+02
  .519E+02  .277E+02  .290E+02  .327E+02  .478E+02  .406E+02  .267E+02  .298E+02
  .557E+02  .280E+02  .276E+02  .366E+02  .270E+02  .270E+02  .266E+02  .291E+02
  .484E+02  .286E+02  .287E+02  .567E+02  .440E+02  .274E+02  .274E+02  .274E+02
  .274E+02  .254E+02  .254E+02  .254E+02  .254E+02  .254E+02  .274E+02  .274E+02
  .274E+02  .274E+02  .274E+02  .274E+02  .274E+02  .274E+02  .274E+02  .274E+02
  .000E+00  .000E+00  .000E+00  .000E+00  .000E+00  .000E+00  .000E+00  .000E+00
  .000E+00  .000E+00  .000E+00  .000E+00  .000E+00  .000E+00  .000E+00  .000E+00
  .000E+00  .000E+00  .000E+00  .000E+00
  .279E+02  .256E+02  .240E+02  .279E+02  .237E+02  .275E+02  .230E+02  .275E+02
  .281E+02  .372E+02  .297E+02  .263E+02  .293E+02  .304E+02  .279E+02  .343E+02
  .273E+02  .385E+02  .292E+02  .257E+02  .278E+02  .277E+02  .287E+02  .291E+02
  .303E+02  .280E+02  .470E+02  .356E+02  .298E+02  .411E+02  .329E+02  .278E+02
  .472E+02  .414E+02  .397E+02  .430E+02  .282E+02  .282E+02  .357E+02  .334E+02
  .521E+02  .278E+02  .289E+02  .322E+02  .476E+02  .475E+02  .265E+02  .296E+02
  .560E+02  .278E+02  .279E+02  .363E+02  .272E+02  .268E+02  .403E+02  .340E+02
  .480E+02  .290E+02  .534E+02  .534E+02  .465E+02  .330E+02  .271E+02  .271E+02
  .548E+02  .251E+02  .251E+02  .251E+02  .604E+02  .579E+02  .413E+02  .401E+02
  .320E+02  .321E+02  .321E+02  .350E+02  .412E+02  .512E+02  .402E+02  .281E+02
  .000E+00  .000E+00  .000E+00  .000E+00  .000E+00  .000E+00  .000E+00  .000E+00
  .000E+00  .000E+00  .000E+00  .000E+00  .000E+00  .000E+00  .000E+00  .000E+00
  .000E+00  .000E+00  .000E+00  .000E+00
Damping =  .02. Data of Sd,Sv,Sa,Pssv,ttSd,ttSv,ttSa :
  .201E-03  .245E-03  .295E-03  .401E-03  .468E-03  .593E-03  .886E-03  .122E-02
  .167E-02  .181E-02  .170E-02  .201E-02  .203E-02  .213E-02  .208E-02  .261E-02
  .346E-02  .317E-02  .431E-02  .478E-02  .535E-02  .669E-02  .891E-02  .166E-01
  .132E-01  .190E-01  .301E-01  .231E-01  .338E-01  .367E-01  .430E-01  .400E-01
  .372E-01  .384E-01  .357E-01  .304E-01  .217E-01  .263E-01  .329E-01  .374E-01
  .447E-01  .632E-01  .113E+00  .170E+00  .181E+00  .112E+00  .851E-01  .917E-01
  .112E+00  .138E+00  .150E+00  .131E+00  .108E+00  .109E+00  .102E+00  .119E+00
  .140E+00  .139E+00  .140E+00  .151E+00  .149E+00  .111E+00  .784E-01  .796E-01
  .725E-01  .661E-01  .691E-01  .697E-01  .688E-01  .819E-01  .826E-01  .797E-01
  .878E-01  .925E-01  .908E-01  .844E-01  .802E-01  .735E-01  .677E-01  .635E-01
  .000E+00  .000E+00  .000E+00  .000E+00  .000E+00  .000E+00  .000E+00  .000E+00
  .000E+00  .000E+00  .000E+00  .000E+00  .000E+00  .000E+00  .000E+00  .000E+00
  .000E+00  .000E+00  .000E+00  .000E+00
  .196E-01  .252E-01  .376E-01  .523E-01  .587E-01  .697E-01  .907E-01  .111E+00
  .138E+00  .144E+00  .124E+00  .146E+00  .148E+00  .123E+00  .109E+00  .121E+00
  .204E+00  .170E+00  .188E+00  .150E+00  .187E+00  .223E+00  .313E+00  .496E+00
  .398E+00  .570E+00  .806E+00  .580E+00  .787E+00  .803E+00  .859E+00  .820E+00
  .717E+00  .678E+00  .593E+00  .496E+00  .358E+00  .366E+00  .463E+00  .459E+00
  .479E+00  .745E+00  .121E+01  .160E+01  .162E+01  .103E+01  .717E+00  .772E+00
  .959E+00  .105E+01  .109E+01  .761E+00  .728E+00  .624E+00  .524E+00  .684E+00
  .682E+00  .738E+00  .688E+00  .552E+00  .513E+00  .502E+00  .461E+00  .408E+00
  .351E+00  .331E+00  .320E+00  .304E+00  .293E+00  .284E+00  .284E+00  .289E+00
  .293E+00  .299E+00  .304E+00  .309E+00  .313E+00  .316E+00  .317E+00  .315E+00
  .000E+00  .000E+00  .000E+00  .000E+00  .000E+00  .000E+00  .000E+00  .000E+00
  .000E+00  .000E+00  .000E+00  .000E+00  .000E+00  .000E+00  .000E+00  .000E+00
  .000E+00  .000E+00  .000E+00  .000E+00
  .129E-01  .142E-01  .156E-01  .195E-01  .207E-01  .243E-01  .299E-01  .344E-01
  .402E-01  .378E-01  .309E-01  .322E-01  .289E-01  .268E-01  .236E-01  .267E-01
  .293E-01  .226E-01  .261E-01  .250E-01  .243E-01  .268E-01  .316E-01  .523E-01
  .374E-01  .486E-01  .635E-01  .412E-01  .511E-01  .480E-01  .489E-01  .399E-01
  .329E-01  .303E-01  .253E-01  .195E-01  .126E-01  .139E-01  .159E-01  .166E-01
  .183E-01  .214E-01  .321E-01  .411E-01  .379E-01  .203E-01  .136E-01  .130E-01
  .142E-01  .156E-01  .154E-01  .111E-01  .768E-02  .659E-02  .531E-02  .544E-02
  .558E-02  .491E-02  .443E-02  .427E-02  .381E-02  .236E-02  .140E-02  .121E-02
  .952E-03  .756E-03  .696E-03  .623E-03  .549E-03  .581E-03  .530E-03  .463E-03
  .465E-03  .448E-03  .405E-03  .347E-03  .272E-03  .212E-03  .171E-03  .139E-03
  .000E+00  .000E+00  .000E+00  .000E+00  .000E+00  .000E+00  .000E+00  .000E+00
  .000E+00  .000E+00  .000E+00  .000E+00  .000E+00  .000E+00  .000E+00  .000E+00
  .000E+00  .000E+00  .000E+00  .000E+00
  .316E-01  .366E-01  .422E-01  .547E-01  .613E-01  .745E-01  .101E+00  .127E+00
  .161E+00  .162E+00  .143E+00  .158E+00  .150E+00  .149E+00  .137E+00  .164E+00
  .198E+00  .166E+00  .208E+00  .215E+00  .224E+00  .263E+00  .329E+00  .578E+00
  .436E+00  .596E+00  .859E+00  .606E+00  .816E+00  .825E+00  .901E+00  .785E+00
  .687E+00  .671E+00  .590E+00  .478E+00  .325E+00  .375E+00  .450E+00  .490E+00
  .562E+00  .722E+00  .118E+01  .164E+01  .163E+01  .936E+00  .668E+00  .678E+00
  .783E+00  .911E+00  .945E+00  .749E+00  .566E+00  .526E+00  .456E+00  .500E+00
  .548E+00  .512E+00  .489E+00  .498E+00  .468E+00  .318E+00  .205E+00  .192E+00
  .163E+00  .138E+00  .136E+00  .129E+00  .120E+00  .135E+00  .130E+00  .119E+00
  .125E+00  .126E+00  .119E+00  .106E+00  .916E-01  .770E-01  .654E-01  .570E-01
  .000E+00  .000E+00  .000E+00  .000E+00  .000E+00  .000E+00  .000E+00  .000E+00
  .000E+00  .000E+00  .000E+00  .000E+00  .000E+00  .000E+00  .000E+00  .000E+00
  .000E+00  .000E+00  .000E+00  .000E+00
  .279E+02  .279E+02  .279E+02  .212E+02  .209E+02  .186E+02  .179E+02  .251E+02
  .251E+02  .255E+02  .281E+02  .285E+02  .260E+02  .277E+02  .277E+02  .279E+02
  .259E+02  .260E+02  .256E+02  .276E+02  .277E+02  .277E+02  .286E+02  .279E+02
  .279E+02  .279E+02  .293E+02  .281E+02  .297E+02  .281E+02  .288E+02  .278E+02
  .295E+02  .294E+02  .294E+02  .294E+02  .294E+02  .282E+02  .272E+02  .272E+02
  .272E+02  .272E+02  .289E+02  .290E+02  .298E+02  .299E+02  .265E+02  .292E+02
  .281E+02  .278E+02  .279E+02  .292E+02  .260E+02  .268E+02  .269E+02  .279E+02
  .289E+02  .290E+02  .284E+02  .285E+02  .356E+02  .276E+02  .276E+02  .271E+02
  .271E+02  .251E+02  .251E+02  .251E+02  .251E+02  .411E+02  .412E+02  .401E+02
  .320E+02  .321E+02  .321E+02  .349E+02  .412E+02  .307E+02  .281E+02  .281E+02
  .000E+00  .000E+00  .000E+00  .000E+00  .000E+00  .000E+00  .000E+00  .000E+00
  .000E+00  .000E+00  .000E+00  .000E+00  .000E+00  .000E+00  .000E+00  .000E+00
  .000E+00  .000E+00  .000E+00  .000E+00
  .185E+02  .185E+02  .211E+02  .212E+02  .208E+02  .186E+02  .179E+02  .180E+02
  .183E+02  .185E+02  .179E+02  .261E+02  .260E+02  .276E+02  .255E+02  .258E+02
  .258E+02  .260E+02  .257E+02  .256E+02  .277E+02  .277E+02  .286E+02  .280E+02
  .280E+02  .280E+02  .293E+02  .284E+02  .296E+02  .282E+02  .287E+02  .277E+02
  .294E+02  .294E+02  .293E+02  .293E+02  .293E+02  .293E+02  .291E+02  .306E+02
  .273E+02  .277E+02  .290E+02  .288E+02  .300E+02  .280E+02  .263E+02  .264E+02
  .280E+02  .280E+02  .276E+02  .273E+02  .270E+02  .270E+02  .266E+02  .291E+02
  .276E+02  .286E+02  .286E+02  .287E+02  .360E+02  .274E+02  .274E+02  .274E+02
  .274E+02  .254E+02  .254E+02  .254E+02  .254E+02  .254E+02  .274E+02  .274E+02
  .274E+02  .274E+02  .274E+02  .274E+02  .274E+02  .274E+02  .274E+02  .274E+02
  .000E+00  .000E+00  .000E+00  .000E+00  .000E+00  .000E+00  .000E+00  .000E+00
  .000E+00  .000E+00  .000E+00  .000E+00  .000E+00  .000E+00  .000E+00  .000E+00
  .000E+00  .000E+00  .000E+00  .000E+00
  .279E+02  .279E+02  .279E+02  .212E+02  .209E+02  .186E+02  .179E+02  .251E+02
  .251E+02  .255E+02  .281E+02  .285E+02  .260E+02  .277E+02  .277E+02  .279E+02
  .259E+02  .260E+02  .256E+02  .276E+02  .277E+02  .277E+02  .286E+02  .279E+02
  .279E+02  .279E+02  .293E+02  .281E+02  .297E+02  .281E+02  .288E+02  .278E+02
  .295E+02  .294E+02  .294E+02  .294E+02  .294E+02  .282E+02  .272E+02  .272E+02
  .272E+02  .272E+02  .289E+02  .290E+02  .298E+02  .299E+02  .265E+02  .292E+02
  .281E+02  .278E+02  .279E+02  .292E+02  .260E+02  .268E+02  .269E+02  .279E+02
  .289E+02  .290E+02  .284E+02  .285E+02  .355E+02  .276E+02  .276E+02  .271E+02
  .271E+02  .251E+02  .251E+02  .251E+02  .251E+02  .411E+02  .412E+02  .401E+02
  .320E+02  .321E+02  .321E+02  .349E+02  .411E+02  .304E+02  .281E+02  .281E+02
  .000E+00  .000E+00  .000E+00  .000E+00  .000E+00  .000E+00  .000E+00  .000E+00
  .000E+00  .000E+00  .000E+00  .000E+00  .000E+00  .000E+00  .000E+00  .000E+00
  .000E+00  .000E+00  .000E+00  .000E+00
Damping =  .05. Data of Sd,Sv,Sa,Pssv,ttSd,ttSv,ttSa :
  .187E-03  .230E-03  .279E-03  .326E-03  .363E-03  .398E-03  .589E-03  .789E-03
  .114E-02  .120E-02  .125E-02  .138E-02  .132E-02  .162E-02  .175E-02  .199E-02
  .256E-02  .288E-02  .357E-02  .416E-02  .433E-02  .550E-02  .808E-02  .116E-01
  .128E-01  .155E-01  .188E-01  .194E-01  .224E-01  .271E-01  .276E-01  .271E-01
  .299E-01  .319E-01  .295E-01  .257E-01  .218E-01  .241E-01  .298E-01  .350E-01
