Response and Fourier amplitude spectra (80 periods,  .04 -  7.0 sec)   for      
Corrected accelerogram   24207-M0150-08211.01       Chan  3:  Up         from   
Uncorrected Accelerogram Data             Processed: 08/04/08, CDMG  CE24207D   
Record of Tue Jul 29, 2008 11:42:12.0 PDT             (Avol1 v7.9 7/08 CSMIP)   
CSMIP Preliminary Processing            (Origin:  To be determined)             
24207-M0150-08211.01                 Start time:  7/29/08, 18:42:12.0 UTC (GPS) 
Station No. 24207   34.334N, 118.396W    MtWtny  s/n  150 (17 Channels)         
Sylmar - Pacoima Dam                      CGS                                   
Chan  3:  Up                        Location: Crest: Center                     
Record of Tue Jul 29, 2008 11:42:12.0 PDT    Tue Jul 29, 2008 11:42:12.0 PDT    
Hypocenter:  To be determined.               ML:  To be determined.
Instr Period =  .0200 sec,  Damping =  .700,  Sensitivity =  .63  v/g  (Nominal)
                        Record length = 59.000 sec.
                                     Uncor Max  =  -.004 g , at  28.260 sec.
RMS accel of (uncor) record  =        .   Chn. metadata effective date: 01/01/04
Accelerogram bandpass filtered with 3 dB pts at   .14 and 40.00 cyc/sec
                 instrument- and baseline-corrected





Record of Tue Jul 29, 2008 11:42:12.0 PDT    Tue Jul 29, 2008 11:42:12.0 PDT

24207-M0150-08211.01      Sylmar - Pacoima Dam    Chan  3:  Up

24207-M0150-08211.01      Sylmar - Pacoima Dam    Chan  3:  Up

Units for spectra are inches and sec, except Sa is in fraction of g.

    3  100    3   18   17  200    1    3    1   24   13  150    024207    5    0
   18   42   12    0  211    7   29 2008   10    3  50011800   41   20   76   -1
11800    0   50    3  150    1    1  590    2    0    0    0    0    0    0    0
    0    4    0    011800    1  220    1   18    4   76   20    1    1    011800
    311800   21   80    5   17    5    0    0    0   17    0    0    3    0    2
    2    2    4    0   68   99    0   32   32    0    1    1    0    0    0    0
    1    1   15    0
      .020      .700    59.000      .001      .000   625.000     -.004    28.260
    50.000      .298      .477      .000     5.000      .000     4.000      .000
     2.500    54.689     2.500  2016.000    25.000    30.000      .000     -.002
      .002      .004     2.000    15.000    34.334  -118.396      .012      .183
    15.614      .000      .000   594.000    25.500    28.800    12.700   119.840
     1.000     2.428      .000      .000      .000      .000      .000      .000
     4.200     7.900     4.600   980.665      .005    59.000     7.958      .000
      .000    40.000      .000    59.000      .005      .143      .000      .000
    28.255    -4.150    25.895      .248    25.450     -.055      .000      .143
    40.000      .005      .005      .000      .005      .015      .000      .000
      .023      .100      .011      .008      .003      .001      .000      .000
      .000      .000      .000      .000      .000      .000      .000      .000
      .000      .000      .000      .000
      .000      .020      .050      .100      .200
      .040      .042      .044      .046      .048      .050      .055      .060
      .065      .070      .075      .080      .085      .090      .095      .100
      .110      .120      .130      .140      .150      .160      .170      .180
      .190      .200      .220      .240      .260      .280      .300      .320
      .340      .360      .380      .400      .420      .440      .460      .480
      .500      .550      .600      .650      .700      .750      .800      .850
      .900      .950     1.000     1.100     1.200     1.300     1.400     1.500
     1.600     1.700     1.800     1.900     2.000     2.200     2.400     2.600
     2.800     3.000     3.200     3.400     3.600     3.800     4.000     4.200
     4.400     4.600     4.800     5.000     5.500     6.000     6.500     7.000
      .000      .000      .000      .000      .000      .000      .000      .000
      .000      .000      .000      .000      .000      .000      .000      .000
      .000      .000      .000      .000
Fourier amplitude spectra in in/sec.
  .104E+00  .218E-01  .725E-01  .902E-01  .475E-01  .978E-01  .731E-01  .556E-01
  .209E+00  .124E+00  .153E+00  .222E+00  .153E+00  .110E+00  .454E+00  .426E+00
  .224E+00  .224E+00  .205E+00  .164E+00  .360E+00  .239E+00  .108E+00  .762E+00
  .262E+00  .452E+00  .520E+00  .635E+00  .128E+00  .196E+00  .628E+00  .277E+00
  .642E+00  .458E+00  .371E+00  .231E+00  .368E+00  .351E+00  .373E+00  .370E+00
  .542E+00  .364E+00  .427E+00  .329E+00  .338E+00  .473E+00  .954E+00  .495E+00
  .555E+00  .247E+00  .127E+00  .187E+00  .417E+00  .514E+00  .219E+00  .180E+00
  .447E+00  .249E+00  .595E-01  .258E+00  .211E+00  .273E+00  .200E+00  .174E+00
  .190E+00  .108E+00  .857E-01  .111E+00  .288E-01  .143E+00  .114E+00  .460E-01
  .761E-01  .808E-01  .475E-01  .120E-01  .381E-01  .449E-01  .365E-01  .312E-01
  .000E+00  .000E+00  .000E+00  .000E+00  .000E+00  .000E+00  .000E+00  .000E+00
  .000E+00  .000E+00  .000E+00  .000E+00  .000E+00  .000E+00  .000E+00  .000E+00
  .000E+00  .000E+00  .000E+00  .000E+00
Damping =  .00. Data of Sd,Sv,Sa,Pssv,ttSd,ttSv,ttSa :
  .660E-03  .476E-03  .716E-03  .796E-03  .435E-03  .835E-03  .134E-02  .108E-02
  .239E-02  .146E-02  .201E-02  .322E-02  .269E-02  .274E-02  .777E-02  .738E-02
  .541E-02  .492E-02  .442E-02  .462E-02  .989E-02  .746E-02  .950E-02  .227E-01
  .105E-01  .157E-01  .187E-01  .247E-01  .105E-01  .109E-01  .319E-01  .212E-01
  .422E-01  .345E-01  .241E-01  .176E-01  .298E-01  .294E-01  .338E-01  .434E-01
  .556E-01  .366E-01  .412E-01  .416E-01  .402E-01  .585E-01  .124E+00  .699E-01
  .903E-01  .468E-01  .382E-01  .567E-01  .844E-01  .109E+00  .939E-01  .104E+00
  .135E+00  .851E-01  .830E-01  .899E-01  .789E-01  .962E-01  .887E-01  .721E-01
  .848E-01  .679E-01  .503E-01  .607E-01  .562E-01  .868E-01  .772E-01  .644E-01
  .621E-01  .634E-01  .515E-01  .529E-01  .481E-01  .483E-01  .501E-01  .476E-01
  .000E+00  .000E+00  .000E+00  .000E+00  .000E+00  .000E+00  .000E+00  .000E+00
  .000E+00  .000E+00  .000E+00  .000E+00  .000E+00  .000E+00  .000E+00  .000E+00
  .000E+00  .000E+00  .000E+00  .000E+00
  .103E+00  .656E-01  .101E+00  .106E+00  .529E-01  .989E-01  .148E+00  .112E+00
  .228E+00  .129E+00  .167E+00  .246E+00  .187E+00  .185E+00  .501E+00  .462E+00
  .309E+00  .255E+00  .210E+00  .206E+00  .411E+00  .286E+00  .346E+00  .789E+00
  .337E+00  .489E+00  .532E+00  .643E+00  .245E+00  .238E+00  .668E+00  .410E+00
  .780E+00  .609E+00  .389E+00  .287E+00  .435E+00  .418E+00  .456E+00  .536E+00
  .695E+00  .417E+00  .427E+00  .402E+00  .356E+00  .484E+00  .975E+00  .519E+00
  .627E+00  .335E+00  .287E+00  .315E+00  .445E+00  .527E+00  .425E+00  .467E+00
  .543E+00  .322E+00  .328E+00  .317E+00  .246E+00  .284E+00  .232E+00  .191E+00
  .190E+00  .164E+00  .166E+00  .165E+00  .160E+00  .155E+00  .149E+00  .145E+00
  .143E+00  .142E+00  .138E+00  .133E+00  .120E+00  .113E+00  .109E+00  .106E+00
  .000E+00  .000E+00  .000E+00  .000E+00  .000E+00  .000E+00  .000E+00  .000E+00
  .000E+00  .000E+00  .000E+00  .000E+00  .000E+00  .000E+00  .000E+00  .000E+00
  .000E+00  .000E+00  .000E+00  .000E+00
  .422E-01  .276E-01  .378E-01  .385E-01  .193E-01  .342E-01  .452E-01  .306E-01
  .579E-01  .304E-01  .365E-01  .514E-01  .381E-01  .345E-01  .880E-01  .755E-01
  .457E-01  .349E-01  .268E-01  .241E-01  .450E-01  .298E-01  .336E-01  .716E-01
  .297E-01  .402E-01  .395E-01  .438E-01  .159E-01  .142E-01  .363E-01  .212E-01
  .373E-01  .272E-01  .171E-01  .113E-01  .173E-01  .155E-01  .163E-01  .192E-01
  .228E-01  .124E-01  .117E-01  .101E-01  .839E-02  .106E-01  .198E-01  .989E-02
  .114E-01  .530E-02  .391E-02  .479E-02  .599E-02  .659E-02  .490E-02  .474E-02
  .541E-02  .301E-02  .262E-02  .255E-02  .202E-02  .203E-02  .158E-02  .109E-02
  .111E-02  .771E-03  .502E-03  .537E-03  .444E-03  .615E-03  .493E-03  .373E-03
  .328E-03  .306E-03  .229E-03  .217E-03  .163E-03  .137E-03  .121E-03  .993E-04
  .000E+00  .000E+00  .000E+00  .000E+00  .000E+00  .000E+00  .000E+00  .000E+00
  .000E+00  .000E+00  .000E+00  .000E+00  .000E+00  .000E+00  .000E+00  .000E+00
  .000E+00  .000E+00  .000E+00  .000E+00
  .104E+00  .712E-01  .102E+00  .109E+00  .569E-01  .105E+00  .153E+00  .113E+00
  .231E+00  .131E+00  .168E+00  .253E+00  .199E+00  .191E+00  .514E+00  .464E+00
  .309E+00  .258E+00  .214E+00  .207E+00  .414E+00  .293E+00  .351E+00  .792E+00
  .347E+00  .493E+00  .534E+00  .646E+00  .254E+00  .245E+00  .668E+00  .417E+00
  .779E+00  .602E+00  .399E+00  .277E+00  .445E+00  .420E+00  .461E+00  .568E+00
  .699E+00  .418E+00  .431E+00  .402E+00  .361E+00  .490E+00  .971E+00  .517E+00
  .631E+00  .309E+00  .240E+00  .324E+00  .442E+00  .526E+00  .421E+00  .437E+00
  .531E+00  .315E+00  .290E+00  .297E+00  .248E+00  .275E+00  .232E+00  .174E+00
  .190E+00  .142E+00  .988E-01  .112E+00  .981E-01  .143E+00  .121E+00  .963E-01
  .886E-01  .866E-01  .674E-01  .665E-01  .550E-01  .506E-01  .485E-01  .427E-01
  .000E+00  .000E+00  .000E+00  .000E+00  .000E+00  .000E+00  .000E+00  .000E+00
  .000E+00  .000E+00  .000E+00  .000E+00  .000E+00  .000E+00  .000E+00  .000E+00
  .000E+00  .000E+00  .000E+00  .000E+00
  .551E+02  .246E+02  .241E+02  .298E+02  .255E+02  .382E+02  .260E+02  .202E+02
  .388E+02  .303E+02  .365E+02  .329E+02  .268E+02  .292E+02  .276E+02  .353E+02
  .279E+02  .277E+02  .296E+02  .355E+02  .395E+02  .265E+02  .273E+02  .296E+02
  .270E+02  .345E+02  .520E+02  .535E+02  .309E+02  .391E+02  .382E+02  .303E+02
  .398E+02  .296E+02  .323E+02  .254E+02  .436E+02  .333E+02  .333E+02  .264E+02
  .452E+02  .408E+02  .566E+02  .423E+02  .388E+02  .428E+02  .569E+02  .562E+02
  .513E+02  .316E+02  .299E+02  .446E+02  .525E+02  .521E+02  .433E+02  .333E+02
  .465E+02  .471E+02  .286E+02  .458E+02  .409E+02  .564E+02  .452E+02  .583E+02
  .581E+02  .493E+02  .515E+02  .576E+02  .364E+02  .578E+02  .549E+02  .438E+02
  .423E+02  .547E+02  .533E+02  .303E+02  .534E+02  .466E+02  .416E+02  .394E+02
  .000E+00  .000E+00  .000E+00  .000E+00  .000E+00  .000E+00  .000E+00  .000E+00
  .000E+00  .000E+00  .000E+00  .000E+00  .000E+00  .000E+00  .000E+00  .000E+00
  .000E+00  .000E+00  .000E+00  .000E+00
  .549E+02  .251E+02  .241E+02  .298E+02  .265E+02  .388E+02  .260E+02  .203E+02
  .388E+02  .451E+02  .354E+02  .329E+02  .268E+02  .293E+02  .276E+02  .353E+02
  .279E+02  .255E+02  .507E+02  .356E+02  .342E+02  .265E+02  .275E+02  .283E+02
  .268E+02  .342E+02  .520E+02  .535E+02  .309E+02  .392E+02  .381E+02  .302E+02
  .397E+02  .295E+02  .318E+02  .253E+02  .437E+02  .332E+02  .332E+02  .266E+02
  .451E+02  .442E+02  .588E+02  .437E+02  .396E+02  .430E+02  .563E+02  .564E+02
  .515E+02  .314E+02  .297E+02  .437E+02  .504E+02  .570E+02  .429E+02  .314E+02
  .406E+02  .467E+02  .290E+02  .454E+02  .413E+02  .297E+02  .446E+02  .384E+02
  .588E+02  .259E+02  .259E+02  .259E+02  .259E+02  .259E+02  .259E+02  .259E+02
  .259E+02  .259E+02  .259E+02  .259E+02  .259E+02  .259E+02  .259E+02  .259E+02
  .000E+00  .000E+00  .000E+00  .000E+00  .000E+00  .000E+00  .000E+00  .000E+00
  .000E+00  .000E+00  .000E+00  .000E+00  .000E+00  .000E+00  .000E+00  .000E+00
  .000E+00  .000E+00  .000E+00  .000E+00
  .551E+02  .246E+02  .241E+02  .298E+02  .255E+02  .382E+02  .260E+02  .202E+02
  .388E+02  .303E+02  .365E+02  .329E+02  .268E+02  .292E+02  .276E+02  .353E+02
  .279E+02  .277E+02  .296E+02  .355E+02  .395E+02  .265E+02  .273E+02  .296E+02
  .270E+02  .345E+02  .520E+02  .535E+02  .309E+02  .391E+02  .382E+02  .303E+02
  .398E+02  .296E+02  .323E+02  .254E+02  .436E+02  .333E+02  .333E+02  .264E+02
  .452E+02  .408E+02  .566E+02  .423E+02  .388E+02  .428E+02  .569E+02  .562E+02
  .513E+02  .316E+02  .299E+02  .446E+02  .525E+02  .521E+02  .433E+02  .333E+02
  .465E+02  .471E+02  .286E+02  .458E+02  .409E+02  .564E+02  .452E+02  .583E+02
  .581E+02  .493E+02  .515E+02  .576E+02  .364E+02  .578E+02  .549E+02  .438E+02
  .423E+02  .547E+02  .533E+02  .303E+02  .534E+02  .466E+02  .416E+02  .394E+02
  .000E+00  .000E+00  .000E+00  .000E+00  .000E+00  .000E+00  .000E+00  .000E+00
  .000E+00  .000E+00  .000E+00  .000E+00  .000E+00  .000E+00  .000E+00  .000E+00
  .000E+00  .000E+00  .000E+00  .000E+00
Damping =  .02. Data of Sd,Sv,Sa,Pssv,ttSd,ttSv,ttSa :
  .124E-03  .149E-03  .177E-03  .166E-03  .245E-03  .310E-03  .318E-03  .433E-03
  .665E-03  .662E-03  .862E-03  .832E-03  .143E-02  .183E-02  .277E-02  .372E-02
  .251E-02  .200E-02  .184E-02  .212E-02  .278E-02  .372E-02  .517E-02  .826E-02
  .636E-02  .651E-02  .672E-02  .561E-02  .609E-02  .635E-02  .106E-01  .104E-01
  .150E-01  .180E-01  .136E-01  .976E-02  .110E-01  .140E-01  .192E-01  .269E-01
  .265E-01  .255E-01  .223E-01  .228E-01  .295E-01  .317E-01  .581E-01  .394E-01
  .388E-01  .325E-01  .344E-01  .309E-01  .413E-01  .517E-01  .612E-01  .694E-01
  .744E-01  .653E-01  .682E-01  .657E-01  .601E-01  .658E-01  .668E-01  .532E-01
  .496E-01  .480E-01  .450E-01  .404E-01  .457E-01  .493E-01  .487E-01  .471E-01
  .465E-01  .445E-01  .448E-01  .472E-01  .416E-01  .393E-01  .411E-01  .407E-01
  .000E+00  .000E+00  .000E+00  .000E+00  .000E+00  .000E+00  .000E+00  .000E+00
  .000E+00  .000E+00  .000E+00  .000E+00  .000E+00  .000E+00  .000E+00  .000E+00
  .000E+00  .000E+00  .000E+00  .000E+00
  .135E-01  .170E-01  .202E-01  .190E-01  .264E-01  .330E-01  .317E-01  .394E-01
  .560E-01  .506E-01  .605E-01  .621E-01  .931E-01  .110E+00  .166E+00  .235E+00
  .130E+00  .110E+00  .877E-01  .918E-01  .116E+00  .148E+00  .184E+00  .279E+00
  .218E+00  .205E+00  .187E+00  .145E+00  .159E+00  .128E+00  .217E+00  .203E+00
  .274E+00  .296E+00  .237E+00  .159E+00  .159E+00  .194E+00  .251E+00  .328E+00
  .341E+00  .269E+00  .240E+00  .251E+00  .266E+00  .274E+00  .454E+00  .307E+00
  .306E+00  .236E+00  .268E+00  .203E+00  .203E+00  .255E+00  .275E+00  .338E+00
  .319E+00  .275E+00  .268E+00  .239E+00  .222E+00  .233E+00  .181E+00  .162E+00
  .155E+00  .159E+00  .161E+00  .161E+00  .157E+00  .152E+00  .148E+00  .144E+00
  .142E+00  .140E+00  .136E+00  .132E+00  .120E+00  .114E+00  .109E+00  .107E+00
  .000E+00  .000E+00  .000E+00  .000E+00  .000E+00  .000E+00  .000E+00  .000E+00
  .000E+00  .000E+00  .000E+00  .000E+00  .000E+00  .000E+00  .000E+00  .000E+00
  .000E+00  .000E+00  .000E+00  .000E+00
  .793E-02  .868E-02  .936E-02  .803E-02  .109E-01  .127E-01  .107E-01  .123E-01
  .162E-01  .138E-01  .156E-01  .134E-01  .202E-01  .231E-01  .314E-01  .382E-01
  .212E-01  .143E-01  .111E-01  .111E-01  .127E-01  .148E-01  .183E-01  .261E-01
  .180E-01  .167E-01  .142E-01  .997E-02  .923E-02  .829E-02  .121E-01  .104E-01
  .133E-01  .142E-01  .965E-02  .624E-02  .638E-02  .740E-02  .929E-02  .119E-01
  .108E-01  .862E-02  .635E-02  .553E-02  .615E-02  .577E-02  .930E-02  .558E-02
  .490E-02  .369E-02  .352E-02  .262E-02  .294E-02  .313E-02  .320E-02  .315E-02
  .297E-02  .232E-02  .216E-02  .186E-02  .154E-02  .139E-02  .119E-02  .807E-03
  .648E-03  .548E-03  .450E-03  .359E-03  .361E-03  .350E-03  .312E-03  .274E-03
  .246E-03  .217E-03  .200E-03  .193E-03  .142E-03  .114E-03  .998E-04  .852E-04
  .000E+00  .000E+00  .000E+00  .000E+00  .000E+00  .000E+00  .000E+00  .000E+00
  .000E+00  .000E+00  .000E+00  .000E+00  .000E+00  .000E+00  .000E+00  .000E+00
  .000E+00  .000E+00  .000E+00  .000E+00
  .194E-01  .223E-01  .253E-01  .226E-01  .320E-01  .390E-01  .363E-01  .454E-01
  .643E-01  .594E-01  .722E-01  .653E-01  .105E+00  .128E+00  .183E+00  .234E+00
  .143E+00  .105E+00  .887E-01  .954E-01  .117E+00  .146E+00  .191E+00  .288E+00
  .210E+00  .205E+00  .192E+00  .147E+00  .147E+00  .142E+00  .222E+00  .205E+00
  .278E+00  .313E+00  .225E+00  .153E+00  .165E+00  .200E+00  .262E+00  .352E+00
  .333E+00  .291E+00  .234E+00  .221E+00  .264E+00  .266E+00  .456E+00  .291E+00
  .271E+00  .215E+00  .216E+00  .177E+00  .216E+00  .250E+00  .275E+00  .291E+00
  .292E+00  .242E+00  .238E+00  .217E+00  .189E+00  .188E+00  .175E+00  .129E+00
  .111E+00  .101E+00  .883E-01  .747E-01  .797E-01  .815E-01  .764E-01  .704E-01
  .664E-01  .608E-01  .587E-01  .593E-01  .475E-01  .411E-01  .397E-01  .365E-01
  .000E+00  .000E+00  .000E+00  .000E+00  .000E+00  .000E+00  .000E+00  .000E+00
  .000E+00  .000E+00  .000E+00  .000E+00  .000E+00  .000E+00  .000E+00  .000E+00
  .000E+00  .000E+00  .000E+00  .000E+00
  .267E+02  .246E+02  .246E+02  .246E+02  .265E+02  .268E+02  .178E+02  .268E+02
  .258E+02  .278E+02  .268E+02  .173E+02  .268E+02  .283E+02  .283E+02  .284E+02
  .263E+02  .283E+02  .277E+02  .277E+02  .277E+02  .281E+02  .272E+02  .268E+02
  .264E+02  .260E+02  .298E+02  .323E+02  .275E+02  .275E+02  .278E+02  .282E+02
  .316E+02  .283E+02  .271E+02  .305E+02  .253E+02  .261E+02  .264E+02  .264E+02
  .265E+02  .271E+02  .278E+02  .279E+02  .283E+02  .292E+02  .318E+02  .319E+02
  .315E+02  .298E+02  .299E+02  .296E+02  .459E+02  .469E+02  .426E+02  .264E+02
  .274E+02  .275E+02  .286E+02  .287E+02  .288E+02  .313E+02  .307E+02  .261E+02
  .382E+02  .261E+02  .261E+02  .262E+02  .343E+02  .560E+02  .332E+02  .334E+02
  .422E+02  .296E+02  .302E+02  .303E+02  .303E+02  .283E+02  .415E+02  .394E+02
  .000E+00  .000E+00  .000E+00  .000E+00  .000E+00  .000E+00  .000E+00  .000E+00
  .000E+00  .000E+00  .000E+00  .000E+00  .000E+00  .000E+00  .000E+00  .000E+00
  .000E+00  .000E+00  .000E+00  .000E+00
  .225E+02  .246E+02  .246E+02  .246E+02  .265E+02  .268E+02  .179E+02  .269E+02
  .258E+02  .278E+02  .268E+02  .172E+02  .268E+02  .273E+02  .276E+02  .285E+02
  .263E+02  .284E+02  .269E+02  .277E+02  .282E+02  .281E+02  .271E+02  .268E+02
  .267E+02  .259E+02  .298E+02  .323E+02  .275E+02  .275E+02  .278E+02  .278E+02
  .315E+02  .284E+02  .272E+02  .306E+02  .252E+02  .284E+02  .265E+02  .263E+02
  .264E+02  .273E+02  .277E+02  .277E+02  .277E+02  .306E+02  .320E+02  .317E+02
  .317E+02  .297E+02  .297E+02  .294E+02  .499E+02  .472E+02  .423E+02  .276E+02
  .294E+02  .271E+02  .290E+02  .283E+02  .283E+02  .297E+02  .310E+02  .259E+02
  .259E+02  .259E+02  .259E+02  .259E+02  .259E+02  .259E+02  .259E+02  .259E+02
  .259E+02  .259E+02  .259E+02  .259E+02  .259E+02  .259E+02  .259E+02  .259E+02
  .000E+00  .000E+00  .000E+00  .000E+00  .000E+00  .000E+00  .000E+00  .000E+00
  .000E+00  .000E+00  .000E+00  .000E+00  .000E+00  .000E+00  .000E+00  .000E+00
  .000E+00  .000E+00  .000E+00  .000E+00
  .267E+02  .246E+02  .246E+02  .246E+02  .265E+02  .268E+02  .178E+02  .268E+02
  .258E+02  .278E+02  .268E+02  .172E+02  .268E+02  .283E+02  .283E+02  .283E+02
  .263E+02  .283E+02  .277E+02  .277E+02  .277E+02  .281E+02  .272E+02  .268E+02
  .261E+02  .260E+02  .298E+02  .323E+02  .275E+02  .275E+02  .278E+02  .282E+02
  .316E+02  .283E+02  .271E+02  .305E+02  .253E+02  .261E+02  .264E+02  .264E+02
  .265E+02  .271E+02  .278E+02  .279E+02  .283E+02  .292E+02  .318E+02  .319E+02
  .315E+02  .298E+02  .299E+02  .296E+02  .459E+02  .469E+02  .426E+02  .264E+02
  .274E+02  .275E+02  .286E+02  .287E+02  .288E+02  .313E+02  .307E+02  .261E+02
  .382E+02  .261E+02  .261E+02  .261E+02  .343E+02  .559E+02  .332E+02  .333E+02
  .422E+02  .296E+02  .302E+02  .302E+02  .303E+02  .282E+02  .415E+02  .394E+02
  .000E+00  .000E+00  .000E+00  .000E+00  .000E+00  .000E+00  .000E+00  .000E+00
  .000E+00  .000E+00  .000E+00  .000E+00  .000E+00  .000E+00  .000E+00  .000E+00
  .000E+00  .000E+00  .000E+00  .000E+00
Damping =  .05. Data of Sd,Sv,Sa,Pssv,ttSd,ttSv,ttSa :
  .102E-03  .116E-03  .136E-03  .140E-03  .165E-03  .210E-03  .258E-03  .355E-03
  .483E-03  .557E-03  .677E-03  .730E-03  .984E-03  .129E-02  .187E-02  .227E-02
  .165E-02  .162E-02  .152E-02  .172E-02  .224E-02  .277E-02  .362E-02  .456E-02
  .450E-02  .452E-02  .433E-02  .385E-02  .483E-02  .574E-02  .711E-02  .756E-02
  .910E-02  .109E-01  .984E-02  .832E-02  .840E-02  .118E-01  .157E-01  .186E-01
