Response and Fourier amplitude spectra (80 periods,  .04 -  7.0 sec)   for      
Corrected accelerogram   24207-M0150-08211.01       Chan 12: 270 Deg     from   
Uncorrected Accelerogram Data             Processed: 08/04/08, CDMG  CE24207D   
Record of Tue Jul 29, 2008 11:42:12.0 PDT             (Avol1 v7.9 7/08 CSMIP)   
CSMIP Preliminary Processing            (Origin:  To be determined)             
24207-M0150-08211.01                 Start time:  7/29/08, 18:42:12.0 UTC (GPS) 
Station No. 24207   34.334N, 118.396W    MtWtny  s/n  150 (17 Channels)         
Sylmar - Pacoima Dam                      CGS                                   
Chan 12: 270 DegR                   Location: Right (North) Abutment            
Record of Tue Jul 29, 2008 11:42:12.0 PDT    Tue Jul 29, 2008 11:42:12.0 PDT    
Hypocenter:  To be determined.               ML:  To be determined.
Instr Period =  .0200 sec,  Damping =  .700,  Sensitivity =  .63  v/g  (Nominal)
                        Record length = 59.000 sec.
                                     Uncor Max  =   .010 g , at  27.515 sec.
RMS accel of (uncor) record  =        .   Chn. metadata effective date: 01/01/04
Accelerogram bandpass filtered with 3 dB pts at   .14 and 40.00 cyc/sec
                 instrument- and baseline-corrected





Record of Tue Jul 29, 2008 11:42:12.0 PDT    Tue Jul 29, 2008 11:42:12.0 PDT

24207-M0150-08211.01      Sylmar - Pacoima Dam    Chan 12: 270 Deg

24207-M0150-08211.01      Sylmar - Pacoima Dam    Chan 12: 270 Deg

Units for spectra are inches and sec, except Sa is in fraction of g.

   12  100   12   18   17  200    1    3    1   24   13  150    024207    5    0
   18   42   12    0  211    7   29 2008   10    3  27011800   41   20   76   -1
11800    0   50    3  150    1    1  590    2    0    0    0    0    0    0    0
    0    4    0    011800    1  220    1   18    4   76   20    1    1    011800
    311800   21   80    5   17    5    0    0    0   17    0    0    3    0    2
    2    2    4    0   68   99    0   32   32    0    1    1    0    0    0    0
    1    1   60    0
      .020      .700    59.000      .001      .000   625.000      .010    27.515
    50.000      .298      .477      .000     5.000      .000     4.000      .000
     2.500    -1.628     2.500  2016.000    25.000    30.000      .000      .000
     -.001     -.001     2.000    15.000    34.334  -118.396      .022      .319
    14.308      .000      .000   594.000    25.500    28.800    12.700   119.840
     1.000    -1.160      .000      .000      .000      .000      .000      .000
     4.200     7.900     4.600   980.665      .005    59.000     7.958      .000
      .000    40.000      .000    59.000      .005      .143      .000      .000
    27.515    10.259    27.435     -.559    27.115      .082      .000      .143
    40.000      .005      .005      .000      .005      .024      .000      .000
      .034      .240      .020      .024      .007      .001      .000      .000
      .000      .000      .000      .000      .000      .000      .000      .000
      .000      .000      .000      .000
      .000      .020      .050      .100      .200
      .040      .042      .044      .046      .048      .050      .055      .060
      .065      .070      .075      .080      .085      .090      .095      .100
      .110      .120      .130      .140      .150      .160      .170      .180
      .190      .200      .220      .240      .260      .280      .300      .320
      .340      .360      .380      .400      .420      .440      .460      .480
      .500      .550      .600      .650      .700      .750      .800      .850
      .900      .950     1.000     1.100     1.200     1.300     1.400     1.500
     1.600     1.700     1.800     1.900     2.000     2.200     2.400     2.600
     2.800     3.000     3.200     3.400     3.600     3.800     4.000     4.200
     4.400     4.600     4.800     5.000     5.500     6.000     6.500     7.000
      .000      .000      .000      .000      .000      .000      .000      .000
      .000      .000      .000      .000      .000      .000      .000      .000
      .000      .000      .000      .000
Fourier amplitude spectra in in/sec.
  .694E-01  .274E-01  .796E-01  .381E-01  .757E-01  .180E+00  .952E-01  .434E-01
  .394E-01  .147E+00  .226E+00  .478E+00  .586E-01  .301E+00  .435E+00  .531E+00
  .529E+00  .485E+00  .260E+00  .453E+00  .417E+00  .103E+00  .479E+00  .310E+00
  .210E+00  .557E+00  .536E+00  .945E+00  .111E+01  .841E+00  .315E+00  .797E+00
  .353E+00  .420E+00  .556E+00  .907E+00  .959E+00  .105E+01  .638E+00  .543E+00
  .169E+01  .298E+00  .118E+01  .101E+01  .691E+00  .864E+00  .486E+00  .451E+00
  .280E+00  .940E+00  .610E+00  .343E+00  .197E+00  .309E+00  .333E+00  .254E+00
  .782E+00  .639E+00  .247E+00  .431E+00  .531E+00  .161E+00  .931E-01  .315E-01
  .319E-01  .137E+00  .156E+00  .148E+00  .173E+00  .223E+00  .185E+00  .128E+00
  .134E+00  .133E+00  .101E+00  .688E-01  .895E-01  .643E-01  .301E-01  .118E-01
  .000E+00  .000E+00  .000E+00  .000E+00  .000E+00  .000E+00  .000E+00  .000E+00
  .000E+00  .000E+00  .000E+00  .000E+00  .000E+00  .000E+00  .000E+00  .000E+00
  .000E+00  .000E+00  .000E+00  .000E+00
Damping =  .00. Data of Sd,Sv,Sa,Pssv,ttSd,ttSv,ttSa :
  .505E-03  .378E-03  .683E-03  .590E-03  .828E-03  .153E-02  .109E-02  .771E-03
  .147E-02  .236E-02  .278E-02  .630E-02  .342E-02  .452E-02  .685E-02  .880E-02
  .970E-02  .116E-01  .559E-02  .108E-01  .138E-01  .634E-02  .155E-01  .942E-02
  .113E-01  .213E-01  .244E-01  .415E-01  .548E-01  .434E-01  .453E-01  .408E-01
  .250E-01  .405E-01  .443E-01  .632E-01  .953E-01  .756E-01  .720E-01  .925E-01
  .135E+00  .501E-01  .137E+00  .170E+00  .119E+00  .113E+00  .656E-01  .695E-01
  .729E-01  .145E+00  .152E+00  .111E+00  .819E-01  .768E-01  .113E+00  .122E+00
  .220E+00  .175E+00  .116E+00  .143E+00  .184E+00  .970E-01  .749E-01  .578E-01
  .620E-01  .718E-01  .886E-01  .941E-01  .110E+00  .135E+00  .122E+00  .115E+00
  .106E+00  .990E-01  .991E-01  .972E-01  .844E-01  .673E-01  .538E-01  .511E-01
  .000E+00  .000E+00  .000E+00  .000E+00  .000E+00  .000E+00  .000E+00  .000E+00
  .000E+00  .000E+00  .000E+00  .000E+00  .000E+00  .000E+00  .000E+00  .000E+00
  .000E+00  .000E+00  .000E+00  .000E+00
  .700E-01  .402E-01  .814E-01  .729E-01  .939E-01  .191E+00  .117E+00  .689E-01
  .132E+00  .212E+00  .232E+00  .492E+00  .253E+00  .311E+00  .451E+00  .539E+00
  .547E+00  .588E+00  .266E+00  .476E+00  .578E+00  .228E+00  .553E+00  .325E+00
  .364E+00  .655E+00  .691E+00  .106E+01  .129E+01  .969E+00  .933E+00  .809E+00
  .450E+00  .671E+00  .713E+00  .984E+00  .142E+01  .107E+01  .980E+00  .120E+01
  .169E+01  .532E+00  .144E+01  .170E+01  .108E+01  .949E+00  .519E+00  .532E+00
  .570E+00  .961E+00  .977E+00  .657E+00  .490E+00  .395E+00  .522E+00  .533E+00
  .859E+00  .645E+00  .543E+00  .517E+00  .586E+00  .378E+00  .367E+00  .332E+00
  .283E+00  .261E+00  .261E+00  .249E+00  .248E+00  .243E+00  .237E+00  .237E+00
  .238E+00  .225E+00  .224E+00  .224E+00  .228E+00  .233E+00  .233E+00  .232E+00
  .000E+00  .000E+00  .000E+00  .000E+00  .000E+00  .000E+00  .000E+00  .000E+00
  .000E+00  .000E+00  .000E+00  .000E+00  .000E+00  .000E+00  .000E+00  .000E+00
  .000E+00  .000E+00  .000E+00  .000E+00
  .323E-01  .219E-01  .361E-01  .285E-01  .367E-01  .626E-01  .368E-01  .219E-01
  .357E-01  .493E-01  .505E-01  .101E+00  .485E-01  .570E-01  .776E-01  .900E-01
  .820E-01  .822E-01  .339E-01  .563E-01  .625E-01  .253E-01  .549E-01  .297E-01
  .320E-01  .544E-01  .515E-01  .738E-01  .829E-01  .566E-01  .514E-01  .407E-01
  .221E-01  .319E-01  .313E-01  .404E-01  .552E-01  .399E-01  .348E-01  .411E-01
  .554E-01  .170E-01  .390E-01  .412E-01  .248E-01  .206E-01  .105E-01  .984E-02
  .921E-02  .164E-01  .155E-01  .941E-02  .582E-02  .465E-02  .587E-02  .555E-02
  .878E-02  .618E-02  .367E-02  .405E-02  .469E-02  .205E-02  .133E-02  .875E-03
  .809E-03  .816E-03  .885E-03  .833E-03  .867E-03  .957E-03  .777E-03  .670E-03
  .561E-03  .478E-03  .440E-03  .398E-03  .285E-03  .191E-03  .130E-03  .107E-03
  .000E+00  .000E+00  .000E+00  .000E+00  .000E+00  .000E+00  .000E+00  .000E+00
  .000E+00  .000E+00  .000E+00  .000E+00  .000E+00  .000E+00  .000E+00  .000E+00
  .000E+00  .000E+00  .000E+00  .000E+00
  .794E-01  .565E-01  .975E-01  .807E-01  .108E+00  .192E+00  .124E+00  .807E-01
  .142E+00  .212E+00  .233E+00  .495E+00  .253E+00  .315E+00  .453E+00  .553E+00
  .554E+00  .606E+00  .270E+00  .484E+00  .576E+00  .249E+00  .573E+00  .329E+00
  .374E+00  .668E+00  .696E+00  .109E+01  .132E+01  .974E+00  .948E+00  .800E+00
  .462E+00  .706E+00  .732E+00  .992E+00  .143E+01  .108E+01  .984E+00  .121E+01
  .170E+01  .573E+00  .144E+01  .165E+01  .107E+01  .950E+00  .515E+00  .514E+00
  .509E+00  .958E+00  .952E+00  .636E+00  .429E+00  .371E+00  .505E+00  .511E+00
  .863E+00  .645E+00  .406E+00  .473E+00  .577E+00  .277E+00  .196E+00  .140E+00
  .139E+00  .150E+00  .174E+00  .174E+00  .192E+00  .223E+00  .191E+00  .173E+00
  .152E+00  .135E+00  .130E+00  .122E+00  .964E-01  .704E-01  .520E-01  .459E-01
  .000E+00  .000E+00  .000E+00  .000E+00  .000E+00  .000E+00  .000E+00  .000E+00
  .000E+00  .000E+00  .000E+00  .000E+00  .000E+00  .000E+00  .000E+00  .000E+00
  .000E+00  .000E+00  .000E+00  .000E+00
  .275E+02  .275E+02  .275E+02  .261E+02  .253E+02  .397E+02  .310E+02  .275E+02
  .275E+02  .258E+02  .476E+02  .387E+02  .225E+02  .484E+02  .440E+02  .322E+02
  .304E+02  .325E+02  .468E+02  .348E+02  .338E+02  .276E+02  .288E+02  .452E+02
  .354E+02  .348E+02  .376E+02  .288E+02  .298E+02  .411E+02  .252E+02  .522E+02
  .295E+02  .343E+02  .364E+02  .492E+02  .328E+02  .563E+02  .319E+02  .394E+02
  .480E+02  .272E+02  .355E+02  .325E+02  .298E+02  .471E+02  .505E+02  .348E+02
  .278E+02  .569E+02  .325E+02  .363E+02  .268E+02  .268E+02  .420E+02  .340E+02
  .456E+02  .397E+02  .308E+02  .543E+02  .465E+02  .330E+02  .277E+02  .271E+02
  .342E+02  .484E+02  .367E+02  .370E+02  .518E+02  .661E+02  .438E+02  .465E+02
  .363E+02  .571E+02  .346E+02  .347E+02  .325E+02  .537E+02  .310E+02  .310E+02
  .000E+00  .000E+00  .000E+00  .000E+00  .000E+00  .000E+00  .000E+00  .000E+00
  .000E+00  .000E+00  .000E+00  .000E+00  .000E+00  .000E+00  .000E+00  .000E+00
  .000E+00  .000E+00  .000E+00  .000E+00
  .397E+02  .272E+02  .359E+02  .261E+02  .253E+02  .403E+02  .310E+02  .196E+02
  .280E+02  .258E+02  .477E+02  .388E+02  .225E+02  .478E+02  .440E+02  .323E+02
  .386E+02  .321E+02  .459E+02  .348E+02  .338E+02  .277E+02  .288E+02  .452E+02
  .354E+02  .333E+02  .375E+02  .288E+02  .298E+02  .411E+02  .251E+02  .276E+02
  .294E+02  .344E+02  .365E+02  .493E+02  .331E+02  .564E+02  .302E+02  .388E+02
  .481E+02  .273E+02  .357E+02  .326E+02  .296E+02  .473E+02  .503E+02  .261E+02
  .280E+02  .400E+02  .323E+02  .344E+02  .270E+02  .266E+02  .423E+02  .337E+02
  .476E+02  .385E+02  .286E+02  .395E+02  .490E+02  .326E+02  .274E+02  .274E+02
  .274E+02  .274E+02  .326E+02  .326E+02  .326E+02  .326E+02  .326E+02  .353E+02
  .353E+02  .353E+02  .274E+02  .274E+02  .274E+02  .274E+02  .274E+02  .274E+02
  .000E+00  .000E+00  .000E+00  .000E+00  .000E+00  .000E+00  .000E+00  .000E+00
  .000E+00  .000E+00  .000E+00  .000E+00  .000E+00  .000E+00  .000E+00  .000E+00
  .000E+00  .000E+00  .000E+00  .000E+00
  .275E+02  .275E+02  .275E+02  .261E+02  .253E+02  .397E+02  .310E+02  .275E+02
  .275E+02  .258E+02  .476E+02  .387E+02  .225E+02  .484E+02  .440E+02  .322E+02
  .304E+02  .325E+02  .468E+02  .348E+02  .338E+02  .276E+02  .288E+02  .452E+02
  .354E+02  .348E+02  .376E+02  .288E+02  .298E+02  .411E+02  .252E+02  .522E+02
  .295E+02  .343E+02  .364E+02  .492E+02  .328E+02  .563E+02  .319E+02  .394E+02
  .480E+02  .272E+02  .355E+02  .325E+02  .298E+02  .471E+02  .505E+02  .348E+02
  .278E+02  .569E+02  .325E+02  .363E+02  .268E+02  .268E+02  .420E+02  .340E+02
  .456E+02  .397E+02  .308E+02  .543E+02  .465E+02  .330E+02  .277E+02  .271E+02
  .342E+02  .484E+02  .367E+02  .370E+02  .518E+02  .661E+02  .438E+02  .465E+02
  .363E+02  .571E+02  .346E+02  .347E+02  .325E+02  .537E+02  .310E+02  .310E+02
  .000E+00  .000E+00  .000E+00  .000E+00  .000E+00  .000E+00  .000E+00  .000E+00
  .000E+00  .000E+00  .000E+00  .000E+00  .000E+00  .000E+00  .000E+00  .000E+00
  .000E+00  .000E+00  .000E+00  .000E+00
Damping =  .02. Data of Sd,Sv,Sa,Pssv,ttSd,ttSv,ttSa :
  .204E-03  .210E-03  .285E-03  .299E-03  .288E-03  .390E-03  .491E-03  .494E-03
  .589E-03  .827E-03  .952E-03  .148E-02  .188E-02  .204E-02  .241E-02  .268E-02
  .266E-02  .321E-02  .313E-02  .482E-02  .582E-02  .609E-02  .583E-02  .566E-02
  .717E-02  .932E-02  .134E-01  .278E-01  .285E-01  .278E-01  .293E-01  .266E-01
  .206E-01  .210E-01  .231E-01  .336E-01  .436E-01  .346E-01  .404E-01  .438E-01
  .426E-01  .448E-01  .733E-01  .100E+00  .815E-01  .623E-01  .426E-01  .507E-01
  .675E-01  .858E-01  .984E-01  .822E-01  .703E-01  .689E-01  .725E-01  .870E-01
  .113E+00  .103E+00  .972E-01  .103E+00  .113E+00  .783E-01  .672E-01  .521E-01
  .533E-01  .628E-01  .741E-01  .810E-01  .850E-01  .966E-01  .102E+00  .976E-01
  .927E-01  .878E-01  .901E-01  .887E-01  .794E-01  .633E-01  .513E-01  .493E-01
  .000E+00  .000E+00  .000E+00  .000E+00  .000E+00  .000E+00  .000E+00  .000E+00
  .000E+00  .000E+00  .000E+00  .000E+00  .000E+00  .000E+00  .000E+00  .000E+00
  .000E+00  .000E+00  .000E+00  .000E+00
  .148E-01  .154E-01  .202E-01  .236E-01  .280E-01  .372E-01  .365E-01  .401E-01
  .435E-01  .643E-01  .761E-01  .111E+00  .121E+00  .113E+00  .156E+00  .152E+00
  .142E+00  .139E+00  .111E+00  .169E+00  .224E+00  .213E+00  .201E+00  .180E+00
  .224E+00  .277E+00  .347E+00  .695E+00  .666E+00  .615E+00  .619E+00  .548E+00
  .381E+00  .341E+00  .399E+00  .537E+00  .641E+00  .483E+00  .582E+00  .582E+00
  .508E+00  .460E+00  .812E+00  .101E+01  .778E+00  .633E+00  .418E+00  .458E+00
  .538E+00  .595E+00  .642E+00  .525E+00  .428E+00  .370E+00  .392E+00  .415E+00
  .477E+00  .477E+00  .478E+00  .418E+00  .364E+00  .325E+00  .344E+00  .320E+00
  .282E+00  .260E+00  .250E+00  .245E+00  .242E+00  .237E+00  .231E+00  .226E+00
  .226E+00  .225E+00  .224E+00  .224E+00  .227E+00  .231E+00  .232E+00  .231E+00
  .000E+00  .000E+00  .000E+00  .000E+00  .000E+00  .000E+00  .000E+00  .000E+00
  .000E+00  .000E+00  .000E+00  .000E+00  .000E+00  .000E+00  .000E+00  .000E+00
  .000E+00  .000E+00  .000E+00  .000E+00
  .130E-01  .121E-01  .151E-01  .145E-01  .127E-01  .160E-01  .165E-01  .141E-01
  .143E-01  .174E-01  .174E-01  .237E-01  .266E-01  .257E-01  .274E-01  .276E-01
  .224E-01  .228E-01  .189E-01  .252E-01  .264E-01  .244E-01  .207E-01  .179E-01
  .203E-01  .238E-01  .284E-01  .493E-01  .431E-01  .362E-01  .333E-01  .266E-01
  .183E-01  .166E-01  .164E-01  .215E-01  .253E-01  .183E-01  .195E-01  .194E-01
  .174E-01  .151E-01  .208E-01  .243E-01  .170E-01  .113E-01  .681E-02  .718E-02
  .854E-02  .974E-02  .101E-01  .695E-02  .500E-02  .418E-02  .379E-02  .396E-02
  .454E-02  .364E-02  .307E-02  .293E-02  .289E-02  .166E-02  .120E-02  .792E-03
  .696E-03  .715E-03  .743E-03  .719E-03  .672E-03  .686E-03  .653E-03  .567E-03
  .491E-03  .426E-03  .401E-03  .365E-03  .271E-03  .182E-03  .126E-03  .105E-03
  .000E+00  .000E+00  .000E+00  .000E+00  .000E+00  .000E+00  .000E+00  .000E+00
  .000E+00  .000E+00  .000E+00  .000E+00  .000E+00  .000E+00  .000E+00  .000E+00
  .000E+00  .000E+00  .000E+00  .000E+00
  .321E-01  .313E-01  .408E-01  .409E-01  .377E-01  .490E-01  .561E-01  .517E-01
  .569E-01  .743E-01  .797E-01  .116E+00  .139E+00  .142E+00  .160E+00  .168E+00
  .152E+00  .168E+00  .151E+00  .216E+00  .244E+00  .239E+00  .216E+00  .198E+00
  .237E+00  .293E+00  .384E+00  .727E+00  .689E+00  .623E+00  .614E+00  .523E+00
  .381E+00  .367E+00  .382E+00  .527E+00  .652E+00  .493E+00  .551E+00  .573E+00
  .535E+00  .511E+00  .767E+00  .967E+00  .732E+00  .522E+00  .335E+00  .375E+00
  .472E+00  .568E+00  .618E+00  .469E+00  .368E+00  .333E+00  .325E+00  .364E+00
  .445E+00  .379E+00  .339E+00  .342E+00  .354E+00  .224E+00  .176E+00  .126E+00
  .120E+00  .132E+00  .146E+00  .150E+00  .148E+00  .160E+00  .160E+00  .146E+00
  .132E+00  .120E+00  .118E+00  .111E+00  .907E-01  .663E-01  .496E-01  .442E-01
  .000E+00  .000E+00  .000E+00  .000E+00  .000E+00  .000E+00  .000E+00  .000E+00
  .000E+00  .000E+00  .000E+00  .000E+00  .000E+00  .000E+00  .000E+00  .000E+00
  .000E+00  .000E+00  .000E+00  .000E+00
  .275E+02  .275E+02  .275E+02  .275E+02  .265E+02  .275E+02  .275E+02  .275E+02
  .265E+02  .254E+02  .174E+02  .176E+02  .265E+02  .275E+02  .267E+02  .267E+02
  .262E+02  .275E+02  .275E+02  .275E+02  .276E+02  .276E+02  .277E+02  .276E+02
  .255E+02  .256E+02  .279E+02  .279E+02  .281E+02  .285E+02  .281E+02  .276E+02
  .295E+02  .325E+02  .307E+02  .302E+02  .328E+02  .268E+02  .303E+02  .272E+02
  .272E+02  .272E+02  .288E+02  .299E+02  .287E+02  .278E+02  .258E+02  .258E+02
  .278E+02  .279E+02  .310E+02  .292E+02  .268E+02  .268E+02  .292E+02  .340E+02
  .360E+02  .372E+02  .283E+02  .284E+02  .366E+02  .330E+02  .277E+02  .271E+02
  .329E+02  .330E+02  .367E+02  .370E+02  .357E+02  .358E+02  .358E+02  .359E+02
  .363E+02  .346E+02  .346E+02  .347E+02  .325E+02  .325E+02  .310E+02  .310E+02
  .000E+00  .000E+00  .000E+00  .000E+00  .000E+00  .000E+00  .000E+00  .000E+00
  .000E+00  .000E+00  .000E+00  .000E+00  .000E+00  .000E+00  .000E+00  .000E+00
  .000E+00  .000E+00  .000E+00  .000E+00
  .226E+02  .226E+02  .188E+02  .207E+02  .207E+02  .258E+02  .192E+02  .270E+02
  .265E+02  .258E+02  .173E+02  .173E+02  .265E+02  .276E+02  .267E+02  .267E+02
  .262E+02  .275E+02  .278E+02  .276E+02  .276E+02  .276E+02  .277E+02  .277E+02
  .255E+02  .255E+02  .279E+02  .280E+02  .283E+02  .282E+02  .282E+02  .277E+02
  .294E+02  .324E+02  .305E+02  .303E+02  .327E+02  .276E+02  .302E+02  .273E+02
  .273E+02  .277E+02  .290E+02  .301E+02  .275E+02  .280E+02  .264E+02  .280E+02
  .276E+02  .276E+02  .312E+02  .289E+02  .270E+02  .266E+02  .289E+02  .321E+02
  .347E+02  .286E+02  .286E+02  .278E+02  .371E+02  .326E+02  .274E+02  .274E+02
  .274E+02  .274E+02  .326E+02  .326E+02  .326E+02  .326E+02  .326E+02  .274E+02
  .274E+02  .274E+02  .274E+02  .274E+02  .274E+02  .274E+02  .274E+02  .274E+02
  .000E+00  .000E+00  .000E+00  .000E+00  .000E+00  .000E+00  .000E+00  .000E+00
  .000E+00  .000E+00  .000E+00  .000E+00  .000E+00  .000E+00  .000E+00  .000E+00
  .000E+00  .000E+00  .000E+00  .000E+00
  .275E+02  .275E+02  .275E+02  .275E+02  .265E+02  .275E+02  .275E+02  .275E+02
  .265E+02  .254E+02  .174E+02  .176E+02  .265E+02  .275E+02  .267E+02  .267E+02
  .262E+02  .275E+02  .275E+02  .275E+02  .276E+02  .276E+02  .277E+02  .276E+02
  .255E+02  .256E+02  .279E+02  .279E+02  .281E+02  .285E+02  .281E+02  .276E+02
  .295E+02  .325E+02  .307E+02  .302E+02  .328E+02  .268E+02  .303E+02  .271E+02
  .272E+02  .272E+02  .288E+02  .299E+02  .287E+02  .278E+02  .257E+02  .258E+02
  .278E+02  .279E+02  .310E+02  .292E+02  .267E+02  .268E+02  .292E+02  .340E+02
  .360E+02  .372E+02  .283E+02  .284E+02  .365E+02  .330E+02  .277E+02  .271E+02
  .329E+02  .330E+02  .366E+02  .370E+02  .356E+02  .357E+02  .358E+02  .359E+02
  .363E+02  .346E+02  .346E+02  .346E+02  .324E+02  .325E+02  .310E+02  .310E+02
  .000E+00  .000E+00  .000E+00  .000E+00  .000E+00  .000E+00  .000E+00  .000E+00
  .000E+00  .000E+00  .000E+00  .000E+00  .000E+00  .000E+00  .000E+00  .000E+00
  .000E+00  .000E+00  .000E+00  .000E+00
Damping =  .05. Data of Sd,Sv,Sa,Pssv,ttSd,ttSv,ttSa :
  .189E-03  .215E-03  .248E-03  .264E-03  .263E-03  .315E-03  .408E-03  .423E-03
  .495E-03  .631E-03  .803E-03  .963E-03  .125E-02  .136E-02  .155E-02  .164E-02
  .172E-02  .204E-02  .274E-02  .376E-02  .442E-02  .496E-02  .485E-02  .477E-02
  .596E-02  .723E-02  .111E-01  .190E-01  .213E-01  .217E-01  .208E-01  .197E-01
  .159E-01  .149E-01  .160E-01  .238E-01  .258E-01  .255E-01  .292E-01  .317E-01
