Response and Fourier amplitude spectra (80 periods,  .04 -  7.0 sec)   for      
Corrected accelerogram   24207-M0150-08211.01       Chan 10:  Up         from   
Uncorrected Accelerogram Data             Processed: 08/04/08, CDMG  CE24207D   
Record of Tue Jul 29, 2008 11:42:12.0 PDT             (Avol1 v7.9 7/08 CSMIP)   
CSMIP Preliminary Processing            (Origin:  To be determined)             
24207-M0150-08211.01                 Start time:  7/29/08, 18:42:12.0 UTC (GPS) 
Station No. 24207   34.334N, 118.396W    MtWtny  s/n  150 (17 Channels)         
Sylmar - Pacoima Dam                      CGS                                   
Chan 10:  Up                        Location: Dam Base                          
Record of Tue Jul 29, 2008 11:42:12.0 PDT    Tue Jul 29, 2008 11:42:12.0 PDT    
Hypocenter:  To be determined.               ML:  To be determined.
Instr Period =  .0200 sec,  Damping =  .700,  Sensitivity =  .63  v/g  (Nominal)
                        Record length = 59.000 sec.
                                     Uncor Max  =   .003 g , at  27.010 sec.
RMS accel of (uncor) record  =        .   Chn. metadata effective date: 01/01/04
Accelerogram bandpass filtered with 3 dB pts at   .14 and 40.00 cyc/sec
                 instrument- and baseline-corrected





Record of Tue Jul 29, 2008 11:42:12.0 PDT    Tue Jul 29, 2008 11:42:12.0 PDT

24207-M0150-08211.01      Sylmar - Pacoima Dam    Chan 10:  Up

24207-M0150-08211.01      Sylmar - Pacoima Dam    Chan 10:  Up

Units for spectra are inches and sec, except Sa is in fraction of g.

   10  100   10   18   17  200    1    3    1   24   13  150    024207    5    0
   18   42   12    0  211    7   29 2008   10    3  50011800   41   20   76   -1
11800    1   50    3  150    1    1  590    2    0    0    0    0    0    0    0
    0    4    0    011800    1  220    1   18    4   76   20    1    1    011800
    311800   21   80    5   17    5    0    0    0   17    0    0    3    0    2
    2    2    4    0   68   99    0   32   32    0    1    1    0    0    0    0
    1    1   50    0
      .020      .700    59.000      .000      .000   625.000      .003    27.010
    50.000      .298      .477      .000     5.000      .000     4.000      .000
     2.500    48.321     2.500  2016.000    25.000    30.000      .000      .001
      .003      .002     2.000    15.000    34.334  -118.396      .010      .169
    17.324      .000      .000   594.000    25.500    28.800    12.700   119.840
     1.000    -1.372      .000      .000      .000      .000      .000      .000
     4.200     7.900     4.600   980.665      .005    59.000     7.958      .000
      .000    40.000      .000    59.000      .005      .143      .000      .000
    27.005     3.015    24.745     -.224    25.435     -.056      .000      .143
    40.000      .005      .005      .000      .005      .015      .000      .000
      .008      .340      .007      .006      .002      .001      .000      .000
      .000      .000      .000      .000      .000      .000      .000      .000
      .000      .000      .000      .000
      .000      .020      .050      .100      .200
      .040      .042      .044      .046      .048      .050      .055      .060
      .065      .070      .075      .080      .085      .090      .095      .100
      .110      .120      .130      .140      .150      .160      .170      .180
      .190      .200      .220      .240      .260      .280      .300      .320
      .340      .360      .380      .400      .420      .440      .460      .480
      .500      .550      .600      .650      .700      .750      .800      .850
      .900      .950     1.000     1.100     1.200     1.300     1.400     1.500
     1.600     1.700     1.800     1.900     2.000     2.200     2.400     2.600
     2.800     3.000     3.200     3.400     3.600     3.800     4.000     4.200
     4.400     4.600     4.800     5.000     5.500     6.000     6.500     7.000
      .000      .000      .000      .000      .000      .000      .000      .000
      .000      .000      .000      .000      .000      .000      .000      .000
      .000      .000      .000      .000
Fourier amplitude spectra in in/sec.
  .318E-01  .514E-02  .297E-01  .461E-01  .233E-01  .576E-01  .321E-01  .427E-01
  .562E-01  .461E-01  .282E-01  .413E-01  .585E-01  .627E-01  .645E-01  .513E-01
  .150E+00  .127E+00  .151E+00  .289E-01  .170E+00  .117E+00  .181E+00  .218E+00
  .174E+00  .348E+00  .475E+00  .482E+00  .112E+00  .135E+00  .478E+00  .202E+00
  .573E+00  .449E+00  .380E+00  .114E+00  .359E+00  .378E+00  .280E+00  .319E+00
  .520E+00  .322E+00  .359E+00  .370E+00  .416E+00  .399E+00  .822E+00  .452E+00
  .571E+00  .224E+00  .179E+00  .226E+00  .427E+00  .535E+00  .214E+00  .182E+00
  .468E+00  .235E+00  .707E-01  .272E+00  .217E+00  .280E+00  .200E+00  .175E+00
  .190E+00  .106E+00  .887E-01  .111E+00  .317E-01  .147E+00  .117E+00  .516E-01
  .833E-01  .853E-01  .499E-01  .152E-01  .367E-01  .472E-01  .361E-01  .323E-01
  .000E+00  .000E+00  .000E+00  .000E+00  .000E+00  .000E+00  .000E+00  .000E+00
  .000E+00  .000E+00  .000E+00  .000E+00  .000E+00  .000E+00  .000E+00  .000E+00
  .000E+00  .000E+00  .000E+00  .000E+00
Damping =  .00. Data of Sd,Sv,Sa,Pssv,ttSd,ttSv,ttSa :
  .206E-03  .145E-03  .338E-03  .380E-03  .211E-03  .469E-03  .376E-03  .602E-03
  .622E-03  .609E-03  .382E-03  .580E-03  .942E-03  .127E-02  .162E-02  .130E-02
  .285E-02  .287E-02  .350E-02  .148E-02  .441E-02  .393E-02  .696E-02  .777E-02
  .615E-02  .118E-01  .170E-01  .188E-01  .102E-01  .743E-02  .243E-01  .177E-01
  .382E-01  .323E-01  .238E-01  .158E-01  .286E-01  .341E-01  .256E-01  .411E-01
  .544E-01  .341E-01  .346E-01  .474E-01  .486E-01  .493E-01  .107E+00  .646E-01
  .910E-01  .473E-01  .329E-01  .584E-01  .863E-01  .113E+00  .968E-01  .107E+00
  .141E+00  .816E-01  .840E-01  .927E-01  .824E-01  .989E-01  .885E-01  .726E-01
  .849E-01  .680E-01  .523E-01  .605E-01  .570E-01  .893E-01  .794E-01  .687E-01
  .666E-01  .677E-01  .536E-01  .534E-01  .485E-01  .496E-01  .507E-01  .476E-01
  .000E+00  .000E+00  .000E+00  .000E+00  .000E+00  .000E+00  .000E+00  .000E+00
  .000E+00  .000E+00  .000E+00  .000E+00  .000E+00  .000E+00  .000E+00  .000E+00
  .000E+00  .000E+00  .000E+00  .000E+00
  .314E-01  .188E-01  .466E-01  .492E-01  .260E-01  .580E-01  .383E-01  .592E-01
  .578E-01  .530E-01  .295E-01  .431E-01  .654E-01  .820E-01  .102E+00  .724E-01
  .156E+00  .144E+00  .160E+00  .622E-01  .182E+00  .143E+00  .249E+00  .265E+00
  .199E+00  .367E+00  .483E+00  .490E+00  .241E+00  .163E+00  .504E+00  .326E+00
  .703E+00  .575E+00  .390E+00  .255E+00  .417E+00  .480E+00  .341E+00  .521E+00
  .678E+00  .382E+00  .367E+00  .463E+00  .435E+00  .407E+00  .848E+00  .481E+00
  .634E+00  .324E+00  .232E+00  .327E+00  .461E+00  .551E+00  .437E+00  .465E+00
  .565E+00  .314E+00  .311E+00  .326E+00  .258E+00  .287E+00  .233E+00  .198E+00
  .190E+00  .156E+00  .151E+00  .149E+00  .146E+00  .151E+00  .139E+00  .137E+00
  .136E+00  .132E+00  .127E+00  .121E+00  .113E+00  .105E+00  .101E+00  .978E-01
  .000E+00  .000E+00  .000E+00  .000E+00  .000E+00  .000E+00  .000E+00  .000E+00
  .000E+00  .000E+00  .000E+00  .000E+00  .000E+00  .000E+00  .000E+00  .000E+00
  .000E+00  .000E+00  .000E+00  .000E+00
  .132E-01  .841E-02  .178E-01  .184E-01  .936E-02  .192E-01  .127E-01  .171E-01
  .151E-01  .127E-01  .694E-02  .926E-02  .133E-01  .160E-01  .184E-01  .133E-01
  .241E-01  .204E-01  .212E-01  .771E-02  .201E-01  .157E-01  .246E-01  .245E-01
  .174E-01  .303E-01  .359E-01  .334E-01  .154E-01  .969E-02  .276E-01  .177E-01
  .338E-01  .255E-01  .169E-01  .101E-01  .166E-01  .180E-01  .124E-01  .182E-01
  .223E-01  .115E-01  .982E-02  .115E-01  .101E-01  .895E-02  .172E-01  .915E-02
  .115E-01  .535E-02  .336E-02  .494E-02  .613E-02  .685E-02  .505E-02  .484E-02
  .564E-02  .289E-02  .265E-02  .263E-02  .211E-02  .209E-02  .157E-02  .110E-02
  .111E-02  .773E-03  .522E-03  .535E-03  .450E-03  .632E-03  .508E-03  .398E-03
  .352E-03  .327E-03  .238E-03  .218E-03  .164E-03  .141E-03  .123E-03  .994E-04
  .000E+00  .000E+00  .000E+00  .000E+00  .000E+00  .000E+00  .000E+00  .000E+00
  .000E+00  .000E+00  .000E+00  .000E+00  .000E+00  .000E+00  .000E+00  .000E+00
  .000E+00  .000E+00  .000E+00  .000E+00
  .324E-01  .217E-01  .482E-01  .519E-01  .276E-01  .589E-01  .429E-01  .631E-01
  .602E-01  .547E-01  .320E-01  .455E-01  .697E-01  .887E-01  .107E+00  .816E-01
  .163E+00  .150E+00  .169E+00  .663E-01  .185E+00  .154E+00  .257E+00  .271E+00
  .204E+00  .372E+00  .485E+00  .493E+00  .246E+00  .167E+00  .509E+00  .348E+00
  .706E+00  .564E+00  .394E+00  .248E+00  .427E+00  .487E+00  .350E+00  .538E+00
  .684E+00  .390E+00  .362E+00  .458E+00  .436E+00  .413E+00  .844E+00  .478E+00
  .635E+00  .313E+00  .207E+00  .334E+00  .452E+00  .547E+00  .434E+00  .446E+00
  .554E+00  .302E+00  .293E+00  .307E+00  .259E+00  .283E+00  .232E+00  .175E+00
  .191E+00  .142E+00  .103E+00  .112E+00  .995E-01  .148E+00  .125E+00  .103E+00
  .951E-01  .925E-01  .701E-01  .671E-01  .555E-01  .520E-01  .490E-01  .427E-01
  .000E+00  .000E+00  .000E+00  .000E+00  .000E+00  .000E+00  .000E+00  .000E+00
  .000E+00  .000E+00  .000E+00  .000E+00  .000E+00  .000E+00  .000E+00  .000E+00
  .000E+00  .000E+00  .000E+00  .000E+00
  .421E+02  .246E+02  .239E+02  .317E+02  .252E+02  .450E+02  .308E+02  .281E+02
  .296E+02  .325E+02  .341E+02  .398E+02  .317E+02  .273E+02  .281E+02  .270E+02
  .342E+02  .275E+02  .296E+02  .261E+02  .331E+02  .254E+02  .308E+02  .308E+02
  .395E+02  .342E+02  .520E+02  .535E+02  .309E+02  .391E+02  .380E+02  .282E+02
  .388E+02  .296E+02  .502E+02  .236E+02  .436E+02  .333E+02  .333E+02  .264E+02
  .452E+02  .465E+02  .278E+02  .423E+02  .388E+02  .428E+02  .565E+02  .562E+02
  .513E+02  .325E+02  .299E+02  .457E+02  .501E+02  .521E+02  .433E+02  .333E+02
  .465E+02  .471E+02  .286E+02  .458E+02  .409E+02  .564E+02  .452E+02  .583E+02
  .581E+02  .493E+02  .515E+02  .576E+02  .364E+02  .578E+02  .549E+02  .438E+02
  .423E+02  .548E+02  .534E+02  .303E+02  .303E+02  .466E+02  .415E+02  .394E+02
  .000E+00  .000E+00  .000E+00  .000E+00  .000E+00  .000E+00  .000E+00  .000E+00
  .000E+00  .000E+00  .000E+00  .000E+00  .000E+00  .000E+00  .000E+00  .000E+00
  .000E+00  .000E+00  .000E+00  .000E+00
  .531E+02  .245E+02  .240E+02  .316E+02  .404E+02  .449E+02  .305E+02  .281E+02
  .369E+02  .366E+02  .351E+02  .405E+02  .320E+02  .273E+02  .281E+02  .269E+02
  .342E+02  .275E+02  .316E+02  .266E+02  .331E+02  .271E+02  .307E+02  .319E+02
  .396E+02  .345E+02  .519E+02  .546E+02  .309E+02  .392E+02  .381E+02  .281E+02
  .397E+02  .295E+02  .552E+02  .253E+02  .435E+02  .332E+02  .332E+02  .266E+02
  .451E+02  .448E+02  .279E+02  .437E+02  .396E+02  .430E+02  .563E+02  .564E+02
  .515E+02  .328E+02  .297E+02  .460E+02  .504E+02  .570E+02  .430E+02  .314E+02
  .469E+02  .305E+02  .290E+02  .454E+02  .344E+02  .570E+02  .446E+02  .384E+02
  .588E+02  .500E+02  .259E+02  .260E+02  .260E+02  .568E+02  .260E+02  .260E+02
  .260E+02  .260E+02  .260E+02  .260E+02  .260E+02  .260E+02  .247E+02  .247E+02
  .000E+00  .000E+00  .000E+00  .000E+00  .000E+00  .000E+00  .000E+00  .000E+00
  .000E+00  .000E+00  .000E+00  .000E+00  .000E+00  .000E+00  .000E+00  .000E+00
  .000E+00  .000E+00  .000E+00  .000E+00
  .421E+02  .246E+02  .239E+02  .317E+02  .252E+02  .450E+02  .308E+02  .281E+02
  .296E+02  .325E+02  .341E+02  .398E+02  .317E+02  .273E+02  .281E+02  .270E+02
  .342E+02  .275E+02  .296E+02  .261E+02  .331E+02  .254E+02  .308E+02  .308E+02
  .395E+02  .342E+02  .520E+02  .535E+02  .309E+02  .391E+02  .380E+02  .282E+02
  .388E+02  .296E+02  .502E+02  .236E+02  .436E+02  .333E+02  .333E+02  .264E+02
  .452E+02  .465E+02  .278E+02  .423E+02  .388E+02  .428E+02  .565E+02  .562E+02
  .513E+02  .325E+02  .299E+02  .457E+02  .501E+02  .521E+02  .433E+02  .333E+02
  .465E+02  .471E+02  .286E+02  .458E+02  .409E+02  .564E+02  .452E+02  .583E+02
  .581E+02  .493E+02  .515E+02  .576E+02  .364E+02  .578E+02  .549E+02  .438E+02
  .423E+02  .548E+02  .534E+02  .303E+02  .303E+02  .466E+02  .415E+02  .394E+02
  .000E+00  .000E+00  .000E+00  .000E+00  .000E+00  .000E+00  .000E+00  .000E+00
  .000E+00  .000E+00  .000E+00  .000E+00  .000E+00  .000E+00  .000E+00  .000E+00
  .000E+00  .000E+00  .000E+00  .000E+00
Damping =  .02. Data of Sd,Sv,Sa,Pssv,ttSd,ttSv,ttSa :
  .595E-04  .753E-04  .937E-04  .962E-04  .957E-04  .109E-03  .143E-03  .170E-03
  .164E-03  .204E-03  .219E-03  .304E-03  .318E-03  .486E-03  .705E-03  .571E-03
  .132E-02  .122E-02  .117E-02  .112E-02  .149E-02  .199E-02  .256E-02  .348E-02
  .428E-02  .420E-02  .450E-02  .518E-02  .547E-02  .441E-02  .881E-02  .102E-01
  .137E-01  .161E-01  .134E-01  .942E-02  .106E-01  .140E-01  .169E-01  .250E-01
  .252E-01  .243E-01  .230E-01  .238E-01  .292E-01  .285E-01  .512E-01  .348E-01
  .371E-01  .314E-01  .296E-01  .277E-01  .444E-01  .527E-01  .630E-01  .696E-01
  .741E-01  .658E-01  .687E-01  .657E-01  .604E-01  .677E-01  .677E-01  .550E-01
  .501E-01  .495E-01  .457E-01  .407E-01  .463E-01  .508E-01  .511E-01  .503E-01
  .491E-01  .463E-01  .468E-01  .484E-01  .449E-01  .408E-01  .417E-01  .409E-01
  .000E+00  .000E+00  .000E+00  .000E+00  .000E+00  .000E+00  .000E+00  .000E+00
  .000E+00  .000E+00  .000E+00  .000E+00  .000E+00  .000E+00  .000E+00  .000E+00
  .000E+00  .000E+00  .000E+00  .000E+00
  .539E-02  .796E-02  .111E-01  .109E-01  .112E-01  .112E-01  .118E-01  .148E-01
  .133E-01  .123E-01  .127E-01  .177E-01  .200E-01  .290E-01  .391E-01  .299E-01
  .664E-01  .588E-01  .483E-01  .472E-01  .540E-01  .624E-01  .834E-01  .104E+00
  .128E+00  .128E+00  .122E+00  .129E+00  .133E+00  .930E-01  .169E+00  .186E+00
  .249E+00  .278E+00  .226E+00  .153E+00  .160E+00  .200E+00  .222E+00  .311E+00
  .316E+00  .265E+00  .239E+00  .237E+00  .263E+00  .232E+00  .397E+00  .275E+00
  .290E+00  .222E+00  .216E+00  .164E+00  .219E+00  .261E+00  .283E+00  .322E+00
  .314E+00  .260E+00  .251E+00  .230E+00  .220E+00  .221E+00  .185E+00  .155E+00
  .144E+00  .144E+00  .145E+00  .144E+00  .142E+00  .139E+00  .136E+00  .134E+00
  .132E+00  .129E+00  .125E+00  .120E+00  .113E+00  .106E+00  .101E+00  .980E-01
  .000E+00  .000E+00  .000E+00  .000E+00  .000E+00  .000E+00  .000E+00  .000E+00
  .000E+00  .000E+00  .000E+00  .000E+00  .000E+00  .000E+00  .000E+00  .000E+00
  .000E+00  .000E+00  .000E+00  .000E+00
  .381E-02  .438E-02  .493E-02  .465E-02  .426E-02  .450E-02  .484E-02  .486E-02
  .397E-02  .425E-02  .400E-02  .486E-02  .450E-02  .613E-02  .798E-02  .584E-02
  .111E-01  .867E-02  .708E-02  .586E-02  .678E-02  .797E-02  .907E-02  .110E-01
  .121E-01  .107E-01  .950E-02  .919E-02  .828E-02  .576E-02  .100E-01  .102E-01
  .121E-01  .127E-01  .954E-02  .603E-02  .618E-02  .740E-02  .815E-02  .111E-01
  .103E-01  .822E-02  .654E-02  .576E-02  .610E-02  .518E-02  .818E-02  .493E-02
  .469E-02  .356E-02  .303E-02  .234E-02  .316E-02  .319E-02  .329E-02  .316E-02
  .296E-02  .233E-02  .217E-02  .186E-02  .155E-02  .143E-02  .120E-02  .835E-03
  .656E-03  .565E-03  .459E-03  .362E-03  .366E-03  .360E-03  .327E-03  .292E-03
  .260E-03  .225E-03  .208E-03  .199E-03  .153E-03  .117E-03  .101E-03  .857E-04
  .000E+00  .000E+00  .000E+00  .000E+00  .000E+00  .000E+00  .000E+00  .000E+00
  .000E+00  .000E+00  .000E+00  .000E+00  .000E+00  .000E+00  .000E+00  .000E+00
  .000E+00  .000E+00  .000E+00  .000E+00
  .935E-02  .113E-01  .134E-01  .131E-01  .125E-01  .137E-01  .163E-01  .178E-01
  .158E-01  .183E-01  .184E-01  .239E-01  .235E-01  .339E-01  .466E-01  .359E-01
  .752E-01  .639E-01  .565E-01  .503E-01  .623E-01  .782E-01  .946E-01  .121E+00
  .141E+00  .132E+00  .128E+00  .136E+00  .132E+00  .990E-01  .185E+00  .200E+00
  .253E+00  .281E+00  .222E+00  .148E+00  .159E+00  .200E+00  .230E+00  .327E+00
  .317E+00  .277E+00  .241E+00  .230E+00  .262E+00  .239E+00  .402E+00  .257E+00
  .259E+00  .207E+00  .186E+00  .158E+00  .232E+00  .255E+00  .283E+00  .291E+00
  .291E+00  .243E+00  .240E+00  .217E+00  .190E+00  .193E+00  .177E+00  .133E+00
  .112E+00  .104E+00  .898E-01  .751E-01  .807E-01  .840E-01  .802E-01  .752E-01
  .701E-01  .633E-01  .613E-01  .608E-01  .513E-01  .427E-01  .403E-01  .367E-01
  .000E+00  .000E+00  .000E+00  .000E+00  .000E+00  .000E+00  .000E+00  .000E+00
  .000E+00  .000E+00  .000E+00  .000E+00  .000E+00  .000E+00  .000E+00  .000E+00
  .000E+00  .000E+00  .000E+00  .000E+00
  .270E+02  .247E+02  .247E+02  .270E+02  .265E+02  .184E+02  .280E+02  .249E+02
  .249E+02  .254E+02  .282E+02  .270E+02  .280E+02  .273E+02  .282E+02  .282E+02
  .283E+02  .283E+02  .275E+02  .280E+02  .276E+02  .254E+02  .254E+02  .261E+02
  .270E+02  .259E+02  .298E+02  .298E+02  .274E+02  .276E+02  .277E+02  .282E+02
  .314E+02  .285E+02  .271E+02  .307E+02  .253E+02  .333E+02  .264E+02  .264E+02
  .265E+02  .271E+02  .278E+02  .312E+02  .283E+02  .288E+02  .318E+02  .319E+02
  .328E+02  .316E+02  .299E+02  .446E+02  .459E+02  .481E+02  .426E+02  .264E+02
  .274E+02  .275E+02  .286E+02  .287E+02  .288E+02  .313E+02  .307E+02  .261E+02
  .382E+02  .261E+02  .261E+02  .262E+02  .364E+02  .560E+02  .332E+02  .334E+02
  .423E+02  .297E+02  .302E+02  .303E+02  .303E+02  .282E+02  .415E+02  .394E+02
  .000E+00  .000E+00  .000E+00  .000E+00  .000E+00  .000E+00  .000E+00  .000E+00
  .000E+00  .000E+00  .000E+00  .000E+00  .000E+00  .000E+00  .000E+00  .000E+00
  .000E+00  .000E+00  .000E+00  .000E+00
  .225E+02  .247E+02  .247E+02  .187E+02  .207E+02  .207E+02  .280E+02  .179E+02
  .249E+02  .186E+02  .180E+02  .188E+02  .180E+02  .273E+02  .282E+02  .277E+02
  .283E+02  .283E+02  .275E+02  .280E+02  .279E+02  .255E+02  .257E+02  .260E+02
  .269E+02  .259E+02  .298E+02  .274E+02  .274E+02  .274E+02  .279E+02  .281E+02
  .315E+02  .284E+02  .272E+02  .306E+02  .252E+02  .284E+02  .265E+02  .263E+02
  .264E+02  .270E+02  .279E+02  .277E+02  .285E+02  .286E+02  .320E+02  .330E+02
  .317E+02  .309E+02  .297E+02  .294E+02  .462E+02  .472E+02  .423E+02  .276E+02
  .310E+02  .271E+02  .290E+02  .283E+02  .283E+02  .309E+02  .310E+02  .269E+02
  .269E+02  .259E+02  .259E+02  .260E+02  .260E+02  .260E+02  .260E+02  .260E+02
  .260E+02  .260E+02  .260E+02  .260E+02  .260E+02  .260E+02  .247E+02  .260E+02
  .000E+00  .000E+00  .000E+00  .000E+00  .000E+00  .000E+00  .000E+00  .000E+00
  .000E+00  .000E+00  .000E+00  .000E+00  .000E+00  .000E+00  .000E+00  .000E+00
  .000E+00  .000E+00  .000E+00  .000E+00
  .270E+02  .247E+02  .247E+02  .270E+02  .265E+02  .184E+02  .280E+02  .249E+02
  .249E+02  .254E+02  .282E+02  .270E+02  .280E+02  .273E+02  .282E+02  .282E+02
  .283E+02  .283E+02  .275E+02  .280E+02  .276E+02  .254E+02  .254E+02  .261E+02
  .270E+02  .259E+02  .298E+02  .298E+02  .274E+02  .276E+02  .276E+02  .282E+02
  .314E+02  .285E+02  .271E+02  .307E+02  .253E+02  .333E+02  .264E+02  .264E+02
  .265E+02  .271E+02  .278E+02  .312E+02  .283E+02  .288E+02  .318E+02  .319E+02
  .328E+02  .316E+02  .299E+02  .446E+02  .459E+02  .481E+02  .426E+02  .264E+02
  .274E+02  .275E+02  .285E+02  .287E+02  .287E+02  .313E+02  .307E+02  .261E+02
  .261E+02  .261E+02  .261E+02  .261E+02  .363E+02  .560E+02  .332E+02  .333E+02
  .422E+02  .296E+02  .302E+02  .303E+02  .303E+02  .282E+02  .415E+02  .394E+02
  .000E+00  .000E+00  .000E+00  .000E+00  .000E+00  .000E+00  .000E+00  .000E+00
  .000E+00  .000E+00  .000E+00  .000E+00  .000E+00  .000E+00  .000E+00  .000E+00
  .000E+00  .000E+00  .000E+00  .000E+00
Damping =  .05. Data of Sd,Sv,Sa,Pssv,ttSd,ttSv,ttSa :
  .524E-04  .599E-04  .701E-04  .783E-04  .819E-04  .828E-04  .106E-03  .132E-03
  .141E-03  .154E-03  .186E-03  .248E-03  .278E-03  .359E-03  .455E-03  .535E-03
  .871E-03  .903E-03  .807E-03  .872E-03  .110E-02  .164E-02  .207E-02  .234E-02
  .265E-02  .297E-02  .319E-02  .376E-02  .403E-02  .401E-02  .604E-02  .719E-02
  .898E-02  .972E-02  .968E-02  .784E-02  .798E-02  .100E-01  .138E-01  .172E-01
