Response and Fourier amplitude spectra (80 periods,  .04 -  7.0 sec)   for      
Corrected accelerogram   24207-M0150-08211.01       Chan  4:  Tang       from   
Uncorrected Accelerogram Data             Processed: 08/04/08, CDMG  CE24207D   
Record of Tue Jul 29, 2008 11:42:12.0 PDT             (Avol1 v7.9 7/08 CSMIP)   
CSMIP Preliminary Processing            (Origin:  To be determined)             
24207-M0150-08211.01                 Start time:  7/29/08, 18:42:12.0 UTC (GPS) 
Station No. 24207   34.334N, 118.396W    MtWtny  s/n  150 (17 Channels)         
Sylmar - Pacoima Dam                      CGS                                   
Chan  4:  Tang                      Location: Crest: Center                     
Record of Tue Jul 29, 2008 11:42:12.0 PDT    Tue Jul 29, 2008 11:42:12.0 PDT    
Hypocenter:  To be determined.               ML:  To be determined.
Instr Period =  .0200 sec,  Damping =  .700,  Sensitivity =  .63  v/g  (Nominal)
                        Record length = 59.000 sec.
                                     Uncor Max  =  -.010 g , at  28.105 sec.
RMS accel of (uncor) record  =        .   Chn. metadata effective date: 01/01/04
Accelerogram bandpass filtered with 3 dB pts at   .14 and 40.00 cyc/sec
                 instrument- and baseline-corrected





Record of Tue Jul 29, 2008 11:42:12.0 PDT    Tue Jul 29, 2008 11:42:12.0 PDT

24207-M0150-08211.01      Sylmar - Pacoima Dam    Chan  4:  Tang

24207-M0150-08211.01      Sylmar - Pacoima Dam    Chan  4:  Tang

Units for spectra are inches and sec, except Sa is in fraction of g.

    4  100    4   18   17  200    1    3    1   24   13  150    024207    5    0
   18   42   12    0  211    7   29 2008   10    3 100011800   41   20   76   -1
11800    0   50    3  150    1    1  590    2    0    0    0    0    0    0    0
    0    4    0    011800    1  220    1   18    4   76   20    1    1    011800
    311800   21   80    5   17    5    0    0    0   17    0    0    3    0    2
    2    2    4    0   68   99    0   32   32    0    1    1    0    0    0    0
    1    1   20    0
      .020      .700    59.000      .001      .000   625.000     -.010    28.105
    50.000      .298      .477      .000     5.000      .000     4.000      .000
     2.500   -16.313     2.500  2016.000    25.000    30.000      .000     -.005
      .005      .011     2.000    15.000    34.334  -118.396      .012      .277
    22.519      .000      .000   594.000    25.500    28.800    12.700   119.840
     1.000     2.194      .000      .000      .000      .000      .000      .000
     4.200     7.900     4.600   980.665      .005    59.000     7.958      .000
      .000    40.000      .000    59.000      .005      .143      .000      .000
    28.105   -10.244    25.440      .616    27.100     -.111      .000      .143
    40.000      .005      .005     -.001      .005      .024      .000      .000
      .046      .190      .040      .019      .008      .001      .000      .000
      .000      .000      .000      .000      .000      .000      .000      .000
      .000      .000      .000      .000
      .000      .020      .050      .100      .200
      .040      .042      .044      .046      .048      .050      .055      .060
      .065      .070      .075      .080      .085      .090      .095      .100
      .110      .120      .130      .140      .150      .160      .170      .180
      .190      .200      .220      .240      .260      .280      .300      .320
      .340      .360      .380      .400      .420      .440      .460      .480
      .500      .550      .600      .650      .700      .750      .800      .850
      .900      .950     1.000     1.100     1.200     1.300     1.400     1.500
     1.600     1.700     1.800     1.900     2.000     2.200     2.400     2.600
     2.800     3.000     3.200     3.400     3.600     3.800     4.000     4.200
     4.400     4.600     4.800     5.000     5.500     6.000     6.500     7.000
      .000      .000      .000      .000      .000      .000      .000      .000
      .000      .000      .000      .000      .000      .000      .000      .000
      .000      .000      .000      .000
Fourier amplitude spectra in in/sec.
  .259E-01  .215E-01  .309E-01  .102E-01  .225E-01  .124E-01  .491E-01  .464E-01
  .215E-01  .112E+00  .512E-01  .102E+00  .627E-01  .423E-01  .145E+00  .229E+00
  .204E+00  .356E+00  .319E+00  .161E+00  .217E+00  .442E+00  .136E+01  .127E+01
  .181E+01  .154E+01  .300E+00  .142E+01  .694E+00  .390E+00  .948E+00  .282E+00
  .300E+00  .200E+00  .236E+00  .495E+00  .394E+00  .713E+00  .110E+01  .628E+00
  .965E+00  .604E+00  .289E+00  .140E+01  .205E+01  .963E+00  .664E+00  .103E+01
  .758E+00  .376E+00  .581E+00  .744E+00  .339E+00  .173E+00  .383E+00  .166E+00
  .724E+00  .214E+00  .572E+00  .543E+00  .561E+00  .149E+00  .106E+00  .750E-01
  .231E+00  .109E+00  .212E-01  .265E-01  .119E+00  .165E+00  .949E-01  .577E-01
  .931E-01  .100E+00  .836E-01  .605E-01  .957E-01  .834E-01  .446E-01  .394E-01
  .000E+00  .000E+00  .000E+00  .000E+00  .000E+00  .000E+00  .000E+00  .000E+00
  .000E+00  .000E+00  .000E+00  .000E+00  .000E+00  .000E+00  .000E+00  .000E+00
  .000E+00  .000E+00  .000E+00  .000E+00
Damping =  .00. Data of Sd,Sv,Sa,Pssv,ttSd,ttSv,ttSa :
  .344E-03  .267E-03  .342E-03  .379E-03  .400E-03  .454E-03  .851E-03  .824E-03
  .101E-02  .141E-02  .117E-02  .202E-02  .244E-02  .225E-02  .422E-02  .430E-02
  .416E-02  .850E-02  .783E-02  .521E-02  .907E-02  .172E-01  .373E-01  .471E-01
  .663E-01  .579E-01  .266E-01  .595E-01  .324E-01  .332E-01  .495E-01  .277E-01
  .362E-01  .275E-01  .264E-01  .509E-01  .414E-01  .777E-01  .947E-01  .542E-01
  .812E-01  .591E-01  .937E-01  .177E+00  .245E+00  .118E+00  .942E-01  .141E+00
  .118E+00  .134E+00  .140E+00  .191E+00  .104E+00  .898E-01  .876E-01  .114E+00
  .202E+00  .138E+00  .169E+00  .169E+00  .204E+00  .919E-01  .698E-01  .667E-01
  .104E+00  .555E-01  .598E-01  .576E-01  .680E-01  .102E+00  .832E-01  .787E-01
  .770E-01  .795E-01  .766E-01  .734E-01  .847E-01  .837E-01  .684E-01  .622E-01
  .000E+00  .000E+00  .000E+00  .000E+00  .000E+00  .000E+00  .000E+00  .000E+00
  .000E+00  .000E+00  .000E+00  .000E+00  .000E+00  .000E+00  .000E+00  .000E+00
  .000E+00  .000E+00  .000E+00  .000E+00
  .332E-01  .247E-01  .357E-01  .303E-01  .295E-01  .391E-01  .781E-01  .562E-01
  .636E-01  .122E+00  .661E-01  .124E+00  .146E+00  .135E+00  .235E+00  .257E+00
  .223E+00  .432E+00  .354E+00  .222E+00  .365E+00  .657E+00  .138E+01  .163E+01
  .219E+01  .182E+01  .766E+00  .155E+01  .812E+00  .757E+00  .104E+01  .619E+00
  .674E+00  .487E+00  .426E+00  .807E+00  .522E+00  .112E+01  .130E+01  .706E+00
  .102E+01  .666E+00  .894E+00  .174E+01  .219E+01  .986E+00  .742E+00  .105E+01
  .924E+00  .100E+01  .957E+00  .111E+01  .618E+00  .536E+00  .471E+00  .584E+00
  .798E+00  .604E+00  .596E+00  .568E+00  .659E+00  .445E+00  .366E+00  .353E+00
  .350E+00  .342E+00  .328E+00  .311E+00  .303E+00  .296E+00  .290E+00  .284E+00
  .277E+00  .273E+00  .272E+00  .270E+00  .263E+00  .264E+00  .264E+00  .263E+00
  .000E+00  .000E+00  .000E+00  .000E+00  .000E+00  .000E+00  .000E+00  .000E+00
  .000E+00  .000E+00  .000E+00  .000E+00  .000E+00  .000E+00  .000E+00  .000E+00
  .000E+00  .000E+00  .000E+00  .000E+00
  .220E-01  .155E-01  .181E-01  .183E-01  .177E-01  .186E-01  .288E-01  .234E-01
  .245E-01  .294E-01  .212E-01  .323E-01  .345E-01  .284E-01  .478E-01  .440E-01
  .352E-01  .603E-01  .474E-01  .272E-01  .412E-01  .687E-01  .132E+00  .149E+00
  .188E+00  .148E+00  .562E-01  .106E+00  .490E-01  .433E-01  .562E-01  .277E-01
  .320E-01  .217E-01  .187E-01  .325E-01  .240E-01  .410E-01  .458E-01  .241E-01
  .332E-01  .200E-01  .266E-01  .429E-01  .511E-01  .214E-01  .151E-01  .199E-01
  .149E-01  .152E-01  .143E-01  .161E-01  .737E-02  .543E-02  .457E-02  .518E-02
  .808E-02  .488E-02  .532E-02  .479E-02  .520E-02  .194E-02  .124E-02  .101E-02
  .136E-02  .631E-03  .597E-03  .509E-03  .537E-03  .725E-03  .532E-03  .457E-03
  .407E-03  .384E-03  .340E-03  .300E-03  .286E-03  .238E-03  .166E-03  .130E-03
  .000E+00  .000E+00  .000E+00  .000E+00  .000E+00  .000E+00  .000E+00  .000E+00
  .000E+00  .000E+00  .000E+00  .000E+00  .000E+00  .000E+00  .000E+00  .000E+00
  .000E+00  .000E+00  .000E+00  .000E+00
  .540E-01  .399E-01  .488E-01  .517E-01  .523E-01  .571E-01  .972E-01  .863E-01
  .978E-01  .127E+00  .977E-01  .159E+00  .180E+00  .157E+00  .279E+00  .270E+00
  .238E+00  .445E+00  .379E+00  .234E+00  .380E+00  .675E+00  .138E+01  .164E+01
  .219E+01  .182E+01  .760E+00  .156E+01  .783E+00  .745E+00  .104E+01  .544E+00
  .669E+00  .480E+00  .437E+00  .799E+00  .619E+00  .111E+01  .129E+01  .710E+00
  .102E+01  .675E+00  .981E+00  .171E+01  .220E+01  .986E+00  .740E+00  .104E+01
  .825E+00  .885E+00  .878E+00  .109E+01  .543E+00  .434E+00  .393E+00  .478E+00
  .794E+00  .509E+00  .589E+00  .559E+00  .639E+00  .262E+00  .183E+00  .161E+00
  .233E+00  .116E+00  .117E+00  .106E+00  .119E+00  .169E+00  .131E+00  .118E+00
  .110E+00  .109E+00  .100E+00  .922E-01  .968E-01  .876E-01  .661E-01  .558E-01
  .000E+00  .000E+00  .000E+00  .000E+00  .000E+00  .000E+00  .000E+00  .000E+00
  .000E+00  .000E+00  .000E+00  .000E+00  .000E+00  .000E+00  .000E+00  .000E+00
  .000E+00  .000E+00  .000E+00  .000E+00
  .281E+02  .252E+02  .281E+02  .281E+02  .252E+02  .285E+02  .280E+02  .281E+02
  .281E+02  .349E+02  .274E+02  .281E+02  .252E+02  .274E+02  .281E+02  .328E+02
  .304E+02  .324E+02  .281E+02  .283E+02  .299E+02  .264E+02  .480E+02  .346E+02
  .361E+02  .338E+02  .259E+02  .282E+02  .265E+02  .271E+02  .323E+02  .271E+02
  .293E+02  .284E+02  .366E+02  .348E+02  .284E+02  .331E+02  .320E+02  .445E+02
  .517E+02  .419E+02  .288E+02  .325E+02  .476E+02  .558E+02  .298E+02  .559E+02
  .281E+02  .278E+02  .278E+02  .352E+02  .289E+02  .255E+02  .563E+02  .288E+02
  .480E+02  .316E+02  .570E+02  .571E+02  .436E+02  .321E+02  .271E+02  .271E+02
  .562E+02  .251E+02  .252E+02  .252E+02  .603E+02  .578E+02  .412E+02  .401E+02
  .320E+02  .551E+02  .321E+02  .349E+02  .413E+02  .516E+02  .403E+02  .281E+02
  .000E+00  .000E+00  .000E+00  .000E+00  .000E+00  .000E+00  .000E+00  .000E+00
  .000E+00  .000E+00  .000E+00  .000E+00  .000E+00  .000E+00  .000E+00  .000E+00
  .000E+00  .000E+00  .000E+00  .000E+00
  .281E+02  .327E+02  .347E+02  .280E+02  .253E+02  .286E+02  .281E+02  .261E+02
  .265E+02  .347E+02  .274E+02  .281E+02  .252E+02  .282E+02  .281E+02  .331E+02
  .307E+02  .324E+02  .296E+02  .283E+02  .300E+02  .264E+02  .463E+02  .346E+02
  .360E+02  .338E+02  .259E+02  .281E+02  .264E+02  .262E+02  .324E+02  .254E+02
  .301E+02  .253E+02  .367E+02  .347E+02  .283E+02  .333E+02  .310E+02  .441E+02
  .491E+02  .421E+02  .290E+02  .327E+02  .478E+02  .560E+02  .324E+02  .557E+02
  .283E+02  .280E+02  .281E+02  .349E+02  .286E+02  .258E+02  .258E+02  .291E+02
  .484E+02  .287E+02  .566E+02  .567E+02  .430E+02  .273E+02  .254E+02  .254E+02
  .254E+02  .254E+02  .254E+02  .254E+02  .254E+02  .254E+02  .254E+02  .254E+02
  .254E+02  .254E+02  .254E+02  .254E+02  .273E+02  .273E+02  .273E+02  .273E+02
  .000E+00  .000E+00  .000E+00  .000E+00  .000E+00  .000E+00  .000E+00  .000E+00
  .000E+00  .000E+00  .000E+00  .000E+00  .000E+00  .000E+00  .000E+00  .000E+00
  .000E+00  .000E+00  .000E+00  .000E+00
  .281E+02  .252E+02  .281E+02  .281E+02  .252E+02  .285E+02  .280E+02  .281E+02
  .281E+02  .349E+02  .274E+02  .281E+02  .252E+02  .274E+02  .281E+02  .328E+02
  .304E+02  .324E+02  .281E+02  .283E+02  .299E+02  .264E+02  .480E+02  .346E+02
  .361E+02  .338E+02  .259E+02  .282E+02  .265E+02  .271E+02  .323E+02  .271E+02
  .293E+02  .284E+02  .366E+02  .348E+02  .284E+02  .331E+02  .320E+02  .445E+02
  .517E+02  .419E+02  .288E+02  .325E+02  .476E+02  .558E+02  .298E+02  .559E+02
  .281E+02  .278E+02  .278E+02  .352E+02  .289E+02  .255E+02  .563E+02  .288E+02
  .480E+02  .316E+02  .570E+02  .571E+02  .436E+02  .321E+02  .271E+02  .271E+02
  .562E+02  .251E+02  .252E+02  .252E+02  .603E+02  .578E+02  .412E+02  .401E+02
  .320E+02  .551E+02  .321E+02  .349E+02  .413E+02  .516E+02  .403E+02  .281E+02
  .000E+00  .000E+00  .000E+00  .000E+00  .000E+00  .000E+00  .000E+00  .000E+00
  .000E+00  .000E+00  .000E+00  .000E+00  .000E+00  .000E+00  .000E+00  .000E+00
  .000E+00  .000E+00  .000E+00  .000E+00
Damping =  .02. Data of Sd,Sv,Sa,Pssv,ttSd,ttSv,ttSa :
  .195E-03  .199E-03  .214E-03  .241E-03  .272E-03  .294E-03  .401E-03  .467E-03
  .538E-03  .751E-03  .793E-03  .917E-03  .110E-02  .152E-02  .177E-02  .203E-02
  .234E-02  .271E-02  .385E-02  .522E-02  .616E-02  .107E-01  .157E-01  .214E-01
  .284E-01  .257E-01  .193E-01  .281E-01  .220E-01  .200E-01  .210E-01  .193E-01
  .189E-01  .199E-01  .238E-01  .288E-01  .332E-01  .432E-01  .456E-01  .447E-01
  .380E-01  .469E-01  .751E-01  .112E+00  .137E+00  .862E-01  .803E-01  .876E-01
  .915E-01  .107E+00  .113E+00  .107E+00  .856E-01  .847E-01  .830E-01  .917E-01
  .108E+00  .105E+00  .116E+00  .119E+00  .114E+00  .796E-01  .646E-01  .623E-01
  .612E-01  .541E-01  .571E-01  .564E-01  .559E-01  .599E-01  .632E-01  .604E-01
  .682E-01  .708E-01  .692E-01  .647E-01  .683E-01  .660E-01  .646E-01  .606E-01
  .000E+00  .000E+00  .000E+00  .000E+00  .000E+00  .000E+00  .000E+00  .000E+00
  .000E+00  .000E+00  .000E+00  .000E+00  .000E+00  .000E+00  .000E+00  .000E+00
  .000E+00  .000E+00  .000E+00  .000E+00
  .870E-02  .102E-01  .100E-01  .105E-01  .110E-01  .161E-01  .237E-01  .219E-01
  .262E-01  .344E-01  .368E-01  .526E-01  .519E-01  .842E-01  .829E-01  .102E+00
  .994E-01  .110E+00  .132E+00  .219E+00  .223E+00  .381E+00  .557E+00  .730E+00
  .908E+00  .819E+00  .556E+00  .741E+00  .553E+00  .493E+00  .451E+00  .409E+00
  .368E+00  .395E+00  .352E+00  .399E+00  .453E+00  .640E+00  .638E+00  .541E+00
  .487E+00  .495E+00  .721E+00  .112E+01  .128E+01  .741E+00  .653E+00  .697E+00
  .716E+00  .803E+00  .787E+00  .706E+00  .538E+00  .509E+00  .449E+00  .473E+00
  .506E+00  .529E+00  .497E+00  .450E+00  .429E+00  .421E+00  .361E+00  .350E+00
  .345E+00  .338E+00  .326E+00  .312E+00  .303E+00  .296E+00  .290E+00  .284E+00
  .278E+00  .274E+00  .272E+00  .270E+00  .262E+00  .262E+00  .262E+00  .261E+00
  .000E+00  .000E+00  .000E+00  .000E+00  .000E+00  .000E+00  .000E+00  .000E+00
  .000E+00  .000E+00  .000E+00  .000E+00  .000E+00  .000E+00  .000E+00  .000E+00
  .000E+00  .000E+00  .000E+00  .000E+00
  .125E-01  .115E-01  .113E-01  .116E-01  .121E-01  .120E-01  .135E-01  .133E-01
  .130E-01  .157E-01  .144E-01  .147E-01  .156E-01  .193E-01  .200E-01  .207E-01
  .198E-01  .193E-01  .233E-01  .273E-01  .280E-01  .426E-01  .555E-01  .676E-01
  .804E-01  .659E-01  .409E-01  .499E-01  .333E-01  .261E-01  .239E-01  .193E-01
  .168E-01  .157E-01  .169E-01  .184E-01  .193E-01  .228E-01  .220E-01  .198E-01
  .155E-01  .159E-01  .213E-01  .272E-01  .285E-01  .157E-01  .128E-01  .124E-01
  .116E-01  .122E-01  .116E-01  .907E-02  .609E-02  .514E-02  .434E-02  .417E-02
  .432E-02  .374E-02  .367E-02  .337E-02  .293E-02  .168E-02  .115E-02  .948E-03
  .800E-03  .617E-03  .573E-03  .502E-03  .444E-03  .425E-03  .405E-03  .352E-03
  .361E-03  .344E-03  .309E-03  .269E-03  .235E-03  .195E-03  .164E-03  .134E-03
  .000E+00  .000E+00  .000E+00  .000E+00  .000E+00  .000E+00  .000E+00  .000E+00
  .000E+00  .000E+00  .000E+00  .000E+00  .000E+00  .000E+00  .000E+00  .000E+00
  .000E+00  .000E+00  .000E+00  .000E+00
  .306E-01  .297E-01  .305E-01  .329E-01  .356E-01  .369E-01  .459E-01  .489E-01
  .520E-01  .674E-01  .665E-01  .720E-01  .816E-01  .106E+00  .117E+00  .127E+00
  .134E+00  .142E+00  .186E+00  .234E+00  .258E+00  .418E+00  .579E+00  .747E+00
  .938E+00  .807E+00  .551E+00  .735E+00  .532E+00  .448E+00  .440E+00  .378E+00
  .350E+00  .347E+00  .393E+00  .452E+00  .497E+00  .617E+00  .622E+00  .585E+00
  .477E+00  .536E+00  .786E+00  .109E+01  .123E+01  .722E+00  .631E+00  .647E+00
  .639E+00  .709E+00  .710E+00  .612E+00  .448E+00  .409E+00  .372E+00  .384E+00
  .424E+00  .390E+00  .405E+00  .393E+00  .359E+00  .227E+00  .169E+00  .150E+00
  .137E+00  .113E+00  .112E+00  .104E+00  .975E-01  .991E-01  .992E-01  .904E-01
  .974E-01  .968E-01  .906E-01  .813E-01  .780E-01  .691E-01  .624E-01  .544E-01
  .000E+00  .000E+00  .000E+00  .000E+00  .000E+00  .000E+00  .000E+00  .000E+00
  .000E+00  .000E+00  .000E+00  .000E+00  .000E+00  .000E+00  .000E+00  .000E+00
  .000E+00  .000E+00  .000E+00  .000E+00
  .281E+02  .281E+02  .281E+02  .281E+02  .281E+02  .255E+02  .255E+02  .281E+02
  .281E+02  .281E+02  .281E+02  .281E+02  .274E+02  .274E+02  .281E+02  .285E+02
  .285E+02  .255E+02  .281E+02  .283E+02  .278E+02  .263E+02  .290E+02  .286E+02
  .266E+02  .267E+02  .259E+02  .282E+02  .263E+02  .256E+02  .256E+02  .256E+02
  .279E+02  .252E+02  .282E+02  .284E+02  .284E+02  .285E+02  .288E+02  .275E+02
  .355E+02  .275E+02  .288E+02  .289E+02  .298E+02  .299E+02  .299E+02  .296E+02
  .281E+02  .278E+02  .278E+02  .324E+02  .260E+02  .255E+02  .255E+02  .288E+02
  .289E+02  .290E+02  .284E+02  .285E+02  .285E+02  .277E+02  .271E+02  .271E+02
  .464E+02  .251E+02  .252E+02  .252E+02  .252E+02  .521E+02  .412E+02  .293E+02
  .320E+02  .321E+02  .321E+02  .304E+02  .304E+02  .281E+02  .281E+02  .281E+02
  .000E+00  .000E+00  .000E+00  .000E+00  .000E+00  .000E+00  .000E+00  .000E+00
  .000E+00  .000E+00  .000E+00  .000E+00  .000E+00  .000E+00  .000E+00  .000E+00
  .000E+00  .000E+00  .000E+00  .000E+00
  .261E+02  .261E+02  .267E+02  .258E+02  .253E+02  .254E+02  .254E+02  .267E+02
  .265E+02  .285E+02  .281E+02  .261E+02  .274E+02  .274E+02  .278E+02  .285E+02
  .285E+02  .258E+02  .281E+02  .283E+02  .278E+02  .263E+02  .289E+02  .286E+02
  .265E+02  .267E+02  .259E+02  .281E+02  .264E+02  .257E+02  .257E+02  .254E+02
  .278E+02  .253E+02  .253E+02  .281E+02  .284E+02  .284E+02  .308E+02  .276E+02
  .356E+02  .277E+02  .284E+02  .288E+02  .299E+02  .297E+02  .297E+02  .294E+02
  .283E+02  .280E+02  .280E+02  .294E+02  .258E+02  .258E+02  .258E+02  .291E+02
  .286E+02  .287E+02  .287E+02  .308E+02  .273E+02  .273E+02  .254E+02  .254E+02
  .254E+02  .254E+02  .254E+02  .254E+02  .254E+02  .254E+02  .254E+02  .254E+02
  .254E+02  .254E+02  .254E+02  .254E+02  .254E+02  .273E+02  .273E+02  .273E+02
  .000E+00  .000E+00  .000E+00  .000E+00  .000E+00  .000E+00  .000E+00  .000E+00
  .000E+00  .000E+00  .000E+00  .000E+00  .000E+00  .000E+00  .000E+00  .000E+00
  .000E+00  .000E+00  .000E+00  .000E+00
  .281E+02  .281E+02  .281E+02  .281E+02  .281E+02  .281E+02  .255E+02  .281E+02
  .281E+02  .281E+02  .281E+02  .281E+02  .274E+02  .274E+02  .281E+02  .285E+02
  .285E+02  .255E+02  .281E+02  .283E+02  .278E+02  .263E+02  .290E+02  .286E+02
  .266E+02  .267E+02  .259E+02  .282E+02  .263E+02  .256E+02  .256E+02  .256E+02
  .279E+02  .252E+02  .282E+02  .284E+02  .284E+02  .285E+02  .288E+02  .275E+02
  .355E+02  .275E+02  .288E+02  .289E+02  .298E+02  .299E+02  .299E+02  .296E+02
  .281E+02  .278E+02  .278E+02  .324E+02  .260E+02  .255E+02  .255E+02  .288E+02
  .289E+02  .290E+02  .284E+02  .285E+02  .285E+02  .277E+02  .271E+02  .271E+02
  .464E+02  .251E+02  .251E+02  .251E+02  .251E+02  .521E+02  .411E+02  .293E+02
  .320E+02  .321E+02  .321E+02  .304E+02  .304E+02  .281E+02  .281E+02  .281E+02
  .000E+00  .000E+00  .000E+00  .000E+00  .000E+00  .000E+00  .000E+00  .000E+00
  .000E+00  .000E+00  .000E+00  .000E+00  .000E+00  .000E+00  .000E+00  .000E+00
  .000E+00  .000E+00  .000E+00  .000E+00
Damping =  .05. Data of Sd,Sv,Sa,Pssv,ttSd,ttSv,ttSa :
  .186E-03  .198E-03  .214E-03  .240E-03  .267E-03  .294E-03  .350E-03  .434E-03
  .530E-03  .672E-03  .778E-03  .832E-03  .977E-03  .114E-02  .128E-02  .157E-02
  .204E-02  .234E-02  .321E-02  .403E-02  .497E-02  .780E-02  .109E-01  .129E-01
  .163E-01  .163E-01  .153E-01  .170E-01  .150E-01  .171E-01  .172E-01  .148E-01
  .136E-01  .162E-01  .195E-01  .227E-01  .259E-01  .277E-01  .344E-01  .363E-01
