Response and Fourier amplitude spectra (80 periods,  .04 -  7.0 sec)   for      
Corrected accelerogram   24207-M0150-08211.01       Chan  9:  Radl       from   
Uncorrected Accelerogram Data             Processed: 08/04/08, CDMG  CE24207D   
Record of Tue Jul 29, 2008 11:42:12.0 PDT             (Avol1 v7.9 7/08 CSMIP)   
CSMIP Preliminary Processing            (Origin:  To be determined)             
24207-M0150-08211.01                 Start time:  7/29/08, 18:42:12.0 UTC (GPS) 
Station No. 24207   34.334N, 118.396W    MtWtny  s/n  150 (17 Channels)         
Sylmar - Pacoima Dam                      CGS                                   
Chan  9:  Radl                      Location: Dam Base                          
Record of Tue Jul 29, 2008 11:42:12.0 PDT    Tue Jul 29, 2008 11:42:12.0 PDT    
Hypocenter:  To be determined.               ML:  To be determined.
Instr Period =  .0200 sec,  Damping =  .700,  Sensitivity =  .63  v/g  (Nominal)
                        Record length = 59.000 sec.
                                     Uncor Max  =   .006 g , at  27.475 sec.
RMS accel of (uncor) record  =        .   Chn. metadata effective date: 01/01/04
Accelerogram bandpass filtered with 3 dB pts at   .14 and 40.00 cyc/sec
                 instrument- and baseline-corrected





Record of Tue Jul 29, 2008 11:42:12.0 PDT    Tue Jul 29, 2008 11:42:12.0 PDT

24207-M0150-08211.01      Sylmar - Pacoima Dam    Chan  9:  Radl

24207-M0150-08211.01      Sylmar - Pacoima Dam    Chan  9:  Radl

Units for spectra are inches and sec, except Sa is in fraction of g.

    9  100    9   18   17  200    1    3    1   24   13  150    024207    5    0
   18   42   12    0  211    7   29 2008   10    3  70011800   41   20   76   -1
11800    1   50    3  150    1    1  590    2    0    0    0    0    0    0    0
    0    4    0    011800    1  220    1   18    4   76   20    1    1    011800
    311800   21   80    5   17    5    0    0    0   17    0    0    3    0    2
    2    2    4    0   68   99    0   32   32    0    1    1    0    0    0    0
    1    1   45    0
      .020      .700    59.000      .001      .000   625.000      .006    27.475
    50.000      .298      .477      .000     5.000      .000     4.000      .000
     2.500   -21.235     2.500  2016.000    25.000    30.000      .000     -.001
      .000      .002     2.000    15.000    34.334  -118.396      .011      .203
    19.042      .000      .000   594.000    25.500    28.800    12.700   119.840
     1.000    -1.198      .000      .000      .000      .000      .000      .000
     4.200     7.900     4.600   980.665      .005    59.000     7.958      .000
      .000    40.000      .000    59.000      .005      .143      .000      .000
    27.470     6.177    27.410     -.546    31.425      .072      .000      .143
    40.000      .005      .005      .000      .005      .019      .000      .000
      .015      .240      .012      .014      .006      .001      .000      .000
      .000      .000      .000      .000      .000      .000      .000      .000
      .000      .000      .000      .000
      .000      .020      .050      .100      .200
      .040      .042      .044      .046      .048      .050      .055      .060
      .065      .070      .075      .080      .085      .090      .095      .100
      .110      .120      .130      .140      .150      .160      .170      .180
      .190      .200      .220      .240      .260      .280      .300      .320
      .340      .360      .380      .400      .420      .440      .460      .480
      .500      .550      .600      .650      .700      .750      .800      .850
      .900      .950     1.000     1.100     1.200     1.300     1.400     1.500
     1.600     1.700     1.800     1.900     2.000     2.200     2.400     2.600
     2.800     3.000     3.200     3.400     3.600     3.800     4.000     4.200
     4.400     4.600     4.800     5.000     5.500     6.000     6.500     7.000
      .000      .000      .000      .000      .000      .000      .000      .000
      .000      .000      .000      .000      .000      .000      .000      .000
      .000      .000      .000      .000
Fourier amplitude spectra in in/sec.
  .859E-02  .400E-02  .471E-02  .128E-01  .125E-01  .254E-01  .861E-02  .888E-02
  .108E-01  .330E-01  .569E-01  .455E-01  .219E-01  .110E-01  .705E-01  .338E-01
  .235E-01  .391E-01  .881E-01  .630E-01  .224E+00  .353E-01  .248E+00  .222E+00
  .768E-01  .272E+00  .128E+00  .362E+00  .288E+00  .884E+00  .188E+00  .317E+00
  .300E+00  .125E+00  .186E+00  .385E+00  .623E+00  .556E+00  .409E+00  .259E+00
  .103E+01  .186E+00  .877E+00  .510E+00  .108E+01  .959E+00  .392E+00  .252E+00
  .148E+00  .750E+00  .628E+00  .436E+00  .368E+00  .321E+00  .341E+00  .215E+00
  .788E+00  .623E+00  .236E+00  .370E+00  .529E+00  .170E+00  .998E-01  .294E-01
  .405E-01  .140E+00  .150E+00  .145E+00  .169E+00  .222E+00  .177E+00  .121E+00
  .128E+00  .132E+00  .106E+00  .744E-01  .870E-01  .601E-01  .266E-01  .959E-02
  .000E+00  .000E+00  .000E+00  .000E+00  .000E+00  .000E+00  .000E+00  .000E+00
  .000E+00  .000E+00  .000E+00  .000E+00  .000E+00  .000E+00  .000E+00  .000E+00
  .000E+00  .000E+00  .000E+00  .000E+00
Damping =  .00. Data of Sd,Sv,Sa,Pssv,ttSd,ttSv,ttSa :
  .169E-03  .126E-03  .147E-03  .183E-03  .235E-03  .334E-03  .318E-03  .289E-03
  .322E-03  .520E-03  .837E-03  .953E-03  .806E-03  .920E-03  .156E-02  .106E-02
  .145E-02  .238E-02  .251E-02  .256E-02  .622E-02  .319E-02  .724E-02  .699E-02
  .549E-02  .107E-01  .865E-02  .170E-01  .149E-01  .434E-01  .236E-01  .200E-01
  .172E-01  .163E-01  .266E-01  .312E-01  .604E-01  .466E-01  .367E-01  .532E-01
  .865E-01  .290E-01  .105E+00  .107E+00  .123E+00  .121E+00  .523E-01  .642E-01
  .659E-01  .118E+00  .129E+00  .112E+00  .998E-01  .773E-01  .119E+00  .129E+00
  .220E+00  .169E+00  .117E+00  .127E+00  .178E+00  .101E+00  .742E-01  .544E-01
  .576E-01  .704E-01  .881E-01  .939E-01  .108E+00  .134E+00  .117E+00  .107E+00
  .997E-01  .996E-01  .958E-01  .985E-01  .818E-01  .625E-01  .484E-01  .466E-01
  .000E+00  .000E+00  .000E+00  .000E+00  .000E+00  .000E+00  .000E+00  .000E+00
  .000E+00  .000E+00  .000E+00  .000E+00  .000E+00  .000E+00  .000E+00  .000E+00
  .000E+00  .000E+00  .000E+00  .000E+00
  .142E-01  .902E-02  .964E-02  .148E-01  .170E-01  .364E-01  .262E-01  .194E-01
  .186E-01  .382E-01  .586E-01  .553E-01  .482E-01  .461E-01  .746E-01  .591E-01
  .741E-01  .962E-01  .110E+00  .773E-01  .254E+00  .110E+00  .257E+00  .235E+00
  .150E+00  .329E+00  .235E+00  .422E+00  .345E+00  .967E+00  .473E+00  .365E+00
  .311E+00  .266E+00  .438E+00  .482E+00  .904E+00  .651E+00  .497E+00  .691E+00
  .108E+01  .296E+00  .108E+01  .105E+01  .111E+01  .102E+01  .407E+00  .474E+00
  .514E+00  .786E+00  .823E+00  .644E+00  .537E+00  .373E+00  .552E+00  .525E+00
  .860E+00  .627E+00  .548E+00  .464E+00  .570E+00  .322E+00  .358E+00  .327E+00
  .281E+00  .255E+00  .241E+00  .225E+00  .222E+00  .228E+00  .221E+00  .220E+00
  .218E+00  .214E+00  .213E+00  .216E+00  .226E+00  .229E+00  .229E+00  .227E+00
  .000E+00  .000E+00  .000E+00  .000E+00  .000E+00  .000E+00  .000E+00  .000E+00
  .000E+00  .000E+00  .000E+00  .000E+00  .000E+00  .000E+00  .000E+00  .000E+00
  .000E+00  .000E+00  .000E+00  .000E+00
  .108E-01  .730E-02  .776E-02  .884E-02  .104E-01  .137E-01  .108E-01  .820E-02
  .779E-02  .109E-01  .152E-01  .152E-01  .114E-01  .116E-01  .177E-01  .109E-01
  .122E-01  .169E-01  .152E-01  .134E-01  .283E-01  .128E-01  .256E-01  .221E-01
  .155E-01  .273E-01  .183E-01  .301E-01  .226E-01  .566E-01  .268E-01  .200E-01
  .152E-01  .129E-01  .188E-01  .200E-01  .350E-01  .246E-01  .178E-01  .236E-01
  .354E-01  .980E-02  .298E-01  .260E-01  .257E-01  .221E-01  .836E-02  .909E-02
  .832E-02  .133E-01  .132E-01  .949E-02  .709E-02  .468E-02  .619E-02  .584E-02
  .881E-02  .599E-02  .370E-02  .361E-02  .456E-02  .214E-02  .132E-02  .823E-03
  .751E-03  .800E-03  .880E-03  .831E-03  .850E-03  .950E-03  .751E-03  .622E-03
  .527E-03  .481E-03  .425E-03  .403E-03  .277E-03  .178E-03  .117E-03  .973E-04
  .000E+00  .000E+00  .000E+00  .000E+00  .000E+00  .000E+00  .000E+00  .000E+00
  .000E+00  .000E+00  .000E+00  .000E+00  .000E+00  .000E+00  .000E+00  .000E+00
  .000E+00  .000E+00  .000E+00  .000E+00
  .266E-01  .188E-01  .210E-01  .250E-01  .308E-01  .420E-01  .364E-01  .302E-01
  .311E-01  .467E-01  .701E-01  .748E-01  .596E-01  .642E-01  .103E+00  .667E-01
  .826E-01  .124E+00  .121E+00  .115E+00  .260E+00  .125E+00  .268E+00  .244E+00
  .181E+00  .335E+00  .247E+00  .444E+00  .361E+00  .973E+00  .494E+00  .392E+00
  .318E+00  .285E+00  .440E+00  .491E+00  .903E+00  .665E+00  .502E+00  .697E+00
  .109E+01  .331E+00  .110E+01  .104E+01  .111E+01  .102E+01  .411E+00  .474E+00
  .460E+00  .779E+00  .809E+00  .641E+00  .523E+00  .373E+00  .533E+00  .538E+00
  .866E+00  .625E+00  .409E+00  .421E+00  .560E+00  .289E+00  .194E+00  .131E+00
  .129E+00  .147E+00  .173E+00  .174E+00  .188E+00  .222E+00  .185E+00  .160E+00
  .142E+00  .136E+00  .125E+00  .124E+00  .934E-01  .654E-01  .468E-01  .419E-01
  .000E+00  .000E+00  .000E+00  .000E+00  .000E+00  .000E+00  .000E+00  .000E+00
  .000E+00  .000E+00  .000E+00  .000E+00  .000E+00  .000E+00  .000E+00  .000E+00
  .000E+00  .000E+00  .000E+00  .000E+00
  .275E+02  .275E+02  .275E+02  .275E+02  .275E+02  .275E+02  .274E+02  .252E+02
  .275E+02  .292E+02  .274E+02  .275E+02  .275E+02  .275E+02  .275E+02  .292E+02
  .275E+02  .274E+02  .304E+02  .275E+02  .343E+02  .264E+02  .287E+02  .397E+02
  .275E+02  .360E+02  .279E+02  .279E+02  .396E+02  .411E+02  .262E+02  .272E+02
  .491E+02  .343E+02  .307E+02  .424E+02  .328E+02  .276E+02  .388E+02  .389E+02
  .479E+02  .272E+02  .355E+02  .312E+02  .525E+02  .445E+02  .440E+02  .349E+02
  .278E+02  .470E+02  .360E+02  .363E+02  .454E+02  .268E+02  .419E+02  .339E+02
  .455E+02  .575E+02  .308E+02  .390E+02  .485E+02  .330E+02  .277E+02  .307E+02
  .329E+02  .484E+02  .397E+02  .370E+02  .535E+02  .660E+02  .438E+02  .465E+02
  .363E+02  .571E+02  .346E+02  .347E+02  .350E+02  .537E+02  .310E+02  .314E+02
  .000E+00  .000E+00  .000E+00  .000E+00  .000E+00  .000E+00  .000E+00  .000E+00
  .000E+00  .000E+00  .000E+00  .000E+00  .000E+00  .000E+00  .000E+00  .000E+00
  .000E+00  .000E+00  .000E+00  .000E+00
  .274E+02  .252E+02  .241E+02  .252E+02  .316E+02  .311E+02  .260E+02  .254E+02
  .274E+02  .292E+02  .371E+02  .330E+02  .268E+02  .246E+02  .317E+02  .295E+02
  .253E+02  .274E+02  .304E+02  .280E+02  .340E+02  .264E+02  .486E+02  .344E+02
  .274E+02  .361E+02  .278E+02  .280E+02  .293E+02  .410E+02  .263E+02  .273E+02
  .482E+02  .344E+02  .306E+02  .423E+02  .329E+02  .277E+02  .386E+02  .392E+02
  .478E+02  .290E+02  .351E+02  .311E+02  .523E+02  .428E+02  .487E+02  .347E+02
  .280E+02  .472E+02  .323E+02  .361E+02  .457E+02  .265E+02  .422E+02  .336E+02
  .452E+02  .579E+02  .286E+02  .395E+02  .490E+02  .274E+02  .274E+02  .274E+02
  .274E+02  .274E+02  .274E+02  .274E+02  .274E+02  .574E+02  .274E+02  .274E+02
  .354E+02  .274E+02  .274E+02  .274E+02  .274E+02  .274E+02  .274E+02  .274E+02
  .000E+00  .000E+00  .000E+00  .000E+00  .000E+00  .000E+00  .000E+00  .000E+00
  .000E+00  .000E+00  .000E+00  .000E+00  .000E+00  .000E+00  .000E+00  .000E+00
  .000E+00  .000E+00  .000E+00  .000E+00
  .275E+02  .275E+02  .275E+02  .275E+02  .275E+02  .275E+02  .274E+02  .252E+02
  .275E+02  .292E+02  .274E+02  .275E+02  .275E+02  .275E+02  .275E+02  .292E+02
  .275E+02  .274E+02  .304E+02  .275E+02  .343E+02  .264E+02  .287E+02  .397E+02
  .275E+02  .360E+02  .279E+02  .279E+02  .396E+02  .411E+02  .262E+02  .272E+02
  .491E+02  .343E+02  .307E+02  .424E+02  .328E+02  .276E+02  .388E+02  .389E+02
  .479E+02  .272E+02  .355E+02  .312E+02  .525E+02  .445E+02  .440E+02  .349E+02
  .278E+02  .470E+02  .360E+02  .363E+02  .454E+02  .268E+02  .419E+02  .339E+02
  .455E+02  .575E+02  .308E+02  .390E+02  .485E+02  .330E+02  .277E+02  .307E+02
  .329E+02  .484E+02  .397E+02  .370E+02  .535E+02  .660E+02  .438E+02  .465E+02
  .363E+02  .571E+02  .346E+02  .347E+02  .350E+02  .537E+02  .310E+02  .314E+02
  .000E+00  .000E+00  .000E+00  .000E+00  .000E+00  .000E+00  .000E+00  .000E+00
  .000E+00  .000E+00  .000E+00  .000E+00  .000E+00  .000E+00  .000E+00  .000E+00
  .000E+00  .000E+00  .000E+00  .000E+00
Damping =  .02. Data of Sd,Sv,Sa,Pssv,ttSd,ttSv,ttSa :
  .996E-04  .112E-03  .123E-03  .135E-03  .154E-03  .176E-03  .260E-03  .259E-03
  .286E-03  .362E-03  .402E-03  .464E-03  .546E-03  .899E-03  .861E-03  .805E-03
  .111E-02  .162E-02  .217E-02  .234E-02  .348E-02  .335E-02  .336E-02  .385E-02
  .367E-02  .454E-02  .796E-02  .103E-01  .122E-01  .162E-01  .179E-01  .161E-01
  .125E-01  .111E-01  .149E-01  .172E-01  .245E-01  .298E-01  .260E-01  .271E-01
  .255E-01  .280E-01  .605E-01  .833E-01  .824E-01  .616E-01  .414E-01  .460E-01
  .608E-01  .756E-01  .750E-01  .695E-01  .703E-01  .696E-01  .733E-01  .905E-01
  .115E+00  .100E+00  .925E-01  .988E-01  .104E+00  .807E-01  .678E-01  .503E-01
  .507E-01  .620E-01  .726E-01  .805E-01  .866E-01  .965E-01  .983E-01  .926E-01
  .876E-01  .834E-01  .861E-01  .878E-01  .746E-01  .546E-01  .459E-01  .445E-01
  .000E+00  .000E+00  .000E+00  .000E+00  .000E+00  .000E+00  .000E+00  .000E+00
  .000E+00  .000E+00  .000E+00  .000E+00  .000E+00  .000E+00  .000E+00  .000E+00
  .000E+00  .000E+00  .000E+00  .000E+00
  .369E-02  .308E-02  .382E-02  .586E-02  .511E-02  .730E-02  .109E-01  .103E-01
  .917E-02  .133E-01  .161E-01  .183E-01  .267E-01  .365E-01  .251E-01  .311E-01
  .279E-01  .544E-01  .616E-01  .654E-01  .111E+00  .988E-01  .105E+00  .114E+00
  .114E+00  .120E+00  .198E+00  .250E+00  .261E+00  .328E+00  .351E+00  .303E+00
  .218E+00  .183E+00  .241E+00  .280E+00  .341E+00  .398E+00  .339E+00  .338E+00
  .310E+00  .319E+00  .613E+00  .809E+00  .765E+00  .566E+00  .376E+00  .391E+00
  .473E+00  .496E+00  .501E+00  .482E+00  .410E+00  .346E+00  .340E+00  .411E+00
  .437E+00  .447E+00  .477E+00  .413E+00  .360E+00  .309E+00  .335E+00  .315E+00
  .278E+00  .255E+00  .240E+00  .228E+00  .223E+00  .223E+00  .221E+00  .219E+00
  .217E+00  .215E+00  .215E+00  .216E+00  .224E+00  .228E+00  .228E+00  .226E+00
  .000E+00  .000E+00  .000E+00  .000E+00  .000E+00  .000E+00  .000E+00  .000E+00
  .000E+00  .000E+00  .000E+00  .000E+00  .000E+00  .000E+00  .000E+00  .000E+00
  .000E+00  .000E+00  .000E+00  .000E+00
  .637E-02  .652E-02  .647E-02  .651E-02  .685E-02  .718E-02  .880E-02  .736E-02
  .694E-02  .756E-02  .732E-02  .743E-02  .772E-02  .114E-01  .977E-02  .824E-02
  .941E-02  .115E-01  .131E-01  .122E-01  .158E-01  .134E-01  .119E-01  .122E-01
  .104E-01  .116E-01  .168E-01  .183E-01  .184E-01  .212E-01  .203E-01  .161E-01
  .110E-01  .880E-02  .106E-01  .110E-01  .142E-01  .157E-01  .126E-01  .120E-01
  .104E-01  .949E-02  .172E-01  .202E-01  .172E-01  .112E-01  .662E-02  .652E-02
  .769E-02  .857E-02  .768E-02  .588E-02  .500E-02  .422E-02  .383E-02  .412E-02
  .461E-02  .354E-02  .292E-02  .280E-02  .267E-02  .171E-02  .120E-02  .762E-03
  .662E-03  .704E-03  .727E-03  .713E-03  .684E-03  .684E-03  .630E-03  .538E-03
  .463E-03  .404E-03  .383E-03  .360E-03  .253E-03  .157E-03  .112E-03  .937E-04
  .000E+00  .000E+00  .000E+00  .000E+00  .000E+00  .000E+00  .000E+00  .000E+00
  .000E+00  .000E+00  .000E+00  .000E+00  .000E+00  .000E+00  .000E+00  .000E+00
  .000E+00  .000E+00  .000E+00  .000E+00
  .156E-01  .168E-01  .175E-01  .184E-01  .202E-01  .221E-01  .297E-01  .272E-01
  .277E-01  .325E-01  .337E-01  .365E-01  .403E-01  .627E-01  .569E-01  .506E-01
  .636E-01  .847E-01  .105E+00  .105E+00  .146E+00  .132E+00  .124E+00  .134E+00
  .122E+00  .143E+00  .227E+00  .269E+00  .294E+00  .364E+00  .374E+00  .316E+00
  .230E+00  .194E+00  .246E+00  .271E+00  .366E+00  .425E+00  .355E+00  .355E+00
  .320E+00  .320E+00  .633E+00  .805E+00  .739E+00  .516E+00  .325E+00  .340E+00
  .425E+00  .500E+00  .471E+00  .397E+00  .368E+00  .337E+00  .329E+00  .379E+00
  .452E+00  .369E+00  .323E+00  .327E+00  .327E+00  .231E+00  .177E+00  .122E+00
  .114E+00  .130E+00  .143E+00  .149E+00  .151E+00  .160E+00  .154E+00  .138E+00
  .125E+00  .114E+00  .113E+00  .110E+00  .852E-01  .572E-01  .444E-01  .399E-01
  .000E+00  .000E+00  .000E+00  .000E+00  .000E+00  .000E+00  .000E+00  .000E+00
  .000E+00  .000E+00  .000E+00  .000E+00  .000E+00  .000E+00  .000E+00  .000E+00
  .000E+00  .000E+00  .000E+00  .000E+00
  .275E+02  .275E+02  .275E+02  .274E+02  .275E+02  .275E+02  .275E+02  .275E+02
  .275E+02  .275E+02  .275E+02  .275E+02  .264E+02  .275E+02  .275E+02  .275E+02
  .275E+02  .275E+02  .275E+02  .275E+02  .275E+02  .275E+02  .275E+02  .275E+02
  .257E+02  .264E+02  .275E+02  .275E+02  .285E+02  .285E+02  .287E+02  .276E+02
  .276E+02  .276E+02  .295E+02  .304E+02  .315E+02  .276E+02  .266E+02  .268E+02
  .272E+02  .288E+02  .289E+02  .290E+02  .294E+02  .281E+02  .278E+02  .281E+02
  .278E+02  .279E+02  .295E+02  .292E+02  .268E+02  .268E+02  .292E+02  .340E+02
  .360E+02  .372E+02  .282E+02  .284E+02  .365E+02  .330E+02  .276E+02  .258E+02
  .329E+02  .331E+02  .367E+02  .369E+02  .356E+02  .357E+02  .358E+02  .358E+02
  .362E+02  .364E+02  .346E+02  .347E+02  .350E+02  .325E+02  .310E+02  .314E+02
  .000E+00  .000E+00  .000E+00  .000E+00  .000E+00  .000E+00  .000E+00  .000E+00
  .000E+00  .000E+00  .000E+00  .000E+00  .000E+00  .000E+00  .000E+00  .000E+00
  .000E+00  .000E+00  .000E+00  .000E+00
  .274E+02  .261E+02  .274E+02  .274E+02  .274E+02  .264E+02  .274E+02  .263E+02
  .259E+02  .252E+02  .261E+02  .264E+02  .264E+02  .274E+02  .279E+02  .281E+02
  .280E+02  .274E+02  .274E+02  .275E+02  .275E+02  .275E+02  .276E+02  .259E+02
  .260E+02  .276E+02  .276E+02  .278E+02  .284E+02  .284E+02  .281E+02  .277E+02
  .277E+02  .277E+02  .294E+02  .305E+02  .289E+02  .277E+02  .267E+02  .289E+02
  .290E+02  .290E+02  .290E+02  .288E+02  .286E+02  .280E+02  .280E+02  .280E+02
  .280E+02  .280E+02  .293E+02  .274E+02  .270E+02  .265E+02  .289E+02  .321E+02
  .363E+02  .286E+02  .286E+02  .286E+02  .359E+02  .274E+02  .274E+02  .274E+02
  .274E+02  .274E+02  .274E+02  .274E+02  .274E+02  .274E+02  .274E+02  .274E+02
  .274E+02  .274E+02  .274E+02  .274E+02  .274E+02  .274E+02  .274E+02  .274E+02
  .000E+00  .000E+00  .000E+00  .000E+00  .000E+00  .000E+00  .000E+00  .000E+00
  .000E+00  .000E+00  .000E+00  .000E+00  .000E+00  .000E+00  .000E+00  .000E+00
  .000E+00  .000E+00  .000E+00  .000E+00
  .275E+02  .275E+02  .275E+02  .274E+02  .275E+02  .275E+02  .275E+02  .275E+02
  .275E+02  .275E+02  .275E+02  .275E+02  .264E+02  .275E+02  .275E+02  .275E+02
  .275E+02  .275E+02  .275E+02  .275E+02  .275E+02  .275E+02  .275E+02  .275E+02
  .257E+02  .264E+02  .275E+02  .275E+02  .285E+02  .285E+02  .287E+02  .276E+02
  .276E+02  .276E+02  .295E+02  .304E+02  .315E+02  .276E+02  .266E+02  .268E+02
  .272E+02  .288E+02  .289E+02  .289E+02  .294E+02  .281E+02  .278E+02  .281E+02
  .278E+02  .278E+02  .295E+02  .292E+02  .267E+02  .268E+02  .292E+02  .339E+02
  .360E+02  .371E+02  .282E+02  .284E+02  .365E+02  .329E+02  .276E+02  .258E+02
  .329E+02  .330E+02  .367E+02  .369E+02  .356E+02  .357E+02  .358E+02  .358E+02
  .362E+02  .363E+02  .346E+02  .347E+02  .349E+02  .324E+02  .310E+02  .313E+02
  .000E+00  .000E+00  .000E+00  .000E+00  .000E+00  .000E+00  .000E+00  .000E+00
  .000E+00  .000E+00  .000E+00  .000E+00  .000E+00  .000E+00  .000E+00  .000E+00
  .000E+00  .000E+00  .000E+00  .000E+00
Damping =  .05. Data of Sd,Sv,Sa,Pssv,ttSd,ttSv,ttSa :
  .996E-04  .110E-03  .120E-03  .133E-03  .152E-03  .170E-03  .227E-03  .251E-03
  .292E-03  .342E-03  .384E-03  .418E-03  .529E-03  .723E-03  .796E-03  .827E-03
  .105E-02  .142E-02  .198E-02  .238E-02  .291E-02  .314E-02  .314E-02  .331E-02
  .372E-02  .429E-02  .689E-02  .849E-02  .952E-02  .110E-01  .129E-01  .134E-01
  .118E-01  .114E-01  .114E-01  .136E-01  .172E-01  .200E-01  .201E-01  .190E-01
