Response and Fourier amplitude spectra (80 periods,  .04 -  7.0 sec)   for      
Corrected accelerogram   24207-M0150-08211.01       Chan  6:  Radl       from   
Uncorrected Accelerogram Data             Processed: 08/04/08, CDMG  CE24207D   
Record of Tue Jul 29, 2008 11:42:12.0 PDT             (Avol1 v7.9 7/08 CSMIP)   
CSMIP Preliminary Processing            (Origin:  To be determined)             
24207-M0150-08211.01                 Start time:  7/29/08, 18:42:12.0 UTC (GPS) 
Station No. 24207   34.334N, 118.396W    MtWtny  s/n  150 (17 Channels)         
Sylmar - Pacoima Dam                      CGS                                   
Chan  6:  Radl                      Location: 80% Height: Right 1/3-length Point
Record of Tue Jul 29, 2008 11:42:12.0 PDT    Tue Jul 29, 2008 11:42:12.0 PDT    
Hypocenter:  To be determined.               ML:  To be determined.
Instr Period =  .0200 sec,  Damping =  .700,  Sensitivity =  .63  v/g  (Nominal)
                        Record length = 59.000 sec.
                                     Uncor Max  =   .010 g , at  27.535 sec.
RMS accel of (uncor) record  =        .   Chn. metadata effective date: 01/01/04
Accelerogram bandpass filtered with 3 dB pts at   .14 and 40.00 cyc/sec
                 instrument- and baseline-corrected





Record of Tue Jul 29, 2008 11:42:12.0 PDT    Tue Jul 29, 2008 11:42:12.0 PDT

24207-M0150-08211.01      Sylmar - Pacoima Dam    Chan  6:  Radl

24207-M0150-08211.01      Sylmar - Pacoima Dam    Chan  6:  Radl

Units for spectra are inches and sec, except Sa is in fraction of g.

    6  100    6   18   17  200    1    3    1   24   13  150    024207    5    0
   18   42   12    0  211    7   29 2008   10    3  70011800   41   20   76   -1
11800    0   50    3  150    1    1  590    2    0    0    0    0    0    0    0
    0    4    0    011800    1  220    1   18    4   76   20    1    1    011800
    311800   21   80    5   17    5    0    0    0   17    0    0    3    0    2
    2    2    4    0   68   99    0   32   32    0    1    1    0    0    0    0
    1    1   30    0
      .020      .700    59.000      .001      .000   625.000      .010    27.535
    50.000      .298      .477      .000     5.000      .000     4.000      .000
     2.500    -7.319     2.500  2016.000    25.000    30.000      .000      .006
     -.009     -.014     2.000    15.000    34.334  -118.396      .012      .351
    29.437      .000      .000   594.000    25.500    28.800    12.700   119.840
     1.000    -1.632      .000      .000      .000      .000      .000      .000
     4.200     7.900     4.600   980.665      .005    59.000     7.958      .000
      .000    40.000      .000    59.000      .005      .143      .000      .000
    27.530    10.288    27.390     -.640    27.105      .120      .000      .143
    40.000      .005      .005      .001      .005      .030      .000      .000
      .042      .240      .036      .032      .009      .001      .000      .000
      .000      .000      .000      .000      .000      .000      .000      .000
      .000      .000      .000      .000
      .000      .020      .050      .100      .200
      .040      .042      .044      .046      .048      .050      .055      .060
      .065      .070      .075      .080      .085      .090      .095      .100
      .110      .120      .130      .140      .150      .160      .170      .180
      .190      .200      .220      .240      .260      .280      .300      .320
      .340      .360      .380      .400      .420      .440      .460      .480
      .500      .550      .600      .650      .700      .750      .800      .850
      .900      .950     1.000     1.100     1.200     1.300     1.400     1.500
     1.600     1.700     1.800     1.900     2.000     2.200     2.400     2.600
     2.800     3.000     3.200     3.400     3.600     3.800     4.000     4.200
     4.400     4.600     4.800     5.000     5.500     6.000     6.500     7.000
      .000      .000      .000      .000      .000      .000      .000      .000
      .000      .000      .000      .000      .000      .000      .000      .000
      .000      .000      .000      .000
Fourier amplitude spectra in in/sec.
  .941E-02  .118E-01  .281E-02  .888E-02  .218E-01  .271E-01  .356E-01  .306E-01
  .658E-01  .951E-01  .697E-01  .748E-01  .120E+00  .815E-01  .107E+00  .112E+00
  .122E+00  .292E+00  .254E+00  .191E+00  .509E+00  .223E+00  .177E+01  .191E+01
  .113E+01  .858E+00  .573E+00  .362E+00  .892E+00  .195E+01  .860E+00  .858E+00
  .789E+00  .799E+00  .449E+00  .771E+00  .753E+00  .912E+00  .705E+00  .624E+00
  .138E+01  .414E+00  .124E+01  .128E+01  .158E+01  .134E+01  .543E+00  .631E+00
  .222E+00  .834E+00  .790E+00  .627E+00  .450E-01  .332E+00  .391E+00  .293E+00
  .102E+01  .561E+00  .451E+00  .619E+00  .745E+00  .205E+00  .128E+00  .391E-01
  .775E-01  .878E-01  .138E+00  .131E+00  .190E+00  .242E+00  .188E+00  .138E+00
  .161E+00  .163E+00  .127E+00  .899E-01  .107E+00  .849E-01  .382E-01  .108E-01
  .000E+00  .000E+00  .000E+00  .000E+00  .000E+00  .000E+00  .000E+00  .000E+00
  .000E+00  .000E+00  .000E+00  .000E+00  .000E+00  .000E+00  .000E+00  .000E+00
  .000E+00  .000E+00  .000E+00  .000E+00
Damping =  .00. Data of Sd,Sv,Sa,Pssv,ttSd,ttSv,ttSa :
  .232E-03  .221E-03  .257E-03  .266E-03  .360E-03  .403E-03  .580E-03  .712E-03
  .117E-02  .128E-02  .149E-02  .138E-02  .167E-02  .281E-02  .229E-02  .273E-02
  .367E-02  .978E-02  .641E-02  .903E-02  .171E-01  .235E-01  .488E-01  .572E-01
  .425E-01  .352E-01  .284E-01  .319E-01  .559E-01  .955E-01  .575E-01  .637E-01
  .486E-01  .530E-01  .481E-01  .539E-01  .853E-01  .657E-01  .748E-01  .993E-01
  .110E+00  .650E-01  .137E+00  .204E+00  .195E+00  .172E+00  .850E-01  .969E-01
  .957E-01  .148E+00  .175E+00  .181E+00  .108E+00  .112E+00  .129E+00  .159E+00
  .285E+00  .182E+00  .159E+00  .200E+00  .257E+00  .127E+00  .928E-01  .813E-01
  .708E-01  .759E-01  .768E-01  .893E-01  .115E+00  .147E+00  .132E+00  .128E+00
  .124E+00  .122E+00  .121E+00  .118E+00  .958E-01  .887E-01  .715E-01  .661E-01
  .000E+00  .000E+00  .000E+00  .000E+00  .000E+00  .000E+00  .000E+00  .000E+00
  .000E+00  .000E+00  .000E+00  .000E+00  .000E+00  .000E+00  .000E+00  .000E+00
  .000E+00  .000E+00  .000E+00  .000E+00
  .159E-01  .150E-01  .142E-01  .155E-01  .282E-01  .329E-01  .582E-01  .591E-01
  .103E+00  .966E-01  .102E+00  .908E-01  .121E+00  .161E+00  .117E+00  .155E+00
  .185E+00  .456E+00  .289E+00  .393E+00  .677E+00  .882E+00  .180E+01  .198E+01
  .141E+01  .111E+01  .798E+00  .827E+00  .133E+01  .214E+01  .119E+01  .127E+01
  .906E+00  .912E+00  .837E+00  .876E+00  .126E+01  .933E+00  .107E+01  .128E+01
  .138E+01  .746E+00  .142E+01  .202E+01  .176E+01  .143E+01  .717E+00  .722E+00
  .824E+00  .107E+01  .113E+01  .104E+01  .716E+00  .579E+00  .596E+00  .672E+00
  .112E+01  .743E+00  .730E+00  .677E+00  .820E+00  .460E+00  .452E+00  .395E+00
  .331E+00  .292E+00  .266E+00  .254E+00  .248E+00  .263E+00  .260E+00  .256E+00
  .270E+00  .262E+00  .264E+00  .267E+00  .274E+00  .276E+00  .278E+00  .278E+00
  .000E+00  .000E+00  .000E+00  .000E+00  .000E+00  .000E+00  .000E+00  .000E+00
  .000E+00  .000E+00  .000E+00  .000E+00  .000E+00  .000E+00  .000E+00  .000E+00
  .000E+00  .000E+00  .000E+00  .000E+00
  .148E-01  .128E-01  .136E-01  .129E-01  .160E-01  .165E-01  .196E-01  .202E-01
  .282E-01  .268E-01  .271E-01  .221E-01  .236E-01  .354E-01  .260E-01  .279E-01
  .310E-01  .695E-01  .388E-01  .471E-01  .777E-01  .937E-01  .173E+00  .181E+00
  .120E+00  .901E-01  .599E-01  .566E-01  .845E-01  .125E+00  .653E-01  .636E-01
  .430E-01  .418E-01  .341E-01  .344E-01  .494E-01  .347E-01  .362E-01  .441E-01
  .450E-01  .220E-01  .390E-01  .494E-01  .407E-01  .313E-01  .136E-01  .137E-01
  .121E-01  .168E-01  .179E-01  .153E-01  .767E-02  .681E-02  .672E-02  .722E-02
  .114E-01  .645E-02  .502E-02  .567E-02  .658E-02  .269E-02  .165E-02  .123E-02
  .924E-03  .862E-03  .767E-03  .790E-03  .904E-03  .104E-02  .843E-03  .742E-03
  .657E-03  .588E-03  .539E-03  .483E-03  .324E-03  .252E-03  .173E-03  .138E-03
  .000E+00  .000E+00  .000E+00  .000E+00  .000E+00  .000E+00  .000E+00  .000E+00
  .000E+00  .000E+00  .000E+00  .000E+00  .000E+00  .000E+00  .000E+00  .000E+00
  .000E+00  .000E+00  .000E+00  .000E+00
  .365E-01  .331E-01  .367E-01  .364E-01  .472E-01  .506E-01  .662E-01  .745E-01
  .113E+00  .115E+00  .125E+00  .109E+00  .123E+00  .196E+00  .152E+00  .172E+00
  .210E+00  .512E+00  .310E+00  .405E+00  .716E+00  .921E+00  .180E+01  .200E+01
  .141E+01  .111E+01  .810E+00  .835E+00  .135E+01  .214E+01  .120E+01  .125E+01
  .899E+00  .925E+00  .795E+00  .846E+00  .128E+01  .938E+00  .102E+01  .130E+01
  .138E+01  .743E+00  .144E+01  .197E+01  .175E+01  .144E+01  .668E+00  .716E+00
  .668E+00  .981E+00  .110E+01  .103E+01  .565E+00  .544E+00  .578E+00  .665E+00
  .112E+01  .674E+00  .555E+00  .661E+00  .808E+00  .364E+00  .243E+00  .197E+00
  .159E+00  .159E+00  .151E+00  .165E+00  .200E+00  .242E+00  .207E+00  .192E+00
  .178E+00  .166E+00  .159E+00  .148E+00  .109E+00  .929E-01  .692E-01  .594E-01
  .000E+00  .000E+00  .000E+00  .000E+00  .000E+00  .000E+00  .000E+00  .000E+00
  .000E+00  .000E+00  .000E+00  .000E+00  .000E+00  .000E+00  .000E+00  .000E+00
  .000E+00  .000E+00  .000E+00  .000E+00
  .275E+02  .275E+02  .275E+02  .275E+02  .275E+02  .275E+02  .249E+02  .281E+02
  .322E+02  .281E+02  .278E+02  .287E+02  .499E+02  .276E+02  .287E+02  .279E+02
  .268E+02  .275E+02  .308E+02  .269E+02  .277E+02  .265E+02  .409E+02  .347E+02
  .358E+02  .333E+02  .279E+02  .289E+02  .298E+02  .411E+02  .252E+02  .276E+02
  .295E+02  .325E+02  .307E+02  .492E+02  .328E+02  .563E+02  .301E+02  .394E+02
  .480E+02  .272E+02  .349E+02  .322E+02  .462E+02  .471E+02  .265E+02  .361E+02
  .282E+02  .278E+02  .325E+02  .363E+02  .267E+02  .268E+02  .475E+02  .340E+02
  .480E+02  .373E+02  .309E+02  .543E+02  .465E+02  .330E+02  .277E+02  .271E+02
  .342E+02  .330E+02  .367E+02  .456E+02  .534E+02  .659E+02  .437E+02  .402E+02
  .363E+02  .572E+02  .347E+02  .349E+02  .325E+02  .511E+02  .310E+02  .314E+02
  .000E+00  .000E+00  .000E+00  .000E+00  .000E+00  .000E+00  .000E+00  .000E+00
  .000E+00  .000E+00  .000E+00  .000E+00  .000E+00  .000E+00  .000E+00  .000E+00
  .000E+00  .000E+00  .000E+00  .000E+00
  .277E+02  .255E+02  .277E+02  .256E+02  .262E+02  .314E+02  .242E+02  .309E+02
  .318E+02  .290E+02  .294E+02  .365E+02  .575E+02  .276E+02  .260E+02  .323E+02
  .268E+02  .276E+02  .308E+02  .270E+02  .363E+02  .266E+02  .408E+02  .346E+02
  .361E+02  .334E+02  .280E+02  .290E+02  .299E+02  .411E+02  .251E+02  .277E+02
  .294E+02  .336E+02  .305E+02  .305E+02  .327E+02  .560E+02  .302E+02  .388E+02
  .583E+02  .277E+02  .351E+02  .323E+02  .299E+02  .473E+02  .263E+02  .363E+02
  .280E+02  .280E+02  .323E+02  .361E+02  .270E+02  .270E+02  .478E+02  .337E+02
  .476E+02  .286E+02  .287E+02  .395E+02  .490E+02  .274E+02  .274E+02  .274E+02
  .274E+02  .274E+02  .274E+02  .274E+02  .274E+02  .365E+02  .326E+02  .274E+02
  .354E+02  .274E+02  .274E+02  .274E+02  .274E+02  .274E+02  .274E+02  .274E+02
  .000E+00  .000E+00  .000E+00  .000E+00  .000E+00  .000E+00  .000E+00  .000E+00
  .000E+00  .000E+00  .000E+00  .000E+00  .000E+00  .000E+00  .000E+00  .000E+00
  .000E+00  .000E+00  .000E+00  .000E+00
  .275E+02  .275E+02  .275E+02  .275E+02  .275E+02  .275E+02  .249E+02  .281E+02
  .322E+02  .281E+02  .278E+02  .287E+02  .499E+02  .276E+02  .287E+02  .279E+02
  .268E+02  .275E+02  .308E+02  .269E+02  .277E+02  .265E+02  .409E+02  .347E+02
  .358E+02  .333E+02  .279E+02  .289E+02  .298E+02  .411E+02  .252E+02  .276E+02
  .295E+02  .325E+02  .307E+02  .492E+02  .328E+02  .563E+02  .301E+02  .394E+02
  .480E+02  .272E+02  .349E+02  .322E+02  .462E+02  .471E+02  .265E+02  .361E+02
  .282E+02  .278E+02  .325E+02  .363E+02  .267E+02  .268E+02  .475E+02  .340E+02
  .480E+02  .373E+02  .309E+02  .543E+02  .465E+02  .330E+02  .277E+02  .271E+02
  .342E+02  .330E+02  .367E+02  .456E+02  .534E+02  .659E+02  .437E+02  .402E+02
  .363E+02  .572E+02  .347E+02  .349E+02  .325E+02  .511E+02  .310E+02  .314E+02
  .000E+00  .000E+00  .000E+00  .000E+00  .000E+00  .000E+00  .000E+00  .000E+00
  .000E+00  .000E+00  .000E+00  .000E+00  .000E+00  .000E+00  .000E+00  .000E+00
  .000E+00  .000E+00  .000E+00  .000E+00
Damping =  .02. Data of Sd,Sv,Sa,Pssv,ttSd,ttSv,ttSa :
  .172E-03  .188E-03  .201E-03  .222E-03  .257E-03  .282E-03  .376E-03  .431E-03
  .534E-03  .792E-03  .760E-03  .843E-03  .101E-02  .163E-02  .193E-02  .189E-02
  .206E-02  .412E-02  .484E-02  .551E-02  .996E-02  .127E-01  .160E-01  .216E-01
  .189E-01  .188E-01  .189E-01  .306E-01  .332E-01  .380E-01  .380E-01  .364E-01
  .330E-01  .274E-01  .271E-01  .307E-01  .400E-01  .374E-01  .443E-01  .506E-01
  .519E-01  .587E-01  .102E+00  .141E+00  .133E+00  .909E-01  .655E-01  .721E-01
  .879E-01  .119E+00  .121E+00  .115E+00  .918E-01  .987E-01  .957E-01  .110E+00
  .138E+00  .127E+00  .134E+00  .142E+00  .149E+00  .106E+00  .853E-01  .739E-01
  .665E-01  .676E-01  .659E-01  .699E-01  .835E-01  .101E+00  .109E+00  .109E+00
  .105E+00  .102E+00  .107E+00  .105E+00  .900E-01  .669E-01  .668E-01  .617E-01
  .000E+00  .000E+00  .000E+00  .000E+00  .000E+00  .000E+00  .000E+00  .000E+00
  .000E+00  .000E+00  .000E+00  .000E+00  .000E+00  .000E+00  .000E+00  .000E+00
  .000E+00  .000E+00  .000E+00  .000E+00
  .631E-02  .679E-02  .773E-02  .978E-02  .122E-01  .135E-01  .224E-01  .236E-01
  .288E-01  .458E-01  .369E-01  .306E-01  .522E-01  .790E-01  .813E-01  .733E-01
  .747E-01  .146E+00  .196E+00  .226E+00  .381E+00  .463E+00  .568E+00  .734E+00
  .619E+00  .588E+00  .513E+00  .756E+00  .820E+00  .887E+00  .798E+00  .764E+00
  .638E+00  .480E+00  .502E+00  .540E+00  .596E+00  .542E+00  .635E+00  .660E+00
  .626E+00  .673E+00  .107E+01  .141E+01  .122E+01  .875E+00  .586E+00  .572E+00
  .751E+00  .876E+00  .809E+00  .652E+00  .616E+00  .516E+00  .504E+00  .528E+00
  .562E+00  .654E+00  .642E+00  .571E+00  .512E+00  .437E+00  .429E+00  .384E+00
  .330E+00  .294E+00  .271E+00  .258E+00  .252E+00  .255E+00  .257E+00  .257E+00
  .259E+00  .262E+00  .264E+00  .266E+00  .272E+00  .274E+00  .276E+00  .276E+00
  .000E+00  .000E+00  .000E+00  .000E+00  .000E+00  .000E+00  .000E+00  .000E+00
  .000E+00  .000E+00  .000E+00  .000E+00  .000E+00  .000E+00  .000E+00  .000E+00
  .000E+00  .000E+00  .000E+00  .000E+00
  .110E-01  .109E-01  .106E-01  .107E-01  .114E-01  .115E-01  .127E-01  .123E-01
  .129E-01  .165E-01  .138E-01  .135E-01  .143E-01  .206E-01  .218E-01  .193E-01
  .174E-01  .292E-01  .293E-01  .287E-01  .454E-01  .508E-01  .566E-01  .685E-01
  .535E-01  .481E-01  .401E-01  .544E-01  .503E-01  .496E-01  .432E-01  .364E-01
  .293E-01  .217E-01  .192E-01  .196E-01  .232E-01  .198E-01  .214E-01  .225E-01
  .212E-01  .198E-01  .289E-01  .342E-01  .277E-01  .165E-01  .105E-01  .102E-01
  .111E-01  .135E-01  .124E-01  .971E-02  .652E-02  .598E-02  .500E-02  .501E-02
  .550E-02  .451E-02  .423E-02  .402E-02  .380E-02  .225E-02  .152E-02  .112E-02
  .875E-03  .770E-03  .659E-03  .619E-03  .660E-03  .717E-03  .697E-03  .631E-03
  .557E-03  .494E-03  .479E-03  .431E-03  .307E-03  .194E-03  .163E-03  .131E-03
  .000E+00  .000E+00  .000E+00  .000E+00  .000E+00  .000E+00  .000E+00  .000E+00
  .000E+00  .000E+00  .000E+00  .000E+00  .000E+00  .000E+00  .000E+00  .000E+00
  .000E+00  .000E+00  .000E+00  .000E+00
  .270E-01  .281E-01  .288E-01  .304E-01  .336E-01  .354E-01  .429E-01  .451E-01
  .516E-01  .711E-01  .636E-01  .662E-01  .743E-01  .114E+00  .128E+00  .119E+00
  .118E+00  .216E+00  .234E+00  .247E+00  .417E+00  .499E+00  .592E+00  .756E+00
  .626E+00  .590E+00  .541E+00  .801E+00  .801E+00  .852E+00  .795E+00  .715E+00
  .611E+00  .478E+00  .447E+00  .482E+00  .598E+00  .534E+00  .605E+00  .662E+00
  .652E+00  .670E+00  .106E+01  .136E+01  .119E+01  .762E+00  .515E+00  .533E+00
  .614E+00  .789E+00  .763E+00  .655E+00  .481E+00  .477E+00  .429E+00  .461E+00
  .540E+00  .471E+00  .468E+00  .469E+00  .467E+00  .303E+00  .223E+00  .179E+00
  .149E+00  .142E+00  .129E+00  .129E+00  .146E+00  .167E+00  .171E+00  .163E+00
  .150E+00  .139E+00  .141E+00  .132E+00  .103E+00  .701E-01  .645E-01  .554E-01
  .000E+00  .000E+00  .000E+00  .000E+00  .000E+00  .000E+00  .000E+00  .000E+00
  .000E+00  .000E+00  .000E+00  .000E+00  .000E+00  .000E+00  .000E+00  .000E+00
  .000E+00  .000E+00  .000E+00  .000E+00
  .275E+02  .275E+02  .275E+02  .275E+02  .275E+02  .275E+02  .279E+02  .271E+02
  .275E+02  .275E+02  .275E+02  .275E+02  .276E+02  .276E+02  .275E+02  .275E+02
  .275E+02  .275E+02  .281E+02  .282E+02  .277E+02  .263E+02  .286E+02  .286E+02
  .263E+02  .279E+02  .279E+02  .279E+02  .283E+02  .283E+02  .282E+02  .276E+02
  .295E+02  .293E+02  .305E+02  .304E+02  .328E+02  .268E+02  .301E+02  .272E+02
  .272E+02  .272E+02  .288E+02  .289E+02  .294E+02  .281E+02  .265E+02  .258E+02
  .278E+02  .278E+02  .279E+02  .292E+02  .267E+02  .268E+02  .292E+02  .287E+02
  .360E+02  .289E+02  .283E+02  .284E+02  .365E+02  .276E+02  .277E+02  .271E+02
  .271E+02  .330E+02  .367E+02  .370E+02  .410E+02  .412E+02  .358E+02  .359E+02
  .363E+02  .346E+02  .347E+02  .347E+02  .325E+02  .304E+02  .310E+02  .314E+02
  .000E+00  .000E+00  .000E+00  .000E+00  .000E+00  .000E+00  .000E+00  .000E+00
  .000E+00  .000E+00  .000E+00  .000E+00  .000E+00  .000E+00  .000E+00  .000E+00
  .000E+00  .000E+00  .000E+00  .000E+00
  .276E+02  .276E+02  .258E+02  .261E+02  .261E+02  .262E+02  .262E+02  .262E+02
  .261E+02  .278E+02  .278E+02  .274E+02  .267E+02  .276E+02  .278E+02  .279E+02
  .268E+02  .276E+02  .281E+02  .282E+02  .277E+02  .262E+02  .286E+02  .285E+02
  .261E+02  .260E+02  .280E+02  .280E+02  .283E+02  .282E+02  .282E+02  .277E+02
  .294E+02  .294E+02  .305E+02  .303E+02  .327E+02  .267E+02  .302E+02  .273E+02
  .273E+02  .277E+02  .290E+02  .288E+02  .286E+02  .280E+02  .263E+02  .260E+02
  .280E+02  .276E+02  .276E+02  .278E+02  .270E+02  .270E+02  .266E+02  .291E+02
  .291E+02  .286E+02  .287E+02  .278E+02  .360E+02  .274E+02  .274E+02  .274E+02
  .274E+02  .274E+02  .274E+02  .274E+02  .274E+02  .274E+02  .274E+02  .274E+02
  .274E+02  .274E+02  .274E+02  .274E+02  .274E+02  .274E+02  .274E+02  .274E+02
  .000E+00  .000E+00  .000E+00  .000E+00  .000E+00  .000E+00  .000E+00  .000E+00
  .000E+00  .000E+00  .000E+00  .000E+00  .000E+00  .000E+00  .000E+00  .000E+00
  .000E+00  .000E+00  .000E+00  .000E+00
  .275E+02  .275E+02  .275E+02  .275E+02  .275E+02  .275E+02  .279E+02  .271E+02
  .275E+02  .275E+02  .275E+02  .275E+02  .276E+02  .276E+02  .275E+02  .275E+02
  .275E+02  .275E+02  .281E+02  .282E+02  .277E+02  .263E+02  .285E+02  .286E+02
  .263E+02  .279E+02  .279E+02  .279E+02  .283E+02  .283E+02  .282E+02  .276E+02
  .295E+02  .293E+02  .305E+02  .304E+02  .328E+02  .268E+02  .301E+02  .272E+02
  .272E+02  .272E+02  .288E+02  .289E+02  .294E+02  .281E+02  .265E+02  .258E+02
  .278E+02  .278E+02  .279E+02  .292E+02  .267E+02  .268E+02  .292E+02  .287E+02
  .360E+02  .289E+02  .283E+02  .284E+02  .365E+02  .275E+02  .277E+02  .271E+02
  .271E+02  .330E+02  .366E+02  .370E+02  .410E+02  .411E+02  .358E+02  .358E+02
  .363E+02  .346E+02  .346E+02  .347E+02  .325E+02  .304E+02  .310E+02  .314E+02
  .000E+00  .000E+00  .000E+00  .000E+00  .000E+00  .000E+00  .000E+00  .000E+00
  .000E+00  .000E+00  .000E+00  .000E+00  .000E+00  .000E+00  .000E+00  .000E+00
  .000E+00  .000E+00  .000E+00  .000E+00
Damping =  .05. Data of Sd,Sv,Sa,Pssv,ttSd,ttSv,ttSa :
  .169E-03  .186E-03  .201E-03  .222E-03  .248E-03  .271E-03  .354E-03  .420E-03
  .531E-03  .653E-03  .734E-03  .796E-03  .921E-03  .125E-02  .161E-02  .175E-02
  .212E-02  .325E-02  .365E-02  .430E-02  .640E-02  .881E-02  .108E-01  .123E-01
  .131E-01  .138E-01  .166E-01  .235E-01  .251E-01  .283E-01  .282E-01  .253E-01
  .249E-01  .238E-01  .215E-01  .222E-01  .248E-01  .280E-01  .321E-01  .388E-01
