Response and Fourier amplitude spectra (80 periods,  .04 -  7.0 sec)   for      
Corrected accelerogram   24207-M0150-08211.01       Chan 13:  Up         from   
Uncorrected Accelerogram Data             Processed: 08/04/08, CDMG  CE24207D   
Record of Tue Jul 29, 2008 11:42:12.0 PDT             (Avol1 v7.9 7/08 CSMIP)   
CSMIP Preliminary Processing            (Origin:  To be determined)             
24207-M0150-08211.01                 Start time:  7/29/08, 18:42:12.0 UTC (GPS) 
Station No. 24207   34.334N, 118.396W    MtWtny  s/n  150 (17 Channels)         
Sylmar - Pacoima Dam                      CGS                                   
Chan 13:  Up                        Location: Right (North) Abutment            
Record of Tue Jul 29, 2008 11:42:12.0 PDT    Tue Jul 29, 2008 11:42:12.0 PDT    
Hypocenter:  To be determined.               ML:  To be determined.
Instr Period =  .0200 sec,  Damping =  .700,  Sensitivity =  .63  v/g  (Nominal)
                        Record length = 59.000 sec.
                                     Uncor Max  =   .005 g , at  27.615 sec.
RMS accel of (uncor) record  =        .   Chn. metadata effective date: 01/01/04
Accelerogram bandpass filtered with 3 dB pts at   .14 and 40.00 cyc/sec
                 instrument- and baseline-corrected





Record of Tue Jul 29, 2008 11:42:12.0 PDT    Tue Jul 29, 2008 11:42:12.0 PDT

24207-M0150-08211.01      Sylmar - Pacoima Dam    Chan 13:  Up

24207-M0150-08211.01      Sylmar - Pacoima Dam    Chan 13:  Up

Units for spectra are inches and sec, except Sa is in fraction of g.

   13  100   13   18   17  200    1    3    1   24   13  150    024207    5    0
   18   42   12    0  211    7   29 2008   10    3  50011800   41   20   76   -1
11800    0   50    3  150    1    1  590    2    0    0    0    0    0    0    0
    0    4    0    011800    1  220    1   18    4   76   20    1    1    011800
    311800   21   80    5   17    5    0    0    0   17    0    0    3    0    2
    2    2    4    0   68   99    0   32   32    0    1    1    0    0    0    0
    1    1   65    0
      .020      .700    59.000      .001      .000   625.000      .005    27.615
    50.000      .298      .477      .000     5.000      .000     4.000      .000
     2.500    25.784     2.500  2016.000    25.000    30.000      .000     -.031
      .028      .059     2.000    15.000    34.334  -118.396      .019      .184
     9.535      .000      .000   594.000    25.500    28.800    12.700   119.840
     1.000     2.817      .000      .000      .000      .000      .000      .000
     4.200     7.900     4.600   980.665      .005    59.000     7.958      .000
      .000    40.000      .000    59.000      .005      .143      .000      .000
    27.610     4.782    26.915     -.231    25.445     -.053      .000      .143
    40.000      .005      .005     -.005      .005      .016      .000      .000
      .015      .095      .011      .010      .002      .001      .000      .000
      .000      .000      .000      .000      .000      .000      .000      .000
      .000      .000      .000      .000
      .000      .020      .050      .100      .200
      .040      .042      .044      .046      .048      .050      .055      .060
      .065      .070      .075      .080      .085      .090      .095      .100
      .110      .120      .130      .140      .150      .160      .170      .180
      .190      .200      .220      .240      .260      .280      .300      .320
      .340      .360      .380      .400      .420      .440      .460      .480
      .500      .550      .600      .650      .700      .750      .800      .850
      .900      .950     1.000     1.100     1.200     1.300     1.400     1.500
     1.600     1.700     1.800     1.900     2.000     2.200     2.400     2.600
     2.800     3.000     3.200     3.400     3.600     3.800     4.000     4.200
     4.400     4.600     4.800     5.000     5.500     6.000     6.500     7.000
      .000      .000      .000      .000      .000      .000      .000      .000
      .000      .000      .000      .000      .000      .000      .000      .000
      .000      .000      .000      .000
Fourier amplitude spectra in in/sec.
  .479E-01  .107E-01  .410E-01  .315E-01  .601E-01  .515E-01  .503E-01  .606E-01
  .164E+00  .166E+00  .477E-01  .992E-01  .454E-01  .101E+00  .247E+00  .224E+00
  .276E+00  .328E+00  .118E+00  .140E+00  .320E+00  .227E+00  .215E+00  .395E+00
  .215E+00  .450E+00  .445E+00  .296E+00  .238E+00  .342E+00  .103E+01  .300E+00
  .811E+00  .753E+00  .439E+00  .348E+00  .523E+00  .426E+00  .443E+00  .371E+00
  .579E+00  .350E+00  .349E+00  .474E+00  .372E+00  .479E+00  .984E+00  .554E+00
  .530E+00  .976E-01  .145E+00  .155E+00  .443E+00  .500E+00  .173E+00  .186E+00
  .446E+00  .243E+00  .613E-01  .269E+00  .207E+00  .273E+00  .198E+00  .165E+00
  .188E+00  .103E+00  .910E-01  .104E+00  .326E-01  .142E+00  .113E+00  .623E-01
  .837E-01  .693E-01  .433E-01  .263E-01  .459E-01  .449E-01  .340E-01  .415E-01
  .000E+00  .000E+00  .000E+00  .000E+00  .000E+00  .000E+00  .000E+00  .000E+00
  .000E+00  .000E+00  .000E+00  .000E+00  .000E+00  .000E+00  .000E+00  .000E+00
  .000E+00  .000E+00  .000E+00  .000E+00
Damping =  .00. Data of Sd,Sv,Sa,Pssv,ttSd,ttSv,ttSa :
  .331E-03  .234E-03  .368E-03  .413E-03  .625E-03  .524E-03  .888E-03  .153E-02
  .233E-02  .193E-02  .172E-02  .162E-02  .178E-02  .282E-02  .490E-02  .364E-02
  .515E-02  .654E-02  .498E-02  .373E-02  .825E-02  .622E-02  .637E-02  .118E-01
  .872E-02  .151E-01  .170E-01  .140E-01  .179E-01  .185E-01  .521E-01  .209E-01
  .526E-01  .457E-01  .277E-01  .259E-01  .411E-01  .395E-01  .351E-01  .455E-01
  .590E-01  .360E-01  .403E-01  .596E-01  .452E-01  .623E-01  .127E+00  .775E-01
  .849E-01  .304E-01  .245E-01  .447E-01  .888E-01  .106E+00  .850E-01  .104E+00
  .132E+00  .797E-01  .811E-01  .913E-01  .786E-01  .967E-01  .909E-01  .690E-01
  .847E-01  .665E-01  .535E-01  .564E-01  .555E-01  .859E-01  .787E-01  .723E-01
  .653E-01  .594E-01  .514E-01  .568E-01  .530E-01  .429E-01  .531E-01  .548E-01
  .000E+00  .000E+00  .000E+00  .000E+00  .000E+00  .000E+00  .000E+00  .000E+00
  .000E+00  .000E+00  .000E+00  .000E+00  .000E+00  .000E+00  .000E+00  .000E+00
  .000E+00  .000E+00  .000E+00  .000E+00
  .499E-01  .304E-01  .479E-01  .531E-01  .750E-01  .623E-01  .959E-01  .153E+00
  .221E+00  .173E+00  .133E+00  .123E+00  .130E+00  .186E+00  .319E+00  .227E+00
  .285E+00  .339E+00  .231E+00  .166E+00  .341E+00  .229E+00  .232E+00  .404E+00
  .283E+00  .468E+00  .467E+00  .358E+00  .424E+00  .405E+00  .109E+01  .390E+00
  .973E+00  .793E+00  .456E+00  .405E+00  .603E+00  .563E+00  .478E+00  .585E+00
  .735E+00  .408E+00  .442E+00  .569E+00  .401E+00  .512E+00  .100E+01  .580E+00
  .595E+00  .215E+00  .179E+00  .249E+00  .467E+00  .513E+00  .384E+00  .456E+00
  .529E+00  .307E+00  .305E+00  .325E+00  .257E+00  .289E+00  .237E+00  .192E+00
  .191E+00  .167E+00  .149E+00  .141E+00  .143E+00  .142E+00  .133E+00  .138E+00
  .130E+00  .121E+00  .119E+00  .118E+00  .115E+00  .101E+00  .987E-01  .105E+00
  .000E+00  .000E+00  .000E+00  .000E+00  .000E+00  .000E+00  .000E+00  .000E+00
  .000E+00  .000E+00  .000E+00  .000E+00  .000E+00  .000E+00  .000E+00  .000E+00
  .000E+00  .000E+00  .000E+00  .000E+00
  .211E-01  .136E-01  .194E-01  .200E-01  .277E-01  .214E-01  .300E-01  .435E-01
  .564E-01  .404E-01  .314E-01  .259E-01  .252E-01  .356E-01  .555E-01  .372E-01
  .435E-01  .465E-01  .301E-01  .194E-01  .375E-01  .248E-01  .225E-01  .371E-01
  .247E-01  .387E-01  .359E-01  .248E-01  .271E-01  .241E-01  .592E-01  .208E-01
  .466E-01  .361E-01  .196E-01  .165E-01  .238E-01  .209E-01  .170E-01  .202E-01
  .241E-01  .122E-01  .115E-01  .144E-01  .943E-02  .113E-01  .204E-01  .110E-01
  .107E-01  .345E-02  .251E-02  .378E-02  .631E-02  .644E-02  .444E-02  .472E-02
  .527E-02  .282E-02  .256E-02  .259E-02  .201E-02  .204E-02  .161E-02  .104E-02
  .111E-02  .756E-03  .534E-03  .499E-03  .438E-03  .609E-03  .503E-03  .419E-03
  .345E-03  .287E-03  .228E-03  .232E-03  .179E-03  .122E-03  .129E-03  .114E-03
  .000E+00  .000E+00  .000E+00  .000E+00  .000E+00  .000E+00  .000E+00  .000E+00
  .000E+00  .000E+00  .000E+00  .000E+00  .000E+00  .000E+00  .000E+00  .000E+00
  .000E+00  .000E+00  .000E+00  .000E+00
  .520E-01  .350E-01  .525E-01  .565E-01  .818E-01  .658E-01  .101E+00  .160E+00
  .225E+00  .174E+00  .145E+00  .127E+00  .132E+00  .197E+00  .324E+00  .229E+00
  .294E+00  .342E+00  .241E+00  .167E+00  .346E+00  .244E+00  .235E+00  .411E+00
  .288E+00  .476E+00  .485E+00  .366E+00  .432E+00  .414E+00  .109E+01  .410E+00
  .973E+00  .798E+00  .458E+00  .406E+00  .615E+00  .564E+00  .479E+00  .596E+00
  .741E+00  .411E+00  .423E+00  .576E+00  .405E+00  .522E+00  .100E+01  .573E+00
  .593E+00  .201E+00  .154E+00  .256E+00  .465E+00  .514E+00  .382E+00  .435E+00
  .518E+00  .295E+00  .283E+00  .302E+00  .247E+00  .276E+00  .238E+00  .167E+00
  .190E+00  .139E+00  .105E+00  .104E+00  .968E-01  .142E+00  .124E+00  .108E+00
  .932E-01  .811E-01  .673E-01  .713E-01  .605E-01  .449E-01  .513E-01  .492E-01
  .000E+00  .000E+00  .000E+00  .000E+00  .000E+00  .000E+00  .000E+00  .000E+00
  .000E+00  .000E+00  .000E+00  .000E+00  .000E+00  .000E+00  .000E+00  .000E+00
  .000E+00  .000E+00  .000E+00  .000E+00
  .387E+02  .270E+02  .274E+02  .321E+02  .258E+02  .311E+02  .268E+02  .254E+02
  .274E+02  .278E+02  .270E+02  .184E+02  .197E+02  .275E+02  .280E+02  .521E+02
  .278E+02  .275E+02  .275E+02  .347E+02  .331E+02  .277E+02  .441E+02  .296E+02
  .357E+02  .345E+02  .298E+02  .323E+02  .323E+02  .316E+02  .380E+02  .282E+02
  .398E+02  .285E+02  .502E+02  .300E+02  .435E+02  .334E+02  .519E+02  .264E+02
  .452E+02  .446E+02  .323E+02  .452E+02  .287E+02  .447E+02  .569E+02  .566E+02
  .513E+02  .316E+02  .554E+02  .457E+02  .531E+02  .554E+02  .426E+02  .333E+02
  .465E+02  .471E+02  .286E+02  .450E+02  .409E+02  .564E+02  .452E+02  .583E+02
  .581E+02  .493E+02  .515E+02  .644E+02  .364E+02  .654E+02  .549E+02  .437E+02
  .423E+02  .548E+02  .302E+02  .303E+02  .534E+02  .614E+02  .415E+02  .394E+02
  .000E+00  .000E+00  .000E+00  .000E+00  .000E+00  .000E+00  .000E+00  .000E+00
  .000E+00  .000E+00  .000E+00  .000E+00  .000E+00  .000E+00  .000E+00  .000E+00
  .000E+00  .000E+00  .000E+00  .000E+00
  .387E+02  .271E+02  .276E+02  .315E+02  .258E+02  .311E+02  .268E+02  .254E+02
  .274E+02  .286E+02  .277E+02  .184E+02  .197E+02  .275E+02  .281E+02  .519E+02
  .278E+02  .282E+02  .275E+02  .348E+02  .332E+02  .418E+02  .441E+02  .335E+02
  .354E+02  .345E+02  .299E+02  .323E+02  .310E+02  .316E+02  .381E+02  .281E+02
  .397E+02  .286E+02  .509E+02  .299E+02  .434E+02  .333E+02  .518E+02  .266E+02
  .454E+02  .448E+02  .322E+02  .434E+02  .289E+02  .445E+02  .567E+02  .564E+02
  .515E+02  .314E+02  .297E+02  .437E+02  .552E+02  .570E+02  .429E+02  .314E+02
  .469E+02  .305E+02  .290E+02  .454E+02  .344E+02  .449E+02  .324E+02  .385E+02
  .560E+02  .269E+02  .259E+02  .259E+02  .259E+02  .568E+02  .259E+02  .259E+02
  .259E+02  .259E+02  .259E+02  .259E+02  .247E+02  .247E+02  .247E+02  .247E+02
  .000E+00  .000E+00  .000E+00  .000E+00  .000E+00  .000E+00  .000E+00  .000E+00
  .000E+00  .000E+00  .000E+00  .000E+00  .000E+00  .000E+00  .000E+00  .000E+00
  .000E+00  .000E+00  .000E+00  .000E+00
  .387E+02  .270E+02  .274E+02  .321E+02  .258E+02  .311E+02  .268E+02  .254E+02
  .274E+02  .278E+02  .270E+02  .184E+02  .197E+02  .275E+02  .280E+02  .521E+02
  .278E+02  .275E+02  .275E+02  .347E+02  .331E+02  .277E+02  .441E+02  .296E+02
  .357E+02  .345E+02  .298E+02  .323E+02  .323E+02  .316E+02  .380E+02  .282E+02
  .398E+02  .285E+02  .502E+02  .300E+02  .435E+02  .334E+02  .519E+02  .264E+02
  .452E+02  .446E+02  .323E+02  .452E+02  .287E+02  .447E+02  .569E+02  .566E+02
  .513E+02  .316E+02  .554E+02  .457E+02  .531E+02  .554E+02  .426E+02  .333E+02
  .465E+02  .471E+02  .286E+02  .450E+02  .409E+02  .564E+02  .452E+02  .583E+02
  .581E+02  .493E+02  .515E+02  .644E+02  .364E+02  .654E+02  .549E+02  .437E+02
  .423E+02  .548E+02  .302E+02  .303E+02  .534E+02  .614E+02  .415E+02  .394E+02
  .000E+00  .000E+00  .000E+00  .000E+00  .000E+00  .000E+00  .000E+00  .000E+00
  .000E+00  .000E+00  .000E+00  .000E+00  .000E+00  .000E+00  .000E+00  .000E+00
  .000E+00  .000E+00  .000E+00  .000E+00
Damping =  .02. Data of Sd,Sv,Sa,Pssv,ttSd,ttSv,ttSa :
  .101E-03  .112E-03  .131E-03  .195E-03  .216E-03  .199E-03  .292E-03  .544E-03
  .660E-03  .818E-03  .603E-03  .825E-03  .923E-03  .148E-02  .221E-02  .169E-02
  .191E-02  .200E-02  .172E-02  .173E-02  .288E-02  .280E-02  .371E-02  .527E-02
  .532E-02  .571E-02  .709E-02  .583E-02  .937E-02  .827E-02  .145E-01  .141E-01
  .206E-01  .233E-01  .151E-01  .129E-01  .143E-01  .183E-01  .189E-01  .276E-01
  .273E-01  .265E-01  .276E-01  .281E-01  .349E-01  .338E-01  .560E-01  .415E-01
  .362E-01  .244E-01  .226E-01  .231E-01  .434E-01  .508E-01  .570E-01  .671E-01
  .730E-01  .660E-01  .667E-01  .627E-01  .568E-01  .660E-01  .688E-01  .514E-01
  .482E-01  .460E-01  .412E-01  .393E-01  .446E-01  .482E-01  .487E-01  .506E-01
  .481E-01  .458E-01  .474E-01  .506E-01  .439E-01  .365E-01  .427E-01  .447E-01
  .000E+00  .000E+00  .000E+00  .000E+00  .000E+00  .000E+00  .000E+00  .000E+00
  .000E+00  .000E+00  .000E+00  .000E+00  .000E+00  .000E+00  .000E+00  .000E+00
  .000E+00  .000E+00  .000E+00  .000E+00
  .973E-02  .116E-01  .141E-01  .188E-01  .188E-01  .163E-01  .242E-01  .547E-01
  .556E-01  .626E-01  .475E-01  .618E-01  .685E-01  .980E-01  .130E+00  .998E-01
  .106E+00  .107E+00  .741E-01  .756E-01  .108E+00  .930E-01  .123E+00  .175E+00
  .165E+00  .180E+00  .189E+00  .150E+00  .220E+00  .174E+00  .295E+00  .257E+00
  .378E+00  .400E+00  .242E+00  .212E+00  .211E+00  .265E+00  .256E+00  .351E+00
  .354E+00  .292E+00  .294E+00  .294E+00  .312E+00  .288E+00  .449E+00  .324E+00
  .271E+00  .194E+00  .191E+00  .170E+00  .215E+00  .251E+00  .258E+00  .351E+00
  .297E+00  .258E+00  .248E+00  .247E+00  .228E+00  .235E+00  .181E+00  .174E+00
  .164E+00  .158E+00  .144E+00  .139E+00  .138E+00  .132E+00  .132E+00  .133E+00
  .128E+00  .121E+00  .118E+00  .116E+00  .112E+00  .102E+00  .998E-01  .103E+00
  .000E+00  .000E+00  .000E+00  .000E+00  .000E+00  .000E+00  .000E+00  .000E+00
  .000E+00  .000E+00  .000E+00  .000E+00  .000E+00  .000E+00  .000E+00  .000E+00
  .000E+00  .000E+00  .000E+00  .000E+00
  .644E-02  .651E-02  .694E-02  .946E-02  .958E-02  .819E-02  .984E-02  .154E-01
  .161E-01  .170E-01  .109E-01  .132E-01  .132E-01  .187E-01  .251E-01  .173E-01
  .162E-01  .142E-01  .104E-01  .900E-02  .131E-01  .112E-01  .132E-01  .167E-01
  .151E-01  .146E-01  .150E-01  .104E-01  .142E-01  .108E-01  .164E-01  .141E-01
  .183E-01  .184E-01  .107E-01  .824E-02  .828E-02  .966E-02  .916E-02  .123E-01
  .112E-01  .897E-02  .783E-02  .680E-02  .730E-02  .615E-02  .896E-02  .588E-02
  .457E-02  .277E-02  .231E-02  .196E-02  .308E-02  .308E-02  .298E-02  .305E-02
  .292E-02  .234E-02  .211E-02  .178E-02  .145E-02  .140E-02  .122E-02  .779E-03
  .629E-03  .526E-03  .414E-03  .348E-03  .353E-03  .342E-03  .312E-03  .294E-03
  .255E-03  .223E-03  .212E-03  .209E-03  .150E-03  .105E-03  .104E-03  .935E-04
  .000E+00  .000E+00  .000E+00  .000E+00  .000E+00  .000E+00  .000E+00  .000E+00
  .000E+00  .000E+00  .000E+00  .000E+00  .000E+00  .000E+00  .000E+00  .000E+00
  .000E+00  .000E+00  .000E+00  .000E+00
  .158E-01  .168E-01  .188E-01  .267E-01  .283E-01  .250E-01  .334E-01  .569E-01
  .638E-01  .734E-01  .505E-01  .648E-01  .682E-01  .103E+00  .146E+00  .106E+00
  .109E+00  .105E+00  .832E-01  .775E-01  .121E+00  .110E+00  .137E+00  .184E+00
  .176E+00  .180E+00  .202E+00  .153E+00  .226E+00  .186E+00  .303E+00  .277E+00
  .381E+00  .406E+00  .249E+00  .202E+00  .214E+00  .261E+00  .259E+00  .361E+00
  .343E+00  .303E+00  .289E+00  .271E+00  .314E+00  .283E+00  .440E+00  .307E+00
  .253E+00  .162E+00  .142E+00  .132E+00  .227E+00  .246E+00  .256E+00  .281E+00
  .287E+00  .244E+00  .233E+00  .207E+00  .178E+00  .189E+00  .180E+00  .124E+00
  .108E+00  .964E-01  .809E-01  .725E-01  .779E-01  .797E-01  .765E-01  .757E-01
  .687E-01  .625E-01  .620E-01  .636E-01  .501E-01  .382E-01  .413E-01  .401E-01
  .000E+00  .000E+00  .000E+00  .000E+00  .000E+00  .000E+00  .000E+00  .000E+00
  .000E+00  .000E+00  .000E+00  .000E+00  .000E+00  .000E+00  .000E+00  .000E+00
  .000E+00  .000E+00  .000E+00  .000E+00
  .276E+02  .254E+02  .249E+02  .252E+02  .252E+02  .254E+02  .276E+02  .250E+02
  .261E+02  .255E+02  .178E+02  .177E+02  .180E+02  .273E+02  .276E+02  .283E+02
  .276E+02  .283E+02  .255E+02  .279E+02  .276E+02  .277E+02  .255E+02  .261E+02
  .261E+02  .255E+02  .298E+02  .324E+02  .303E+02  .179E+02  .277E+02  .280E+02
  .282E+02  .283E+02  .271E+02  .299E+02  .326E+02  .292E+02  .264E+02  .264E+02
  .265E+02  .271E+02  .278E+02  .312E+02  .287E+02  .312E+02  .321E+02  .319E+02
  .390E+02  .438E+02  .299E+02  .458E+02  .459E+02  .469E+02  .426E+02  .264E+02
  .274E+02  .275E+02  .286E+02  .287E+02  .288E+02  .313E+02  .307E+02  .261E+02
  .341E+02  .261E+02  .262E+02  .342E+02  .343E+02  .560E+02  .351E+02  .334E+02
  .423E+02  .297E+02  .302E+02  .302E+02  .282E+02  .283E+02  .415E+02  .394E+02
  .000E+00  .000E+00  .000E+00  .000E+00  .000E+00  .000E+00  .000E+00  .000E+00
  .000E+00  .000E+00  .000E+00  .000E+00  .000E+00  .000E+00  .000E+00  .000E+00
  .000E+00  .000E+00  .000E+00  .000E+00
  .254E+02  .269E+02  .257E+02  .252E+02  .252E+02  .257E+02  .178E+02  .250E+02
  .261E+02  .255E+02  .178E+02  .178E+02  .180E+02  .273E+02  .277E+02  .278E+02
  .170E+02  .283E+02  .256E+02  .280E+02  .277E+02  .276E+02  .258E+02  .261E+02
  .259E+02  .255E+02  .298E+02  .315E+02  .302E+02  .187E+02  .279E+02  .279E+02
  .281E+02  .284E+02  .270E+02  .300E+02  .327E+02  .285E+02  .332E+02  .263E+02
  .264E+02  .270E+02  .277E+02  .277E+02  .285E+02  .322E+02  .319E+02  .329E+02
  .317E+02  .297E+02  .297E+02  .297E+02  .462E+02  .472E+02  .423E+02  .276E+02
  .263E+02  .263E+02  .273E+02  .283E+02  .283E+02  .297E+02  .310E+02  .269E+02
  .269E+02  .269E+02  .259E+02  .259E+02  .259E+02  .259E+02  .259E+02  .259E+02
  .259E+02  .259E+02  .259E+02  .259E+02  .247E+02  .247E+02  .247E+02  .247E+02
  .000E+00  .000E+00  .000E+00  .000E+00  .000E+00  .000E+00  .000E+00  .000E+00
  .000E+00  .000E+00  .000E+00  .000E+00  .000E+00  .000E+00  .000E+00  .000E+00
  .000E+00  .000E+00  .000E+00  .000E+00
  .276E+02  .254E+02  .249E+02  .252E+02  .252E+02  .254E+02  .276E+02  .250E+02
  .261E+02  .255E+02  .178E+02  .173E+02  .180E+02  .273E+02  .276E+02  .283E+02
  .276E+02  .283E+02  .255E+02  .279E+02  .276E+02  .277E+02  .255E+02  .261E+02
  .261E+02  .255E+02  .298E+02  .324E+02  .303E+02  .179E+02  .277E+02  .280E+02
  .282E+02  .283E+02  .271E+02  .299E+02  .326E+02  .292E+02  .264E+02  .264E+02
  .265E+02  .271E+02  .278E+02  .312E+02  .287E+02  .312E+02  .321E+02  .318E+02
  .390E+02  .438E+02  .299E+02  .458E+02  .459E+02  .469E+02  .426E+02  .264E+02
  .274E+02  .275E+02  .285E+02  .287E+02  .288E+02  .313E+02  .307E+02  .261E+02
  .341E+02  .261E+02  .261E+02  .342E+02  .343E+02  .559E+02  .351E+02  .334E+02
  .422E+02  .296E+02  .302E+02  .302E+02  .282E+02  .282E+02  .415E+02  .393E+02
  .000E+00  .000E+00  .000E+00  .000E+00  .000E+00  .000E+00  .000E+00  .000E+00
  .000E+00  .000E+00  .000E+00  .000E+00  .000E+00  .000E+00  .000E+00  .000E+00
  .000E+00  .000E+00  .000E+00  .000E+00
Damping =  .05. Data of Sd,Sv,Sa,Pssv,ttSd,ttSv,ttSa :
  .882E-04  .991E-04  .114E-03  .145E-03  .164E-03  .168E-03  .221E-03  .355E-03
  .424E-03  .542E-03  .457E-03  .552E-03  .701E-03  .941E-03  .134E-02  .143E-02
  .145E-02  .138E-02  .125E-02  .166E-02  .227E-02  .233E-02  .305E-02  .378E-02
  .420E-02  .469E-02  .469E-02  .463E-02  .589E-02  .595E-02  .946E-02  .112E-01
  .133E-01  .142E-01  .115E-01  .102E-01  .110E-01  .123E-01  .153E-01  .187E-01
