Response and Fourier amplitude spectra (80 periods,  .04 -  7.0 sec)   for      
Corrected accelerogram   24207-M0150-08211.01       Chan  8:  Radl       from   
Uncorrected Accelerogram Data             Processed: 08/04/08, CDMG  CE24207D   
Record of Tue Jul 29, 2008 11:42:12.0 PDT             (Avol1 v7.9 7/08 CSMIP)   
CSMIP Preliminary Processing            (Origin:  To be determined)             
24207-M0150-08211.01                 Start time:  7/29/08, 18:42:12.0 UTC (GPS) 
Station No. 24207   34.334N, 118.396W    MtWtny  s/n  150 (17 Channels)         
Sylmar - Pacoima Dam                      CGS                                   
Chan  8:  Radl                      Location: 80% Height: Left 1/4-length Point 
Record of Tue Jul 29, 2008 11:42:12.0 PDT    Tue Jul 29, 2008 11:42:12.0 PDT    
Hypocenter:  To be determined.               ML:  To be determined.
Instr Period =  .0200 sec,  Damping =  .700,  Sensitivity =  .63  v/g  (Nominal)
                        Record length = 59.000 sec.
                                     Uncor Max  =   .018 g , at  27.530 sec.
RMS accel of (uncor) record  =        .   Chn. metadata effective date: 01/01/04
Accelerogram bandpass filtered with 3 dB pts at   .14 and 40.00 cyc/sec
                 instrument- and baseline-corrected





Record of Tue Jul 29, 2008 11:42:12.0 PDT    Tue Jul 29, 2008 11:42:12.0 PDT

24207-M0150-08211.01      Sylmar - Pacoima Dam    Chan  8:  Radl

24207-M0150-08211.01      Sylmar - Pacoima Dam    Chan  8:  Radl

Units for spectra are inches and sec, except Sa is in fraction of g.

    8  100    8   18   17  200    1    3    1   24   13  150    024207    5    0
   18   42   12    0  211    7   29 2008   10    3  70011800   41   20   76   -1
11800    0   50    3  150    1    1  590    2    0    0    0    0    0    0    0
    0    4    0    011800    1  220    1   18    4   76   20    1    1    011800
    311800   21   80    5   17    5    0    0    0   17    0    0    3    0    2
    2    2    4    0   68   99    0   32   32    0    1    1    0    0    0    0
    1    1   40    0
      .020      .700    59.000      .002      .000   625.000      .018    27.530
    50.000      .298      .477      .000     5.000      .000     4.000      .000
     2.500    35.802     2.500  2016.000    25.000    30.000      .000     -.001
     -.002     -.001     2.000    15.000    34.334  -118.396      .006      .389
    66.923      .000      .000   594.000    25.500    28.800    12.700   119.840
     1.000    10.728      .000      .000      .000      .000      .000      .000
     4.200     7.900     4.600   980.665      .005    59.000     7.958      .000
      .000    40.000      .000    59.000      .005      .143      .000      .000
    27.530    17.523    27.465     -.866    31.435      .062      .000      .143
    40.000      .005      .005      .000      .005      .028      .000      .000
      .101      .240      .079      .057      .006      .001      .000      .000
      .000      .000      .000      .000      .000      .000      .000      .000
      .000      .000      .000      .000
      .000      .020      .050      .100      .200
      .040      .042      .044      .046      .048      .050      .055      .060
      .065      .070      .075      .080      .085      .090      .095      .100
      .110      .120      .130      .140      .150      .160      .170      .180
      .190      .200      .220      .240      .260      .280      .300      .320
      .340      .360      .380      .400      .420      .440      .460      .480
      .500      .550      .600      .650      .700      .750      .800      .850
      .900      .950     1.000     1.100     1.200     1.300     1.400     1.500
     1.600     1.700     1.800     1.900     2.000     2.200     2.400     2.600
     2.800     3.000     3.200     3.400     3.600     3.800     4.000     4.200
     4.400     4.600     4.800     5.000     5.500     6.000     6.500     7.000
      .000      .000      .000      .000      .000      .000      .000      .000
      .000      .000      .000      .000      .000      .000      .000      .000
      .000      .000      .000      .000
Fourier amplitude spectra in in/sec.
  .161E-01  .113E-01  .326E-01  .264E-01  .442E-01  .470E-01  .375E-01  .816E-01
  .180E+00  .112E+00  .998E-01  .141E+00  .133E+00  .384E-01  .778E-01  .117E+00
  .227E+00  .152E+00  .269E+00  .328E+00  .362E+00  .502E+00  .933E+00  .167E+01
  .253E+01  .291E+01  .158E+01  .302E+01  .265E+01  .275E+01  .120E+01  .522E+00
  .757E+00  .506E+00  .512E+00  .684E+00  .109E+01  .129E+01  .113E+01  .690E+00
  .156E+01  .234E+00  .111E+01  .153E+00  .383E+00  .530E+00  .572E+00  .771E+00
  .130E+00  .934E+00  .506E+00  .270E+00  .585E+00  .266E+00  .324E+00  .109E+00
  .389E+00  .573E+00  .154E+00  .740E-01  .203E+00  .110E+00  .437E-01  .494E-01
  .147E+00  .182E+00  .143E+00  .137E+00  .115E+00  .176E+00  .139E+00  .826E-01
  .726E-01  .737E-01  .613E-01  .468E-01  .631E-01  .487E-01  .331E-01  .272E-01
  .000E+00  .000E+00  .000E+00  .000E+00  .000E+00  .000E+00  .000E+00  .000E+00
  .000E+00  .000E+00  .000E+00  .000E+00  .000E+00  .000E+00  .000E+00  .000E+00
  .000E+00  .000E+00  .000E+00  .000E+00
Damping =  .00. Data of Sd,Sv,Sa,Pssv,ttSd,ttSv,ttSa :
  .353E-03  .351E-03  .560E-03  .462E-03  .694E-03  .783E-03  .111E-02  .140E-02
  .255E-02  .166E-02  .157E-02  .273E-02  .250E-02  .220E-02  .326E-02  .376E-02
  .592E-02  .106E-01  .686E-02  .939E-02  .120E-01  .201E-01  .345E-01  .612E-01
  .995E-01  .108E+00  .617E-01  .155E+00  .115E+00  .133E+00  .881E-01  .658E-01
  .693E-01  .359E-01  .483E-01  .612E-01  .102E+00  .105E+00  .864E-01  .900E-01
  .137E+00  .541E-01  .139E+00  .552E-01  .690E-01  .692E-01  .753E-01  .109E+00
  .895E-01  .153E+00  .107E+00  .661E-01  .123E+00  .580E-01  .104E+00  .733E-01
  .119E+00  .159E+00  .716E-01  .560E-01  .660E-01  .498E-01  .547E-01  .427E-01
  .665E-01  .887E-01  .895E-01  .945E-01  .891E-01  .106E+00  .972E-01  .699E-01
  .598E-01  .597E-01  .608E-01  .605E-01  .574E-01  .563E-01  .487E-01  .417E-01
  .000E+00  .000E+00  .000E+00  .000E+00  .000E+00  .000E+00  .000E+00  .000E+00
  .000E+00  .000E+00  .000E+00  .000E+00  .000E+00  .000E+00  .000E+00  .000E+00
  .000E+00  .000E+00  .000E+00  .000E+00
  .209E-01  .157E-01  .473E-01  .273E-01  .523E-01  .656E-01  .824E-01  .982E-01
  .201E+00  .125E+00  .101E+00  .165E+00  .136E+00  .987E-01  .147E+00  .168E+00
  .299E+00  .454E+00  .296E+00  .402E+00  .489E+00  .738E+00  .122E+01  .211E+01
  .327E+01  .339E+01  .174E+01  .404E+01  .277E+01  .300E+01  .186E+01  .139E+01
  .143E+01  .689E+00  .876E+00  .959E+00  .158E+01  .168E+01  .130E+01  .118E+01
  .172E+01  .671E+00  .146E+01  .642E+00  .688E+00  .658E+00  .600E+00  .825E+00
  .673E+00  .101E+01  .753E+00  .658E+00  .642E+00  .350E+00  .497E+00  .366E+00
  .507E+00  .597E+00  .447E+00  .466E+00  .418E+00  .399E+00  .390E+00  .394E+00
  .376E+00  .382E+00  .378E+00  .365E+00  .358E+00  .356E+00  .354E+00  .350E+00
  .344E+00  .338E+00  .335E+00  .335E+00  .338E+00  .340E+00  .339E+00  .338E+00
  .000E+00  .000E+00  .000E+00  .000E+00  .000E+00  .000E+00  .000E+00  .000E+00
  .000E+00  .000E+00  .000E+00  .000E+00  .000E+00  .000E+00  .000E+00  .000E+00
  .000E+00  .000E+00  .000E+00  .000E+00
  .226E-01  .203E-01  .296E-01  .223E-01  .308E-01  .320E-01  .377E-01  .397E-01
  .618E-01  .347E-01  .286E-01  .436E-01  .354E-01  .278E-01  .370E-01  .384E-01
  .500E-01  .756E-01  .415E-01  .490E-01  .546E-01  .803E-01  .122E+00  .193E+00
  .282E+00  .275E+00  .130E+00  .275E+00  .174E+00  .174E+00  .100E+00  .657E-01
  .613E-01  .283E-01  .342E-01  .391E-01  .589E-01  .555E-01  .417E-01  .400E-01
  .559E-01  .183E-01  .394E-01  .134E-01  .144E-01  .126E-01  .120E-01  .154E-01
  .113E-01  .173E-01  .109E-01  .559E-02  .871E-02  .351E-02  .542E-02  .333E-02
  .474E-02  .562E-02  .226E-02  .159E-02  .169E-02  .105E-02  .972E-03  .647E-03
  .868E-03  .101E-02  .894E-03  .836E-03  .703E-03  .754E-03  .621E-03  .405E-03
  .316E-03  .289E-03  .270E-03  .248E-03  .194E-03  .160E-03  .118E-03  .871E-04
  .000E+00  .000E+00  .000E+00  .000E+00  .000E+00  .000E+00  .000E+00  .000E+00
  .000E+00  .000E+00  .000E+00  .000E+00  .000E+00  .000E+00  .000E+00  .000E+00
  .000E+00  .000E+00  .000E+00  .000E+00
  .555E-01  .525E-01  .800E-01  .632E-01  .908E-01  .984E-01  .127E+00  .146E+00
  .247E+00  .149E+00  .132E+00  .214E+00  .185E+00  .154E+00  .216E+00  .236E+00
  .338E+00  .557E+00  .332E+00  .421E+00  .503E+00  .790E+00  .128E+01  .214E+01
  .329E+01  .338E+01  .176E+01  .405E+01  .278E+01  .299E+01  .184E+01  .129E+01
  .128E+01  .627E+00  .798E+00  .962E+00  .152E+01  .150E+01  .118E+01  .118E+01
  .172E+01  .618E+00  .145E+01  .534E+00  .620E+00  .579E+00  .591E+00  .805E+00
  .625E+00  .101E+01  .669E+00  .378E+00  .642E+00  .280E+00  .467E+00  .307E+00
  .466E+00  .587E+00  .250E+00  .185E+00  .207E+00  .142E+00  .143E+00  .103E+00
  .149E+00  .186E+00  .176E+00  .175E+00  .156E+00  .176E+00  .153E+00  .105E+00
  .854E-01  .816E-01  .796E-01  .761E-01  .656E-01  .590E-01  .470E-01  .375E-01
  .000E+00  .000E+00  .000E+00  .000E+00  .000E+00  .000E+00  .000E+00  .000E+00
  .000E+00  .000E+00  .000E+00  .000E+00  .000E+00  .000E+00  .000E+00  .000E+00
  .000E+00  .000E+00  .000E+00  .000E+00
  .278E+02  .275E+02  .275E+02  .255E+02  .275E+02  .278E+02  .278E+02  .278E+02
  .275E+02  .293E+02  .254E+02  .279E+02  .278E+02  .279E+02  .278E+02  .278E+02
  .278E+02  .275E+02  .306E+02  .346E+02  .335E+02  .264E+02  .255E+02  .346E+02
  .360E+02  .337E+02  .295E+02  .282E+02  .398E+02  .411E+02  .287E+02  .256E+02
  .278E+02  .295E+02  .294E+02  .424E+02  .328E+02  .276E+02  .277E+02  .386E+02
  .477E+02  .305E+02  .391E+02  .293E+02  .327E+02  .348E+02  .375E+02  .346E+02
  .311E+02  .485E+02  .336E+02  .273E+02  .466E+02  .567E+02  .420E+02  .339E+02
  .415E+02  .498E+02  .306E+02  .265E+02  .574E+02  .329E+02  .275E+02  .498E+02
  .575E+02  .557E+02  .397E+02  .370E+02  .356E+02  .663E+02  .559E+02  .465E+02
  .362E+02  .364E+02  .364E+02  .396E+02  .346E+02  .559E+02  .350E+02  .350E+02
  .000E+00  .000E+00  .000E+00  .000E+00  .000E+00  .000E+00  .000E+00  .000E+00
  .000E+00  .000E+00  .000E+00  .000E+00  .000E+00  .000E+00  .000E+00  .000E+00
  .000E+00  .000E+00  .000E+00  .000E+00
  .289E+02  .329E+02  .288E+02  .408E+02  .329E+02  .304E+02  .279E+02  .279E+02
  .264E+02  .323E+02  .547E+02  .324E+02  .489E+02  .294E+02  .278E+02  .278E+02
  .305E+02  .277E+02  .327E+02  .350E+02  .335E+02  .264E+02  .256E+02  .346E+02
  .360E+02  .338E+02  .298E+02  .281E+02  .397E+02  .412E+02  .288E+02  .256E+02
  .278E+02  .277E+02  .293E+02  .425E+02  .329E+02  .277E+02  .276E+02  .387E+02
  .478E+02  .304E+02  .390E+02  .289E+02  .280E+02  .280E+02  .276E+02  .348E+02
  .290E+02  .487E+02  .275E+02  .275E+02  .469E+02  .280E+02  .430E+02  .275E+02
  .361E+02  .494E+02  .276E+02  .278E+02  .278E+02  .278E+02  .275E+02  .275E+02
  .275E+02  .275E+02  .275E+02  .275E+02  .275E+02  .275E+02  .275E+02  .275E+02
  .275E+02  .275E+02  .275E+02  .275E+02  .275E+02  .275E+02  .275E+02  .275E+02
  .000E+00  .000E+00  .000E+00  .000E+00  .000E+00  .000E+00  .000E+00  .000E+00
  .000E+00  .000E+00  .000E+00  .000E+00  .000E+00  .000E+00  .000E+00  .000E+00
  .000E+00  .000E+00  .000E+00  .000E+00
  .278E+02  .275E+02  .275E+02  .255E+02  .275E+02  .278E+02  .278E+02  .278E+02
  .275E+02  .293E+02  .254E+02  .279E+02  .278E+02  .279E+02  .278E+02  .278E+02
  .278E+02  .275E+02  .306E+02  .346E+02  .335E+02  .264E+02  .255E+02  .346E+02
  .360E+02  .337E+02  .295E+02  .282E+02  .398E+02  .411E+02  .287E+02  .256E+02
  .278E+02  .295E+02  .294E+02  .424E+02  .328E+02  .276E+02  .277E+02  .386E+02
  .477E+02  .305E+02  .391E+02  .293E+02  .327E+02  .348E+02  .375E+02  .346E+02
  .311E+02  .485E+02  .336E+02  .273E+02  .466E+02  .567E+02  .420E+02  .339E+02
  .415E+02  .498E+02  .306E+02  .265E+02  .574E+02  .329E+02  .275E+02  .498E+02
  .575E+02  .557E+02  .397E+02  .370E+02  .356E+02  .663E+02  .559E+02  .465E+02
  .362E+02  .364E+02  .364E+02  .396E+02  .346E+02  .559E+02  .350E+02  .350E+02
  .000E+00  .000E+00  .000E+00  .000E+00  .000E+00  .000E+00  .000E+00  .000E+00
  .000E+00  .000E+00  .000E+00  .000E+00  .000E+00  .000E+00  .000E+00  .000E+00
  .000E+00  .000E+00  .000E+00  .000E+00
Damping =  .02. Data of Sd,Sv,Sa,Pssv,ttSd,ttSv,ttSa :
  .287E-03  .329E-03  .368E-03  .396E-03  .458E-03  .539E-03  .725E-03  .792E-03
  .915E-03  .117E-02  .127E-02  .136E-02  .164E-02  .197E-02  .224E-02  .248E-02
  .315E-02  .589E-02  .643E-02  .794E-02  .102E-01  .145E-01  .202E-01  .278E-01
  .483E-01  .458E-01  .418E-01  .889E-01  .657E-01  .624E-01  .646E-01  .507E-01
  .516E-01  .397E-01  .376E-01  .431E-01  .497E-01  .739E-01  .702E-01  .501E-01
  .386E-01  .414E-01  .586E-01  .540E-01  .544E-01  .487E-01  .542E-01  .642E-01
  .706E-01  .708E-01  .666E-01  .575E-01  .556E-01  .417E-01  .604E-01  .633E-01
  .827E-01  .840E-01  .550E-01  .500E-01  .479E-01  .475E-01  .502E-01  .380E-01
  .408E-01  .553E-01  .696E-01  .790E-01  .794E-01  .761E-01  .696E-01  .605E-01
  .565E-01  .553E-01  .550E-01  .550E-01  .543E-01  .507E-01  .465E-01  .404E-01
  .000E+00  .000E+00  .000E+00  .000E+00  .000E+00  .000E+00  .000E+00  .000E+00
  .000E+00  .000E+00  .000E+00  .000E+00  .000E+00  .000E+00  .000E+00  .000E+00
  .000E+00  .000E+00  .000E+00  .000E+00
  .995E-02  .110E-01  .122E-01  .138E-01  .166E-01  .225E-01  .324E-01  .418E-01
  .527E-01  .490E-01  .473E-01  .618E-01  .710E-01  .731E-01  .791E-01  .910E-01
  .110E+00  .194E+00  .224E+00  .247E+00  .353E+00  .490E+00  .657E+00  .894E+00
  .154E+01  .143E+01  .118E+01  .236E+01  .159E+01  .146E+01  .148E+01  .114E+01
  .109E+01  .826E+00  .746E+00  .722E+00  .861E+00  .118E+01  .111E+01  .803E+00
  .570E+00  .526E+00  .678E+00  .657E+00  .674E+00  .645E+00  .600E+00  .604E+00
  .569E+00  .605E+00  .669E+00  .618E+00  .423E+00  .340E+00  .341E+00  .330E+00
  .354E+00  .401E+00  .419E+00  .434E+00  .410E+00  .389E+00  .377E+00  .385E+00
  .375E+00  .377E+00  .374E+00  .365E+00  .358E+00  .355E+00  .353E+00  .349E+00
  .344E+00  .340E+00  .337E+00  .336E+00  .338E+00  .339E+00  .339E+00  .338E+00
  .000E+00  .000E+00  .000E+00  .000E+00  .000E+00  .000E+00  .000E+00  .000E+00
  .000E+00  .000E+00  .000E+00  .000E+00  .000E+00  .000E+00  .000E+00  .000E+00
  .000E+00  .000E+00  .000E+00  .000E+00
  .183E-01  .191E-01  .194E-01  .192E-01  .203E-01  .221E-01  .245E-01  .225E-01
  .222E-01  .244E-01  .231E-01  .218E-01  .233E-01  .249E-01  .254E-01  .253E-01
  .266E-01  .418E-01  .390E-01  .414E-01  .462E-01  .579E-01  .714E-01  .878E-01
  .137E+00  .117E+00  .882E-01  .158E+00  .996E-01  .815E-01  .734E-01  .507E-01
  .457E-01  .314E-01  .267E-01  .275E-01  .288E-01  .390E-01  .340E-01  .223E-01
  .158E-01  .140E-01  .167E-01  .131E-01  .114E-01  .886E-02  .868E-02  .909E-02
  .893E-02  .804E-02  .683E-02  .487E-02  .396E-02  .254E-02  .316E-02  .288E-02
  .331E-02  .298E-02  .174E-02  .143E-02  .124E-02  .102E-02  .907E-03  .589E-03
  .532E-03  .629E-03  .696E-03  .701E-03  .627E-03  .541E-03  .447E-03  .353E-03
  .301E-03  .270E-03  .247E-03  .228E-03  .186E-03  .147E-03  .115E-03  .871E-04
  .000E+00  .000E+00  .000E+00  .000E+00  .000E+00  .000E+00  .000E+00  .000E+00
  .000E+00  .000E+00  .000E+00  .000E+00  .000E+00  .000E+00  .000E+00  .000E+00
  .000E+00  .000E+00  .000E+00  .000E+00
  .450E-01  .492E-01  .525E-01  .541E-01  .599E-01  .678E-01  .829E-01  .829E-01
  .884E-01  .105E+00  .106E+00  .107E+00  .122E+00  .138E+00  .148E+00  .156E+00
  .180E+00  .309E+00  .311E+00  .357E+00  .425E+00  .569E+00  .745E+00  .970E+00
  .160E+01  .144E+01  .119E+01  .233E+01  .159E+01  .140E+01  .135E+01  .996E+00
  .954E+00  .693E+00  .621E+00  .677E+00  .744E+00  .105E+01  .959E+00  .656E+00
  .485E+00  .472E+00  .614E+00  .522E+00  .488E+00  .408E+00  .426E+00  .474E+00
  .493E+00  .468E+00  .418E+00  .329E+00  .291E+00  .202E+00  .271E+00  .265E+00
  .325E+00  .310E+00  .192E+00  .165E+00  .151E+00  .136E+00  .131E+00  .918E-01
  .915E-01  .116E+00  .137E+00  .146E+00  .138E+00  .126E+00  .109E+00  .905E-01
  .806E-01  .755E-01  .720E-01  .692E-01  .620E-01  .531E-01  .449E-01  .362E-01
  .000E+00  .000E+00  .000E+00  .000E+00  .000E+00  .000E+00  .000E+00  .000E+00
  .000E+00  .000E+00  .000E+00  .000E+00  .000E+00  .000E+00  .000E+00  .000E+00
  .000E+00  .000E+00  .000E+00  .000E+00
  .278E+02  .278E+02  .275E+02  .255E+02  .275E+02  .255E+02  .275E+02  .278E+02
  .279E+02  .279E+02  .275E+02  .275E+02  .279E+02  .279E+02  .278E+02  .278E+02
  .279E+02  .275E+02  .279E+02  .279E+02  .279E+02  .254E+02  .255E+02  .255E+02
  .265E+02  .266E+02  .282E+02  .281E+02  .295E+02  .280E+02  .280E+02  .278E+02
  .278E+02  .278E+02  .294E+02  .292E+02  .291E+02  .276E+02  .277E+02  .275E+02
  .291E+02  .291E+02  .328E+02  .290E+02  .285E+02  .285E+02  .279E+02  .346E+02
  .275E+02  .275E+02  .276E+02  .273E+02  .274E+02  .290E+02  .322E+02  .323E+02
  .318E+02  .396E+02  .306E+02  .265E+02  .275E+02  .275E+02  .275E+02  .275E+02
  .491E+02  .438E+02  .367E+02  .370E+02  .356E+02  .356E+02  .358E+02  .362E+02
  .362E+02  .364E+02  .364E+02  .346E+02  .346E+02  .350E+02  .350E+02  .350E+02
  .000E+00  .000E+00  .000E+00  .000E+00  .000E+00  .000E+00  .000E+00  .000E+00
  .000E+00  .000E+00  .000E+00  .000E+00  .000E+00  .000E+00  .000E+00  .000E+00
  .000E+00  .000E+00  .000E+00  .000E+00
  .254E+02  .278E+02  .278E+02  .271E+02  .254E+02  .254E+02  .261E+02  .264E+02
  .264E+02  .255E+02  .252E+02  .264E+02  .262E+02  .275E+02  .278E+02  .278E+02
  .253E+02  .275E+02  .278E+02  .279E+02  .280E+02  .254E+02  .255E+02  .256E+02
  .265E+02  .266E+02  .258E+02  .281E+02  .296E+02  .281E+02  .279E+02  .278E+02
  .278E+02  .277E+02  .277E+02  .293E+02  .277E+02  .277E+02  .276E+02  .276E+02
  .265E+02  .290E+02  .290E+02  .276E+02  .276E+02  .280E+02  .276E+02  .276E+02
  .276E+02  .278E+02  .275E+02  .275E+02  .275E+02  .280E+02  .276E+02  .275E+02
  .321E+02  .276E+02  .276E+02  .278E+02  .278E+02  .278E+02  .275E+02  .275E+02
  .275E+02  .275E+02  .275E+02  .275E+02  .275E+02  .275E+02  .275E+02  .275E+02
  .275E+02  .275E+02  .275E+02  .275E+02  .275E+02  .275E+02  .275E+02  .275E+02
  .000E+00  .000E+00  .000E+00  .000E+00  .000E+00  .000E+00  .000E+00  .000E+00
  .000E+00  .000E+00  .000E+00  .000E+00  .000E+00  .000E+00  .000E+00  .000E+00
  .000E+00  .000E+00  .000E+00  .000E+00
  .278E+02  .278E+02  .275E+02  .255E+02  .275E+02  .255E+02  .275E+02  .278E+02
  .279E+02  .279E+02  .275E+02  .275E+02  .279E+02  .279E+02  .278E+02  .278E+02
  .279E+02  .275E+02  .279E+02  .279E+02  .279E+02  .254E+02  .255E+02  .255E+02
  .265E+02  .266E+02  .282E+02  .281E+02  .295E+02  .280E+02  .280E+02  .278E+02
  .278E+02  .278E+02  .294E+02  .292E+02  .291E+02  .276E+02  .277E+02  .275E+02
  .291E+02  .291E+02  .328E+02  .290E+02  .285E+02  .285E+02  .279E+02  .346E+02
  .275E+02  .275E+02  .275E+02  .273E+02  .274E+02  .290E+02  .322E+02  .323E+02
  .318E+02  .396E+02  .306E+02  .264E+02  .275E+02  .275E+02  .275E+02  .275E+02
  .491E+02  .438E+02  .367E+02  .370E+02  .356E+02  .356E+02  .358E+02  .361E+02
  .361E+02  .363E+02  .363E+02  .346E+02  .346E+02  .350E+02  .350E+02  .350E+02
  .000E+00  .000E+00  .000E+00  .000E+00  .000E+00  .000E+00  .000E+00  .000E+00
  .000E+00  .000E+00  .000E+00  .000E+00  .000E+00  .000E+00  .000E+00  .000E+00
  .000E+00  .000E+00  .000E+00  .000E+00
Damping =  .05. Data of Sd,Sv,Sa,Pssv,ttSd,ttSv,ttSa :
  .286E-03  .322E-03  .357E-03  .394E-03  .444E-03  .506E-03  .626E-03  .753E-03
  .896E-03  .105E-02  .119E-02  .129E-02  .153E-02  .178E-02  .211E-02  .236E-02
  .309E-02  .471E-02  .558E-02  .743E-02  .885E-02  .124E-01  .169E-01  .224E-01
  .291E-01  .300E-01  .354E-01  .565E-01  .517E-01  .526E-01  .500E-01  .448E-01
  .428E-01  .382E-01  .352E-01  .355E-01  .431E-01  .539E-01  .518E-01  .378E-01
