Response and Fourier amplitude spectra (80 periods,  .04 -  7.0 sec)   for      
Corrected accelerogram   24207-M0150-08211.01       Chan 16:  Up         from   
Uncorrected Accelerogram Data             Processed: 08/04/08, CDMG  CE24207D   
Record of Tue Jul 29, 2008 11:42:12.0 PDT             (Avol1 v7.9 7/08 CSMIP)   
CSMIP Preliminary Processing            (Origin:  To be determined)             
24207-M0150-08211.01                 Start time:  7/29/08, 18:42:12.0 UTC (GPS) 
Station No. 24207   34.334N, 118.396W    MtWtny  s/n  150 (17 Channels)         
Sylmar - Pacoima Dam                      CGS                                   
Chan 16:  Up                        Location: Left (South) Abutment             
Record of Tue Jul 29, 2008 11:42:12.0 PDT    Tue Jul 29, 2008 11:42:12.0 PDT    
Hypocenter:  To be determined.               ML:  To be determined.
Instr Period =  .0200 sec,  Damping =  .700,  Sensitivity =  .63  v/g  (Nominal)
                        Record length = 59.000 sec.
                                     Uncor Max  =   .006 g , at  17.715 sec.
RMS accel of (uncor) record  =        .   Chn. metadata effective date: 01/01/04
Accelerogram bandpass filtered with 3 dB pts at   .14 and 40.00 cyc/sec
                 instrument- and baseline-corrected





Record of Tue Jul 29, 2008 11:42:12.0 PDT    Tue Jul 29, 2008 11:42:12.0 PDT

24207-M0150-08211.01      Sylmar - Pacoima Dam    Chan 16:  Up

24207-M0150-08211.01      Sylmar - Pacoima Dam    Chan 16:  Up

Units for spectra are inches and sec, except Sa is in fraction of g.

   16  100   16   18   17  200    1    3    1   24   13  150    024207    5    0
   18   42   12    0  211    7   29 2008   10    3  50011800   41   20   76   -1
11800    0   50    3  150    1    1  590    2    0    0    0    0    0    0    0
    0    4    0    011800    1  220    1   18    4   76   20    1    1    011800
    311800   21   80    5   17    5    0    0    0   17    0    0    3    0    2
    2    2    4    0   68   99    0   32   32    0    1    1    0    0    0    0
    1    1   80    0
      .020      .700    59.000      .001      .000   625.000      .006    17.715
    50.000      .298      .477      .000     5.000      .000     4.000      .000
     2.500    56.194     2.500  2016.000    25.000    30.000      .000     -.001
      .004      .005     2.000    15.000    34.334  -118.396      .017      .201
    11.738      .000      .000   594.000    25.500    28.800    12.700   119.840
     1.000     1.281      .000      .000      .000      .000      .000      .000
     4.200     7.900     4.600   980.665      .005    59.000     7.958      .000
      .000    40.000      .000    59.000      .005      .143      .000      .000
    17.710     5.913    24.745     -.272    25.455     -.060      .000      .143
    40.000      .005      .005      .000      .005      .016      .000      .000
      .019      .055      .016      .009      .002      .001      .000      .000
      .000      .000      .000      .000      .000      .000      .000      .000
      .000      .000      .000      .000
      .000      .020      .050      .100      .200
      .040      .042      .044      .046      .048      .050      .055      .060
      .065      .070      .075      .080      .085      .090      .095      .100
      .110      .120      .130      .140      .150      .160      .170      .180
      .190      .200      .220      .240      .260      .280      .300      .320
      .340      .360      .380      .400      .420      .440      .460      .480
      .500      .550      .600      .650      .700      .750      .800      .850
      .900      .950     1.000     1.100     1.200     1.300     1.400     1.500
     1.600     1.700     1.800     1.900     2.000     2.200     2.400     2.600
     2.800     3.000     3.200     3.400     3.600     3.800     4.000     4.200
     4.400     4.600     4.800     5.000     5.500     6.000     6.500     7.000
      .000      .000      .000      .000      .000      .000      .000      .000
      .000      .000      .000      .000      .000      .000      .000      .000
      .000      .000      .000      .000
Fourier amplitude spectra in in/sec.
  .183E-01  .256E+00  .133E+00  .116E+00  .272E+00  .249E+00  .337E+00  .677E-01
  .983E-01  .144E+00  .125E+00  .179E+00  .119E+00  .124E+00  .484E+00  .136E+00
  .361E+00  .269E+00  .165E+00  .709E-01  .205E+00  .354E+00  .414E+00  .831E+00
  .834E-01  .530E+00  .868E+00  .110E+01  .134E+00  .451E+00  .753E+00  .264E+00
  .604E+00  .485E+00  .592E+00  .188E+00  .467E+00  .470E+00  .247E+00  .226E+00
  .562E+00  .273E+00  .348E+00  .436E+00  .403E+00  .407E+00  .819E+00  .527E+00
  .618E+00  .302E+00  .262E+00  .261E+00  .419E+00  .554E+00  .243E+00  .175E+00
  .469E+00  .271E+00  .101E+00  .295E+00  .225E+00  .282E+00  .198E+00  .189E+00
  .186E+00  .110E+00  .913E-01  .117E+00  .299E-01  .139E+00  .122E+00  .556E-01
  .830E-01  .803E-01  .431E-01  .914E-02  .390E-01  .433E-01  .351E-01  .340E-01
  .000E+00  .000E+00  .000E+00  .000E+00  .000E+00  .000E+00  .000E+00  .000E+00
  .000E+00  .000E+00  .000E+00  .000E+00  .000E+00  .000E+00  .000E+00  .000E+00
  .000E+00  .000E+00  .000E+00  .000E+00
Damping =  .00. Data of Sd,Sv,Sa,Pssv,ttSd,ttSv,ttSa :
  .669E-03  .174E-02  .113E-02  .138E-02  .223E-02  .264E-02  .373E-02  .136E-02
  .209E-02  .208E-02  .158E-02  .269E-02  .208E-02  .347E-02  .732E-02  .563E-02
  .703E-02  .520E-02  .440E-02  .408E-02  .496E-02  .958E-02  .135E-01  .254E-01
  .102E-01  .177E-01  .307E-01  .428E-01  .134E-01  .212E-01  .381E-01  .209E-01
  .410E-01  .353E-01  .373E-01  .247E-01  .353E-01  .379E-01  .256E-01  .442E-01
  .587E-01  .324E-01  .333E-01  .504E-01  .485E-01  .498E-01  .108E+00  .746E-01
  .994E-01  .600E-01  .422E-01  .619E-01  .864E-01  .117E+00  .107E+00  .109E+00
  .145E+00  .925E-01  .896E-01  .102E+00  .866E-01  .998E-01  .889E-01  .785E-01
  .834E-01  .695E-01  .540E-01  .640E-01  .559E-01  .846E-01  .825E-01  .715E-01
  .645E-01  .647E-01  .541E-01  .540E-01  .483E-01  .460E-01  .527E-01  .503E-01
  .000E+00  .000E+00  .000E+00  .000E+00  .000E+00  .000E+00  .000E+00  .000E+00
  .000E+00  .000E+00  .000E+00  .000E+00  .000E+00  .000E+00  .000E+00  .000E+00
  .000E+00  .000E+00  .000E+00  .000E+00
  .101E+00  .260E+00  .158E+00  .184E+00  .290E+00  .326E+00  .425E+00  .140E+00
  .194E+00  .188E+00  .131E+00  .210E+00  .150E+00  .234E+00  .482E+00  .355E+00
  .390E+00  .270E+00  .203E+00  .169E+00  .206E+00  .373E+00  .492E+00  .883E+00
  .337E+00  .556E+00  .875E+00  .112E+01  .319E+00  .473E+00  .791E+00  .418E+00
  .751E+00  .608E+00  .617E+00  .374E+00  .520E+00  .549E+00  .346E+00  .543E+00
  .736E+00  .387E+00  .349E+00  .490E+00  .436E+00  .412E+00  .851E+00  .551E+00
  .689E+00  .398E+00  .271E+00  .345E+00  .464E+00  .570E+00  .482E+00  .477E+00
  .576E+00  .350E+00  .354E+00  .359E+00  .280E+00  .295E+00  .238E+00  .216E+00
  .186E+00  .171E+00  .166E+00  .161E+00  .152E+00  .151E+00  .153E+00  .151E+00
  .147E+00  .140E+00  .134E+00  .130E+00  .123E+00  .119E+00  .118E+00  .119E+00
  .000E+00  .000E+00  .000E+00  .000E+00  .000E+00  .000E+00  .000E+00  .000E+00
  .000E+00  .000E+00  .000E+00  .000E+00  .000E+00  .000E+00  .000E+00  .000E+00
  .000E+00  .000E+00  .000E+00  .000E+00
  .427E-01  .101E+00  .599E-01  .669E-01  .988E-01  .108E+00  .126E+00  .386E-01
  .505E-01  .434E-01  .287E-01  .431E-01  .294E-01  .438E-01  .829E-01  .576E-01
  .594E-01  .369E-01  .266E-01  .213E-01  .226E-01  .383E-01  .477E-01  .802E-01
  .290E-01  .452E-01  .649E-01  .760E-01  .203E-01  .276E-01  .433E-01  .209E-01
  .363E-01  .279E-01  .264E-01  .158E-01  .205E-01  .200E-01  .124E-01  .196E-01
  .240E-01  .109E-01  .945E-02  .122E-01  .101E-01  .905E-02  .173E-01  .106E-01
  .126E-01  .680E-02  .431E-02  .523E-02  .614E-02  .707E-02  .558E-02  .495E-02
  .580E-02  .327E-02  .283E-02  .289E-02  .221E-02  .211E-02  .158E-02  .119E-02
  .109E-02  .790E-03  .540E-03  .567E-03  .441E-03  .599E-03  .527E-03  .414E-03
  .341E-03  .313E-03  .240E-03  .221E-03  .163E-03  .131E-03  .127E-03  .105E-03
  .000E+00  .000E+00  .000E+00  .000E+00  .000E+00  .000E+00  .000E+00  .000E+00
  .000E+00  .000E+00  .000E+00  .000E+00  .000E+00  .000E+00  .000E+00  .000E+00
  .000E+00  .000E+00  .000E+00  .000E+00
  .105E+00  .261E+00  .162E+00  .189E+00  .291E+00  .332E+00  .426E+00  .142E+00
  .202E+00  .186E+00  .132E+00  .212E+00  .154E+00  .242E+00  .484E+00  .354E+00
  .402E+00  .272E+00  .213E+00  .183E+00  .208E+00  .376E+00  .498E+00  .886E+00
  .339E+00  .556E+00  .877E+00  .112E+01  .325E+00  .475E+00  .798E+00  .411E+00
  .757E+00  .616E+00  .616E+00  .387E+00  .528E+00  .541E+00  .350E+00  .578E+00
  .737E+00  .370E+00  .348E+00  .488E+00  .435E+00  .417E+00  .849E+00  .552E+00
  .694E+00  .397E+00  .265E+00  .354E+00  .452E+00  .565E+00  .480E+00  .457E+00
  .570E+00  .342E+00  .313E+00  .337E+00  .272E+00  .285E+00  .233E+00  .190E+00
  .187E+00  .146E+00  .106E+00  .118E+00  .976E-01  .140E+00  .130E+00  .107E+00
  .921E-01  .884E-01  .708E-01  .678E-01  .552E-01  .481E-01  .509E-01  .451E-01
  .000E+00  .000E+00  .000E+00  .000E+00  .000E+00  .000E+00  .000E+00  .000E+00
  .000E+00  .000E+00  .000E+00  .000E+00  .000E+00  .000E+00  .000E+00  .000E+00
  .000E+00  .000E+00  .000E+00  .000E+00
  .261E+02  .506E+02  .274E+02  .280E+02  .406E+02  .312E+02  .298E+02  .260E+02
  .273E+02  .278E+02  .383E+02  .293E+02  .313E+02  .293E+02  .575E+02  .275E+02
  .296E+02  .501E+02  .317E+02  .301E+02  .553E+02  .382E+02  .316E+02  .318E+02
  .278E+02  .345E+02  .520E+02  .545E+02  .323E+02  .426E+02  .380E+02  .282E+02
  .388E+02  .383E+02  .489E+02  .254E+02  .436E+02  .355E+02  .333E+02  .264E+02
  .452E+02  .277E+02  .566E+02  .429E+02  .388E+02  .428E+02  .458E+02  .562E+02
  .513E+02  .339E+02  .550E+02  .452E+02  .501E+02  .521E+02  .433E+02  .333E+02
  .465E+02  .471E+02  .286E+02  .458E+02  .409E+02  .564E+02  .452E+02  .583E+02
  .581E+02  .493E+02  .515E+02  .576E+02  .363E+02  .578E+02  .549E+02  .438E+02
  .423E+02  .548E+02  .303E+02  .303E+02  .534E+02  .521E+02  .415E+02  .394E+02
  .000E+00  .000E+00  .000E+00  .000E+00  .000E+00  .000E+00  .000E+00  .000E+00
  .000E+00  .000E+00  .000E+00  .000E+00  .000E+00  .000E+00  .000E+00  .000E+00
  .000E+00  .000E+00  .000E+00  .000E+00
  .262E+02  .506E+02  .274E+02  .280E+02  .406E+02  .286E+02  .299E+02  .260E+02
  .273E+02  .278E+02  .386E+02  .293E+02  .313E+02  .290E+02  .581E+02  .277E+02
  .297E+02  .544E+02  .314E+02  .301E+02  .554E+02  .383E+02  .330E+02  .319E+02
  .278E+02  .346E+02  .521E+02  .546E+02  .324E+02  .427E+02  .381E+02  .294E+02
  .397E+02  .384E+02  .490E+02  .253E+02  .437E+02  .356E+02  .335E+02  .263E+02
  .451E+02  .279E+02  .277E+02  .434E+02  .393E+02  .426E+02  .484E+02  .560E+02
  .515E+02  .328E+02  .553E+02  .460E+02  .504E+02  .570E+02  .430E+02  .314E+02
  .406E+02  .467E+02  .290E+02  .454E+02  .413E+02  .384E+02  .313E+02  .384E+02
  .588E+02  .269E+02  .259E+02  .259E+02  .259E+02  .259E+02  .259E+02  .260E+02
  .260E+02  .260E+02  .260E+02  .247E+02  .247E+02  .247E+02  .247E+02  .247E+02
  .000E+00  .000E+00  .000E+00  .000E+00  .000E+00  .000E+00  .000E+00  .000E+00
  .000E+00  .000E+00  .000E+00  .000E+00  .000E+00  .000E+00  .000E+00  .000E+00
  .000E+00  .000E+00  .000E+00  .000E+00
  .261E+02  .506E+02  .274E+02  .280E+02  .406E+02  .312E+02  .298E+02  .260E+02
  .273E+02  .278E+02  .383E+02  .293E+02  .313E+02  .293E+02  .575E+02  .275E+02
  .296E+02  .501E+02  .317E+02  .301E+02  .553E+02  .382E+02  .316E+02  .318E+02
  .278E+02  .345E+02  .520E+02  .545E+02  .323E+02  .426E+02  .380E+02  .282E+02
  .388E+02  .383E+02  .489E+02  .254E+02  .436E+02  .355E+02  .333E+02  .264E+02
  .452E+02  .277E+02  .566E+02  .429E+02  .388E+02  .428E+02  .458E+02  .562E+02
  .513E+02  .339E+02  .550E+02  .452E+02  .501E+02  .521E+02  .433E+02  .333E+02
  .465E+02  .471E+02  .286E+02  .458E+02  .409E+02  .564E+02  .452E+02  .583E+02
  .581E+02  .493E+02  .515E+02  .576E+02  .363E+02  .578E+02  .549E+02  .438E+02
  .423E+02  .548E+02  .303E+02  .303E+02  .534E+02  .521E+02  .415E+02  .394E+02
  .000E+00  .000E+00  .000E+00  .000E+00  .000E+00  .000E+00  .000E+00  .000E+00
  .000E+00  .000E+00  .000E+00  .000E+00  .000E+00  .000E+00  .000E+00  .000E+00
  .000E+00  .000E+00  .000E+00  .000E+00
Damping =  .02. Data of Sd,Sv,Sa,Pssv,ttSd,ttSv,ttSa :
  .214E-03  .263E-03  .285E-03  .398E-03  .497E-03  .577E-03  .826E-03  .597E-03
  .717E-03  .851E-03  .784E-03  .121E-02  .117E-02  .142E-02  .168E-02  .180E-02
  .200E-02  .156E-02  .206E-02  .238E-02  .230E-02  .314E-02  .476E-02  .798E-02
  .589E-02  .763E-02  .122E-01  .110E-01  .102E-01  .734E-02  .108E-01  .121E-01
  .149E-01  .152E-01  .174E-01  .119E-01  .122E-01  .149E-01  .173E-01  .262E-01
  .270E-01  .271E-01  .197E-01  .222E-01  .262E-01  .285E-01  .567E-01  .364E-01
  .387E-01  .377E-01  .304E-01  .308E-01  .446E-01  .536E-01  .676E-01  .746E-01
  .774E-01  .703E-01  .734E-01  .709E-01  .640E-01  .701E-01  .676E-01  .585E-01
  .519E-01  .508E-01  .472E-01  .427E-01  .469E-01  .494E-01  .521E-01  .516E-01
  .506E-01  .460E-01  .479E-01  .486E-01  .411E-01  .380E-01  .428E-01  .425E-01
  .000E+00  .000E+00  .000E+00  .000E+00  .000E+00  .000E+00  .000E+00  .000E+00
  .000E+00  .000E+00  .000E+00  .000E+00  .000E+00  .000E+00  .000E+00  .000E+00
  .000E+00  .000E+00  .000E+00  .000E+00
  .305E-01  .365E-01  .377E-01  .484E-01  .616E-01  .724E-01  .929E-01  .618E-01
  .679E-01  .767E-01  .620E-01  .871E-01  .747E-01  .904E-01  .111E+00  .112E+00
  .113E+00  .860E-01  .915E-01  .985E-01  .945E-01  .121E+00  .178E+00  .268E+00
  .188E+00  .231E+00  .349E+00  .312E+00  .255E+00  .181E+00  .242E+00  .237E+00
  .267E+00  .285E+00  .289E+00  .184E+00  .178E+00  .207E+00  .233E+00  .319E+00
  .353E+00  .321E+00  .249E+00  .226E+00  .258E+00  .243E+00  .427E+00  .308E+00
  .310E+00  .265E+00  .218E+00  .192E+00  .222E+00  .268E+00  .308E+00  .358E+00
  .341E+00  .291E+00  .290E+00  .246E+00  .228E+00  .228E+00  .191E+00  .184E+00
  .169E+00  .164E+00  .160E+00  .156E+00  .151E+00  .149E+00  .149E+00  .147E+00
  .143E+00  .138E+00  .132E+00  .128E+00  .123E+00  .119E+00  .118E+00  .118E+00
  .000E+00  .000E+00  .000E+00  .000E+00  .000E+00  .000E+00  .000E+00  .000E+00
  .000E+00  .000E+00  .000E+00  .000E+00  .000E+00  .000E+00  .000E+00  .000E+00
  .000E+00  .000E+00  .000E+00  .000E+00
  .136E-01  .153E-01  .151E-01  .192E-01  .221E-01  .238E-01  .280E-01  .171E-01
  .173E-01  .179E-01  .143E-01  .193E-01  .165E-01  .179E-01  .190E-01  .184E-01
  .170E-01  .110E-01  .125E-01  .124E-01  .104E-01  .125E-01  .168E-01  .252E-01
  .167E-01  .195E-01  .258E-01  .196E-01  .154E-01  .957E-02  .123E-01  .120E-01
  .132E-01  .120E-01  .124E-01  .764E-02  .709E-02  .785E-02  .837E-02  .117E-01
  .111E-01  .916E-02  .560E-02  .539E-02  .548E-02  .519E-02  .906E-02  .516E-02
  .489E-02  .428E-02  .312E-02  .260E-02  .317E-02  .325E-02  .353E-02  .339E-02
  .310E-02  .249E-02  .232E-02  .201E-02  .164E-02  .148E-02  .120E-02  .889E-03
  .679E-03  .581E-03  .473E-03  .379E-03  .371E-03  .350E-03  .334E-03  .300E-03
  .269E-03  .224E-03  .214E-03  .200E-03  .140E-03  .110E-03  .104E-03  .891E-04
  .000E+00  .000E+00  .000E+00  .000E+00  .000E+00  .000E+00  .000E+00  .000E+00
  .000E+00  .000E+00  .000E+00  .000E+00  .000E+00  .000E+00  .000E+00  .000E+00
  .000E+00  .000E+00  .000E+00  .000E+00
  .335E-01  .394E-01  .406E-01  .543E-01  .650E-01  .725E-01  .943E-01  .625E-01
  .693E-01  .764E-01  .657E-01  .951E-01  .867E-01  .991E-01  .111E+00  .113E+00
  .114E+00  .815E-01  .997E-01  .107E+00  .965E-01  .123E+00  .176E+00  .278E+00
  .195E+00  .240E+00  .349E+00  .288E+00  .245E+00  .165E+00  .226E+00  .237E+00
  .275E+00  .266E+00  .288E+00  .187E+00  .183E+00  .212E+00  .236E+00  .343E+00
  .340E+00  .309E+00  .206E+00  .215E+00  .236E+00  .239E+00  .445E+00  .269E+00
  .270E+00  .249E+00  .191E+00  .176E+00  .234E+00  .259E+00  .303E+00  .312E+00
  .304E+00  .260E+00  .256E+00  .234E+00  .201E+00  .200E+00  .177E+00  .141E+00
  .116E+00  .106E+00  .926E-01  .789E-01  .819E-01  .816E-01  .818E-01  .772E-01
  .722E-01  .628E-01  .627E-01  .610E-01  .469E-01  .398E-01  .413E-01  .381E-01
  .000E+00  .000E+00  .000E+00  .000E+00  .000E+00  .000E+00  .000E+00  .000E+00
  .000E+00  .000E+00  .000E+00  .000E+00  .000E+00  .000E+00  .000E+00  .000E+00
  .000E+00  .000E+00  .000E+00  .000E+00
  .213E+02  .185E+02  .207E+02  .207E+02  .207E+02  .207E+02  .177E+02  .178E+02
  .259E+02  .259E+02  .254E+02  .282E+02  .276E+02  .283E+02  .180E+02  .270E+02
  .268E+02  .264E+02  .255E+02  .276E+02  .275E+02  .190E+02  .183E+02  .278E+02
  .278E+02  .278E+02  .278E+02  .275E+02  .274E+02  .179E+02  .273E+02  .280E+02
  .314E+02  .283E+02  .319E+02  .326E+02  .253E+02  .326E+02  .262E+02  .264E+02
  .265E+02  .271E+02  .278E+02  .312E+02  .283E+02  .292E+02  .318E+02  .345E+02
  .329E+02  .316E+02  .304E+02  .446E+02  .459E+02  .481E+02  .426E+02  .265E+02
  .274E+02  .275E+02  .286E+02  .287E+02  .287E+02  .313E+02  .307E+02  .261E+02
  .382E+02  .261E+02  .261E+02  .343E+02  .343E+02  .366E+02  .332E+02  .333E+02
  .317E+02  .297E+02  .303E+02  .303E+02  .303E+02  .282E+02  .415E+02  .394E+02
  .000E+00  .000E+00  .000E+00  .000E+00  .000E+00  .000E+00  .000E+00  .000E+00
  .000E+00  .000E+00  .000E+00  .000E+00  .000E+00  .000E+00  .000E+00  .000E+00
  .000E+00  .000E+00  .000E+00  .000E+00
  .213E+02  .184E+02  .214E+02  .207E+02  .207E+02  .207E+02  .190E+02  .178E+02
  .259E+02  .260E+02  .253E+02  .188E+02  .277E+02  .283E+02  .180E+02  .178E+02
  .178E+02  .258E+02  .255E+02  .277E+02  .267E+02  .281E+02  .183E+02  .277E+02
  .278E+02  .278E+02  .278E+02  .276E+02  .274E+02  .295E+02  .274E+02  .281E+02
  .313E+02  .277E+02  .318E+02  .318E+02  .250E+02  .328E+02  .265E+02  .263E+02
  .264E+02  .270E+02  .271E+02  .271E+02  .271E+02  .306E+02  .320E+02  .269E+02
  .317E+02  .318E+02  .301E+02  .294E+02  .469E+02  .434E+02  .423E+02  .276E+02
  .294E+02  .271E+02  .290E+02  .273E+02  .284E+02  .284E+02  .265E+02  .269E+02
  .269E+02  .269E+02  .259E+02  .259E+02  .259E+02  .259E+02  .259E+02  .259E+02
  .260E+02  .260E+02  .260E+02  .247E+02  .247E+02  .247E+02  .247E+02  .247E+02
  .000E+00  .000E+00  .000E+00  .000E+00  .000E+00  .000E+00  .000E+00  .000E+00
  .000E+00  .000E+00  .000E+00  .000E+00  .000E+00  .000E+00  .000E+00  .000E+00
  .000E+00  .000E+00  .000E+00  .000E+00
  .213E+02  .185E+02  .207E+02  .207E+02  .207E+02  .207E+02  .177E+02  .178E+02
  .259E+02  .259E+02  .254E+02  .282E+02  .276E+02  .283E+02  .180E+02  .270E+02
  .268E+02  .264E+02  .255E+02  .276E+02  .275E+02  .190E+02  .183E+02  .278E+02
  .278E+02  .278E+02  .278E+02  .275E+02  .274E+02  .179E+02  .273E+02  .280E+02
  .314E+02  .283E+02  .319E+02  .326E+02  .253E+02  .326E+02  .262E+02  .264E+02
  .265E+02  .271E+02  .278E+02  .312E+02  .283E+02  .292E+02  .318E+02  .345E+02
  .328E+02  .316E+02  .303E+02  .446E+02  .459E+02  .481E+02  .426E+02  .265E+02
  .274E+02  .275E+02  .285E+02  .287E+02  .287E+02  .313E+02  .307E+02  .261E+02
  .261E+02  .261E+02  .261E+02  .342E+02  .343E+02  .365E+02  .332E+02  .333E+02
  .316E+02  .296E+02  .303E+02  .303E+02  .303E+02  .282E+02  .415E+02  .394E+02
  .000E+00  .000E+00  .000E+00  .000E+00  .000E+00  .000E+00  .000E+00  .000E+00
  .000E+00  .000E+00  .000E+00  .000E+00  .000E+00  .000E+00  .000E+00  .000E+00
  .000E+00  .000E+00  .000E+00  .000E+00
Damping =  .05. Data of Sd,Sv,Sa,Pssv,ttSd,ttSv,ttSa :
  .158E-03  .186E-03  .223E-03  .307E-03  .381E-03  .429E-03  .559E-03  .491E-03
  .506E-03  .592E-03  .606E-03  .801E-03  .929E-03  .967E-03  .111E-02  .128E-02
  .136E-02  .125E-02  .163E-02  .187E-02  .231E-02  .306E-02  .378E-02  .531E-02
  .524E-02  .596E-02  .805E-02  .786E-02  .773E-02  .669E-02  .787E-02  .863E-02
  .938E-02  .108E-01  .117E-01  .968E-02  .897E-02  .104E-01  .144E-01  .182E-01
