Response and Fourier amplitude spectra (80 periods,  .04 -  7.0 sec)   for      
Corrected accelerogram   24207-M0150-08211.01       Chan  1:  Radl       from   
Uncorrected Accelerogram Data             Processed: 08/04/08, CDMG  CE24207D   
Record of Tue Jul 29, 2008 11:42:12.0 PDT             (Avol1 v7.9 7/08 CSMIP)   
CSMIP Preliminary Processing            (Origin:  To be determined)             
24207-M0150-08211.01                 Start time:  7/29/08, 18:42:12.0 UTC (GPS) 
Station No. 24207   34.334N, 118.396W    MtWtny  s/n  150 (17 Channels)         
Sylmar - Pacoima Dam                      CGS                                   
Chan  1:  Radl                      Location: Crest: Right 1/3-length Point     
Record of Tue Jul 29, 2008 11:42:12.0 PDT    Tue Jul 29, 2008 11:42:12.0 PDT    
Hypocenter:  To be determined.               ML:  To be determined.
Instr Period =  .0200 sec,  Damping =  .700,  Sensitivity =  .63  v/g  (Nominal)
                        Record length = 59.000 sec.
                                     Uncor Max  =   .024 g , at  28.085 sec.
RMS accel of (uncor) record  =        .   Chn. metadata effective date: 01/01/04
Accelerogram bandpass filtered with 3 dB pts at   .14 and 40.00 cyc/sec
                 instrument- and baseline-corrected





Record of Tue Jul 29, 2008 11:42:12.0 PDT    Tue Jul 29, 2008 11:42:12.0 PDT

24207-M0150-08211.01      Sylmar - Pacoima Dam    Chan  1:  Radl

24207-M0150-08211.01      Sylmar - Pacoima Dam    Chan  1:  Radl

Units for spectra are inches and sec, except Sa is in fraction of g.

    1  100    1   18   17  200    1    3    1   24   13  150    024207    5    0
   18   42   12    0  211    7   29 2008   10    3  70011800   41   20   76   -1
11800    0   50    3  150    1    1  590    2    0    0    0    0    0    0    0
    0    4    0    011800    1  220    1   18    4   76   20    1    1    011800
    311800   21   80    5   17    5    0    0    0   17    0    0    3    0    2
    2    2    4    0   68   99    0   32   32    0    1    1    0    0    0    0
    1    1    5    0
      .020      .700    59.000      .003      .000   625.000      .024    28.085
    50.000      .298      .477      .000     5.000      .000     4.000      .000
     2.500    44.691     2.500  2016.000    25.000    30.000      .000     -.005
     -.002      .003     2.000    15.000    34.334  -118.396      .016      .518
    31.995      .000      .000   594.000    25.500    28.800    12.700   119.840
     1.000     2.183      .000      .000      .000      .000      .000      .000
     4.200     7.900     4.600   980.665      .005    59.000     7.958      .000
      .000    40.000      .000    59.000      .005      .143      .000      .000
    28.080    23.200    25.000      .737    27.100      .123      .000      .143
    40.000      .005      .005     -.001      .005      .037      .000      .000
      .105      .160      .074      .045      .009      .001      .000      .000
      .000      .000      .000      .000      .000      .000      .000      .000
      .000      .000      .000      .000
      .000      .020      .050      .100      .200
      .040      .042      .044      .046      .048      .050      .055      .060
      .065      .070      .075      .080      .085      .090      .095      .100
      .110      .120      .130      .140      .150      .160      .170      .180
      .190      .200      .220      .240      .260      .280      .300      .320
      .340      .360      .380      .400      .420      .440      .460      .480
      .500      .550      .600      .650      .700      .750      .800      .850
      .900      .950     1.000     1.100     1.200     1.300     1.400     1.500
     1.600     1.700     1.800     1.900     2.000     2.200     2.400     2.600
     2.800     3.000     3.200     3.400     3.600     3.800     4.000     4.200
     4.400     4.600     4.800     5.000     5.500     6.000     6.500     7.000
      .000      .000      .000      .000      .000      .000      .000      .000
      .000      .000      .000      .000      .000      .000      .000      .000
      .000      .000      .000      .000
Fourier amplitude spectra in in/sec.
  .129E+00  .379E-01  .343E-01  .617E-01  .969E-01  .179E+00  .167E+00  .740E-01
  .271E+00  .342E+00  .204E+00  .125E+00  .819E+00  .396E+00  .328E+00  .609E+00
  .863E+00  .173E+01  .127E+01  .864E+00  .176E+01  .693E+00  .488E+01  .518E+01
  .299E+01  .168E+01  .836E+00  .718E-01  .123E+01  .281E+01  .143E+01  .109E+01
  .128E+01  .143E+01  .637E+00  .126E+01  .860E+00  .135E+01  .103E+01  .841E+00
  .188E+01  .377E+00  .139E+01  .127E+01  .142E+01  .144E+01  .574E+00  .515E+00
  .198E+00  .811E+00  .774E+00  .600E+00  .587E-01  .327E+00  .457E+00  .310E+00
  .999E+00  .575E+00  .442E+00  .626E+00  .760E+00  .209E+00  .132E+00  .534E-01
  .546E-01  .960E-01  .147E+00  .134E+00  .190E+00  .234E+00  .189E+00  .143E+00
  .158E+00  .156E+00  .121E+00  .871E-01  .106E+00  .822E-01  .361E-01  .796E-02
  .000E+00  .000E+00  .000E+00  .000E+00  .000E+00  .000E+00  .000E+00  .000E+00
  .000E+00  .000E+00  .000E+00  .000E+00  .000E+00  .000E+00  .000E+00  .000E+00
  .000E+00  .000E+00  .000E+00  .000E+00
Damping =  .00. Data of Sd,Sv,Sa,Pssv,ttSd,ttSv,ttSa :
  .120E-02  .585E-03  .771E-03  .863E-03  .134E-02  .173E-02  .193E-02  .250E-02
  .415E-02  .397E-02  .494E-02  .491E-02  .114E-01  .659E-02  .606E-02  .117E-01
  .215E-01  .458E-01  .291E-01  .284E-01  .551E-01  .705E-01  .135E+00  .156E+00
  .113E+00  .707E-01  .451E-01  .364E-01  .827E-01  .136E+00  .814E-01  .964E-01
  .711E-01  .866E-01  .626E-01  .898E-01  .103E+00  .965E-01  .965E-01  .119E+00
  .152E+00  .776E-01  .152E+00  .210E+00  .191E+00  .189E+00  .846E-01  .946E-01
  .987E-01  .147E+00  .170E+00  .173E+00  .110E+00  .113E+00  .142E+00  .164E+00
  .281E+00  .186E+00  .160E+00  .204E+00  .261E+00  .129E+00  .960E-01  .834E-01
  .743E-01  .777E-01  .817E-01  .904E-01  .114E+00  .142E+00  .131E+00  .127E+00
  .125E+00  .117E+00  .120E+00  .116E+00  .972E-01  .856E-01  .690E-01  .634E-01
  .000E+00  .000E+00  .000E+00  .000E+00  .000E+00  .000E+00  .000E+00  .000E+00
  .000E+00  .000E+00  .000E+00  .000E+00  .000E+00  .000E+00  .000E+00  .000E+00
  .000E+00  .000E+00  .000E+00  .000E+00
  .137E+00  .611E-01  .664E-01  .955E-01  .132E+00  .203E+00  .206E+00  .256E+00
  .381E+00  .344E+00  .376E+00  .377E+00  .836E+00  .443E+00  .377E+00  .684E+00
  .119E+01  .237E+01  .137E+01  .126E+01  .228E+01  .271E+01  .497E+01  .542E+01
  .378E+01  .225E+01  .135E+01  .982E+00  .201E+01  .305E+01  .170E+01  .189E+01
  .136E+01  .149E+01  .112E+01  .142E+01  .154E+01  .137E+01  .132E+01  .154E+01
  .190E+01  .908E+00  .158E+01  .212E+01  .174E+01  .158E+01  .772E+00  .808E+00
  .895E+00  .113E+01  .116E+01  .102E+01  .768E+00  .648E+00  .658E+00  .719E+00
  .110E+01  .764E+00  .766E+00  .707E+00  .831E+00  .512E+00  .491E+00  .432E+00
  .370E+00  .328E+00  .305E+00  .290E+00  .287E+00  .303E+00  .295E+00  .293E+00
  .304E+00  .297E+00  .299E+00  .300E+00  .305E+00  .310E+00  .310E+00  .309E+00
  .000E+00  .000E+00  .000E+00  .000E+00  .000E+00  .000E+00  .000E+00  .000E+00
  .000E+00  .000E+00  .000E+00  .000E+00  .000E+00  .000E+00  .000E+00  .000E+00
  .000E+00  .000E+00  .000E+00  .000E+00
  .765E-01  .339E-01  .407E-01  .417E-01  .596E-01  .706E-01  .651E-01  .711E-01
  .101E+00  .828E-01  .899E-01  .784E-01  .161E+00  .832E-01  .687E-01  .120E+00
  .182E+00  .325E+00  .176E+00  .148E+00  .251E+00  .282E+00  .477E+00  .493E+00
  .322E+00  .181E+00  .953E-01  .647E-01  .125E+00  .177E+00  .925E-01  .962E-01
  .629E-01  .683E-01  .443E-01  .574E-01  .597E-01  .510E-01  .467E-01  .530E-01
  .620E-01  .262E-01  .432E-01  .507E-01  .399E-01  .344E-01  .135E-01  .134E-01
  .125E-01  .167E-01  .174E-01  .146E-01  .781E-02  .687E-02  .742E-02  .744E-02
  .112E-01  .657E-02  .506E-02  .579E-02  .667E-02  .273E-02  .170E-02  .126E-02
  .969E-03  .883E-03  .816E-03  .800E-03  .900E-03  .100E-02  .835E-03  .735E-03
  .663E-03  .567E-03  .531E-03  .474E-03  .329E-03  .243E-03  .167E-03  .132E-03
  .000E+00  .000E+00  .000E+00  .000E+00  .000E+00  .000E+00  .000E+00  .000E+00
  .000E+00  .000E+00  .000E+00  .000E+00  .000E+00  .000E+00  .000E+00  .000E+00
  .000E+00  .000E+00  .000E+00  .000E+00
  .188E+00  .875E-01  .110E+00  .118E+00  .176E+00  .217E+00  .220E+00  .262E+00
  .402E+00  .356E+00  .414E+00  .385E+00  .841E+00  .460E+00  .401E+00  .737E+00
  .123E+01  .240E+01  .140E+01  .127E+01  .231E+01  .277E+01  .498E+01  .545E+01
  .375E+01  .222E+01  .129E+01  .954E+00  .200E+01  .305E+01  .171E+01  .189E+01
  .131E+01  .151E+01  .103E+01  .141E+01  .154E+01  .138E+01  .132E+01  .156E+01
  .190E+01  .887E+00  .159E+01  .203E+01  .172E+01  .158E+01  .665E+00  .699E+00
  .689E+00  .973E+00  .107E+01  .987E+00  .576E+00  .549E+00  .638E+00  .685E+00
  .110E+01  .686E+00  .560E+00  .676E+00  .819E+00  .369E+00  .251E+00  .202E+00
  .167E+00  .163E+00  .160E+00  .167E+00  .199E+00  .234E+00  .205E+00  .190E+00
  .179E+00  .160E+00  .156E+00  .146E+00  .111E+00  .897E-01  .667E-01  .569E-01
  .000E+00  .000E+00  .000E+00  .000E+00  .000E+00  .000E+00  .000E+00  .000E+00
  .000E+00  .000E+00  .000E+00  .000E+00  .000E+00  .000E+00  .000E+00  .000E+00
  .000E+00  .000E+00  .000E+00  .000E+00
  .281E+02  .257E+02  .281E+02  .275E+02  .262E+02  .281E+02  .249E+02  .221E+02
  .281E+02  .455E+02  .281E+02  .297E+02  .488E+02  .341E+02  .276E+02  .283E+02
  .303E+02  .323E+02  .308E+02  .270E+02  .331E+02  .265E+02  .409E+02  .347E+02
  .361E+02  .336E+02  .280E+02  .289E+02  .295E+02  .411E+02  .324E+02  .276E+02
  .295E+02  .485E+02  .307E+02  .428E+02  .328E+02  .563E+02  .319E+02  .393E+02
  .480E+02  .272E+02  .352E+02  .325E+02  .298E+02  .472E+02  .265E+02  .348E+02
  .278E+02  .278E+02  .325E+02  .363E+02  .268E+02  .268E+02  .475E+02  .340E+02
  .480E+02  .373E+02  .309E+02  .543E+02  .465E+02  .330E+02  .277E+02  .271E+02
  .271E+02  .330E+02  .367E+02  .422E+02  .534E+02  .659E+02  .437E+02  .465E+02
  .363E+02  .571E+02  .347E+02  .347E+02  .351E+02  .511E+02  .310E+02  .311E+02
  .000E+00  .000E+00  .000E+00  .000E+00  .000E+00  .000E+00  .000E+00  .000E+00
  .000E+00  .000E+00  .000E+00  .000E+00  .000E+00  .000E+00  .000E+00  .000E+00
  .000E+00  .000E+00  .000E+00  .000E+00
  .298E+02  .243E+02  .260E+02  .306E+02  .262E+02  .313E+02  .233E+02  .220E+02
  .238E+02  .452E+02  .290E+02  .297E+02  .488E+02  .341E+02  .407E+02  .284E+02
  .303E+02  .330E+02  .308E+02  .269E+02  .332E+02  .265E+02  .409E+02  .346E+02
  .361E+02  .335E+02  .280E+02  .260E+02  .299E+02  .410E+02  .324E+02  .277E+02
  .294E+02  .486E+02  .305E+02  .427E+02  .327E+02  .560E+02  .302E+02  .388E+02
  .476E+02  .277E+02  .360E+02  .323E+02  .299E+02  .395E+02  .263E+02  .260E+02
  .280E+02  .280E+02  .323E+02  .361E+02  .270E+02  .266E+02  .423E+02  .337E+02
  .476E+02  .286E+02  .278E+02  .395E+02  .490E+02  .281E+02  .274E+02  .274E+02
  .275E+02  .275E+02  .274E+02  .274E+02  .274E+02  .365E+02  .365E+02  .274E+02
  .354E+02  .274E+02  .274E+02  .274E+02  .274E+02  .274E+02  .274E+02  .274E+02
  .000E+00  .000E+00  .000E+00  .000E+00  .000E+00  .000E+00  .000E+00  .000E+00
  .000E+00  .000E+00  .000E+00  .000E+00  .000E+00  .000E+00  .000E+00  .000E+00
  .000E+00  .000E+00  .000E+00  .000E+00
  .281E+02  .257E+02  .281E+02  .275E+02  .262E+02  .281E+02  .249E+02  .221E+02
  .281E+02  .455E+02  .281E+02  .297E+02  .488E+02  .341E+02  .276E+02  .283E+02
  .303E+02  .323E+02  .308E+02  .270E+02  .331E+02  .265E+02  .409E+02  .347E+02
  .361E+02  .336E+02  .280E+02  .289E+02  .295E+02  .411E+02  .324E+02  .276E+02
  .295E+02  .485E+02  .307E+02  .428E+02  .328E+02  .563E+02  .319E+02  .393E+02
  .480E+02  .272E+02  .352E+02  .325E+02  .298E+02  .472E+02  .265E+02  .348E+02
  .278E+02  .278E+02  .325E+02  .363E+02  .268E+02  .268E+02  .475E+02  .340E+02
  .480E+02  .373E+02  .309E+02  .543E+02  .465E+02  .330E+02  .277E+02  .271E+02
  .271E+02  .330E+02  .367E+02  .422E+02  .534E+02  .659E+02  .437E+02  .465E+02
  .363E+02  .571E+02  .347E+02  .347E+02  .351E+02  .511E+02  .310E+02  .311E+02
  .000E+00  .000E+00  .000E+00  .000E+00  .000E+00  .000E+00  .000E+00  .000E+00
  .000E+00  .000E+00  .000E+00  .000E+00  .000E+00  .000E+00  .000E+00  .000E+00
  .000E+00  .000E+00  .000E+00  .000E+00
Damping =  .02. Data of Sd,Sv,Sa,Pssv,ttSd,ttSv,ttSa :
  .442E-03  .477E-03  .505E-03  .655E-03  .712E-03  .698E-03  .104E-02  .134E-02
  .148E-02  .205E-02  .282E-02  .282E-02  .370E-02  .413E-02  .479E-02  .583E-02
  .884E-02  .123E-01  .173E-01  .183E-01  .286E-01  .381E-01  .444E-01  .573E-01
  .497E-01  .425E-01  .307E-01  .457E-01  .490E-01  .547E-01  .534E-01  .553E-01
  .455E-01  .408E-01  .387E-01  .431E-01  .479E-01  .547E-01  .563E-01  .640E-01
  .639E-01  .700E-01  .108E+00  .143E+00  .137E+00  .103E+00  .692E-01  .697E-01
  .931E-01  .120E+00  .116E+00  .107E+00  .946E-01  .100E+00  .974E-01  .113E+00
  .138E+00  .127E+00  .136E+00  .142E+00  .152E+00  .110E+00  .884E-01  .763E-01
  .700E-01  .703E-01  .695E-01  .732E-01  .848E-01  .100E+00  .109E+00  .110E+00
  .107E+00  .101E+00  .106E+00  .104E+00  .908E-01  .684E-01  .648E-01  .606E-01
  .000E+00  .000E+00  .000E+00  .000E+00  .000E+00  .000E+00  .000E+00  .000E+00
  .000E+00  .000E+00  .000E+00  .000E+00  .000E+00  .000E+00  .000E+00  .000E+00
  .000E+00  .000E+00  .000E+00  .000E+00
  .259E-01  .246E-01  .306E-01  .396E-01  .454E-01  .507E-01  .741E-01  .106E+00
  .124E+00  .143E+00  .172E+00  .172E+00  .255E+00  .205E+00  .252E+00  .304E+00
  .434E+00  .554E+00  .793E+00  .770E+00  .117E+01  .142E+01  .163E+01  .201E+01
  .165E+01  .143E+01  .926E+00  .118E+01  .125E+01  .127E+01  .115E+01  .111E+01
  .913E+00  .724E+00  .735E+00  .787E+00  .734E+00  .812E+00  .896E+00  .921E+00
  .846E+00  .800E+00  .117E+01  .149E+01  .130E+01  .106E+01  .694E+00  .667E+00
  .831E+00  .946E+00  .849E+00  .703E+00  .671E+00  .595E+00  .585E+00  .599E+00
  .644E+00  .689E+00  .706E+00  .645E+00  .576E+00  .493E+00  .467E+00  .422E+00
  .368E+00  .331E+00  .309E+00  .295E+00  .291E+00  .290E+00  .291E+00  .293E+00
  .295E+00  .297E+00  .298E+00  .299E+00  .304E+00  .308E+00  .309E+00  .308E+00
  .000E+00  .000E+00  .000E+00  .000E+00  .000E+00  .000E+00  .000E+00  .000E+00
  .000E+00  .000E+00  .000E+00  .000E+00  .000E+00  .000E+00  .000E+00  .000E+00
  .000E+00  .000E+00  .000E+00  .000E+00
  .283E-01  .277E-01  .267E-01  .317E-01  .316E-01  .286E-01  .352E-01  .382E-01
  .359E-01  .429E-01  .516E-01  .451E-01  .526E-01  .521E-01  .541E-01  .596E-01
  .746E-01  .876E-01  .105E+00  .959E-01  .130E+00  .152E+00  .157E+00  .181E+00
  .141E+00  .108E+00  .649E-01  .811E-01  .743E-01  .715E-01  .608E-01  .553E-01
  .403E-01  .323E-01  .274E-01  .276E-01  .278E-01  .289E-01  .273E-01  .284E-01
  .261E-01  .237E-01  .308E-01  .347E-01  .286E-01  .187E-01  .111E-01  .989E-02
  .118E-01  .136E-01  .119E-01  .904E-02  .673E-02  .608E-02  .509E-02  .514E-02
  .554E-02  .449E-02  .430E-02  .405E-02  .390E-02  .235E-02  .158E-02  .116E-02
  .923E-03  .803E-03  .696E-03  .650E-03  .670E-03  .711E-03  .700E-03  .640E-03
  .569E-03  .488E-03  .475E-03  .430E-03  .310E-03  .198E-03  .160E-03  .128E-03
  .000E+00  .000E+00  .000E+00  .000E+00  .000E+00  .000E+00  .000E+00  .000E+00
  .000E+00  .000E+00  .000E+00  .000E+00  .000E+00  .000E+00  .000E+00  .000E+00
  .000E+00  .000E+00  .000E+00  .000E+00
  .695E-01  .713E-01  .722E-01  .895E-01  .932E-01  .877E-01  .119E+00  .141E+00
  .144E+00  .184E+00  .237E+00  .222E+00  .273E+00  .289E+00  .317E+00  .367E+00
  .505E+00  .645E+00  .835E+00  .823E+00  .120E+01  .150E+01  .164E+01  .200E+01
  .164E+01  .133E+01  .876E+00  .120E+01  .118E+01  .123E+01  .112E+01  .109E+01
  .841E+00  .712E+00  .639E+00  .677E+00  .716E+00  .781E+00  .769E+00  .838E+00
  .803E+00  .800E+00  .113E+01  .138E+01  .123E+01  .861E+00  .544E+00  .515E+00
  .650E+00  .792E+00  .731E+00  .610E+00  .495E+00  .484E+00  .437E+00  .472E+00
  .544E+00  .468E+00  .474E+00  .470E+00  .479E+00  .315E+00  .231E+00  .184E+00
  .157E+00  .147E+00  .136E+00  .135E+00  .148E+00  .165E+00  .172E+00  .165E+00
  .153E+00  .137E+00  .139E+00  .131E+00  .104E+00  .716E-01  .627E-01  .544E-01
  .000E+00  .000E+00  .000E+00  .000E+00  .000E+00  .000E+00  .000E+00  .000E+00
  .000E+00  .000E+00  .000E+00  .000E+00  .000E+00  .000E+00  .000E+00  .000E+00
  .000E+00  .000E+00  .000E+00  .000E+00
  .281E+02  .261E+02  .281E+02  .261E+02  .261E+02  .275E+02  .281E+02  .251E+02
  .275E+02  .278E+02  .281E+02  .261E+02  .273E+02  .275E+02  .276E+02  .283E+02
  .262E+02  .275E+02  .281E+02  .282E+02  .277E+02  .263E+02  .286E+02  .286E+02
  .263E+02  .261E+02  .279E+02  .279E+02  .283E+02  .283E+02  .309E+02  .276E+02
  .295E+02  .294E+02  .304E+02  .304E+02  .328E+02  .282E+02  .269E+02  .272E+02
  .272E+02  .272E+02  .288E+02  .289E+02  .287E+02  .278E+02  .278E+02  .258E+02
  .278E+02  .278E+02  .279E+02  .292E+02  .268E+02  .268E+02  .292E+02  .287E+02
  .360E+02  .289E+02  .283E+02  .275E+02  .366E+02  .275E+02  .277E+02  .271E+02
  .271E+02  .330E+02  .367E+02  .370E+02  .410E+02  .412E+02  .358E+02  .359E+02
  .363E+02  .347E+02  .347E+02  .347E+02  .325E+02  .325E+02  .310E+02  .311E+02
  .000E+00  .000E+00  .000E+00  .000E+00  .000E+00  .000E+00  .000E+00  .000E+00
  .000E+00  .000E+00  .000E+00  .000E+00  .000E+00  .000E+00  .000E+00  .000E+00
  .000E+00  .000E+00  .000E+00  .000E+00
  .275E+02  .261E+02  .258E+02  .261E+02  .261E+02  .268E+02  .262E+02  .251E+02
  .251E+02  .278E+02  .278E+02  .281E+02  .273E+02  .273E+02  .276E+02  .284E+02
  .262E+02  .274E+02  .281E+02  .281E+02  .277E+02  .262E+02  .286E+02  .285E+02
  .264E+02  .260E+02  .280E+02  .280E+02  .283E+02  .283E+02  .282E+02  .277E+02
  .294E+02  .293E+02  .305E+02  .303E+02  .327E+02  .267E+02  .281E+02  .273E+02
  .273E+02  .277E+02  .290E+02  .288E+02  .286E+02  .276E+02  .280E+02  .260E+02
  .280E+02  .276E+02  .276E+02  .278E+02  .270E+02  .266E+02  .266E+02  .276E+02
  .276E+02  .278E+02  .278E+02  .278E+02  .281E+02  .281E+02  .274E+02  .274E+02
  .274E+02  .274E+02  .274E+02  .274E+02  .274E+02  .274E+02  .274E+02  .274E+02
  .274E+02  .274E+02  .274E+02  .274E+02  .274E+02  .274E+02  .274E+02  .274E+02
  .000E+00  .000E+00  .000E+00  .000E+00  .000E+00  .000E+00  .000E+00  .000E+00
  .000E+00  .000E+00  .000E+00  .000E+00  .000E+00  .000E+00  .000E+00  .000E+00
  .000E+00  .000E+00  .000E+00  .000E+00
  .281E+02  .261E+02  .281E+02  .261E+02  .261E+02  .275E+02  .281E+02  .251E+02
  .275E+02  .278E+02  .281E+02  .261E+02  .273E+02  .275E+02  .276E+02  .283E+02
  .262E+02  .275E+02  .282E+02  .282E+02  .277E+02  .263E+02  .286E+02  .286E+02
  .263E+02  .261E+02  .279E+02  .279E+02  .283E+02  .283E+02  .309E+02  .276E+02
  .295E+02  .294E+02  .304E+02  .304E+02  .328E+02  .282E+02  .268E+02  .271E+02
  .272E+02  .272E+02  .288E+02  .289E+02  .287E+02  .278E+02  .278E+02  .258E+02
  .278E+02  .278E+02  .279E+02  .292E+02  .268E+02  .268E+02  .292E+02  .287E+02
  .360E+02  .289E+02  .283E+02  .275E+02  .365E+02  .275E+02  .277E+02  .271E+02
  .271E+02  .330E+02  .367E+02  .370E+02  .410E+02  .412E+02  .358E+02  .359E+02
  .362E+02  .346E+02  .346E+02  .347E+02  .325E+02  .325E+02  .309E+02  .310E+02
  .000E+00  .000E+00  .000E+00  .000E+00  .000E+00  .000E+00  .000E+00  .000E+00
  .000E+00  .000E+00  .000E+00  .000E+00  .000E+00  .000E+00  .000E+00  .000E+00
  .000E+00  .000E+00  .000E+00  .000E+00
Damping =  .05. Data of Sd,Sv,Sa,Pssv,ttSd,ttSv,ttSa :
  .416E-03  .460E-03  .508E-03  .596E-03  .660E-03  .689E-03  .939E-03  .107E-02
  .138E-02  .164E-02  .214E-02  .245E-02  .303E-02  .330E-02  .409E-02  .482E-02
  .671E-02  .760E-02  .119E-01  .133E-01  .176E-01  .263E-01  .294E-01  .321E-01
  .316E-01  .291E-01  .274E-01  .357E-01  .352E-01  .388E-01  .379E-01  .389E-01
  .334E-01  .331E-01  .289E-01  .295E-01  .303E-01  .389E-01  .441E-01  .475E-01
