Response and Fourier amplitude spectra (80 periods,  .04 -  7.0 sec)   for      
Corrected accelerogram   24207-M0150-08211.01       Chan  7:  Radl       from   
Uncorrected Accelerogram Data             Processed: 08/04/08, CDMG  CE24207D   
Record of Tue Jul 29, 2008 11:42:12.0 PDT             (Avol1 v7.9 7/08 CSMIP)   
CSMIP Preliminary Processing            (Origin:  To be determined)             
24207-M0150-08211.01                 Start time:  7/29/08, 18:42:12.0 UTC (GPS) 
Station No. 24207   34.334N, 118.396W    MtWtny  s/n  150 (17 Channels)         
Sylmar - Pacoima Dam                      CGS                                   
Chan  7:  Radl                      Location: 80% Height: Center                
Record of Tue Jul 29, 2008 11:42:12.0 PDT    Tue Jul 29, 2008 11:42:12.0 PDT    
Hypocenter:  To be determined.               ML:  To be determined.
Instr Period =  .0200 sec,  Damping =  .700,  Sensitivity =  .63  v/g  (Nominal)
                        Record length = 59.000 sec.
                                     Uncor Max  =   .017 g , at  27.555 sec.
RMS accel of (uncor) record  =        .   Chn. metadata effective date: 01/01/04
Accelerogram bandpass filtered with 3 dB pts at   .14 and 40.00 cyc/sec
                 instrument- and baseline-corrected





Record of Tue Jul 29, 2008 11:42:12.0 PDT    Tue Jul 29, 2008 11:42:12.0 PDT

24207-M0150-08211.01      Sylmar - Pacoima Dam    Chan  7:  Radl

24207-M0150-08211.01      Sylmar - Pacoima Dam    Chan  7:  Radl

Units for spectra are inches and sec, except Sa is in fraction of g.

    7  100    7   18   17  200    1    3    1   24   13  150    024207    5    0
   18   42   12    0  211    7   29 2008   10    3  70011800   41   20   76   -1
11800    0   50    3  150    1    1  590    2    0    0    0    0    0    0    0
    0    4    0    011800    1  220    1   18    4   76   20    1    1    011800
    311800   21   80    5   17    5    0    0    0   17    0    0    3    0    2
    2    2    4    0   68   99    0   32   32    0    1    1    0    0    0    0
    1    1   35    0
      .020      .700    59.000      .002      .000   625.000      .017    27.555
    50.000      .298      .477      .000     5.000      .000     4.000      .000
     2.500   -33.490     2.500  2016.000    25.000    30.000      .000      .005
     -.005     -.010     2.000    15.000    34.334  -118.396      .012      .423
    36.381      .000      .000   594.000    25.500    28.800    12.700   119.840
     1.000    -2.516      .000      .000      .000      .000      .000      .000
     4.200     7.900     4.600   980.665      .005    59.000     7.958      .000
      .000    40.000      .000    59.000      .005      .143      .000      .000
    27.550    17.128    27.445     -.908    27.120      .089      .000      .143
    40.000      .005      .005      .000      .005      .032      .000      .000
      .071      .240      .056      .054      .008      .001      .000      .000
      .000      .000      .000      .000      .000      .000      .000      .000
      .000      .000      .000      .000
      .000      .020      .050      .100      .200
      .040      .042      .044      .046      .048      .050      .055      .060
      .065      .070      .075      .080      .085      .090      .095      .100
      .110      .120      .130      .140      .150      .160      .170      .180
      .190      .200      .220      .240      .260      .280      .300      .320
      .340      .360      .380      .400      .420      .440      .460      .480
      .500      .550      .600      .650      .700      .750      .800      .850
      .900      .950     1.000     1.100     1.200     1.300     1.400     1.500
     1.600     1.700     1.800     1.900     2.000     2.200     2.400     2.600
     2.800     3.000     3.200     3.400     3.600     3.800     4.000     4.200
     4.400     4.600     4.800     5.000     5.500     6.000     6.500     7.000
      .000      .000      .000      .000      .000      .000      .000      .000
      .000      .000      .000      .000      .000      .000      .000      .000
      .000      .000      .000      .000
Fourier amplitude spectra in in/sec.
  .216E-02  .977E-02  .278E-01  .322E-02  .334E-01  .459E-01  .260E-01  .128E-01
  .133E+00  .152E+00  .485E-01  .172E-01  .359E-01  .868E-01  .143E+00  .154E+00
  .120E+00  .713E-01  .995E-02  .264E+00  .740E+00  .307E+00  .119E+01  .157E+01
  .723E+00  .159E+01  .137E+01  .129E+01  .208E+01  .364E+01  .108E+01  .113E+01
  .143E+01  .119E+01  .538E+00  .120E+01  .912E+00  .114E+01  .955E+00  .822E+00
  .198E+01  .107E+00  .138E+01  .733E+00  .130E+01  .129E+01  .570E+00  .454E+00
  .308E+00  .809E+00  .739E+00  .593E+00  .197E+00  .327E+00  .490E+00  .263E+00
  .869E+00  .593E+00  .318E+00  .495E+00  .662E+00  .203E+00  .114E+00  .310E-01
  .291E-01  .133E+00  .155E+00  .146E+00  .175E+00  .223E+00  .178E+00  .128E+00
  .138E+00  .134E+00  .103E+00  .739E-01  .949E-01  .699E-01  .347E-01  .118E-01
  .000E+00  .000E+00  .000E+00  .000E+00  .000E+00  .000E+00  .000E+00  .000E+00
  .000E+00  .000E+00  .000E+00  .000E+00  .000E+00  .000E+00  .000E+00  .000E+00
  .000E+00  .000E+00  .000E+00  .000E+00
Damping =  .00. Data of Sd,Sv,Sa,Pssv,ttSd,ttSv,ttSa :
  .311E-03  .394E-03  .544E-03  .417E-03  .575E-03  .641E-03  .843E-03  .919E-03
  .147E-02  .197E-02  .175E-02  .187E-02  .182E-02  .251E-02  .406E-02  .272E-02
  .297E-02  .403E-02  .544E-02  .838E-02  .226E-01  .220E-01  .444E-01  .541E-01
  .283E-01  .576E-01  .569E-01  .944E-01  .983E-01  .176E+00  .653E-01  .999E-01
  .774E-01  .713E-01  .657E-01  .926E-01  .104E+00  .959E-01  .808E-01  .108E+00
  .164E+00  .643E-01  .154E+00  .157E+00  .167E+00  .174E+00  .787E-01  .104E+00
  .984E-01  .145E+00  .153E+00  .151E+00  .107E+00  .101E+00  .147E+00  .153E+00
  .244E+00  .172E+00  .138E+00  .169E+00  .223E+00  .117E+00  .902E-01  .654E-01
  .669E-01  .776E-01  .883E-01  .943E-01  .109E+00  .135E+00  .121E+00  .113E+00
  .109E+00  .103E+00  .101E+00  .102E+00  .909E-01  .728E-01  .568E-01  .545E-01
  .000E+00  .000E+00  .000E+00  .000E+00  .000E+00  .000E+00  .000E+00  .000E+00
  .000E+00  .000E+00  .000E+00  .000E+00  .000E+00  .000E+00  .000E+00  .000E+00
  .000E+00  .000E+00  .000E+00  .000E+00
  .137E-01  .237E-01  .445E-01  .247E-01  .362E-01  .526E-01  .519E-01  .571E-01
  .134E+00  .156E+00  .114E+00  .720E-01  .881E-01  .965E-01  .187E+00  .156E+00
  .149E+00  .161E+00  .211E+00  .317E+00  .932E+00  .823E+00  .157E+01  .184E+01
  .905E+00  .180E+01  .159E+01  .246E+01  .236E+01  .394E+01  .136E+01  .204E+01
  .143E+01  .125E+01  .112E+01  .146E+01  .157E+01  .134E+01  .110E+01  .141E+01
  .206E+01  .739E+00  .158E+01  .153E+01  .158E+01  .152E+01  .693E+00  .795E+00
  .848E+00  .101E+01  .100E+01  .907E+00  .696E+00  .610E+00  .693E+00  .633E+00
  .960E+00  .675E+00  .669E+00  .630E+00  .703E+00  .491E+00  .524E+00  .491E+00
  .433E+00  .410E+00  .384E+00  .372E+00  .365E+00  .365E+00  .365E+00  .364E+00
  .363E+00  .363E+00  .361E+00  .360E+00  .367E+00  .371E+00  .372E+00  .372E+00
  .000E+00  .000E+00  .000E+00  .000E+00  .000E+00  .000E+00  .000E+00  .000E+00
  .000E+00  .000E+00  .000E+00  .000E+00  .000E+00  .000E+00  .000E+00  .000E+00
  .000E+00  .000E+00  .000E+00  .000E+00
  .199E-01  .229E-01  .287E-01  .201E-01  .255E-01  .262E-01  .285E-01  .261E-01
  .356E-01  .412E-01  .318E-01  .299E-01  .258E-01  .316E-01  .460E-01  .278E-01
  .251E-01  .286E-01  .330E-01  .437E-01  .103E+00  .878E-01  .157E+00  .171E+00
  .801E-01  .147E+00  .120E+00  .168E+00  .149E+00  .229E+00  .742E-01  .998E-01
  .685E-01  .563E-01  .466E-01  .592E-01  .604E-01  .506E-01  .391E-01  .481E-01
  .671E-01  .217E-01  .436E-01  .380E-01  .349E-01  .317E-01  .126E-01  .147E-01
  .124E-01  .164E-01  .156E-01  .127E-01  .761E-02  .613E-02  .769E-02  .695E-02
  .974E-02  .609E-02  .436E-02  .478E-02  .570E-02  .247E-02  .160E-02  .990E-03
  .872E-03  .882E-03  .882E-03  .834E-03  .858E-03  .956E-03  .776E-03  .656E-03
  .576E-03  .496E-03  .449E-03  .419E-03  .307E-03  .207E-03  .137E-03  .114E-03
  .000E+00  .000E+00  .000E+00  .000E+00  .000E+00  .000E+00  .000E+00  .000E+00
  .000E+00  .000E+00  .000E+00  .000E+00  .000E+00  .000E+00  .000E+00  .000E+00
  .000E+00  .000E+00  .000E+00  .000E+00
  .488E-01  .590E-01  .776E-01  .569E-01  .753E-01  .805E-01  .963E-01  .962E-01
  .142E+00  .177E+00  .146E+00  .147E+00  .135E+00  .175E+00  .269E+00  .171E+00
  .170E+00  .211E+00  .263E+00  .376E+00  .946E+00  .863E+00  .164E+01  .189E+01
  .935E+00  .181E+01  .163E+01  .247E+01  .237E+01  .394E+01  .137E+01  .196E+01
  .143E+01  .124E+01  .109E+01  .145E+01  .156E+01  .137E+01  .110E+01  .142E+01
  .206E+01  .735E+00  .161E+01  .152E+01  .150E+01  .146E+01  .618E+00  .766E+00
  .687E+00  .956E+00  .961E+00  .860E+00  .561E+00  .489E+00  .662E+00  .640E+00
  .957E+00  .636E+00  .482E+00  .558E+00  .700E+00  .334E+00  .236E+00  .158E+00
  .150E+00  .163E+00  .173E+00  .174E+00  .190E+00  .223E+00  .191E+00  .169E+00
  .156E+00  .140E+00  .132E+00  .129E+00  .104E+00  .763E-01  .549E-01  .489E-01
  .000E+00  .000E+00  .000E+00  .000E+00  .000E+00  .000E+00  .000E+00  .000E+00
  .000E+00  .000E+00  .000E+00  .000E+00  .000E+00  .000E+00  .000E+00  .000E+00
  .000E+00  .000E+00  .000E+00  .000E+00
  .275E+02  .275E+02  .275E+02  .275E+02  .275E+02  .276E+02  .275E+02  .275E+02
  .395E+02  .290E+02  .280E+02  .275E+02  .254E+02  .275E+02  .275E+02  .360E+02
  .328E+02  .255E+02  .276E+02  .276E+02  .395E+02  .265E+02  .279E+02  .276E+02
  .396E+02  .342E+02  .302E+02  .283E+02  .298E+02  .411E+02  .312E+02  .276E+02
  .573E+02  .468E+02  .305E+02  .426E+02  .328E+02  .276E+02  .316E+02  .389E+02
  .477E+02  .272E+02  .352E+02  .312E+02  .326E+02  .397E+02  .279E+02  .349E+02
  .279E+02  .403E+02  .360E+02  .364E+02  .268E+02  .268E+02  .475E+02  .340E+02
  .456E+02  .372E+02  .291E+02  .543E+02  .485E+02  .330E+02  .276E+02  .271E+02
  .329E+02  .330E+02  .367E+02  .370E+02  .517E+02  .660E+02  .438E+02  .465E+02
  .363E+02  .364E+02  .346E+02  .347E+02  .351E+02  .536E+02  .310E+02  .310E+02
  .000E+00  .000E+00  .000E+00  .000E+00  .000E+00  .000E+00  .000E+00  .000E+00
  .000E+00  .000E+00  .000E+00  .000E+00  .000E+00  .000E+00  .000E+00  .000E+00
  .000E+00  .000E+00  .000E+00  .000E+00
  .277E+02  .277E+02  .277E+02  .254E+02  .306E+02  .314E+02  .259E+02  .259E+02
  .377E+02  .293E+02  .277E+02  .275E+02  .252E+02  .375E+02  .277E+02  .390E+02
  .328E+02  .254E+02  .276E+02  .276E+02  .404E+02  .265E+02  .279E+02  .286E+02
  .397E+02  .342E+02  .302E+02  .284E+02  .299E+02  .411E+02  .313E+02  .277E+02
  .574E+02  .469E+02  .306E+02  .429E+02  .329E+02  .282E+02  .315E+02  .387E+02
  .468E+02  .277E+02  .360E+02  .314E+02  .293E+02  .395E+02  .280E+02  .347E+02
  .276E+02  .276E+02  .323E+02  .361E+02  .270E+02  .265E+02  .423E+02  .336E+02
  .484E+02  .276E+02  .278E+02  .278E+02  .490E+02  .274E+02  .274E+02  .274E+02
  .274E+02  .274E+02  .274E+02  .274E+02  .274E+02  .274E+02  .274E+02  .274E+02
  .274E+02  .274E+02  .274E+02  .274E+02  .274E+02  .274E+02  .274E+02  .274E+02
  .000E+00  .000E+00  .000E+00  .000E+00  .000E+00  .000E+00  .000E+00  .000E+00
  .000E+00  .000E+00  .000E+00  .000E+00  .000E+00  .000E+00  .000E+00  .000E+00
  .000E+00  .000E+00  .000E+00  .000E+00
  .275E+02  .275E+02  .275E+02  .275E+02  .275E+02  .276E+02  .275E+02  .275E+02
  .395E+02  .290E+02  .280E+02  .275E+02  .254E+02  .275E+02  .275E+02  .360E+02
  .328E+02  .255E+02  .276E+02  .276E+02  .395E+02  .265E+02  .279E+02  .276E+02
  .396E+02  .342E+02  .302E+02  .283E+02  .298E+02  .411E+02  .312E+02  .276E+02
  .573E+02  .468E+02  .305E+02  .426E+02  .328E+02  .276E+02  .316E+02  .389E+02
  .477E+02  .272E+02  .352E+02  .312E+02  .326E+02  .397E+02  .279E+02  .349E+02
  .279E+02  .403E+02  .360E+02  .364E+02  .268E+02  .268E+02  .475E+02  .340E+02
  .456E+02  .372E+02  .291E+02  .543E+02  .485E+02  .330E+02  .276E+02  .271E+02
  .329E+02  .330E+02  .367E+02  .370E+02  .517E+02  .660E+02  .438E+02  .465E+02
  .363E+02  .364E+02  .346E+02  .347E+02  .351E+02  .536E+02  .310E+02  .310E+02
  .000E+00  .000E+00  .000E+00  .000E+00  .000E+00  .000E+00  .000E+00  .000E+00
  .000E+00  .000E+00  .000E+00  .000E+00  .000E+00  .000E+00  .000E+00  .000E+00
  .000E+00  .000E+00  .000E+00  .000E+00
Damping =  .02. Data of Sd,Sv,Sa,Pssv,ttSd,ttSv,ttSa :
  .287E-03  .320E-03  .339E-03  .372E-03  .418E-03  .462E-03  .581E-03  .677E-03
  .800E-03  .106E-02  .109E-02  .143E-02  .144E-02  .187E-02  .238E-02  .248E-02
  .281E-02  .317E-02  .495E-02  .639E-02  .115E-01  .139E-01  .191E-01  .246E-01
  .253E-01  .355E-01  .307E-01  .585E-01  .574E-01  .619E-01  .633E-01  .621E-01
  .413E-01  .442E-01  .468E-01  .457E-01  .469E-01  .650E-01  .600E-01  .601E-01
  .564E-01  .576E-01  .944E-01  .130E+00  .124E+00  .951E-01  .728E-01  .635E-01
  .902E-01  .108E+00  .104E+00  .871E-01  .920E-01  .908E-01  .916E-01  .105E+00
  .127E+00  .112E+00  .112E+00  .126E+00  .130E+00  .104E+00  .863E-01  .585E-01
  .595E-01  .691E-01  .746E-01  .813E-01  .863E-01  .974E-01  .102E+00  .989E-01
  .945E-01  .898E-01  .916E-01  .924E-01  .824E-01  .629E-01  .536E-01  .519E-01
  .000E+00  .000E+00  .000E+00  .000E+00  .000E+00  .000E+00  .000E+00  .000E+00
  .000E+00  .000E+00  .000E+00  .000E+00  .000E+00  .000E+00  .000E+00  .000E+00
  .000E+00  .000E+00  .000E+00  .000E+00
  .917E-02  .953E-02  .122E-01  .129E-01  .125E-01  .168E-01  .238E-01  .253E-01
  .437E-01  .645E-01  .586E-01  .445E-01  .576E-01  .530E-01  .868E-01  .876E-01
  .992E-01  .103E+00  .173E+00  .209E+00  .417E+00  .484E+00  .671E+00  .843E+00
  .841E+00  .103E+01  .822E+00  .149E+01  .140E+01  .142E+01  .140E+01  .136E+01
  .804E+00  .824E+00  .843E+00  .794E+00  .793E+00  .915E+00  .877E+00  .770E+00
  .746E+00  .690E+00  .113E+01  .124E+01  .118E+01  .104E+01  .738E+00  .706E+00
  .818E+00  .878E+00  .754E+00  .693E+00  .608E+00  .572E+00  .520E+00  .562E+00
  .614E+00  .632E+00  .612E+00  .582E+00  .496E+00  .474E+00  .498E+00  .475E+00
  .431E+00  .407E+00  .386E+00  .373E+00  .367E+00  .365E+00  .364E+00  .363E+00
  .363E+00  .362E+00  .361E+00  .361E+00  .366E+00  .369E+00  .370E+00  .371E+00
  .000E+00  .000E+00  .000E+00  .000E+00  .000E+00  .000E+00  .000E+00  .000E+00
  .000E+00  .000E+00  .000E+00  .000E+00  .000E+00  .000E+00  .000E+00  .000E+00
  .000E+00  .000E+00  .000E+00  .000E+00
  .184E-01  .186E-01  .179E-01  .180E-01  .185E-01  .189E-01  .196E-01  .193E-01
  .194E-01  .223E-01  .198E-01  .229E-01  .204E-01  .236E-01  .269E-01  .254E-01
  .237E-01  .225E-01  .300E-01  .334E-01  .524E-01  .557E-01  .677E-01  .779E-01
  .716E-01  .908E-01  .649E-01  .104E+00  .868E-01  .809E-01  .720E-01  .620E-01
  .366E-01  .349E-01  .332E-01  .292E-01  .273E-01  .344E-01  .291E-01  .267E-01
  .231E-01  .195E-01  .269E-01  .314E-01  .260E-01  .173E-01  .117E-01  .900E-02
  .114E-01  .123E-01  .106E-01  .738E-02  .655E-02  .550E-02  .479E-02  .479E-02
  .509E-02  .398E-02  .356E-02  .359E-02  .332E-02  .221E-02  .155E-02  .898E-03
  .780E-03  .787E-03  .747E-03  .720E-03  .683E-03  .692E-03  .655E-03  .576E-03
  .500E-03  .435E-03  .408E-03  .379E-03  .281E-03  .181E-03  .138E-03  .117E-03
  .000E+00  .000E+00  .000E+00  .000E+00  .000E+00  .000E+00  .000E+00  .000E+00
  .000E+00  .000E+00  .000E+00  .000E+00  .000E+00  .000E+00  .000E+00  .000E+00
  .000E+00  .000E+00  .000E+00  .000E+00
  .451E-01  .479E-01  .485E-01  .508E-01  .547E-01  .580E-01  .664E-01  .709E-01
  .773E-01  .956E-01  .911E-01  .113E+00  .107E+00  .130E+00  .157E+00  .156E+00
  .160E+00  .166E+00  .239E+00  .287E+00  .483E+00  .547E+00  .706E+00  .859E+00
  .837E+00  .112E+01  .876E+00  .153E+01  .139E+01  .139E+01  .133E+01  .122E+01
  .764E+00  .772E+00  .774E+00  .718E+00  .702E+00  .929E+00  .820E+00  .787E+00
  .709E+00  .658E+00  .989E+00  .125E+01  .112E+01  .797E+00  .572E+00  .469E+00
  .630E+00  .716E+00  .650E+00  .498E+00  .482E+00  .439E+00  .411E+00  .441E+00
  .500E+00  .415E+00  .392E+00  .418E+00  .407E+00  .296E+00  .226E+00  .141E+00
  .133E+00  .145E+00  .147E+00  .150E+00  .151E+00  .161E+00  .161E+00  .148E+00
  .135E+00  .123E+00  .120E+00  .116E+00  .941E-01  .658E-01  .518E-01  .466E-01
  .000E+00  .000E+00  .000E+00  .000E+00  .000E+00  .000E+00  .000E+00  .000E+00
  .000E+00  .000E+00  .000E+00  .000E+00  .000E+00  .000E+00  .000E+00  .000E+00
  .000E+00  .000E+00  .000E+00  .000E+00
  .275E+02  .276E+02  .276E+02  .275E+02  .275E+02  .276E+02  .276E+02  .276E+02
  .277E+02  .275E+02  .275E+02  .275E+02  .275E+02  .275E+02  .275E+02  .275E+02
  .276E+02  .276E+02  .276E+02  .277E+02  .278E+02  .278E+02  .274E+02  .261E+02
  .261E+02  .279E+02  .294E+02  .281E+02  .282E+02  .281E+02  .282E+02  .276E+02
  .295E+02  .293E+02  .294E+02  .292E+02  .291E+02  .277E+02  .282E+02  .269E+02
  .272E+02  .272E+02  .289E+02  .290E+02  .287E+02  .281E+02  .279E+02  .278E+02
  .279E+02  .279E+02  .275E+02  .292E+02  .268E+02  .268E+02  .292E+02  .340E+02
  .360E+02  .289E+02  .291E+02  .275E+02  .366E+02  .275E+02  .276E+02  .271E+02
  .329E+02  .330E+02  .367E+02  .370E+02  .356E+02  .356E+02  .358E+02  .359E+02
  .363E+02  .364E+02  .346E+02  .347E+02  .350E+02  .325E+02  .310E+02  .310E+02
  .000E+00  .000E+00  .000E+00  .000E+00  .000E+00  .000E+00  .000E+00  .000E+00
  .000E+00  .000E+00  .000E+00  .000E+00  .000E+00  .000E+00  .000E+00  .000E+00
  .000E+00  .000E+00  .000E+00  .000E+00
  .277E+02  .254E+02  .277E+02  .277E+02  .277E+02  .277E+02  .276E+02  .276E+02
  .277E+02  .277E+02  .277E+02  .276E+02  .277E+02  .275E+02  .277E+02  .277E+02
  .276E+02  .276E+02  .276E+02  .276E+02  .277E+02  .278E+02  .274E+02  .261E+02
  .260E+02  .279E+02  .293E+02  .283E+02  .283E+02  .282E+02  .281E+02  .277E+02
  .277E+02  .294E+02  .293E+02  .293E+02  .277E+02  .276E+02  .276E+02  .265E+02
  .273E+02  .277E+02  .290E+02  .288E+02  .286E+02  .280E+02  .276E+02  .280E+02
  .276E+02  .276E+02  .276E+02  .274E+02  .270E+02  .265E+02  .276E+02  .276E+02
  .276E+02  .276E+02  .278E+02  .278E+02  .278E+02  .274E+02  .274E+02  .274E+02
  .274E+02  .274E+02  .274E+02  .274E+02  .274E+02  .274E+02  .274E+02  .274E+02
  .274E+02  .274E+02  .274E+02  .274E+02  .274E+02  .274E+02  .274E+02  .274E+02
  .000E+00  .000E+00  .000E+00  .000E+00  .000E+00  .000E+00  .000E+00  .000E+00
  .000E+00  .000E+00  .000E+00  .000E+00  .000E+00  .000E+00  .000E+00  .000E+00
  .000E+00  .000E+00  .000E+00  .000E+00
  .275E+02  .276E+02  .276E+02  .275E+02  .275E+02  .276E+02  .276E+02  .276E+02
  .277E+02  .275E+02  .275E+02  .275E+02  .275E+02  .275E+02  .275E+02  .275E+02
  .276E+02  .276E+02  .276E+02  .277E+02  .278E+02  .278E+02  .274E+02  .261E+02
  .261E+02  .279E+02  .294E+02  .281E+02  .282E+02  .281E+02  .282E+02  .276E+02
  .295E+02  .293E+02  .294E+02  .292E+02  .291E+02  .276E+02  .282E+02  .269E+02
  .272E+02  .272E+02  .289E+02  .290E+02  .287E+02  .281E+02  .278E+02  .278E+02
  .278E+02  .279E+02  .275E+02  .292E+02  .268E+02  .268E+02  .292E+02  .340E+02
  .360E+02  .289E+02  .291E+02  .275E+02  .365E+02  .275E+02  .275E+02  .275E+02
  .329E+02  .330E+02  .367E+02  .369E+02  .356E+02  .356E+02  .358E+02  .358E+02
  .363E+02  .364E+02  .346E+02  .346E+02  .349E+02  .324E+02  .275E+02  .275E+02
  .000E+00  .000E+00  .000E+00  .000E+00  .000E+00  .000E+00  .000E+00  .000E+00
  .000E+00  .000E+00  .000E+00  .000E+00  .000E+00  .000E+00  .000E+00  .000E+00
  .000E+00  .000E+00  .000E+00  .000E+00
Damping =  .05. Data of Sd,Sv,Sa,Pssv,ttSd,ttSv,ttSa :
  .282E-03  .313E-03  .337E-03  .368E-03  .409E-03  .446E-03  .546E-03  .645E-03
  .746E-03  .943E-03  .109E-02  .131E-02  .146E-02  .176E-02  .213E-02  .233E-02
  .279E-02  .328E-02  .455E-02  .611E-02  .897E-02  .115E-01  .119E-01  .156E-01
  .191E-01  .223E-01  .259E-01  .398E-01  .446E-01  .475E-01  .479E-01  .457E-01
  .361E-01  .360E-01  .353E-01  .347E-01  .410E-01  .461E-01  .460E-01  .459E-01
