Response and Fourier amplitude spectra (80 periods,  .04 -  7.0 sec)   for      
Corrected accelerogram   24207-M0150-08211.01       Chan 14: 360 Deg     from   
Uncorrected Accelerogram Data             Processed: 08/04/08, CDMG  CE24207D   
Record of Tue Jul 29, 2008 11:42:12.0 PDT             (Avol1 v7.9 7/08 CSMIP)   
CSMIP Preliminary Processing            (Origin:  To be determined)             
24207-M0150-08211.01                 Start time:  7/29/08, 18:42:12.0 UTC (GPS) 
Station No. 24207   34.334N, 118.396W    MtWtny  s/n  150 (17 Channels)         
Sylmar - Pacoima Dam                      CGS                                   
Chan 14: 360 DegR                   Location: Right (North) Abutment            
Record of Tue Jul 29, 2008 11:42:12.0 PDT    Tue Jul 29, 2008 11:42:12.0 PDT    
Hypocenter:  To be determined.               ML:  To be determined.
Instr Period =  .0200 sec,  Damping =  .700,  Sensitivity =  .63  v/g  (Nominal)
                        Record length = 59.000 sec.
                                     Uncor Max  =  -.007 g , at  25.500 sec.
RMS accel of (uncor) record  =        .   Chn. metadata effective date: 01/01/04
Accelerogram bandpass filtered with 3 dB pts at   .14 and 40.00 cyc/sec
                 instrument- and baseline-corrected





Record of Tue Jul 29, 2008 11:42:12.0 PDT    Tue Jul 29, 2008 11:42:12.0 PDT

24207-M0150-08211.01      Sylmar - Pacoima Dam    Chan 14: 360 Deg

24207-M0150-08211.01      Sylmar - Pacoima Dam    Chan 14: 360 Deg

Units for spectra are inches and sec, except Sa is in fraction of g.

   14  100   14   18   17  200    1    3    1   24   13  150    024207    5    0
   18   42   12    0  211    7   29 2008   10    3  36011800   41   20   76   -1
11800    0   50    3  150    1    1  590    2    0    0    0    0    0    0    0
    0    4    0    011800    1  220    1   18    4   76   20    1    1    011800
    311800   21   80    5   17    5    0    0    0   17    0    0    3    0    2
    2    2    4    0   68   99    0   32   32    0    1    1    0    0    0    0
    1    1   70    0
      .020      .700    59.000      .001      .000   625.000     -.007    25.500
    50.000      .298      .477      .000     5.000      .000     4.000      .000
     2.500   -37.806     2.500  2016.000    25.000    30.000      .000     -.011
      .009      .020     2.000    15.000    34.334  -118.396      .017      .258
    15.053      .000      .000   594.000    25.500    28.800    12.700   119.840
     1.000     1.166      .000      .000      .000      .000      .000      .000
     4.200     7.900     4.600   980.665      .005    59.000     7.958      .000
      .000    40.000      .000    59.000      .005      .143      .000      .000
    25.495    -6.607    27.310      .598    27.120     -.105      .000      .143
    40.000      .005      .005     -.002      .005      .023      .000      .000
      .020      .650      .015      .012      .008      .001      .000      .000
      .000      .000      .000      .000      .000      .000      .000      .000
      .000      .000      .000      .000
      .000      .020      .050      .100      .200
      .040      .042      .044      .046      .048      .050      .055      .060
      .065      .070      .075      .080      .085      .090      .095      .100
      .110      .120      .130      .140      .150      .160      .170      .180
      .190      .200      .220      .240      .260      .280      .300      .320
      .340      .360      .380      .400      .420      .440      .460      .480
      .500      .550      .600      .650      .700      .750      .800      .850
      .900      .950     1.000     1.100     1.200     1.300     1.400     1.500
     1.600     1.700     1.800     1.900     2.000     2.200     2.400     2.600
     2.800     3.000     3.200     3.400     3.600     3.800     4.000     4.200
     4.400     4.600     4.800     5.000     5.500     6.000     6.500     7.000
      .000      .000      .000      .000      .000      .000      .000      .000
      .000      .000      .000      .000      .000      .000      .000      .000
      .000      .000      .000      .000
Fourier amplitude spectra in in/sec.
  .384E-01  .198E-01  .210E-01  .509E-02  .249E-01  .297E-01  .358E-01  .119E+00
  .146E+00  .544E-01  .141E+00  .246E+00  .144E+00  .142E+00  .166E+00  .515E+00
  .581E+00  .354E+00  .114E+00  .246E+00  .411E+00  .311E+00  .609E+00  .522E+00
  .531E+00  .299E+00  .380E+00  .585E+00  .258E+00  .782E+00  .596E+00  .524E+00
  .452E+00  .447E+00  .396E+00  .631E+00  .181E+00  .916E+00  .126E+01  .835E+00
  .112E+01  .724E+00  .359E+00  .155E+01  .202E+01  .713E+00  .946E+00  .129E+01
  .522E+00  .605E+00  .596E+00  .719E+00  .309E+00  .157E+00  .365E+00  .153E+00
  .679E+00  .158E+00  .524E+00  .496E+00  .483E+00  .135E+00  .839E-01  .584E-01
  .228E+00  .115E+00  .266E-01  .321E-01  .111E+00  .159E+00  .867E-01  .559E-01
  .906E-01  .980E-01  .843E-01  .656E-01  .968E-01  .885E-01  .448E-01  .369E-01
  .000E+00  .000E+00  .000E+00  .000E+00  .000E+00  .000E+00  .000E+00  .000E+00
  .000E+00  .000E+00  .000E+00  .000E+00  .000E+00  .000E+00  .000E+00  .000E+00
  .000E+00  .000E+00  .000E+00  .000E+00
Damping =  .00. Data of Sd,Sv,Sa,Pssv,ttSd,ttSv,ttSa :
  .329E-03  .339E-03  .292E-03  .395E-03  .322E-03  .273E-03  .692E-03  .115E-02
  .226E-02  .156E-02  .176E-02  .349E-02  .255E-02  .231E-02  .352E-02  .823E-02
  .102E-01  .805E-02  .476E-02  .588E-02  .107E-01  .905E-02  .181E-01  .187E-01
  .184E-01  .108E-01  .170E-01  .272E-01  .162E-01  .390E-01  .348E-01  .316E-01
  .320E-01  .341E-01  .392E-01  .614E-01  .409E-01  .104E+00  .117E+00  .720E-01
  .982E-01  .690E-01  .917E-01  .189E+00  .237E+00  .864E-01  .125E+00  .177E+00
  .126E+00  .141E+00  .159E+00  .197E+00  .110E+00  .879E-01  .858E-01  .102E+00
  .189E+00  .123E+00  .154E+00  .154E+00  .180E+00  .835E-01  .639E-01  .612E-01
  .102E+00  .570E-01  .584E-01  .558E-01  .638E-01  .986E-01  .767E-01  .742E-01
  .775E-01  .804E-01  .751E-01  .730E-01  .870E-01  .862E-01  .687E-01  .593E-01
  .000E+00  .000E+00  .000E+00  .000E+00  .000E+00  .000E+00  .000E+00  .000E+00
  .000E+00  .000E+00  .000E+00  .000E+00  .000E+00  .000E+00  .000E+00  .000E+00
  .000E+00  .000E+00  .000E+00  .000E+00
  .434E-01  .403E-01  .370E-01  .443E-01  .400E-01  .297E-01  .685E-01  .117E+00
  .207E+00  .128E+00  .146E+00  .272E+00  .172E+00  .152E+00  .219E+00  .516E+00
  .584E+00  .411E+00  .209E+00  .259E+00  .434E+00  .355E+00  .647E+00  .638E+00
  .600E+00  .331E+00  .485E+00  .708E+00  .373E+00  .864E+00  .734E+00  .584E+00
  .589E+00  .536E+00  .650E+00  .950E+00  .564E+00  .148E+01  .161E+01  .928E+00
  .123E+01  .780E+00  .921E+00  .186E+01  .213E+01  .724E+00  .102E+01  .131E+01
  .979E+00  .104E+01  .103E+01  .114E+01  .679E+00  .485E+00  .437E+00  .524E+00
  .744E+00  .578E+00  .539E+00  .512E+00  .582E+00  .425E+00  .348E+00  .305E+00
  .303E+00  .296E+00  .277E+00  .266E+00  .259E+00  .248E+00  .244E+00  .244E+00
  .248E+00  .254E+00  .257E+00  .260E+00  .267E+00  .266E+00  .267E+00  .266E+00
  .000E+00  .000E+00  .000E+00  .000E+00  .000E+00  .000E+00  .000E+00  .000E+00
  .000E+00  .000E+00  .000E+00  .000E+00  .000E+00  .000E+00  .000E+00  .000E+00
  .000E+00  .000E+00  .000E+00  .000E+00
  .210E-01  .197E-01  .154E-01  .191E-01  .143E-01  .112E-01  .234E-01  .326E-01
  .548E-01  .325E-01  .321E-01  .558E-01  .360E-01  .291E-01  .399E-01  .842E-01
  .862E-01  .571E-01  .288E-01  .307E-01  .485E-01  .361E-01  .640E-01  .590E-01
  .522E-01  .275E-01  .359E-01  .483E-01  .245E-01  .509E-01  .395E-01  .316E-01
  .283E-01  .269E-01  .278E-01  .392E-01  .237E-01  .551E-01  .564E-01  .320E-01
  .402E-01  .233E-01  .261E-01  .457E-01  .494E-01  .157E-01  .199E-01  .250E-01
  .160E-01  .159E-01  .163E-01  .167E-01  .784E-02  .532E-02  .448E-02  .464E-02
  .754E-02  .434E-02  .485E-02  .436E-02  .461E-02  .177E-02  .113E-02  .926E-03
  .134E-02  .647E-03  .583E-03  .493E-03  .504E-03  .699E-03  .490E-03  .430E-03
  .409E-03  .388E-03  .333E-03  .299E-03  .294E-03  .245E-03  .166E-03  .124E-03
  .000E+00  .000E+00  .000E+00  .000E+00  .000E+00  .000E+00  .000E+00  .000E+00
  .000E+00  .000E+00  .000E+00  .000E+00  .000E+00  .000E+00  .000E+00  .000E+00
  .000E+00  .000E+00  .000E+00  .000E+00
  .517E-01  .507E-01  .416E-01  .539E-01  .421E-01  .343E-01  .791E-01  .120E+00
  .219E+00  .140E+00  .148E+00  .274E+00  .188E+00  .161E+00  .233E+00  .517E+00
  .582E+00  .421E+00  .230E+00  .264E+00  .447E+00  .355E+00  .669E+00  .652E+00
  .609E+00  .338E+00  .485E+00  .712E+00  .391E+00  .875E+00  .728E+00  .620E+00
  .590E+00  .596E+00  .648E+00  .964E+00  .611E+00  .149E+01  .159E+01  .943E+00
  .123E+01  .789E+00  .961E+00  .183E+01  .213E+01  .724E+00  .978E+00  .131E+01
  .882E+00  .930E+00  .100E+01  .113E+01  .578E+00  .425E+00  .385E+00  .427E+00
  .742E+00  .454E+00  .537E+00  .509E+00  .566E+00  .239E+00  .167E+00  .148E+00
  .230E+00  .119E+00  .115E+00  .103E+00  .111E+00  .163E+00  .121E+00  .111E+00
  .111E+00  .110E+00  .983E-01  .917E-01  .994E-01  .903E-01  .664E-01  .532E-01
  .000E+00  .000E+00  .000E+00  .000E+00  .000E+00  .000E+00  .000E+00  .000E+00
  .000E+00  .000E+00  .000E+00  .000E+00  .000E+00  .000E+00  .000E+00  .000E+00
  .000E+00  .000E+00  .000E+00  .000E+00
  .282E+02  .255E+02  .325E+02  .255E+02  .321E+02  .251E+02  .285E+02  .351E+02
  .274E+02  .251E+02  .476E+02  .406E+02  .282E+02  .274E+02  .293E+02  .556E+02
  .513E+02  .322E+02  .281E+02  .428E+02  .337E+02  .315E+02  .328E+02  .279E+02
  .369E+02  .379E+02  .365E+02  .305E+02  .281E+02  .362E+02  .378E+02  .328E+02
  .381E+02  .285E+02  .366E+02  .348E+02  .284E+02  .331E+02  .320E+02  .445E+02
  .445E+02  .549E+02  .288E+02  .325E+02  .515E+02  .576E+02  .298E+02  .559E+02
  .281E+02  .278E+02  .299E+02  .352E+02  .289E+02  .261E+02  .255E+02  .288E+02
  .480E+02  .316E+02  .570E+02  .572E+02  .436E+02  .321E+02  .271E+02  .271E+02
  .563E+02  .251E+02  .251E+02  .251E+02  .603E+02  .559E+02  .413E+02  .401E+02
  .321E+02  .530E+02  .321E+02  .325E+02  .527E+02  .516E+02  .403E+02  .281E+02
  .000E+00  .000E+00  .000E+00  .000E+00  .000E+00  .000E+00  .000E+00  .000E+00
  .000E+00  .000E+00  .000E+00  .000E+00  .000E+00  .000E+00  .000E+00  .000E+00
  .000E+00  .000E+00  .000E+00  .000E+00
  .374E+02  .265E+02  .325E+02  .275E+02  .208E+02  .527E+02  .310E+02  .352E+02
  .280E+02  .256E+02  .476E+02  .406E+02  .282E+02  .213E+02  .293E+02  .559E+02
  .511E+02  .322E+02  .301E+02  .428E+02  .337E+02  .315E+02  .370E+02  .280E+02
  .370E+02  .518E+02  .367E+02  .305E+02  .286E+02  .465E+02  .275E+02  .314E+02
  .382E+02  .284E+02  .367E+02  .347E+02  .283E+02  .333E+02  .310E+02  .446E+02
  .441E+02  .548E+02  .290E+02  .327E+02  .513E+02  .559E+02  .324E+02  .557E+02
  .283E+02  .280E+02  .297E+02  .349E+02  .286E+02  .257E+02  .258E+02  .291E+02
  .484E+02  .286E+02  .566E+02  .567E+02  .431E+02  .273E+02  .273E+02  .254E+02
  .254E+02  .254E+02  .254E+02  .254E+02  .254E+02  .254E+02  .254E+02  .283E+02
  .273E+02  .273E+02  .273E+02  .273E+02  .273E+02  .273E+02  .273E+02  .273E+02
  .000E+00  .000E+00  .000E+00  .000E+00  .000E+00  .000E+00  .000E+00  .000E+00
  .000E+00  .000E+00  .000E+00  .000E+00  .000E+00  .000E+00  .000E+00  .000E+00
  .000E+00  .000E+00  .000E+00  .000E+00
  .282E+02  .255E+02  .325E+02  .255E+02  .321E+02  .251E+02  .285E+02  .351E+02
  .274E+02  .251E+02  .476E+02  .406E+02  .282E+02  .274E+02  .293E+02  .556E+02
  .513E+02  .322E+02  .281E+02  .428E+02  .337E+02  .315E+02  .328E+02  .279E+02
  .369E+02  .379E+02  .365E+02  .305E+02  .281E+02  .362E+02  .378E+02  .328E+02
  .381E+02  .285E+02  .366E+02  .348E+02  .284E+02  .331E+02  .320E+02  .445E+02
  .445E+02  .549E+02  .288E+02  .325E+02  .515E+02  .576E+02  .298E+02  .559E+02
  .281E+02  .278E+02  .299E+02  .352E+02  .289E+02  .261E+02  .255E+02  .288E+02
  .480E+02  .316E+02  .570E+02  .572E+02  .436E+02  .321E+02  .271E+02  .271E+02
  .563E+02  .251E+02  .251E+02  .251E+02  .603E+02  .559E+02  .413E+02  .401E+02
  .321E+02  .530E+02  .321E+02  .325E+02  .527E+02  .516E+02  .403E+02  .281E+02
  .000E+00  .000E+00  .000E+00  .000E+00  .000E+00  .000E+00  .000E+00  .000E+00
  .000E+00  .000E+00  .000E+00  .000E+00  .000E+00  .000E+00  .000E+00  .000E+00
  .000E+00  .000E+00  .000E+00  .000E+00
Damping =  .02. Data of Sd,Sv,Sa,Pssv,ttSd,ttSv,ttSa :
  .137E-03  .149E-03  .208E-03  .197E-03  .197E-03  .230E-03  .303E-03  .440E-03
  .732E-03  .689E-03  .660E-03  .107E-02  .117E-02  .181E-02  .235E-02  .274E-02
  .330E-02  .260E-02  .241E-02  .290E-02  .331E-02  .388E-02  .544E-02  .611E-02
  .726E-02  .745E-02  .755E-02  .121E-01  .105E-01  .124E-01  .154E-01  .170E-01
  .190E-01  .204E-01  .228E-01  .303E-01  .358E-01  .530E-01  .591E-01  .493E-01
  .455E-01  .434E-01  .757E-01  .118E+00  .133E+00  .809E-01  .966E-01  .951E-01
  .966E-01  .111E+00  .116E+00  .116E+00  .867E-01  .824E-01  .817E-01  .826E-01
  .959E-01  .918E-01  .108E+00  .110E+00  .104E+00  .686E-01  .593E-01  .570E-01
  .586E-01  .549E-01  .564E-01  .553E-01  .563E-01  .574E-01  .599E-01  .611E-01
  .680E-01  .706E-01  .677E-01  .650E-01  .670E-01  .645E-01  .616E-01  .576E-01
  .000E+00  .000E+00  .000E+00  .000E+00  .000E+00  .000E+00  .000E+00  .000E+00
  .000E+00  .000E+00  .000E+00  .000E+00  .000E+00  .000E+00  .000E+00  .000E+00
  .000E+00  .000E+00  .000E+00  .000E+00
  .112E-01  .145E-01  .187E-01  .202E-01  .166E-01  .225E-01  .239E-01  .342E-01
  .656E-01  .573E-01  .474E-01  .613E-01  .726E-01  .115E+00  .151E+00  .168E+00
  .181E+00  .118E+00  .912E-01  .107E+00  .138E+00  .127E+00  .203E+00  .195E+00
  .229E+00  .224E+00  .194E+00  .297E+00  .219E+00  .258E+00  .336E+00  .330E+00
  .286E+00  .318E+00  .344E+00  .444E+00  .479E+00  .716E+00  .766E+00  .607E+00
  .564E+00  .482E+00  .732E+00  .116E+01  .123E+01  .706E+00  .780E+00  .736E+00
  .753E+00  .819E+00  .773E+00  .774E+00  .534E+00  .466E+00  .406E+00  .427E+00
  .479E+00  .511E+00  .462E+00  .392E+00  .414E+00  .404E+00  .345E+00  .302E+00
  .298E+00  .291E+00  .276E+00  .265E+00  .258E+00  .249E+00  .244E+00  .240E+00
  .247E+00  .252E+00  .255E+00  .258E+00  .264E+00  .264E+00  .265E+00  .264E+00
  .000E+00  .000E+00  .000E+00  .000E+00  .000E+00  .000E+00  .000E+00  .000E+00
  .000E+00  .000E+00  .000E+00  .000E+00  .000E+00  .000E+00  .000E+00  .000E+00
  .000E+00  .000E+00  .000E+00  .000E+00
  .876E-02  .867E-02  .110E-01  .953E-02  .875E-02  .941E-02  .103E-01  .125E-01
  .179E-01  .144E-01  .120E-01  .171E-01  .165E-01  .229E-01  .267E-01  .280E-01
  .280E-01  .184E-01  .146E-01  .151E-01  .150E-01  .155E-01  .192E-01  .193E-01
  .206E-01  .190E-01  .159E-01  .214E-01  .159E-01  .162E-01  .175E-01  .170E-01
  .168E-01  .161E-01  .162E-01  .194E-01  .208E-01  .281E-01  .286E-01  .219E-01
  .187E-01  .147E-01  .215E-01  .286E-01  .278E-01  .147E-01  .155E-01  .135E-01
  .122E-01  .126E-01  .119E-01  .983E-02  .616E-02  .499E-02  .427E-02  .376E-02
  .383E-02  .325E-02  .342E-02  .312E-02  .266E-02  .145E-02  .106E-02  .866E-03
  .765E-03  .628E-03  .567E-03  .493E-03  .448E-03  .409E-03  .385E-03  .356E-03
  .360E-03  .343E-03  .303E-03  .269E-03  .228E-03  .184E-03  .152E-03  .123E-03
  .000E+00  .000E+00  .000E+00  .000E+00  .000E+00  .000E+00  .000E+00  .000E+00
  .000E+00  .000E+00  .000E+00  .000E+00  .000E+00  .000E+00  .000E+00  .000E+00
  .000E+00  .000E+00  .000E+00  .000E+00
  .215E-01  .224E-01  .297E-01  .270E-01  .258E-01  .289E-01  .346E-01  .461E-01
  .708E-01  .618E-01  .553E-01  .839E-01  .862E-01  .127E+00  .156E+00  .172E+00
  .189E+00  .136E+00  .117E+00  .130E+00  .138E+00  .152E+00  .201E+00  .213E+00
  .240E+00  .234E+00  .216E+00  .316E+00  .254E+00  .279E+00  .323E+00  .333E+00
  .352E+00  .356E+00  .377E+00  .476E+00  .535E+00  .757E+00  .807E+00  .645E+00
  .572E+00  .496E+00  .793E+00  .114E+01  .119E+01  .678E+00  .759E+00  .703E+00
  .675E+00  .734E+00  .729E+00  .664E+00  .454E+00  .398E+00  .366E+00  .346E+00
  .376E+00  .339E+00  .377E+00  .363E+00  .326E+00  .196E+00  .155E+00  .138E+00
  .131E+00  .115E+00  .111E+00  .102E+00  .983E-01  .949E-01  .941E-01  .914E-01
  .970E-01  .964E-01  .886E-01  .817E-01  .765E-01  .676E-01  .596E-01  .517E-01
  .000E+00  .000E+00  .000E+00  .000E+00  .000E+00  .000E+00  .000E+00  .000E+00
  .000E+00  .000E+00  .000E+00  .000E+00  .000E+00  .000E+00  .000E+00  .000E+00
  .000E+00  .000E+00  .000E+00  .000E+00
  .274E+02  .282E+02  .274E+02  .274E+02  .282E+02  .274E+02  .271E+02  .272E+02
  .261E+02  .261E+02  .285E+02  .274E+02  .274E+02  .275E+02  .277E+02  .279E+02
  .262E+02  .274E+02  .252E+02  .281E+02  .276E+02  .266E+02  .276E+02  .255E+02
  .255E+02  .255E+02  .280E+02  .282E+02  .256E+02  .256E+02  .268E+02  .310E+02
  .282E+02  .253E+02  .282E+02  .285E+02  .285E+02  .285E+02  .288E+02  .275E+02
  .352E+02  .275E+02  .288E+02  .306E+02  .298E+02  .298E+02  .298E+02  .296E+02
  .281E+02  .278E+02  .279E+02  .292E+02  .260E+02  .255E+02  .255E+02  .288E+02
  .289E+02  .283E+02  .284E+02  .285E+02  .285E+02  .277E+02  .271E+02  .271E+02
  .464E+02  .251E+02  .251E+02  .251E+02  .251E+02  .292E+02  .293E+02  .293E+02
  .321E+02  .321E+02  .321E+02  .304E+02  .414E+02  .400E+02  .281E+02  .281E+02
  .000E+00  .000E+00  .000E+00  .000E+00  .000E+00  .000E+00  .000E+00  .000E+00
  .000E+00  .000E+00  .000E+00  .000E+00  .000E+00  .000E+00  .000E+00  .000E+00
  .000E+00  .000E+00  .000E+00  .000E+00
  .224E+02  .224E+02  .274E+02  .275E+02  .179E+02  .275E+02  .179E+02  .275E+02
  .261E+02  .261E+02  .259E+02  .273E+02  .261E+02  .275E+02  .277E+02  .277E+02
  .261E+02  .273E+02  .276E+02  .256E+02  .276E+02  .266E+02  .275E+02  .275E+02
  .258E+02  .258E+02  .279E+02  .275E+02  .256E+02  .310E+02  .275E+02  .311E+02
  .283E+02  .253E+02  .341E+02  .330E+02  .284E+02  .286E+02  .308E+02  .276E+02
  .351E+02  .277E+02  .290E+02  .304E+02  .299E+02  .300E+02  .297E+02  .294E+02
  .283E+02  .280E+02  .280E+02  .294E+02  .286E+02  .257E+02  .258E+02  .291E+02
  .286E+02  .286E+02  .287E+02  .273E+02  .273E+02  .273E+02  .273E+02  .254E+02
  .254E+02  .254E+02  .254E+02  .254E+02  .254E+02  .254E+02  .254E+02  .254E+02
  .273E+02  .273E+02  .273E+02  .273E+02  .273E+02  .273E+02  .273E+02  .273E+02
  .000E+00  .000E+00  .000E+00  .000E+00  .000E+00  .000E+00  .000E+00  .000E+00
  .000E+00  .000E+00  .000E+00  .000E+00  .000E+00  .000E+00  .000E+00  .000E+00
  .000E+00  .000E+00  .000E+00  .000E+00
  .274E+02  .282E+02  .274E+02  .274E+02  .282E+02  .274E+02  .271E+02  .272E+02
  .261E+02  .261E+02  .285E+02  .274E+02  .274E+02  .275E+02  .277E+02  .279E+02
  .262E+02  .274E+02  .252E+02  .281E+02  .276E+02  .266E+02  .276E+02  .255E+02
  .255E+02  .255E+02  .280E+02  .282E+02  .256E+02  .256E+02  .268E+02  .310E+02
  .282E+02  .253E+02  .282E+02  .284E+02  .285E+02  .285E+02  .288E+02  .275E+02
  .352E+02  .275E+02  .288E+02  .306E+02  .298E+02  .298E+02  .298E+02  .296E+02
  .281E+02  .278E+02  .278E+02  .292E+02  .260E+02  .255E+02  .255E+02  .288E+02
  .289E+02  .283E+02  .284E+02  .284E+02  .285E+02  .277E+02  .271E+02  .271E+02
  .464E+02  .251E+02  .251E+02  .251E+02  .251E+02  .292E+02  .292E+02  .293E+02
  .321E+02  .321E+02  .321E+02  .304E+02  .304E+02  .400E+02  .281E+02  .281E+02
  .000E+00  .000E+00  .000E+00  .000E+00  .000E+00  .000E+00  .000E+00  .000E+00
  .000E+00  .000E+00  .000E+00  .000E+00  .000E+00  .000E+00  .000E+00  .000E+00
  .000E+00  .000E+00  .000E+00  .000E+00
Damping =  .05. Data of Sd,Sv,Sa,Pssv,ttSd,ttSv,ttSa :
  .124E-03  .142E-03  .163E-03  .169E-03  .176E-03  .197E-03  .260E-03  .361E-03
  .518E-03  .575E-03  .546E-03  .771E-03  .969E-03  .133E-02  .163E-02  .191E-02
  .225E-02  .189E-02  .214E-02  .246E-02  .274E-02  .301E-02  .376E-02  .474E-02
  .589E-02  .637E-02  .605E-02  .793E-02  .907E-02  .102E-01  .101E-01  .118E-01
  .151E-01  .158E-01  .188E-01  .241E-01  .291E-01  .348E-01  .379E-01  .384E-01
