Response and Fourier amplitude spectra (80 periods,  .04 -  7.0 sec)   for      
Corrected accelerogram   24207-M0150-08211.01       Chan 11:  Tang       from   
Uncorrected Accelerogram Data             Processed: 08/04/08, CDMG  CE24207D   
Record of Tue Jul 29, 2008 11:42:12.0 PDT             (Avol1 v7.9 7/08 CSMIP)   
CSMIP Preliminary Processing            (Origin:  To be determined)             
24207-M0150-08211.01                 Start time:  7/29/08, 18:42:12.0 UTC (GPS) 
Station No. 24207   34.334N, 118.396W    MtWtny  s/n  150 (17 Channels)         
Sylmar - Pacoima Dam                      CGS                                   
Chan 11:  Tang                      Location: Dam Base                          
Record of Tue Jul 29, 2008 11:42:12.0 PDT    Tue Jul 29, 2008 11:42:12.0 PDT    
Hypocenter:  To be determined.               ML:  To be determined.
Instr Period =  .0200 sec,  Damping =  .700,  Sensitivity =  .63  v/g  (Nominal)
                        Record length = 59.000 sec.
                                     Uncor Max  =   .005 g , at  27.135 sec.
RMS accel of (uncor) record  =        .   Chn. metadata effective date: 01/01/04
Accelerogram bandpass filtered with 3 dB pts at   .14 and 40.00 cyc/sec
                 instrument- and baseline-corrected





Record of Tue Jul 29, 2008 11:42:12.0 PDT    Tue Jul 29, 2008 11:42:12.0 PDT

24207-M0150-08211.01      Sylmar - Pacoima Dam    Chan 11:  Tang

24207-M0150-08211.01      Sylmar - Pacoima Dam    Chan 11:  Tang

Units for spectra are inches and sec, except Sa is in fraction of g.

   11  100   11   18   17  200    1    3    1   24   13  150    024207    5    0
   18   42   12    0  211    7   29 2008   10    3 100011800   41   20   76   -1
11800    1   50    3  150    1    1  590    2    0    0    0    0    0    0    0
    0    4    0    011800    1  220    1   18    4   76   20    1    1    011800
    311800   21   80    5   17    5    0    0    0   17    0    0    3    0    2
    2    2    4    0   68   99    0   32   32    0    1    1    0    0    0    0
    1    1   55    0
      .020      .700    59.000      .001      .000   625.000      .005    27.135
    50.000      .298      .477      .000     5.000      .000     4.000      .000
     2.500   -13.515     2.500  2016.000    25.000    30.000      .000     -.001
      .004      .005     2.000    15.000    34.334  -118.396      .012      .205
    17.048      .000      .000   594.000    25.500    28.800    12.700   119.840
     1.000    -1.203      .000      .000      .000      .000      .000      .000
     4.200     7.900     4.600   980.665      .005    59.000     7.958      .000
      .000    40.000      .000    59.000      .005      .143      .000      .000
    27.130     4.470    27.285      .532    27.110     -.108      .000      .143
    40.000      .005      .005      .000      .005      .020      .000      .000
      .018      .650      .007      .009      .008      .001      .000      .000
      .000      .000      .000      .000      .000      .000      .000      .000
      .000      .000      .000      .000
      .000      .020      .050      .100      .200
      .040      .042      .044      .046      .048      .050      .055      .060
      .065      .070      .075      .080      .085      .090      .095      .100
      .110      .120      .130      .140      .150      .160      .170      .180
      .190      .200      .220      .240      .260      .280      .300      .320
      .340      .360      .380      .400      .420      .440      .460      .480
      .500      .550      .600      .650      .700      .750      .800      .850
      .900      .950     1.000     1.100     1.200     1.300     1.400     1.500
     1.600     1.700     1.800     1.900     2.000     2.200     2.400     2.600
     2.800     3.000     3.200     3.400     3.600     3.800     4.000     4.200
     4.400     4.600     4.800     5.000     5.500     6.000     6.500     7.000
      .000      .000      .000      .000      .000      .000      .000      .000
      .000      .000      .000      .000      .000      .000      .000      .000
      .000      .000      .000      .000
Fourier amplitude spectra in in/sec.
  .130E-01  .120E-01  .263E-01  .223E-01  .212E-01  .295E-01  .295E-01  .434E-01
  .288E-01  .930E-02  .346E-01  .399E-01  .311E-01  .468E-01  .753E-01  .105E-01
  .615E-01  .150E+00  .557E-01  .561E-01  .791E-01  .108E+00  .120E+00  .629E-01
  .110E+00  .437E-01  .306E+00  .286E+00  .416E+00  .430E+00  .521E+00  .536E-01
  .303E+00  .179E+00  .216E+00  .267E+00  .183E+00  .363E+00  .765E+00  .425E+00
  .625E+00  .425E+00  .295E+00  .113E+01  .178E+01  .103E+01  .455E+00  .102E+01
  .753E+00  .460E+00  .418E+00  .772E+00  .401E+00  .144E+00  .393E+00  .176E+00
  .699E+00  .213E+00  .562E+00  .524E+00  .550E+00  .152E+00  .108E+00  .689E-01
  .228E+00  .112E+00  .193E-01  .238E-01  .116E+00  .160E+00  .917E-01  .574E-01
  .927E-01  .104E+00  .904E-01  .680E-01  .952E-01  .842E-01  .416E-01  .336E-01
  .000E+00  .000E+00  .000E+00  .000E+00  .000E+00  .000E+00  .000E+00  .000E+00
  .000E+00  .000E+00  .000E+00  .000E+00  .000E+00  .000E+00  .000E+00  .000E+00
  .000E+00  .000E+00  .000E+00  .000E+00
Damping =  .00. Data of Sd,Sv,Sa,Pssv,ttSd,ttSv,ttSa :
  .949E-04  .141E-03  .266E-03  .223E-03  .263E-03  .309E-03  .395E-03  .598E-03
  .640E-03  .469E-03  .573E-03  .672E-03  .107E-02  .125E-02  .159E-02  .829E-03
  .262E-02  .298E-02  .228E-02  .204E-02  .227E-02  .369E-02  .355E-02  .572E-02
  .509E-02  .482E-02  .134E-01  .141E-01  .173E-01  .238E-01  .288E-01  .193E-01
  .264E-01  .199E-01  .200E-01  .298E-01  .258E-01  .468E-01  .661E-01  .362E-01
  .527E-01  .460E-01  .838E-01  .148E+00  .214E+00  .126E+00  .758E-01  .140E+00
  .114E+00  .133E+00  .141E+00  .185E+00  .102E+00  .899E-01  .899E-01  .105E+00
  .192E+00  .133E+00  .165E+00  .163E+00  .201E+00  .879E-01  .656E-01  .626E-01
  .103E+00  .556E-01  .573E-01  .558E-01  .664E-01  .989E-01  .816E-01  .763E-01
  .780E-01  .821E-01  .783E-01  .740E-01  .867E-01  .825E-01  .644E-01  .567E-01
  .000E+00  .000E+00  .000E+00  .000E+00  .000E+00  .000E+00  .000E+00  .000E+00
  .000E+00  .000E+00  .000E+00  .000E+00  .000E+00  .000E+00  .000E+00  .000E+00
  .000E+00  .000E+00  .000E+00  .000E+00
  .132E-01  .165E-01  .295E-01  .236E-01  .248E-01  .332E-01  .371E-01  .507E-01
  .473E-01  .283E-01  .403E-01  .492E-01  .685E-01  .733E-01  .877E-01  .419E-01
  .124E+00  .153E+00  .906E-01  .714E-01  .887E-01  .131E+00  .130E+00  .191E+00
  .154E+00  .134E+00  .382E+00  .322E+00  .416E+00  .521E+00  .597E+00  .307E+00
  .473E+00  .328E+00  .298E+00  .453E+00  .366E+00  .660E+00  .895E+00  .464E+00
  .656E+00  .519E+00  .833E+00  .146E+01  .191E+01  .106E+01  .608E+00  .103E+01
  .853E+00  .981E+00  .882E+00  .107E+01  .597E+00  .480E+00  .420E+00  .534E+00
  .758E+00  .572E+00  .586E+00  .551E+00  .648E+00  .409E+00  .337E+00  .284E+00
  .258E+00  .249E+00  .233E+00  .218E+00  .210E+00  .203E+00  .208E+00  .215E+00
  .222E+00  .229E+00  .234E+00  .237E+00  .242E+00  .242E+00  .240E+00  .238E+00
  .000E+00  .000E+00  .000E+00  .000E+00  .000E+00  .000E+00  .000E+00  .000E+00
  .000E+00  .000E+00  .000E+00  .000E+00  .000E+00  .000E+00  .000E+00  .000E+00
  .000E+00  .000E+00  .000E+00  .000E+00
  .606E-02  .818E-02  .140E-01  .108E-01  .117E-01  .126E-01  .133E-01  .170E-01
  .155E-01  .980E-02  .104E-01  .107E-01  .151E-01  .158E-01  .180E-01  .848E-02
  .221E-01  .212E-01  .138E-01  .106E-01  .103E-01  .148E-01  .126E-01  .181E-01
  .144E-01  .123E-01  .284E-01  .250E-01  .262E-01  .311E-01  .328E-01  .192E-01
  .234E-01  .157E-01  .141E-01  .191E-01  .149E-01  .247E-01  .319E-01  .161E-01
  .215E-01  .155E-01  .238E-01  .359E-01  .446E-01  .230E-01  .121E-01  .198E-01
  .144E-01  .151E-01  .144E-01  .156E-01  .727E-02  .544E-02  .469E-02  .477E-02
  .768E-02  .469E-02  .522E-02  .462E-02  .514E-02  .186E-02  .117E-02  .947E-03
  .135E-02  .632E-03  .572E-03  .493E-03  .524E-03  .701E-03  .522E-03  .443E-03
  .412E-03  .397E-03  .348E-03  .303E-03  .293E-03  .234E-03  .156E-03  .118E-03
  .000E+00  .000E+00  .000E+00  .000E+00  .000E+00  .000E+00  .000E+00  .000E+00
  .000E+00  .000E+00  .000E+00  .000E+00  .000E+00  .000E+00  .000E+00  .000E+00
  .000E+00  .000E+00  .000E+00  .000E+00
  .149E-01  .211E-01  .379E-01  .304E-01  .344E-01  .388E-01  .451E-01  .626E-01
  .618E-01  .421E-01  .480E-01  .528E-01  .787E-01  .871E-01  .105E+00  .521E-01
  .150E+00  .156E+00  .110E+00  .915E-01  .951E-01  .145E+00  .131E+00  .200E+00
  .168E+00  .151E+00  .384E+00  .369E+00  .418E+00  .535E+00  .604E+00  .378E+00
  .488E+00  .347E+00  .330E+00  .469E+00  .386E+00  .669E+00  .903E+00  .474E+00
  .662E+00  .525E+00  .877E+00  .143E+01  .192E+01  .106E+01  .595E+00  .104E+01
  .796E+00  .879E+00  .885E+00  .106E+01  .536E+00  .434E+00  .403E+00  .439E+00
  .755E+00  .490E+00  .577E+00  .540E+00  .632E+00  .251E+00  .172E+00  .151E+00
  .232E+00  .116E+00  .112E+00  .103E+00  .116E+00  .164E+00  .128E+00  .114E+00
  .111E+00  .112E+00  .103E+00  .930E-01  .990E-01  .864E-01  .622E-01  .509E-01
  .000E+00  .000E+00  .000E+00  .000E+00  .000E+00  .000E+00  .000E+00  .000E+00
  .000E+00  .000E+00  .000E+00  .000E+00  .000E+00  .000E+00  .000E+00  .000E+00
  .000E+00  .000E+00  .000E+00  .000E+00
  .380E+02  .282E+02  .285E+02  .285E+02  .285E+02  .296E+02  .281E+02  .282E+02
  .271E+02  .251E+02  .307E+02  .312E+02  .251E+02  .282E+02  .272E+02  .282E+02
  .272E+02  .494E+02  .275E+02  .279E+02  .309E+02  .271E+02  .473E+02  .278E+02
  .281E+02  .279E+02  .364E+02  .271E+02  .578E+02  .309E+02  .329E+02  .271E+02
  .293E+02  .268E+02  .271E+02  .348E+02  .284E+02  .331E+02  .320E+02  .351E+02
  .552E+02  .411E+02  .288E+02  .325E+02  .476E+02  .558E+02  .323E+02  .559E+02
  .281E+02  .278E+02  .279E+02  .352E+02  .289E+02  .268E+02  .563E+02  .294E+02
  .480E+02  .316E+02  .570E+02  .562E+02  .436E+02  .341E+02  .271E+02  .271E+02
  .562E+02  .251E+02  .251E+02  .251E+02  .603E+02  .578E+02  .413E+02  .401E+02
  .320E+02  .552E+02  .321E+02  .349E+02  .413E+02  .516E+02  .403E+02  .281E+02
  .000E+00  .000E+00  .000E+00  .000E+00  .000E+00  .000E+00  .000E+00  .000E+00
  .000E+00  .000E+00  .000E+00  .000E+00  .000E+00  .000E+00  .000E+00  .000E+00
  .000E+00  .000E+00  .000E+00  .000E+00
  .362E+02  .265E+02  .290E+02  .406E+02  .285E+02  .297E+02  .280E+02  .283E+02
  .320E+02  .256E+02  .308E+02  .313E+02  .250E+02  .282E+02  .270E+02  .277E+02
  .272E+02  .457E+02  .275E+02  .279E+02  .308E+02  .273E+02  .473E+02  .278E+02
  .300E+02  .278E+02  .365E+02  .270E+02  .583E+02  .310E+02  .330E+02  .272E+02
  .301E+02  .267E+02  .377E+02  .347E+02  .283E+02  .333E+02  .319E+02  .352E+02
  .554E+02  .421E+02  .290E+02  .327E+02  .478E+02  .560E+02  .267E+02  .557E+02
  .283E+02  .280E+02  .276E+02  .349E+02  .291E+02  .258E+02  .258E+02  .291E+02
  .484E+02  .286E+02  .566E+02  .567E+02  .431E+02  .273E+02  .273E+02  .273E+02
  .254E+02  .254E+02  .254E+02  .254E+02  .254E+02  .254E+02  .273E+02  .273E+02
  .273E+02  .273E+02  .273E+02  .273E+02  .273E+02  .273E+02  .273E+02  .273E+02
  .000E+00  .000E+00  .000E+00  .000E+00  .000E+00  .000E+00  .000E+00  .000E+00
  .000E+00  .000E+00  .000E+00  .000E+00  .000E+00  .000E+00  .000E+00  .000E+00
  .000E+00  .000E+00  .000E+00  .000E+00
  .380E+02  .282E+02  .285E+02  .285E+02  .285E+02  .296E+02  .281E+02  .282E+02
  .271E+02  .251E+02  .307E+02  .312E+02  .251E+02  .282E+02  .272E+02  .282E+02
  .272E+02  .494E+02  .275E+02  .279E+02  .309E+02  .271E+02  .473E+02  .278E+02
  .281E+02  .279E+02  .364E+02  .271E+02  .578E+02  .309E+02  .329E+02  .271E+02
  .293E+02  .268E+02  .271E+02  .348E+02  .284E+02  .331E+02  .320E+02  .351E+02
  .552E+02  .411E+02  .288E+02  .325E+02  .476E+02  .558E+02  .323E+02  .559E+02
  .281E+02  .278E+02  .279E+02  .352E+02  .289E+02  .268E+02  .563E+02  .294E+02
  .480E+02  .316E+02  .570E+02  .562E+02  .436E+02  .341E+02  .271E+02  .271E+02
  .562E+02  .251E+02  .251E+02  .251E+02  .603E+02  .578E+02  .413E+02  .401E+02
  .320E+02  .552E+02  .321E+02  .349E+02  .413E+02  .516E+02  .403E+02  .281E+02
  .000E+00  .000E+00  .000E+00  .000E+00  .000E+00  .000E+00  .000E+00  .000E+00
  .000E+00  .000E+00  .000E+00  .000E+00  .000E+00  .000E+00  .000E+00  .000E+00
  .000E+00  .000E+00  .000E+00  .000E+00
Damping =  .02. Data of Sd,Sv,Sa,Pssv,ttSd,ttSv,ttSa :
  .765E-04  .907E-04  .102E-03  .117E-03  .140E-03  .147E-03  .194E-03  .189E-03
  .261E-03  .267E-03  .348E-03  .438E-03  .567E-03  .596E-03  .656E-03  .635E-03
  .101E-02  .126E-02  .126E-02  .159E-02  .210E-02  .267E-02  .270E-02  .280E-02
  .249E-02  .324E-02  .628E-02  .723E-02  .724E-02  .106E-01  .105E-01  .105E-01
  .140E-01  .127E-01  .149E-01  .190E-01  .214E-01  .281E-01  .328E-01  .327E-01
  .311E-01  .401E-01  .655E-01  .104E+00  .124E+00  .829E-01  .675E-01  .801E-01
  .891E-01  .107E+00  .114E+00  .102E+00  .831E-01  .781E-01  .760E-01  .831E-01
  .103E+00  .103E+00  .108E+00  .112E+00  .108E+00  .757E-01  .605E-01  .586E-01
  .610E-01  .537E-01  .553E-01  .547E-01  .543E-01  .580E-01  .614E-01  .594E-01
  .690E-01  .725E-01  .700E-01  .634E-01  .684E-01  .622E-01  .587E-01  .554E-01
  .000E+00  .000E+00  .000E+00  .000E+00  .000E+00  .000E+00  .000E+00  .000E+00
  .000E+00  .000E+00  .000E+00  .000E+00  .000E+00  .000E+00  .000E+00  .000E+00
  .000E+00  .000E+00  .000E+00  .000E+00
  .357E-02  .477E-02  .531E-02  .557E-02  .576E-02  .631E-02  .935E-02  .120E-01
  .178E-01  .180E-01  .189E-01  .239E-01  .243E-01  .311E-01  .314E-01  .273E-01
  .355E-01  .421E-01  .419E-01  .443E-01  .724E-01  .912E-01  .836E-01  .879E-01
  .705E-01  .910E-01  .153E+00  .147E+00  .168E+00  .188E+00  .209E+00  .193E+00
  .224E+00  .215E+00  .212E+00  .288E+00  .309E+00  .382E+00  .420E+00  .397E+00
  .362E+00  .427E+00  .667E+00  .996E+00  .111E+01  .706E+00  .547E+00  .632E+00
  .657E+00  .786E+00  .735E+00  .637E+00  .491E+00  .447E+00  .395E+00  .432E+00
  .453E+00  .502E+00  .457E+00  .390E+00  .405E+00  .389E+00  .331E+00  .283E+00
  .254E+00  .245E+00  .231E+00  .219E+00  .211E+00  .204E+00  .209E+00  .215E+00
  .222E+00  .227E+00  .232E+00  .235E+00  .240E+00  .240E+00  .239E+00  .237E+00
  .000E+00  .000E+00  .000E+00  .000E+00  .000E+00  .000E+00  .000E+00  .000E+00
  .000E+00  .000E+00  .000E+00  .000E+00  .000E+00  .000E+00  .000E+00  .000E+00
  .000E+00  .000E+00  .000E+00  .000E+00
  .489E-02  .526E-02  .541E-02  .567E-02  .620E-02  .603E-02  .655E-02  .538E-02
  .631E-02  .559E-02  .633E-02  .699E-02  .803E-02  .753E-02  .745E-02  .648E-02
  .852E-02  .890E-02  .762E-02  .831E-02  .954E-02  .107E-01  .956E-02  .886E-02
  .706E-02  .829E-02  .133E-01  .128E-01  .110E-01  .139E-01  .119E-01  .105E-01
  .124E-01  .100E-01  .105E-01  .121E-01  .124E-01  .149E-01  .159E-01  .145E-01
  .127E-01  .136E-01  .186E-01  .253E-01  .259E-01  .151E-01  .108E-01  .113E-01
  .113E-01  .121E-01  .117E-01  .860E-02  .590E-02  .473E-02  .397E-02  .378E-02
  .412E-02  .366E-02  .343E-02  .319E-02  .278E-02  .160E-02  .108E-02  .889E-03
  .797E-03  .614E-03  .557E-03  .488E-03  .433E-03  .411E-03  .393E-03  .347E-03
  .365E-03  .352E-03  .312E-03  .261E-03  .232E-03  .177E-03  .144E-03  .118E-03
  .000E+00  .000E+00  .000E+00  .000E+00  .000E+00  .000E+00  .000E+00  .000E+00
  .000E+00  .000E+00  .000E+00  .000E+00  .000E+00  .000E+00  .000E+00  .000E+00
  .000E+00  .000E+00  .000E+00  .000E+00
  .120E-01  .136E-01  .146E-01  .160E-01  .183E-01  .185E-01  .222E-01  .198E-01
  .252E-01  .240E-01  .292E-01  .344E-01  .419E-01  .416E-01  .434E-01  .399E-01
  .576E-01  .658E-01  .609E-01  .715E-01  .880E-01  .105E+00  .999E-01  .978E-01
  .823E-01  .102E+00  .179E+00  .189E+00  .175E+00  .239E+00  .219E+00  .206E+00
  .258E+00  .222E+00  .246E+00  .298E+00  .321E+00  .401E+00  .448E+00  .428E+00
  .391E+00  .459E+00  .686E+00  .101E+01  .111E+01  .694E+00  .530E+00  .592E+00
  .622E+00  .708E+00  .716E+00  .581E+00  .435E+00  .378E+00  .341E+00  .348E+00
  .405E+00  .381E+00  .378E+00  .372E+00  .341E+00  .216E+00  .158E+00  .142E+00
  .137E+00  .113E+00  .109E+00  .101E+00  .949E-01  .959E-01  .965E-01  .889E-01
  .985E-01  .990E-01  .916E-01  .796E-01  .782E-01  .652E-01  .567E-01  .497E-01
  .000E+00  .000E+00  .000E+00  .000E+00  .000E+00  .000E+00  .000E+00  .000E+00
  .000E+00  .000E+00  .000E+00  .000E+00  .000E+00  .000E+00  .000E+00  .000E+00
  .000E+00  .000E+00  .000E+00  .000E+00
  .271E+02  .271E+02  .251E+02  .251E+02  .271E+02  .271E+02  .271E+02  .271E+02
  .271E+02  .271E+02  .282E+02  .282E+02  .271E+02  .274E+02  .251E+02  .269E+02
  .251E+02  .251E+02  .275E+02  .251E+02  .253E+02  .253E+02  .285E+02  .285E+02
  .254E+02  .279E+02  .293E+02  .271E+02  .281E+02  .271E+02  .309E+02  .252E+02
  .293E+02  .252E+02  .282E+02  .282E+02  .284E+02  .285E+02  .274E+02  .275E+02
  .275E+02  .275E+02  .288E+02  .289E+02  .298E+02  .299E+02  .299E+02  .296E+02
  .281E+02  .278E+02  .278E+02  .330E+02  .260E+02  .261E+02  .255E+02  .279E+02
  .289E+02  .290E+02  .284E+02  .285E+02  .285E+02  .286E+02  .271E+02  .271E+02
  .464E+02  .251E+02  .251E+02  .251E+02  .251E+02  .521E+02  .412E+02  .293E+02
  .320E+02  .321E+02  .321E+02  .304E+02  .412E+02  .400E+02  .281E+02  .281E+02
  .000E+00  .000E+00  .000E+00  .000E+00  .000E+00  .000E+00  .000E+00  .000E+00
  .000E+00  .000E+00  .000E+00  .000E+00  .000E+00  .000E+00  .000E+00  .000E+00
  .000E+00  .000E+00  .000E+00  .000E+00
  .266E+02  .263E+02  .270E+02  .267E+02  .271E+02  .260E+02  .261E+02  .258E+02
  .261E+02  .262E+02  .280E+02  .280E+02  .262E+02  .274E+02  .275E+02  .275E+02
  .257E+02  .259E+02  .275E+02  .279E+02  .253E+02  .254E+02  .283E+02  .278E+02
  .278E+02  .276E+02  .292E+02  .270E+02  .260E+02  .270E+02  .316E+02  .314E+02
  .294E+02  .313E+02  .283E+02  .283E+02  .283E+02  .295E+02  .310E+02  .274E+02
  .274E+02  .274E+02  .287E+02  .288E+02  .299E+02  .297E+02  .297E+02  .294E+02
  .283E+02  .280E+02  .276E+02  .294E+02  .269E+02  .258E+02  .258E+02  .291E+02
  .286E+02  .286E+02  .287E+02  .308E+02  .273E+02  .273E+02  .273E+02  .273E+02
  .254E+02  .254E+02  .254E+02  .254E+02  .254E+02  .254E+02  .273E+02  .273E+02
  .273E+02  .273E+02  .273E+02  .273E+02  .273E+02  .273E+02  .273E+02  .273E+02
  .000E+00  .000E+00  .000E+00  .000E+00  .000E+00  .000E+00  .000E+00  .000E+00
  .000E+00  .000E+00  .000E+00  .000E+00  .000E+00  .000E+00  .000E+00  .000E+00
  .000E+00  .000E+00  .000E+00  .000E+00
  .271E+02  .271E+02  .251E+02  .251E+02  .271E+02  .271E+02  .271E+02  .271E+02
  .271E+02  .271E+02  .282E+02  .282E+02  .271E+02  .274E+02  .251E+02  .269E+02
  .251E+02  .251E+02  .275E+02  .251E+02  .253E+02  .253E+02  .285E+02  .285E+02
  .254E+02  .279E+02  .293E+02  .271E+02  .281E+02  .271E+02  .309E+02  .252E+02
  .293E+02  .252E+02  .282E+02  .282E+02  .284E+02  .285E+02  .274E+02  .275E+02
  .275E+02  .275E+02  .288E+02  .289E+02  .298E+02  .299E+02  .299E+02  .296E+02
  .281E+02  .278E+02  .278E+02  .330E+02  .260E+02  .261E+02  .255E+02  .279E+02
  .289E+02  .290E+02  .284E+02  .285E+02  .285E+02  .286E+02  .270E+02  .271E+02
  .464E+02  .251E+02  .251E+02  .251E+02  .251E+02  .521E+02  .412E+02  .293E+02
  .320E+02  .321E+02  .321E+02  .304E+02  .412E+02  .400E+02  .281E+02  .281E+02
  .000E+00  .000E+00  .000E+00  .000E+00  .000E+00  .000E+00  .000E+00  .000E+00
  .000E+00  .000E+00  .000E+00  .000E+00  .000E+00  .000E+00  .000E+00  .000E+00
  .000E+00  .000E+00  .000E+00  .000E+00
Damping =  .05. Data of Sd,Sv,Sa,Pssv,ttSd,ttSv,ttSa :
  .769E-04  .843E-04  .969E-04  .109E-03  .122E-03  .134E-03  .166E-03  .189E-03
  .227E-03  .247E-03  .276E-03  .335E-03  .431E-03  .488E-03  .564E-03  .613E-03
  .888E-03  .109E-02  .116E-02  .147E-02  .178E-02  .210E-02  .218E-02  .218E-02
  .223E-02  .284E-02  .382E-02  .497E-02  .513E-02  .743E-02  .835E-02  .854E-02
  .922E-02  .103E-01  .125E-01  .154E-01  .172E-01  .205E-01  .253E-01  .273E-01
