Response and Fourier amplitude spectra (68 periods,  .04 -  3.4 sec)   for      
Corrected accelerogram   24207-M0150-11244.01       Chan  9:  Radl       from   
Uncorrected Accelerogram Data             Processed: 03/04/14, CGS  jh001       
Rcrd of Thu Sep  1, 2011 13:46:46.0 PDT               (Avol1 v0.5, 2/14 CSMIP)  
CSMIP Preliminary Processing            (Origin:  To be determined)             
24207-M0150-11244.01                 Start time:  9/01/11, 20:46:46.0 UTC (GPS) 
Station No. 24207   34.335N, 118.397W    MtWtny  s/n  150 (17 Chns of 17 at Sta)
Sylmar - Pacoima Dam                      CGS   Data: Acceleration              
Chan  9:  Radl                      Location: Dam Base                          
Rcrd of Thu Sep  1, 2011 13:46:46.0 PDT    Thu Sep  1, 2011 13:46:46.0 PDT      
Hypocenter:  To be determined.               ML:  To be determined.
Instr Period =  .0105 sec,  Damping =  .640,  Sensitivity =  .63 v/g
                        Record length = 58.000 sec.
                                     Uncor Max  =   .003 g , at  26.120 sec.
RMS accel of (uncor) record  =        .   Chn. metadata effective date: 09/02/99
Accelerogram bandpass filtered with 3 dB pts at   .30 and 40.00 cyc/sec
                 instrument- and baseline-corrected





Rcrd of Thu Sep  1, 2011 13:46:46.0 PDT    Thu Sep  1, 2011 13:46:46.0 PDT

24207-M0150-11244.01      Sylmar - Pacoima Dam    Chan  9:  Radl

24207-M0150-11244.01      Sylmar - Pacoima Dam    Chan  9:  Radl

Units for spectra are inches and sec, except Sa is in fraction of g.

    9  100    9   18   17  200    1    3    1   24   13  150    024207    5    0
   20   46   46    0  244    9    1 2011   10    3  70011600   39   20   74   -1
11600    1  100    3  150    1    1  580    2    0    0    0    0    0    0    0
    0    0    3    011600    1  222    1   18    4    0    0    3    1    011600
    311600    4   68    5   17    5    0    0    0    0    0    1    3    1    2
    2    2    4    0   68   99    0   10    0    0    0    1    0    0   68  222
    1    0    6    0
      .011      .640    58.000      .000      .000   626.000      .003    26.120
    95.100      .298      .476      .000     5.000  -999.000     4.000      .000
     2.500   -23.086     2.500  2016.000    25.000    30.000  -999.000     -.005
      .004      .009     2.000    15.000    34.335  -118.397      .027      .024
      .915      .005      .013   594.000    25.800    27.800    12.800   118.940
     1.000     1.130      .000  -999.000  -999.000  -999.000  -999.000      .000
      .100      .500     6.300   980.665      .005    58.000    15.136      .000
      .000    40.000      .000    58.000      .005      .303      .000      .000
    26.115     3.147    25.915      .095    25.745     -.010      .000      .303
    40.000      .005      .005      .000      .005      .002      .000      .000
      .015      .055      .006      .004      .001      .000      .000      .000
      .000      .000      .000      .000      .000      .000      .000      .000
      .000      .000      .000      .000
      .000      .020      .050      .100      .200
      .040      .042      .044      .046      .048      .050      .055      .060
      .065      .070      .075      .080      .085      .090      .095      .100
      .110      .120      .130      .140      .150      .160      .170      .180
      .190      .200      .220      .240      .260      .280      .300      .320
      .340      .360      .380      .400      .420      .440      .460      .480
      .500      .550      .600      .650      .700      .750      .800      .850
      .900      .950     1.000     1.100     1.200     1.300     1.400     1.500
     1.600     1.700     1.800     1.900     2.000     2.200     2.400     2.600
     2.800     3.000     3.200     3.400      .000      .000      .000      .000
      .000      .000      .000      .000      .000      .000      .000      .000
      .000      .000      .000      .000      .000      .000      .000      .000
      .000      .000      .000      .000      .000      .000      .000      .000
      .000      .000      .000      .000
Fourier amplitude spectra in in/sec.
  .155E-01  .257E-01  .110E-01  .237E-01  .329E-01  .132E+00  .158E+00  .618E-01
  .341E-01  .469E-01  .141E+00  .299E-01  .262E-01  .149E+00  .112E+00  .425E-01
  .483E-01  .107E+00  .700E-01  .632E-01  .742E-01  .861E-01  .114E+00  .158E+00
  .147E+00  .131E+00  .609E-01  .887E-01  .195E+00  .154E+00  .123E+00  .204E+00
  .634E-01  .123E-01  .421E-01  .137E+00  .643E-01  .137E+00  .863E-01  .722E-01
  .373E-01  .121E+00  .881E-02  .121E+00  .352E-01  .955E-01  .432E-01  .119E+00
  .845E-01  .464E-01  .399E-01  .470E-02  .629E-01  .668E-01  .527E-01  .415E-01
  .552E-01  .482E-01  .292E-01  .288E-01  .182E-01  .254E-01  .248E-01  .137E-01
  .859E-02  .601E-02  .216E-02  .277E-02  .000E+00  .000E+00  .000E+00  .000E+00
  .000E+00  .000E+00  .000E+00  .000E+00  .000E+00  .000E+00  .000E+00  .000E+00
  .000E+00  .000E+00  .000E+00  .000E+00  .000E+00  .000E+00  .000E+00  .000E+00
  .000E+00  .000E+00  .000E+00  .000E+00  .000E+00  .000E+00  .000E+00  .000E+00
  .000E+00  .000E+00  .000E+00  .000E+00
Damping =  .00. Data of Sd,Sv,Sa,Pssv,ttSd,ttSv,ttSa :
  .142E-03  .255E-03  .164E-03  .391E-03  .329E-03  .108E-02  .138E-02  .704E-03
  .541E-03  .899E-03  .194E-02  .143E-02  .111E-02  .254E-02  .173E-02  .988E-03
  .880E-03  .226E-02  .179E-02  .158E-02  .214E-02  .253E-02  .352E-02  .500E-02
  .518E-02  .466E-02  .319E-02  .453E-02  .872E-02  .724E-02  .713E-02  .104E-01
  .504E-02  .296E-02  .423E-02  .102E-01  .605E-02  .961E-02  .791E-02  .742E-02
  .622E-02  .110E-01  .783E-02  .137E-01  .703E-02  .118E-01  .118E-01  .164E-01
  .136E-01  .110E-01  .781E-02  .751E-02  .165E-01  .150E-01  .131E-01  .135E-01
  .142E-01  .131E-01  .119E-01  .100E-01  .101E-01  .889E-02  .948E-02  .663E-02
  .640E-02  .615E-02  .529E-02  .457E-02  .000E+00  .000E+00  .000E+00  .000E+00
  .000E+00  .000E+00  .000E+00  .000E+00  .000E+00  .000E+00  .000E+00  .000E+00
  .000E+00  .000E+00  .000E+00  .000E+00  .000E+00  .000E+00  .000E+00  .000E+00
  .000E+00  .000E+00  .000E+00  .000E+00  .000E+00  .000E+00  .000E+00  .000E+00
  .000E+00  .000E+00  .000E+00  .000E+00
  .192E-01  .359E-01  .191E-01  .488E-01  .420E-01  .130E+00  .157E+00  .746E-01
  .489E-01  .748E-01  .157E+00  .111E+00  .806E-01  .174E+00  .114E+00  .622E-01
  .497E-01  .118E+00  .849E-01  .708E-01  .962E-01  .978E-01  .132E+00  .172E+00
  .177E+00  .142E+00  .908E-01  .124E+00  .211E+00  .163E+00  .149E+00  .205E+00
  .973E-01  .658E-01  .656E-01  .161E+00  .898E-01  .137E+00  .109E+00  .969E-01
  .786E-01  .125E+00  .817E-01  .131E+00  .833E-01  .994E-01  .986E-01  .121E+00
  .951E-01  .774E-01  .598E-01  .574E-01  .879E-01  .776E-01  .685E-01  .526E-01
  .571E-01  .599E-01  .567E-01  .506E-01  .503E-01  .493E-01  .462E-01  .467E-01
  .444E-01  .457E-01  .426E-01  .413E-01  .000E+00  .000E+00  .000E+00  .000E+00
  .000E+00  .000E+00  .000E+00  .000E+00  .000E+00  .000E+00  .000E+00  .000E+00
  .000E+00  .000E+00  .000E+00  .000E+00  .000E+00  .000E+00  .000E+00  .000E+00
  .000E+00  .000E+00  .000E+00  .000E+00  .000E+00  .000E+00  .000E+00  .000E+00
  .000E+00  .000E+00  .000E+00  .000E+00
  .911E-02  .148E-01  .864E-02  .189E-01  .146E-01  .442E-01  .465E-01  .200E-01
  .131E-01  .188E-01  .352E-01  .228E-01  .158E-01  .320E-01  .196E-01  .101E-01
  .744E-02  .160E-01  .108E-01  .823E-02  .973E-02  .101E-01  .125E-01  .158E-01
  .147E-01  .119E-01  .675E-02  .804E-02  .132E-01  .945E-02  .810E-02  .104E-01
  .446E-02  .234E-02  .299E-02  .651E-02  .351E-02  .507E-02  .382E-02  .329E-02
  .255E-02  .370E-02  .222E-02  .330E-02  .147E-02  .215E-02  .189E-02  .232E-02
  .172E-02  .125E-02  .799E-03  .634E-03  .117E-02  .909E-03  .685E-03  .613E-03
  .565E-03  .463E-03  .377E-03  .284E-03  .258E-03  .188E-03  .168E-03  .100E-03
  .835E-04  .699E-04  .528E-04  .404E-04  .000E+00  .000E+00  .000E+00  .000E+00
  .000E+00  .000E+00  .000E+00  .000E+00  .000E+00  .000E+00  .000E+00  .000E+00
  .000E+00  .000E+00  .000E+00  .000E+00  .000E+00  .000E+00  .000E+00  .000E+00
  .000E+00  .000E+00  .000E+00  .000E+00  .000E+00  .000E+00  .000E+00  .000E+00
  .000E+00  .000E+00  .000E+00  .000E+00
  .224E-01  .381E-01  .234E-01  .535E-01  .431E-01  .136E+00  .157E+00  .737E-01
  .523E-01  .807E-01  .162E+00  .112E+00  .823E-01  .177E+00  .114E+00  .621E-01
  .503E-01  .118E+00  .864E-01  .708E-01  .897E-01  .995E-01  .130E+00  .174E+00
  .171E+00  .146E+00  .912E-01  .119E+00  .211E+00  .163E+00  .149E+00  .205E+00
  .931E-01  .517E-01  .699E-01  .160E+00  .905E-01  .137E+00  .108E+00  .971E-01
  .782E-01  .125E+00  .820E-01  .132E+00  .631E-01  .993E-01  .928E-01  .121E+00
  .952E-01  .727E-01  .491E-01  .429E-01  .865E-01  .726E-01  .589E-01  .565E-01
  .556E-01  .484E-01  .417E-01  .331E-01  .317E-01  .254E-01  .248E-01  .160E-01
  .144E-01  .129E-01  .104E-01  .844E-02  .000E+00  .000E+00  .000E+00  .000E+00
  .000E+00  .000E+00  .000E+00  .000E+00  .000E+00  .000E+00  .000E+00  .000E+00
  .000E+00  .000E+00  .000E+00  .000E+00  .000E+00  .000E+00  .000E+00  .000E+00
  .000E+00  .000E+00  .000E+00  .000E+00  .000E+00  .000E+00  .000E+00  .000E+00
  .000E+00  .000E+00  .000E+00  .000E+00
  .261E+02  .270E+02  .260E+02  .261E+02  .273E+02  .305E+02  .560E+02  .273E+02
  .257E+02  .260E+02  .269E+02  .263E+02  .267E+02  .274E+02  .284E+02  .276E+02
  .348E+02  .279E+02  .280E+02  .313E+02  .272E+02  .299E+02  .304E+02  .291E+02
  .291E+02  .284E+02  .275E+02  .264E+02  .332E+02  .332E+02  .268E+02  .547E+02
  .277E+02  .261E+02  .286E+02  .381E+02  .382E+02  .567E+02  .292E+02  .343E+02
  .293E+02  .503E+02  .280E+02  .450E+02  .266E+02  .516E+02  .288E+02  .349E+02
  .426E+02  .302E+02  .408E+02  .267E+02  .365E+02  .339E+02  .296E+02  .284E+02
  .558E+02  .559E+02  .279E+02  .279E+02  .281E+02  .582E+02  .622E+02  .314E+02
  .274E+02  .266E+02  .257E+02  .257E+02  .000E+00  .000E+00  .000E+00  .000E+00
  .000E+00  .000E+00  .000E+00  .000E+00  .000E+00  .000E+00  .000E+00  .000E+00
  .000E+00  .000E+00  .000E+00  .000E+00  .000E+00  .000E+00  .000E+00  .000E+00
  .000E+00  .000E+00  .000E+00  .000E+00  .000E+00  .000E+00  .000E+00  .000E+00
  .000E+00  .000E+00  .000E+00  .000E+00
  .273E+02  .270E+02  .260E+02  .261E+02  .273E+02  .305E+02  .563E+02  .273E+02
  .258E+02  .260E+02  .269E+02  .263E+02  .258E+02  .274E+02  .388E+02  .276E+02
  .348E+02  .279E+02  .279E+02  .313E+02  .272E+02  .298E+02  .261E+02  .292E+02
  .271E+02  .283E+02  .275E+02  .265E+02  .331E+02  .333E+02  .267E+02  .546E+02
  .276E+02  .260E+02  .285E+02  .370E+02  .370E+02  .563E+02  .293E+02  .358E+02
  .292E+02  .488E+02  .281E+02  .452E+02  .261E+02  .514E+02  .290E+02  .352E+02
  .464E+02  .300E+02  .263E+02  .259E+02  .362E+02  .285E+02  .286E+02  .294E+02
  .283E+02  .283E+02  .283E+02  .276E+02  .259E+02  .259E+02  .259E+02  .259E+02
  .259E+02  .259E+02  .259E+02  .259E+02  .000E+00  .000E+00  .000E+00  .000E+00
  .000E+00  .000E+00  .000E+00  .000E+00  .000E+00  .000E+00  .000E+00  .000E+00
  .000E+00  .000E+00  .000E+00  .000E+00  .000E+00  .000E+00  .000E+00  .000E+00
  .000E+00  .000E+00  .000E+00  .000E+00  .000E+00  .000E+00  .000E+00  .000E+00
  .000E+00  .000E+00  .000E+00  .000E+00
  .261E+02  .270E+02  .260E+02  .261E+02  .273E+02  .305E+02  .560E+02  .273E+02
  .257E+02  .260E+02  .269E+02  .263E+02  .267E+02  .274E+02  .284E+02  .276E+02
  .348E+02  .279E+02  .280E+02  .313E+02  .272E+02  .299E+02  .304E+02  .291E+02
  .291E+02  .284E+02  .275E+02  .264E+02  .332E+02  .332E+02  .268E+02  .547E+02
  .277E+02  .261E+02  .286E+02  .381E+02  .382E+02  .567E+02  .292E+02  .343E+02
  .293E+02  .503E+02  .280E+02  .450E+02  .266E+02  .516E+02  .288E+02  .349E+02
  .426E+02  .302E+02  .408E+02  .267E+02  .365E+02  .339E+02  .296E+02  .284E+02
  .558E+02  .559E+02  .279E+02  .279E+02  .281E+02  .582E+02  .622E+02  .314E+02
  .274E+02  .266E+02  .257E+02  .257E+02  .000E+00  .000E+00  .000E+00  .000E+00
  .000E+00  .000E+00  .000E+00  .000E+00  .000E+00  .000E+00  .000E+00  .000E+00
  .000E+00  .000E+00  .000E+00  .000E+00  .000E+00  .000E+00  .000E+00  .000E+00
  .000E+00  .000E+00  .000E+00  .000E+00  .000E+00  .000E+00  .000E+00  .000E+00
  .000E+00  .000E+00  .000E+00  .000E+00
Damping =  .02. Data of Sd,Sv,Sa,Pssv,ttSd,ttSv,ttSa :
  .128E-03  .156E-03  .198E-03  .259E-03  .334E-03  .439E-03  .612E-03  .514E-03
  .414E-03  .648E-03  .112E-02  .114E-02  .796E-03  .122E-02  .948E-03  .718E-03
  .677E-03  .116E-02  .110E-02  .101E-02  .127E-02  .151E-02  .241E-02  .362E-02
  .341E-02  .266E-02  .267E-02  .374E-02  .439E-02  .477E-02  .530E-02  .524E-02
  .364E-02  .266E-02  .350E-02  .526E-02  .485E-02  .605E-02  .638E-02  .588E-02
  .568E-02  .591E-02  .571E-02  .667E-02  .577E-02  .655E-02  .887E-02  .104E-01
  .104E-01  .762E-02  .664E-02  .687E-02  .992E-02  .112E-01  .113E-01  .121E-01
  .113E-01  .109E-01  .107E-01  .939E-02  .871E-02  .791E-02  .749E-02  .647E-02
  .591E-02  .563E-02  .500E-02  .458E-02  .000E+00  .000E+00  .000E+00  .000E+00
  .000E+00  .000E+00  .000E+00  .000E+00  .000E+00  .000E+00  .000E+00  .000E+00
  .000E+00  .000E+00  .000E+00  .000E+00  .000E+00  .000E+00  .000E+00  .000E+00
  .000E+00  .000E+00  .000E+00  .000E+00  .000E+00  .000E+00  .000E+00  .000E+00
  .000E+00  .000E+00  .000E+00  .000E+00
  .134E-01  .183E-01  .232E-01  .308E-01  .368E-01  .468E-01  .614E-01  .506E-01
  .365E-01  .576E-01  .917E-01  .851E-01  .580E-01  .843E-01  .648E-01  .509E-01
  .425E-01  .619E-01  .500E-01  .415E-01  .572E-01  .631E-01  .936E-01  .125E+00
  .115E+00  .863E-01  .756E-01  .100E+00  .992E-01  .110E+00  .114E+00  .988E-01
  .726E-01  .600E-01  .547E-01  .807E-01  .730E-01  .870E-01  .863E-01  .775E-01
  .740E-01  .740E-01  .749E-01  .820E-01  .783E-01  .725E-01  .724E-01  .903E-01
  .760E-01  .636E-01  .567E-01  .564E-01  .550E-01  .686E-01  .621E-01  .489E-01
  .506E-01  .540E-01  .514E-01  .494E-01  .495E-01  .487E-01  .469E-01  .463E-01
  .448E-01  .450E-01  .429E-01  .417E-01  .000E+00  .000E+00  .000E+00  .000E+00
  .000E+00  .000E+00  .000E+00  .000E+00  .000E+00  .000E+00  .000E+00  .000E+00
  .000E+00  .000E+00  .000E+00  .000E+00  .000E+00  .000E+00  .000E+00  .000E+00
  .000E+00  .000E+00  .000E+00  .000E+00  .000E+00  .000E+00  .000E+00  .000E+00
  .000E+00  .000E+00  .000E+00  .000E+00
  .818E-02  .902E-02  .105E-01  .126E-01  .148E-01  .180E-01  .207E-01  .145E-01
  .101E-01  .136E-01  .206E-01  .182E-01  .112E-01  .153E-01  .107E-01  .732E-02
  .573E-02  .829E-02  .666E-02  .527E-02  .577E-02  .605E-02  .853E-02  .114E-01
  .966E-02  .681E-02  .565E-02  .664E-02  .663E-02  .623E-02  .602E-02  .524E-02
  .322E-02  .210E-02  .248E-02  .337E-02  .281E-02  .320E-02  .309E-02  .261E-02
  .233E-02  .200E-02  .163E-02  .161E-02  .121E-02  .119E-02  .142E-02  .147E-02
  .132E-02  .865E-03  .681E-03  .582E-03  .705E-03  .676E-03  .590E-03  .549E-03
  .454E-03  .388E-03  .339E-03  .266E-03  .223E-03  .168E-03  .134E-03  .989E-04
  .780E-04  .643E-04  .514E-04  .420E-04  .000E+00  .000E+00  .000E+00  .000E+00
  .000E+00  .000E+00  .000E+00  .000E+00  .000E+00  .000E+00  .000E+00  .000E+00
  .000E+00  .000E+00  .000E+00  .000E+00  .000E+00  .000E+00  .000E+00  .000E+00
  .000E+00  .000E+00  .000E+00  .000E+00  .000E+00  .000E+00  .000E+00  .000E+00
  .000E+00  .000E+00  .000E+00  .000E+00
  .201E-01  .233E-01  .282E-01  .353E-01  .437E-01  .552E-01  .700E-01  .538E-01
  .400E-01  .582E-01  .942E-01  .895E-01  .588E-01  .849E-01  .627E-01  .451E-01
  .387E-01  .609E-01  .531E-01  .453E-01  .532E-01  .593E-01  .891E-01  .126E+00
  .113E+00  .836E-01  .762E-01  .980E-01  .106E+00  .107E+00  .111E+00  .103E+00
  .672E-01  .464E-01  .579E-01  .826E-01  .725E-01  .864E-01  .872E-01  .770E-01
  .714E-01  .675E-01  .598E-01  .644E-01  .517E-01  .548E-01  .697E-01  .769E-01
  .726E-01  .504E-01  .417E-01  .393E-01  .519E-01  .539E-01  .507E-01  .505E-01
  .445E-01  .404E-01  .374E-01  .311E-01  .274E-01  .226E-01  .196E-01  .156E-01
  .133E-01  .118E-01  .982E-02  .847E-02  .000E+00  .000E+00  .000E+00  .000E+00
  .000E+00  .000E+00  .000E+00  .000E+00  .000E+00  .000E+00  .000E+00  .000E+00
  .000E+00  .000E+00  .000E+00  .000E+00  .000E+00  .000E+00  .000E+00  .000E+00
  .000E+00  .000E+00  .000E+00  .000E+00  .000E+00  .000E+00  .000E+00  .000E+00
  .000E+00  .000E+00  .000E+00  .000E+00
  .261E+02  .260E+02  .260E+02  .261E+02  .261E+02  .261E+02  .261E+02  .260E+02
  .257E+02  .257E+02  .261E+02  .262E+02  .265E+02  .272E+02  .270E+02  .261E+02
  .260E+02  .263E+02  .262E+02  .262E+02  .270E+02  .259E+02  .260E+02  .262E+02
  .263E+02  .263E+02  .263E+02  .264E+02  .264E+02  .268E+02  .268E+02  .284E+02
  .277E+02  .276E+02  .287E+02  .291E+02  .292E+02  .292E+02  .292E+02  .293E+02
  .293E+02  .291E+02  .280E+02  .301E+02  .259E+02  .260E+02  .289E+02  .286E+02
  .286E+02  .287E+02  .265E+02  .267E+02  .317E+02  .295E+02  .283E+02  .284E+02
  .284E+02  .278E+02  .279E+02  .279E+02  .281E+02  .274E+02  .274E+02  .274E+02
  .274E+02  .266E+02  .257E+02  .257E+02  .000E+00  .000E+00  .000E+00  .000E+00
  .000E+00  .000E+00  .000E+00  .000E+00  .000E+00  .000E+00  .000E+00  .000E+00
  .000E+00  .000E+00  .000E+00  .000E+00  .000E+00  .000E+00  .000E+00  .000E+00
  .000E+00  .000E+00  .000E+00  .000E+00  .000E+00  .000E+00  .000E+00  .000E+00
  .000E+00  .000E+00  .000E+00  .000E+00
  .261E+02  .260E+02  .260E+02  .261E+02  .261E+02  .262E+02  .261E+02  .260E+02
  .258E+02  .258E+02  .260E+02  .262E+02  .265E+02  .272E+02  .270E+02  .261E+02
  .261E+02  .263E+02  .262E+02  .263E+02  .269E+02  .259E+02  .261E+02  .262E+02
  .262E+02  .269E+02  .262E+02  .265E+02  .264E+02  .268E+02  .267E+02  .285E+02
  .276E+02  .260E+02  .286E+02  .288E+02  .293E+02  .293E+02  .293E+02  .291E+02
  .292E+02  .290E+02  .260E+02  .260E+02  .260E+02  .261E+02  .290E+02  .288E+02
  .285E+02  .285E+02  .259E+02  .259E+02  .259E+02  .285E+02  .285E+02  .259E+02
  .283E+02  .283E+02  .283E+02  .259E+02  .259E+02  .259E+02  .259E+02  .259E+02
  .259E+02  .259E+02  .259E+02  .259E+02  .000E+00  .000E+00  .000E+00  .000E+00
  .000E+00  .000E+00  .000E+00  .000E+00  .000E+00  .000E+00  .000E+00  .000E+00
  .000E+00  .000E+00  .000E+00  .000E+00  .000E+00  .000E+00  .000E+00  .000E+00
  .000E+00  .000E+00  .000E+00  .000E+00  .000E+00  .000E+00  .000E+00  .000E+00
  .000E+00  .000E+00  .000E+00  .000E+00
  .261E+02  .260E+02  .260E+02  .261E+02  .261E+02  .261E+02  .261E+02  .260E+02
  .257E+02  .257E+02  .261E+02  .262E+02  .265E+02  .272E+02  .269E+02  .261E+02
  .260E+02  .263E+02  .262E+02  .262E+02  .270E+02  .259E+02  .260E+02  .262E+02
  .263E+02  .263E+02  .263E+02  .264E+02  .264E+02  .268E+02  .268E+02  .284E+02
  .277E+02  .276E+02  .287E+02  .291E+02  .292E+02  .292E+02  .292E+02  .293E+02
  .293E+02  .291E+02  .280E+02  .301E+02  .259E+02  .260E+02  .289E+02  .286E+02
  .286E+02  .287E+02  .265E+02  .267E+02  .317E+02  .294E+02  .283E+02  .284E+02
  .284E+02  .278E+02  .278E+02  .279E+02  .281E+02  .274E+02  .274E+02  .274E+02
  .274E+02  .266E+02  .257E+02  .257E+02  .000E+00  .000E+00  .000E+00  .000E+00
  .000E+00  .000E+00  .000E+00  .000E+00  .000E+00  .000E+00  .000E+00  .000E+00
  .000E+00  .000E+00  .000E+00  .000E+00  .000E+00  .000E+00  .000E+00  .000E+00
  .000E+00  .000E+00  .000E+00  .000E+00  .000E+00  .000E+00  .000E+00  .000E+00
  .000E+00  .000E+00  .000E+00  .000E+00
Damping =  .05. Data of Sd,Sv,Sa,Pssv,ttSd,ttSv,ttSa :
  .106E-03  .124E-03  .157E-03  .202E-03  .272E-03  .329E-03  .445E-03  .370E-03
  .368E-03  .532E-03  .675E-03  .735E-03  .659E-03  .709E-03  .646E-03  .556E-03
  .574E-03  .882E-03  .944E-03  .927E-03  .926E-03  .128E-02  .179E-02  .254E-02
  .260E-02  .233E-02  .240E-02  .305E-02  .350E-02  .366E-02  .362E-02  .334E-02
  .271E-02  .232E-02  .281E-02  .357E-02  .401E-02  .457E-02  .484E-02  .474E-02
