Response and Fourier amplitude spectra (68 periods,  .04 -  3.4 sec)   for      
Corrected accelerogram   24207-M0150-11244.01       Chan  8:  Radl       from   
Uncorrected Accelerogram Data             Processed: 03/04/14, CGS  jh001       
Rcrd of Thu Sep  1, 2011 13:46:46.0 PDT               (Avol1 v0.5, 2/14 CSMIP)  
CSMIP Preliminary Processing            (Origin:  To be determined)             
24207-M0150-11244.01                 Start time:  9/01/11, 20:46:46.0 UTC (GPS) 
Station No. 24207   34.335N, 118.397W    MtWtny  s/n  150 (17 Chns of 17 at Sta)
Sylmar - Pacoima Dam                      CGS   Data: Acceleration              
Chan  8:  Radl                      Location: 80% Height: Left 1/4-length Point 
Rcrd of Thu Sep  1, 2011 13:46:46.0 PDT    Thu Sep  1, 2011 13:46:46.0 PDT      
Hypocenter:  To be determined.               ML:  To be determined.
Instr Period =  .0107 sec,  Damping =  .640,  Sensitivity =  .63 v/g
                        Record length = 58.000 sec.
                                     Uncor Max  =   .012 g , at  26.445 sec.
RMS accel of (uncor) record  =        .   Chn. metadata effective date: 06/05/01
Accelerogram bandpass filtered with 3 dB pts at   .30 and 40.00 cyc/sec
                 instrument- and baseline-corrected





Rcrd of Thu Sep  1, 2011 13:46:46.0 PDT    Thu Sep  1, 2011 13:46:46.0 PDT

24207-M0150-11244.01      Sylmar - Pacoima Dam    Chan  8:  Radl

24207-M0150-11244.01      Sylmar - Pacoima Dam    Chan  8:  Radl

Units for spectra are inches and sec, except Sa is in fraction of g.

    8  100    8   18   17  200    1    3    1   24   13  150    024207    5    0
   20   46   46    0  244    9    1 2011   10    3  70011600   39   20   74   -1
11600    0  100    3  150    1    1  580    2    0    0    0    0    0    0    0
    0    0    3    011600    1  222    1   18    4    0    0    3    1    011600
    311600    4   68    5   17    5    0    0    0    0    0    1    3    1    2
    2    2    4    0   68   99    0   10    0    0    0    1    0    0   68  222
    1    0    6    0
      .011      .640    58.000      .001      .000   625.000      .012    26.445
    93.800      .298      .477      .000     5.000  -999.000     4.000      .000
     2.500    37.512     2.500  2016.000    25.000    30.000  -999.000      .012
     -.008     -.020     2.000    15.000    34.335  -118.397      .007      .102
    15.411     -.025     -.015   594.000    25.800    27.800    12.800   118.940
     1.000    -5.861      .000  -999.000  -999.000  -999.000  -999.000      .000
      .100      .500     6.300   980.665      .005    58.000    14.929      .000
      .000    40.000      .000    58.000      .005      .303      .000      .000
    26.445    11.772    25.975      .330    25.920     -.014      .000      .303
    40.000      .005      .005      .000      .005      .005      .000      .000
      .044      .180      .033      .018      .001      .000      .000      .000
      .000      .000      .000      .000      .000      .000      .000      .000
      .000      .000      .000      .000
      .000      .020      .050      .100      .200
      .040      .042      .044      .046      .048      .050      .055      .060
      .065      .070      .075      .080      .085      .090      .095      .100
      .110      .120      .130      .140      .150      .160      .170      .180
      .190      .200      .220      .240      .260      .280      .300      .320
      .340      .360      .380      .400      .420      .440      .460      .480
      .500      .550      .600      .650      .700      .750      .800      .850
      .900      .950     1.000     1.100     1.200     1.300     1.400     1.500
     1.600     1.700     1.800     1.900     2.000     2.200     2.400     2.600
     2.800     3.000     3.200     3.400      .000      .000      .000      .000
      .000      .000      .000      .000      .000      .000      .000      .000
      .000      .000      .000      .000      .000      .000      .000      .000
      .000      .000      .000      .000      .000      .000      .000      .000
      .000      .000      .000      .000
Fourier amplitude spectra in in/sec.
  .404E-01  .167E-01  .364E-01  .104E+00  .182E+00  .391E+00  .224E+00  .317E+00
  .235E+00  .183E+00  .184E+00  .260E+00  .941E-01  .131E+00  .320E+00  .193E+00
  .649E-01  .598E+00  .219E+00  .110E+00  .325E+00  .308E+00  .906E+00  .138E+01
  .480E+00  .544E+00  .707E+00  .964E+00  .884E+00  .510E+00  .283E+00  .566E+00
  .801E-01  .300E-01  .106E+00  .265E+00  .191E+00  .247E+00  .203E+00  .193E+00
  .944E-01  .144E+00  .663E-01  .236E+00  .941E-01  .104E+00  .620E-01  .121E+00
  .877E-01  .736E-01  .427E-01  .312E-01  .767E-01  .866E-01  .630E-01  .453E-01
  .497E-01  .396E-01  .314E-01  .320E-01  .172E-01  .245E-01  .278E-01  .855E-02
  .393E-02  .643E-02  .481E-02  .456E-02  .000E+00  .000E+00  .000E+00  .000E+00
  .000E+00  .000E+00  .000E+00  .000E+00  .000E+00  .000E+00  .000E+00  .000E+00
  .000E+00  .000E+00  .000E+00  .000E+00  .000E+00  .000E+00  .000E+00  .000E+00
  .000E+00  .000E+00  .000E+00  .000E+00  .000E+00  .000E+00  .000E+00  .000E+00
  .000E+00  .000E+00  .000E+00  .000E+00
Damping =  .00. Data of Sd,Sv,Sa,Pssv,ttSd,ttSv,ttSa :
  .391E-03  .477E-03  .613E-03  .123E-02  .165E-02  .316E-02  .219E-02  .312E-02
  .321E-02  .387E-02  .334E-02  .507E-02  .276E-02  .361E-02  .502E-02  .452E-02
  .544E-02  .133E-01  .606E-02  .705E-02  .938E-02  .109E-01  .276E-01  .455E-01
  .186E-01  .218E-01  .335E-01  .415E-01  .407E-01  .272E-01  .229E-01  .290E-01
  .111E-01  .103E-01  .115E-01  .194E-01  .158E-01  .173E-01  .172E-01  .174E-01
  .103E-01  .135E-01  .126E-01  .261E-01  .148E-01  .136E-01  .149E-01  .176E-01
  .165E-01  .144E-01  .130E-01  .124E-01  .186E-01  .183E-01  .154E-01  .151E-01
  .144E-01  .128E-01  .127E-01  .116E-01  .112E-01  .931E-02  .106E-01  .969E-02
  .837E-02  .802E-02  .718E-02  .717E-02  .000E+00  .000E+00  .000E+00  .000E+00
  .000E+00  .000E+00  .000E+00  .000E+00  .000E+00  .000E+00  .000E+00  .000E+00
  .000E+00  .000E+00  .000E+00  .000E+00  .000E+00  .000E+00  .000E+00  .000E+00
  .000E+00  .000E+00  .000E+00  .000E+00  .000E+00  .000E+00  .000E+00  .000E+00
  .000E+00  .000E+00  .000E+00  .000E+00
  .414E-01  .508E-01  .709E-01  .147E+00  .213E+00  .382E+00  .245E+00  .323E+00
  .294E+00  .322E+00  .275E+00  .368E+00  .185E+00  .253E+00  .327E+00  .282E+00
  .300E+00  .695E+00  .267E+00  .276E+00  .372E+00  .411E+00  .100E+01  .161E+01
  .587E+00  .681E+00  .966E+00  .109E+01  .986E+00  .635E+00  .544E+00  .569E+00
  .260E+00  .242E+00  .268E+00  .305E+00  .248E+00  .248E+00  .250E+00  .236E+00
  .191E+00  .176E+00  .193E+00  .254E+00  .212E+00  .206E+00  .179E+00  .164E+00
  .164E+00  .155E+00  .151E+00  .156E+00  .155E+00  .151E+00  .149E+00  .147E+00
  .144E+00  .146E+00  .146E+00  .144E+00  .146E+00  .144E+00  .145E+00  .143E+00
  .140E+00  .139E+00  .136E+00  .136E+00  .000E+00  .000E+00  .000E+00  .000E+00
  .000E+00  .000E+00  .000E+00  .000E+00  .000E+00  .000E+00  .000E+00  .000E+00
  .000E+00  .000E+00  .000E+00  .000E+00  .000E+00  .000E+00  .000E+00  .000E+00
  .000E+00  .000E+00  .000E+00  .000E+00  .000E+00  .000E+00  .000E+00  .000E+00
  .000E+00  .000E+00  .000E+00  .000E+00
  .250E-01  .277E-01  .324E-01  .595E-01  .732E-01  .129E+00  .742E-01  .885E-01
  .776E-01  .808E-01  .608E-01  .810E-01  .390E-01  .456E-01  .569E-01  .463E-01
  .460E-01  .947E-01  .367E-01  .368E-01  .426E-01  .436E-01  .977E-01  .144E+00
  .527E-01  .557E-01  .708E-01  .736E-01  .615E-01  .355E-01  .260E-01  .289E-01
  .981E-02  .810E-02  .817E-02  .124E-01  .914E-02  .915E-02  .831E-02  .774E-02
  .422E-02  .455E-02  .358E-02  .632E-02  .309E-02  .247E-02  .238E-02  .249E-02
  .208E-02  .163E-02  .133E-02  .105E-02  .132E-02  .111E-02  .804E-03  .685E-03
  .577E-03  .451E-03  .402E-03  .328E-03  .286E-03  .197E-03  .189E-03  .147E-03
  .109E-03  .911E-04  .717E-04  .635E-04  .000E+00  .000E+00  .000E+00  .000E+00
  .000E+00  .000E+00  .000E+00  .000E+00  .000E+00  .000E+00  .000E+00  .000E+00
  .000E+00  .000E+00  .000E+00  .000E+00  .000E+00  .000E+00  .000E+00  .000E+00
  .000E+00  .000E+00  .000E+00  .000E+00  .000E+00  .000E+00  .000E+00  .000E+00
  .000E+00  .000E+00  .000E+00  .000E+00
  .614E-01  .713E-01  .875E-01  .168E+00  .216E+00  .397E+00  .251E+00  .326E+00
  .310E+00  .347E+00  .280E+00  .398E+00  .204E+00  .252E+00  .332E+00  .284E+00
  .311E+00  .698E+00  .293E+00  .316E+00  .393E+00  .428E+00  .102E+01  .159E+01
  .615E+00  .684E+00  .957E+00  .109E+01  .983E+00  .611E+00  .479E+00  .569E+00
  .205E+00  .179E+00  .191E+00  .304E+00  .236E+00  .247E+00  .235E+00  .228E+00
  .130E+00  .154E+00  .132E+00  .252E+00  .133E+00  .114E+00  .117E+00  .130E+00
  .115E+00  .954E-01  .815E-01  .708E-01  .974E-01  .886E-01  .692E-01  .631E-01
  .567E-01  .471E-01  .445E-01  .382E-01  .351E-01  .266E-01  .278E-01  .234E-01
  .188E-01  .168E-01  .141E-01  .133E-01  .000E+00  .000E+00  .000E+00  .000E+00
  .000E+00  .000E+00  .000E+00  .000E+00  .000E+00  .000E+00  .000E+00  .000E+00
  .000E+00  .000E+00  .000E+00  .000E+00  .000E+00  .000E+00  .000E+00  .000E+00
  .000E+00  .000E+00  .000E+00  .000E+00  .000E+00  .000E+00  .000E+00  .000E+00
  .000E+00  .000E+00  .000E+00  .000E+00
  .260E+02  .260E+02  .260E+02  .264E+02  .276E+02  .291E+02  .279E+02  .293E+02
  .262E+02  .259E+02  .265E+02  .264E+02  .258E+02  .273E+02  .281E+02  .277E+02
  .260E+02  .283E+02  .265E+02  .265E+02  .269E+02  .260E+02  .280E+02  .275E+02
  .263E+02  .329E+02  .270E+02  .344E+02  .319E+02  .266E+02  .265E+02  .533E+02
  .262E+02  .260E+02  .276E+02  .369E+02  .326E+02  .565E+02  .293E+02  .343E+02
  .280E+02  .440E+02  .280E+02  .405E+02  .273E+02  .267E+02  .264E+02  .289E+02
  .286E+02  .264E+02  .264E+02  .266E+02  .346E+02  .339E+02  .296E+02  .284E+02
  .284E+02  .279E+02  .279E+02  .279E+02  .272E+02  .263E+02  .574E+02  .265E+02
  .265E+02  .265E+02  .265E+02  .265E+02  .000E+00  .000E+00  .000E+00  .000E+00
  .000E+00  .000E+00  .000E+00  .000E+00  .000E+00  .000E+00  .000E+00  .000E+00
  .000E+00  .000E+00  .000E+00  .000E+00  .000E+00  .000E+00  .000E+00  .000E+00
  .000E+00  .000E+00  .000E+00  .000E+00  .000E+00  .000E+00  .000E+00  .000E+00
  .000E+00  .000E+00  .000E+00  .000E+00
  .260E+02  .260E+02  .261E+02  .265E+02  .276E+02  .305E+02  .278E+02  .293E+02
  .261E+02  .259E+02  .265E+02  .263E+02  .258E+02  .273E+02  .290E+02  .278E+02
  .260E+02  .283E+02  .305E+02  .266E+02  .269E+02  .260E+02  .280E+02  .275E+02
  .263E+02  .328E+02  .271E+02  .343E+02  .319E+02  .266E+02  .266E+02  .534E+02
  .261E+02  .260E+02  .260E+02  .370E+02  .265E+02  .559E+02  .298E+02  .347E+02
  .259E+02  .262E+02  .266E+02  .452E+02  .265E+02  .265E+02  .265E+02  .267E+02
  .267E+02  .267E+02  .260E+02  .260E+02  .260E+02  .260E+02  .260E+02  .260E+02
  .260E+02  .260E+02  .260E+02  .260E+02  .260E+02  .260E+02  .260E+02  .260E+02
  .260E+02  .260E+02  .260E+02  .260E+02  .000E+00  .000E+00  .000E+00  .000E+00
  .000E+00  .000E+00  .000E+00  .000E+00  .000E+00  .000E+00  .000E+00  .000E+00
  .000E+00  .000E+00  .000E+00  .000E+00  .000E+00  .000E+00  .000E+00  .000E+00
  .000E+00  .000E+00  .000E+00  .000E+00  .000E+00  .000E+00  .000E+00  .000E+00
  .000E+00  .000E+00  .000E+00  .000E+00
  .260E+02  .260E+02  .260E+02  .264E+02  .276E+02  .291E+02  .279E+02  .293E+02
  .262E+02  .259E+02  .265E+02  .264E+02  .258E+02  .273E+02  .281E+02  .277E+02
  .260E+02  .283E+02  .265E+02  .265E+02  .269E+02  .260E+02  .280E+02  .275E+02
  .263E+02  .329E+02  .270E+02  .344E+02  .319E+02  .266E+02  .265E+02  .533E+02
  .262E+02  .260E+02  .276E+02  .369E+02  .326E+02  .565E+02  .293E+02  .343E+02
  .280E+02  .440E+02  .280E+02  .405E+02  .273E+02  .267E+02  .264E+02  .289E+02
  .286E+02  .264E+02  .264E+02  .266E+02  .346E+02  .339E+02  .296E+02  .284E+02
  .284E+02  .279E+02  .279E+02  .279E+02  .272E+02  .263E+02  .574E+02  .265E+02
  .265E+02  .265E+02  .265E+02  .265E+02  .000E+00  .000E+00  .000E+00  .000E+00
  .000E+00  .000E+00  .000E+00  .000E+00  .000E+00  .000E+00  .000E+00  .000E+00
  .000E+00  .000E+00  .000E+00  .000E+00  .000E+00  .000E+00  .000E+00  .000E+00
  .000E+00  .000E+00  .000E+00  .000E+00  .000E+00  .000E+00  .000E+00  .000E+00
  .000E+00  .000E+00  .000E+00  .000E+00
Damping =  .02. Data of Sd,Sv,Sa,Pssv,ttSd,ttSv,ttSa :
  .317E-03  .431E-03  .482E-03  .665E-03  .829E-03  .121E-02  .118E-02  .158E-02
  .205E-02  .297E-02  .297E-02  .288E-02  .224E-02  .220E-02  .231E-02  .303E-02
  .437E-02  .546E-02  .511E-02  .567E-02  .658E-02  .915E-02  .159E-01  .231E-01
  .144E-01  .131E-01  .243E-01  .280E-01  .261E-01  .232E-01  .194E-01  .144E-01
  .103E-01  .955E-02  .926E-02  .117E-01  .971E-02  .972E-02  .126E-01  .116E-01
  .800E-02  .916E-02  .113E-01  .124E-01  .116E-01  .116E-01  .136E-01  .145E-01
  .144E-01  .136E-01  .124E-01  .115E-01  .131E-01  .132E-01  .124E-01  .134E-01
  .127E-01  .115E-01  .115E-01  .107E-01  .104E-01  .927E-02  .936E-02  .920E-02
  .831E-02  .782E-02  .722E-02  .702E-02  .000E+00  .000E+00  .000E+00  .000E+00
  .000E+00  .000E+00  .000E+00  .000E+00  .000E+00  .000E+00  .000E+00  .000E+00
  .000E+00  .000E+00  .000E+00  .000E+00  .000E+00  .000E+00  .000E+00  .000E+00
  .000E+00  .000E+00  .000E+00  .000E+00  .000E+00  .000E+00  .000E+00  .000E+00
  .000E+00  .000E+00  .000E+00  .000E+00
  .317E-01  .417E-01  .540E-01  .680E-01  .910E-01  .132E+00  .121E+00  .152E+00
  .189E+00  .239E+00  .234E+00  .213E+00  .154E+00  .129E+00  .142E+00  .153E+00
  .218E+00  .261E+00  .214E+00  .223E+00  .254E+00  .353E+00  .576E+00  .799E+00
  .463E+00  .404E+00  .712E+00  .782E+00  .698E+00  .550E+00  .463E+00  .335E+00
  .246E+00  .235E+00  .243E+00  .222E+00  .224E+00  .193E+00  .173E+00  .176E+00
  .180E+00  .168E+00  .177E+00  .173E+00  .197E+00  .195E+00  .173E+00  .152E+00
  .154E+00  .147E+00  .148E+00  .153E+00  .152E+00  .150E+00  .148E+00  .146E+00
  .144E+00  .145E+00  .145E+00  .144E+00  .145E+00  .144E+00  .144E+00  .143E+00
  .140E+00  .138E+00  .137E+00  .136E+00  .000E+00  .000E+00  .000E+00  .000E+00
  .000E+00  .000E+00  .000E+00  .000E+00  .000E+00  .000E+00  .000E+00  .000E+00
  .000E+00  .000E+00  .000E+00  .000E+00  .000E+00  .000E+00  .000E+00  .000E+00
  .000E+00  .000E+00  .000E+00  .000E+00  .000E+00  .000E+00  .000E+00  .000E+00
  .000E+00  .000E+00  .000E+00  .000E+00
  .203E-01  .250E-01  .254E-01  .322E-01  .369E-01  .497E-01  .401E-01  .453E-01
  .498E-01  .617E-01  .540E-01  .462E-01  .319E-01  .279E-01  .263E-01  .310E-01
  .368E-01  .390E-01  .310E-01  .295E-01  .300E-01  .366E-01  .563E-01  .727E-01
  .407E-01  .334E-01  .514E-01  .498E-01  .395E-01  .303E-01  .220E-01  .144E-01
  .915E-02  .756E-02  .656E-02  .752E-02  .564E-02  .514E-02  .608E-02  .517E-02
  .328E-02  .310E-02  .322E-02  .302E-02  .243E-02  .213E-02  .219E-02  .207E-02
  .183E-02  .155E-02  .128E-02  .977E-03  .932E-03  .799E-03  .647E-03  .609E-03
  .507E-03  .412E-03  .368E-03  .305E-03  .270E-03  .200E-03  .170E-03  .145E-03
  .115E-03  .952E-04  .783E-04  .680E-04  .000E+00  .000E+00  .000E+00  .000E+00
  .000E+00  .000E+00  .000E+00  .000E+00  .000E+00  .000E+00  .000E+00  .000E+00
  .000E+00  .000E+00  .000E+00  .000E+00  .000E+00  .000E+00  .000E+00  .000E+00
  .000E+00  .000E+00  .000E+00  .000E+00  .000E+00  .000E+00  .000E+00  .000E+00
  .000E+00  .000E+00  .000E+00  .000E+00
  .498E-01  .644E-01  .688E-01  .908E-01  .109E+00  .152E+00  .135E+00  .166E+00
  .198E+00  .266E+00  .249E+00  .226E+00  .166E+00  .154E+00  .153E+00  .190E+00
  .250E+00  .286E+00  .247E+00  .254E+00  .276E+00  .359E+00  .589E+00  .805E+00
  .475E+00  .411E+00  .694E+00  .734E+00  .631E+00  .520E+00  .406E+00  .283E+00
  .191E+00  .167E+00  .153E+00  .184E+00  .145E+00  .139E+00  .171E+00  .152E+00
  .101E+00  .105E+00  .119E+00  .120E+00  .104E+00  .976E-01  .107E+00  .107E+00
  .100E+00  .899E-01  .780E-01  .654E-01  .685E-01  .638E-01  .556E-01  .559E-01
  .497E-01  .426E-01  .403E-01  .353E-01  .325E-01  .265E-01  .245E-01  .222E-01
  .187E-01  .164E-01  .142E-01  .130E-01  .000E+00  .000E+00  .000E+00  .000E+00
  .000E+00  .000E+00  .000E+00  .000E+00  .000E+00  .000E+00  .000E+00  .000E+00
  .000E+00  .000E+00  .000E+00  .000E+00  .000E+00  .000E+00  .000E+00  .000E+00
  .000E+00  .000E+00  .000E+00  .000E+00  .000E+00  .000E+00  .000E+00  .000E+00
  .000E+00  .000E+00  .000E+00  .000E+00
  .260E+02  .260E+02  .262E+02  .264E+02  .262E+02  .262E+02  .260E+02  .261E+02
  .260E+02  .259E+02  .258E+02  .258E+02  .258E+02  .266E+02  .267E+02  .259E+02
  .259E+02  .267E+02  .265E+02  .265E+02  .260E+02  .260E+02  .268E+02  .272E+02
  .263E+02  .263E+02  .269E+02  .268E+02  .267E+02  .266E+02  .265E+02  .264E+02
  .262E+02  .260E+02  .260E+02  .287E+02  .294E+02  .264E+02  .293E+02  .293E+02
  .263E+02  .261E+02  .262E+02  .291E+02  .273E+02  .267E+02  .264E+02  .264E+02
  .264E+02  .264E+02  .264E+02  .266E+02  .299E+02  .300E+02  .296E+02  .284E+02
  .284E+02  .279E+02  .279E+02  .279E+02  .272E+02  .263E+02  .263E+02  .265E+02
  .265E+02  .265E+02  .265E+02  .257E+02  .000E+00  .000E+00  .000E+00  .000E+00
  .000E+00  .000E+00  .000E+00  .000E+00  .000E+00  .000E+00  .000E+00  .000E+00
  .000E+00  .000E+00  .000E+00  .000E+00  .000E+00  .000E+00  .000E+00  .000E+00
  .000E+00  .000E+00  .000E+00  .000E+00  .000E+00  .000E+00  .000E+00  .000E+00
  .000E+00  .000E+00  .000E+00  .000E+00
  .260E+02  .260E+02  .262E+02  .265E+02  .263E+02  .262E+02  .261E+02  .261E+02
  .260E+02  .259E+02  .258E+02  .258E+02  .258E+02  .273E+02  .267E+02  .261E+02
  .260E+02  .268E+02  .257E+02  .257E+02  .260E+02  .260E+02  .269E+02  .272E+02
  .262E+02  .272E+02  .268E+02  .268E+02  .267E+02  .266E+02  .266E+02  .265E+02
  .261E+02  .260E+02  .260E+02  .265E+02  .265E+02  .265E+02  .294E+02  .259E+02
  .259E+02  .259E+02  .266E+02  .261E+02  .265E+02  .265E+02  .265E+02  .267E+02
  .267E+02  .267E+02  .260E+02  .260E+02  .260E+02  .260E+02  .260E+02  .260E+02
  .260E+02  .260E+02  .260E+02  .260E+02  .260E+02  .260E+02  .260E+02  .260E+02
  .260E+02  .260E+02  .260E+02  .260E+02  .000E+00  .000E+00  .000E+00  .000E+00
  .000E+00  .000E+00  .000E+00  .000E+00  .000E+00  .000E+00  .000E+00  .000E+00
  .000E+00  .000E+00  .000E+00  .000E+00  .000E+00  .000E+00  .000E+00  .000E+00
  .000E+00  .000E+00  .000E+00  .000E+00  .000E+00  .000E+00  .000E+00  .000E+00
  .000E+00  .000E+00  .000E+00  .000E+00
  .260E+02  .260E+02  .262E+02  .264E+02  .262E+02  .262E+02  .260E+02  .261E+02
  .260E+02  .259E+02  .258E+02  .258E+02  .258E+02  .266E+02  .267E+02  .259E+02
  .259E+02  .267E+02  .265E+02  .265E+02  .260E+02  .260E+02  .268E+02  .272E+02
  .263E+02  .263E+02  .269E+02  .268E+02  .267E+02  .266E+02  .265E+02  .264E+02
  .262E+02  .260E+02  .260E+02  .287E+02  .294E+02  .264E+02  .293E+02  .293E+02
  .263E+02  .261E+02  .262E+02  .291E+02  .273E+02  .267E+02  .264E+02  .264E+02
  .264E+02  .264E+02  .264E+02  .266E+02  .299E+02  .300E+02  .296E+02  .284E+02
  .284E+02  .279E+02  .279E+02  .279E+02  .272E+02  .263E+02  .263E+02  .265E+02
  .265E+02  .265E+02  .265E+02  .265E+02  .000E+00  .000E+00  .000E+00  .000E+00
  .000E+00  .000E+00  .000E+00  .000E+00  .000E+00  .000E+00  .000E+00  .000E+00
  .000E+00  .000E+00  .000E+00  .000E+00  .000E+00  .000E+00  .000E+00  .000E+00
  .000E+00  .000E+00  .000E+00  .000E+00  .000E+00  .000E+00  .000E+00  .000E+00
  .000E+00  .000E+00  .000E+00  .000E+00
Damping =  .05. Data of Sd,Sv,Sa,Pssv,ttSd,ttSv,ttSa :
  .295E-03  .370E-03  .414E-03  .500E-03  .659E-03  .824E-03  .104E-02  .126E-02
  .141E-02  .199E-02  .219E-02  .214E-02  .186E-02  .171E-02  .184E-02  .248E-02
  .333E-02  .361E-02  .425E-02  .466E-02  .534E-02  .740E-02  .111E-01  .138E-01
  .113E-01  .111E-01  .176E-01  .209E-01  .206E-01  .187E-01  .159E-01  .118E-01
  .909E-02  .845E-02  .781E-02  .865E-02  .819E-02  .853E-02  .875E-02  .814E-02
