Response and Fourier amplitude spectra (68 periods,  .04 -  3.4 sec)   for      
Corrected accelerogram   24207-M0150-11244.01       Chan  4:  Tang       from   
Uncorrected Accelerogram Data             Processed: 03/04/14, CGS  jh001       
Rcrd of Thu Sep  1, 2011 13:46:46.0 PDT               (Avol1 v0.5, 2/14 CSMIP)  
CSMIP Preliminary Processing            (Origin:  To be determined)             
24207-M0150-11244.01                 Start time:  9/01/11, 20:46:46.0 UTC (GPS) 
Station No. 24207   34.335N, 118.397W    MtWtny  s/n  150 (17 Chns of 17 at Sta)
Sylmar - Pacoima Dam                      CGS   Data: Acceleration              
Chan  4:  Tang                      Location: Crest: Center                     
Rcrd of Thu Sep  1, 2011 13:46:46.0 PDT    Thu Sep  1, 2011 13:46:46.0 PDT      
Hypocenter:  To be determined.               ML:  To be determined.
Instr Period =  .0106 sec,  Damping =  .660,  Sensitivity =  .63 v/g
                        Record length = 58.000 sec.
                                     Uncor Max  =   .007 g , at  25.750 sec.
RMS accel of (uncor) record  =        .   Chn. metadata effective date: 09/02/99
Accelerogram bandpass filtered with 3 dB pts at   .30 and 40.00 cyc/sec
                 instrument- and baseline-corrected





Rcrd of Thu Sep  1, 2011 13:46:46.0 PDT    Thu Sep  1, 2011 13:46:46.0 PDT

24207-M0150-11244.01      Sylmar - Pacoima Dam    Chan  4:  Tang

24207-M0150-11244.01      Sylmar - Pacoima Dam    Chan  4:  Tang

Units for spectra are inches and sec, except Sa is in fraction of g.

    4  100    4   18   17  200    1    3    1   24   13  150    024207    5    0
   20   46   46    0  244    9    1 2011   10    3 100011600   39   20   74   -1
11600    0  100    3  150    1    1  580    2    0    0    0    0    0    0    0
    0    0    3    011600    1  222    1   18    4    0    0    3    1    011600
    311600    4   68    5   17    5    0    0    0    0    0    1    3    1    2
    2    2    4    0   68   99    0   10    0    0    0    1    0    0   68  222
    1    0    6    0
      .011      .660    58.000      .001      .000   625.000      .007    25.750
    94.400      .298      .477      .000     5.000  -999.000     4.000      .000
     2.500   -17.338     2.500  2016.000    25.000    30.000  -999.000     -.002
      .001      .003     2.000    15.000    34.335  -118.397      .011      .067
     6.348      .000      .007   594.000    25.800    27.800    12.800   118.940
     1.000     1.107      .000  -999.000  -999.000  -999.000  -999.000      .000
      .100      .500     6.300   980.665      .005    58.000    15.024      .000
      .000    40.000      .000    58.000      .005      .303      .000      .000
    25.745     6.742    25.515     -.221    25.730     -.011      .000      .303
    40.000      .005      .005      .000      .005      .003      .000      .000
      .033      .070      .020      .006      .001      .000      .000      .000
      .000      .000      .000      .000      .000      .000      .000      .000
      .000      .000      .000      .000
      .000      .020      .050      .100      .200
      .040      .042      .044      .046      .048      .050      .055      .060
      .065      .070      .075      .080      .085      .090      .095      .100
      .110      .120      .130      .140      .150      .160      .170      .180
      .190      .200      .220      .240      .260      .280      .300      .320
      .340      .360      .380      .400      .420      .440      .460      .480
      .500      .550      .600      .650      .700      .750      .800      .850
      .900      .950     1.000     1.100     1.200     1.300     1.400     1.500
     1.600     1.700     1.800     1.900     2.000     2.200     2.400     2.600
     2.800     3.000     3.200     3.400      .000      .000      .000      .000
      .000      .000      .000      .000      .000      .000      .000      .000
      .000      .000      .000      .000      .000      .000      .000      .000
      .000      .000      .000      .000      .000      .000      .000      .000
      .000      .000      .000      .000
Fourier amplitude spectra in in/sec.
  .830E-01  .300E-01  .469E-01  .738E-01  .996E-01  .203E+00  .217E+00  .963E-01
  .173E+00  .154E+00  .138E+00  .236E+00  .889E-01  .814E-01  .296E+00  .380E+00
  .133E+00  .141E+00  .318E+00  .339E+00  .160E+00  .572E+00  .341E+00  .108E+01
  .495E+00  .274E+00  .275E+00  .381E+00  .228E+00  .140E+00  .228E-01  .163E+00
  .133E+00  .123E+00  .196E+00  .150E+00  .145E+00  .105E+00  .113E+00  .244E+00
  .259E+00  .783E-01  .127E+00  .160E+00  .143E+00  .588E-01  .948E-01  .674E-01
  .422E-01  .903E-01  .316E-01  .529E-01  .783E-01  .709E-01  .404E-01  .301E-01
  .118E-01  .201E-01  .207E-01  .195E-01  .939E-02  .714E-02  .839E-02  .613E-02
  .805E-02  .123E-01  .509E-02  .552E-02  .000E+00  .000E+00  .000E+00  .000E+00
  .000E+00  .000E+00  .000E+00  .000E+00  .000E+00  .000E+00  .000E+00  .000E+00
  .000E+00  .000E+00  .000E+00  .000E+00  .000E+00  .000E+00  .000E+00  .000E+00
  .000E+00  .000E+00  .000E+00  .000E+00  .000E+00  .000E+00  .000E+00  .000E+00
  .000E+00  .000E+00  .000E+00  .000E+00
Damping =  .00. Data of Sd,Sv,Sa,Pssv,ttSd,ttSv,ttSa :
  .529E-03  .404E-03  .404E-03  .804E-03  .962E-03  .162E-02  .191E-02  .102E-02
  .228E-02  .260E-02  .278E-02  .341E-02  .201E-02  .419E-02  .464E-02  .676E-02
  .302E-02  .464E-02  .838E-02  .849E-02  .565E-02  .153E-01  .166E-01  .347E-01
  .169E-01  .121E-01  .164E-01  .167E-01  .118E-01  .757E-02  .672E-02  .115E-01
  .966E-02  .903E-02  .129E-01  .112E-01  .106E-01  .906E-02  .116E-01  .197E-01
  .207E-01  .115E-01  .146E-01  .188E-01  .198E-01  .152E-01  .136E-01  .120E-01
  .108E-01  .151E-01  .107E-01  .116E-01  .160E-01  .147E-01  .106E-01  .794E-02
  .589E-02  .569E-02  .738E-02  .639E-02  .557E-02  .533E-02  .576E-02  .522E-02
  .601E-02  .675E-02  .662E-02  .612E-02  .000E+00  .000E+00  .000E+00  .000E+00
  .000E+00  .000E+00  .000E+00  .000E+00  .000E+00  .000E+00  .000E+00  .000E+00
  .000E+00  .000E+00  .000E+00  .000E+00  .000E+00  .000E+00  .000E+00  .000E+00
  .000E+00  .000E+00  .000E+00  .000E+00  .000E+00  .000E+00  .000E+00  .000E+00
  .000E+00  .000E+00  .000E+00  .000E+00
  .818E-01  .503E-01  .524E-01  .951E-01  .123E+00  .195E+00  .215E+00  .104E+00
  .212E+00  .220E+00  .219E+00  .251E+00  .135E+00  .278E+00  .303E+00  .422E+00
  .159E+00  .219E+00  .403E+00  .375E+00  .247E+00  .599E+00  .592E+00  .121E+01
  .560E+00  .384E+00  .482E+00  .437E+00  .290E+00  .191E+00  .166E+00  .228E+00
  .209E+00  .196E+00  .217E+00  .209E+00  .196E+00  .181E+00  .173E+00  .259E+00
  .260E+00  .152E+00  .157E+00  .190E+00  .184E+00  .147E+00  .140E+00  .130E+00
  .132E+00  .133E+00  .128E+00  .112E+00  .104E+00  .975E-01  .969E-01  .937E-01
  .908E-01  .900E-01  .881E-01  .890E-01  .885E-01  .873E-01  .891E-01  .876E-01
  .874E-01  .887E-01  .902E-01  .900E-01  .000E+00  .000E+00  .000E+00  .000E+00
  .000E+00  .000E+00  .000E+00  .000E+00  .000E+00  .000E+00  .000E+00  .000E+00
  .000E+00  .000E+00  .000E+00  .000E+00  .000E+00  .000E+00  .000E+00  .000E+00
  .000E+00  .000E+00  .000E+00  .000E+00  .000E+00  .000E+00  .000E+00  .000E+00
  .000E+00  .000E+00  .000E+00  .000E+00
  .338E-01  .234E-01  .213E-01  .388E-01  .427E-01  .663E-01  .645E-01  .289E-01
  .552E-01  .543E-01  .505E-01  .545E-01  .285E-01  .529E-01  .526E-01  .691E-01
  .255E-01  .330E-01  .507E-01  .443E-01  .257E-01  .611E-01  .588E-01  .110E+00
  .479E-01  .308E-01  .346E-01  .296E-01  .178E-01  .988E-02  .763E-02  .115E-01
  .854E-02  .712E-02  .916E-02  .713E-02  .617E-02  .479E-02  .559E-02  .873E-02
  .847E-02  .387E-02  .414E-02  .454E-02  .413E-02  .276E-02  .217E-02  .170E-02
  .136E-02  .171E-02  .109E-02  .977E-03  .114E-02  .889E-03  .553E-03  .361E-03
  .235E-03  .201E-03  .233E-03  .181E-03  .142E-03  .113E-03  .102E-03  .789E-04
  .785E-04  .768E-04  .661E-04  .542E-04  .000E+00  .000E+00  .000E+00  .000E+00
  .000E+00  .000E+00  .000E+00  .000E+00  .000E+00  .000E+00  .000E+00  .000E+00
  .000E+00  .000E+00  .000E+00  .000E+00  .000E+00  .000E+00  .000E+00  .000E+00
  .000E+00  .000E+00  .000E+00  .000E+00  .000E+00  .000E+00  .000E+00  .000E+00
  .000E+00  .000E+00  .000E+00  .000E+00
  .831E-01  .604E-01  .577E-01  .110E+00  .126E+00  .204E+00  .218E+00  .106E+00
  .221E+00  .233E+00  .233E+00  .268E+00  .149E+00  .292E+00  .307E+00  .425E+00
  .172E+00  .243E+00  .405E+00  .381E+00  .237E+00  .600E+00  .614E+00  .121E+01
  .560E+00  .379E+00  .468E+00  .436E+00  .285E+00  .170E+00  .141E+00  .225E+00
  .178E+00  .158E+00  .214E+00  .175E+00  .159E+00  .129E+00  .158E+00  .257E+00
  .260E+00  .131E+00  .152E+00  .181E+00  .177E+00  .127E+00  .107E+00  .886E-01
  .752E-01  .995E-01  .671E-01  .661E-01  .839E-01  .710E-01  .475E-01  .333E-01
  .231E-01  .210E-01  .257E-01  .211E-01  .175E-01  .152E-01  .151E-01  .126E-01
  .135E-01  .141E-01  .130E-01  .113E-01  .000E+00  .000E+00  .000E+00  .000E+00
  .000E+00  .000E+00  .000E+00  .000E+00  .000E+00  .000E+00  .000E+00  .000E+00
  .000E+00  .000E+00  .000E+00  .000E+00  .000E+00  .000E+00  .000E+00  .000E+00
  .000E+00  .000E+00  .000E+00  .000E+00  .000E+00  .000E+00  .000E+00  .000E+00
  .000E+00  .000E+00  .000E+00  .000E+00
  .276E+02  .255E+02  .274E+02  .257E+02  .274E+02  .414E+02  .389E+02  .287E+02
  .262E+02  .262E+02  .258E+02  .267E+02  .258E+02  .267E+02  .279E+02  .286E+02
  .277E+02  .266E+02  .279E+02  .283E+02  .275E+02  .414E+02  .265E+02  .289E+02
  .418E+02  .329E+02  .277E+02  .344E+02  .309E+02  .265E+02  .264E+02  .290E+02
  .267E+02  .271E+02  .388E+02  .259E+02  .349E+02  .259E+02  .300E+02  .409E+02
  .422E+02  .266E+02  .340E+02  .288E+02  .314E+02  .274E+02  .267E+02  .268E+02
  .295E+02  .406E+02  .275E+02  .277E+02  .500E+02  .566E+02  .336E+02  .348E+02
  .274E+02  .529E+02  .450E+02  .393E+02  .257E+02  .257E+02  .257E+02  .257E+02
  .257E+02  .257E+02  .257E+02  .257E+02  .000E+00  .000E+00  .000E+00  .000E+00
  .000E+00  .000E+00  .000E+00  .000E+00  .000E+00  .000E+00  .000E+00  .000E+00
  .000E+00  .000E+00  .000E+00  .000E+00  .000E+00  .000E+00  .000E+00  .000E+00
  .000E+00  .000E+00  .000E+00  .000E+00  .000E+00  .000E+00  .000E+00  .000E+00
  .000E+00  .000E+00  .000E+00  .000E+00
  .489E+02  .256E+02  .275E+02  .257E+02  .272E+02  .414E+02  .549E+02  .287E+02
  .262E+02  .261E+02  .258E+02  .266E+02  .260E+02  .268E+02  .279E+02  .286E+02
  .277E+02  .266E+02  .281E+02  .284E+02  .275E+02  .414E+02  .266E+02  .288E+02
  .419E+02  .262E+02  .276E+02  .344E+02  .310E+02  .266E+02  .264E+02  .291E+02
  .268E+02  .267E+02  .387E+02  .278E+02  .259E+02  .259E+02  .259E+02  .415E+02
  .429E+02  .267E+02  .329E+02  .283E+02  .274E+02  .272E+02  .258E+02  .258E+02
  .267E+02  .267E+02  .267E+02  .258E+02  .258E+02  .258E+02  .255E+02  .255E+02
  .255E+02  .255E+02  .255E+02  .255E+02  .255E+02  .258E+02  .255E+02  .255E+02
  .255E+02  .255E+02  .255E+02  .255E+02  .000E+00  .000E+00  .000E+00  .000E+00
  .000E+00  .000E+00  .000E+00  .000E+00  .000E+00  .000E+00  .000E+00  .000E+00
  .000E+00  .000E+00  .000E+00  .000E+00  .000E+00  .000E+00  .000E+00  .000E+00
  .000E+00  .000E+00  .000E+00  .000E+00  .000E+00  .000E+00  .000E+00  .000E+00
  .000E+00  .000E+00  .000E+00  .000E+00
  .276E+02  .255E+02  .274E+02  .257E+02  .274E+02  .414E+02  .389E+02  .287E+02
  .262E+02  .262E+02  .258E+02  .267E+02  .258E+02  .267E+02  .279E+02  .286E+02
  .277E+02  .266E+02  .279E+02  .283E+02  .275E+02  .414E+02  .265E+02  .289E+02
  .418E+02  .329E+02  .277E+02  .344E+02  .309E+02  .265E+02  .264E+02  .290E+02
  .267E+02  .271E+02  .388E+02  .259E+02  .349E+02  .259E+02  .300E+02  .409E+02
  .422E+02  .266E+02  .340E+02  .288E+02  .314E+02  .274E+02  .267E+02  .268E+02
  .295E+02  .406E+02  .275E+02  .277E+02  .500E+02  .566E+02  .336E+02  .348E+02
  .274E+02  .529E+02  .450E+02  .393E+02  .257E+02  .257E+02  .257E+02  .257E+02
  .257E+02  .257E+02  .257E+02  .257E+02  .000E+00  .000E+00  .000E+00  .000E+00
  .000E+00  .000E+00  .000E+00  .000E+00  .000E+00  .000E+00  .000E+00  .000E+00
  .000E+00  .000E+00  .000E+00  .000E+00  .000E+00  .000E+00  .000E+00  .000E+00
  .000E+00  .000E+00  .000E+00  .000E+00  .000E+00  .000E+00  .000E+00  .000E+00
  .000E+00  .000E+00  .000E+00  .000E+00
Damping =  .02. Data of Sd,Sv,Sa,Pssv,ttSd,ttSv,ttSa :
  .205E-03  .264E-03  .297E-03  .459E-03  .476E-03  .564E-03  .588E-03  .829E-03
  .154E-02  .210E-02  .235E-02  .219E-02  .181E-02  .199E-02  .309E-02  .317E-02
  .198E-02  .321E-02  .437E-02  .429E-02  .440E-02  .619E-02  .111E-01  .168E-01
  .116E-01  .911E-02  .118E-01  .105E-01  .750E-02  .619E-02  .589E-02  .733E-02
  .740E-02  .700E-02  .834E-02  .964E-02  .939E-02  .848E-02  .800E-02  .109E-01
  .118E-01  .106E-01  .109E-01  .127E-01  .132E-01  .119E-01  .116E-01  .107E-01
  .991E-02  .962E-02  .897E-02  .981E-02  .979E-02  .102E-01  .774E-02  .671E-02
  .570E-02  .495E-02  .496E-02  .503E-02  .528E-02  .530E-02  .562E-02  .537E-02
  .591E-02  .646E-02  .641E-02  .606E-02  .000E+00  .000E+00  .000E+00  .000E+00
  .000E+00  .000E+00  .000E+00  .000E+00  .000E+00  .000E+00  .000E+00  .000E+00
  .000E+00  .000E+00  .000E+00  .000E+00  .000E+00  .000E+00  .000E+00  .000E+00
  .000E+00  .000E+00  .000E+00  .000E+00  .000E+00  .000E+00  .000E+00  .000E+00
  .000E+00  .000E+00  .000E+00  .000E+00
  .233E-01  .324E-01  .316E-01  .482E-01  .482E-01  .621E-01  .603E-01  .725E-01
  .133E+00  .179E+00  .187E+00  .154E+00  .113E+00  .123E+00  .198E+00  .190E+00
  .104E+00  .151E+00  .202E+00  .181E+00  .184E+00  .228E+00  .414E+00  .599E+00
  .405E+00  .295E+00  .357E+00  .296E+00  .226E+00  .159E+00  .155E+00  .164E+00
  .166E+00  .169E+00  .161E+00  .170E+00  .180E+00  .173E+00  .169E+00  .170E+00
  .170E+00  .145E+00  .135E+00  .150E+00  .152E+00  .138E+00  .134E+00  .128E+00
  .124E+00  .126E+00  .121E+00  .111E+00  .104E+00  .978E-01  .950E-01  .929E-01
  .909E-01  .899E-01  .888E-01  .885E-01  .885E-01  .874E-01  .887E-01  .877E-01
  .875E-01  .886E-01  .896E-01  .897E-01  .000E+00  .000E+00  .000E+00  .000E+00
  .000E+00  .000E+00  .000E+00  .000E+00  .000E+00  .000E+00  .000E+00  .000E+00
  .000E+00  .000E+00  .000E+00  .000E+00  .000E+00  .000E+00  .000E+00  .000E+00
  .000E+00  .000E+00  .000E+00  .000E+00  .000E+00  .000E+00  .000E+00  .000E+00
  .000E+00  .000E+00  .000E+00  .000E+00
  .131E-01  .154E-01  .157E-01  .222E-01  .212E-01  .233E-01  .199E-01  .235E-01
  .373E-01  .436E-01  .430E-01  .349E-01  .257E-01  .252E-01  .350E-01  .324E-01
  .167E-01  .228E-01  .264E-01  .223E-01  .201E-01  .248E-01  .395E-01  .531E-01
  .329E-01  .233E-01  .250E-01  .186E-01  .114E-01  .807E-02  .671E-02  .734E-02
  .656E-02  .554E-02  .592E-02  .617E-02  .545E-02  .449E-02  .387E-02  .485E-02
  .485E-02  .360E-02  .310E-02  .308E-02  .276E-02  .216E-02  .186E-02  .152E-02
  .126E-02  .109E-02  .921E-03  .831E-03  .696E-03  .620E-03  .406E-03  .308E-03
  .230E-03  .179E-03  .160E-03  .147E-03  .139E-03  .116E-03  .104E-03  .852E-04
  .809E-04  .772E-04  .678E-04  .573E-04  .000E+00  .000E+00  .000E+00  .000E+00
  .000E+00  .000E+00  .000E+00  .000E+00  .000E+00  .000E+00  .000E+00  .000E+00
  .000E+00  .000E+00  .000E+00  .000E+00  .000E+00  .000E+00  .000E+00  .000E+00
  .000E+00  .000E+00  .000E+00  .000E+00  .000E+00  .000E+00  .000E+00  .000E+00
  .000E+00  .000E+00  .000E+00  .000E+00
  .321E-01  .395E-01  .424E-01  .627E-01  .623E-01  .709E-01  .672E-01  .868E-01
  .148E+00  .188E+00  .197E+00  .172E+00  .134E+00  .139E+00  .204E+00  .199E+00
  .113E+00  .168E+00  .211E+00  .192E+00  .184E+00  .243E+00  .411E+00  .588E+00
  .384E+00  .286E+00  .336E+00  .274E+00  .181E+00  .139E+00  .123E+00  .144E+00
  .137E+00  .122E+00  .138E+00  .151E+00  .140E+00  .121E+00  .109E+00  .143E+00
  .149E+00  .122E+00  .114E+00  .123E+00  .119E+00  .995E-01  .910E-01  .792E-01
  .692E-01  .636E-01  .564E-01  .560E-01  .512E-01  .495E-01  .347E-01  .281E-01
  .224E-01  .183E-01  .173E-01  .166E-01  .166E-01  .151E-01  .147E-01  .130E-01
  .133E-01  .135E-01  .126E-01  .112E-01  .000E+00  .000E+00  .000E+00  .000E+00
  .000E+00  .000E+00  .000E+00  .000E+00  .000E+00  .000E+00  .000E+00  .000E+00
  .000E+00  .000E+00  .000E+00  .000E+00  .000E+00  .000E+00  .000E+00  .000E+00
  .000E+00  .000E+00  .000E+00  .000E+00  .000E+00  .000E+00  .000E+00  .000E+00
  .000E+00  .000E+00  .000E+00  .000E+00
  .257E+02  .257E+02  .257E+02  .257E+02  .257E+02  .263E+02  .264E+02  .257E+02
  .258E+02  .258E+02  .258E+02  .258E+02  .258E+02  .263E+02  .277E+02  .277E+02
  .259E+02  .263E+02  .268E+02  .269E+02  .270E+02  .259E+02  .265E+02  .270E+02
  .271E+02  .262E+02  .269E+02  .268E+02  .267E+02  .264E+02  .264E+02  .263E+02
  .267E+02  .267E+02  .259E+02  .259E+02  .259E+02  .259E+02  .259E+02  .282E+02
  .277E+02  .258E+02  .258E+02  .281E+02  .276E+02  .274E+02  .267E+02  .267E+02
  .264E+02  .264E+02  .264E+02  .277E+02  .297E+02  .305E+02  .274E+02  .274E+02
  .274E+02  .270E+02  .270E+02  .257E+02  .257E+02  .257E+02  .257E+02  .257E+02
  .257E+02  .257E+02  .257E+02  .257E+02  .000E+00  .000E+00  .000E+00  .000E+00
  .000E+00  .000E+00  .000E+00  .000E+00  .000E+00  .000E+00  .000E+00  .000E+00
  .000E+00  .000E+00  .000E+00  .000E+00  .000E+00  .000E+00  .000E+00  .000E+00
  .000E+00  .000E+00  .000E+00  .000E+00  .000E+00  .000E+00  .000E+00  .000E+00
  .000E+00  .000E+00  .000E+00  .000E+00
  .262E+02  .260E+02  .261E+02  .257E+02  .262E+02  .264E+02  .265E+02  .257E+02
  .258E+02  .258E+02  .258E+02  .258E+02  .258E+02  .257E+02  .276E+02  .276E+02
  .277E+02  .264E+02  .279E+02  .269E+02  .275E+02  .275E+02  .264E+02  .272E+02
  .271E+02  .262E+02  .270E+02  .268E+02  .267E+02  .266E+02  .264E+02  .264E+02
  .268E+02  .267E+02  .267E+02  .258E+02  .259E+02  .259E+02  .259E+02  .259E+02
  .259E+02  .259E+02  .263E+02  .277E+02  .274E+02  .258E+02  .258E+02  .258E+02
  .267E+02  .267E+02  .267E+02  .258E+02  .258E+02  .258E+02  .255E+02  .255E+02
  .255E+02  .255E+02  .255E+02  .255E+02  .255E+02  .255E+02  .255E+02  .255E+02
  .255E+02  .255E+02  .255E+02  .255E+02  .000E+00  .000E+00  .000E+00  .000E+00
  .000E+00  .000E+00  .000E+00  .000E+00  .000E+00  .000E+00  .000E+00  .000E+00
  .000E+00  .000E+00  .000E+00  .000E+00  .000E+00  .000E+00  .000E+00  .000E+00
  .000E+00  .000E+00  .000E+00  .000E+00  .000E+00  .000E+00  .000E+00  .000E+00
  .000E+00  .000E+00  .000E+00  .000E+00
  .257E+02  .257E+02  .257E+02  .257E+02  .257E+02  .263E+02  .264E+02  .257E+02
  .258E+02  .258E+02  .258E+02  .258E+02  .258E+02  .263E+02  .277E+02  .277E+02
  .259E+02  .266E+02  .268E+02  .269E+02  .270E+02  .259E+02  .265E+02  .270E+02
  .271E+02  .262E+02  .269E+02  .268E+02  .267E+02  .264E+02  .264E+02  .263E+02
  .267E+02  .267E+02  .259E+02  .259E+02  .259E+02  .259E+02  .259E+02  .282E+02
  .277E+02  .258E+02  .258E+02  .281E+02  .276E+02  .274E+02  .267E+02  .267E+02
  .264E+02  .264E+02  .264E+02  .276E+02  .297E+02  .305E+02  .274E+02  .274E+02
  .274E+02  .257E+02  .270E+02  .257E+02  .257E+02  .257E+02  .257E+02  .257E+02
  .257E+02  .257E+02  .257E+02  .257E+02  .000E+00  .000E+00  .000E+00  .000E+00
  .000E+00  .000E+00  .000E+00  .000E+00  .000E+00  .000E+00  .000E+00  .000E+00
  .000E+00  .000E+00  .000E+00  .000E+00  .000E+00  .000E+00  .000E+00  .000E+00
  .000E+00  .000E+00  .000E+00  .000E+00  .000E+00  .000E+00  .000E+00  .000E+00
  .000E+00  .000E+00  .000E+00  .000E+00
Damping =  .05. Data of Sd,Sv,Sa,Pssv,ttSd,ttSv,ttSa :
  .194E-03  .236E-03  .285E-03  .355E-03  .391E-03  .376E-03  .488E-03  .736E-03
  .117E-02  .160E-02  .168E-02  .161E-02  .144E-02  .145E-02  .196E-02  .203E-02
  .172E-02  .253E-02  .314E-02  .314E-02  .369E-02  .521E-02  .713E-02  .902E-02
  .844E-02  .706E-02  .849E-02  .812E-02  .624E-02  .507E-02  .472E-02  .550E-02
  .549E-02  .625E-02  .732E-02  .808E-02  .806E-02  .762E-02  .719E-02  .750E-02
