Response and Fourier amplitude spectra (68 periods,  .04 -  3.4 sec)   for      
Corrected accelerogram   24207-M0150-11244.01       Chan  7:  Radl       from   
Uncorrected Accelerogram Data             Processed: 03/04/14, CGS  jh001       
Rcrd of Thu Sep  1, 2011 13:46:46.0 PDT               (Avol1 v0.5, 2/14 CSMIP)  
CSMIP Preliminary Processing            (Origin:  To be determined)             
24207-M0150-11244.01                 Start time:  9/01/11, 20:46:46.0 UTC (GPS) 
Station No. 24207   34.335N, 118.397W    MtWtny  s/n  150 (17 Chns of 17 at Sta)
Sylmar - Pacoima Dam                      CGS   Data: Acceleration              
Chan  7:  Radl                      Location: 80% Height: Center                
Rcrd of Thu Sep  1, 2011 13:46:46.0 PDT    Thu Sep  1, 2011 13:46:46.0 PDT      
Hypocenter:  To be determined.               ML:  To be determined.
Instr Period =  .0102 sec,  Damping =  .670,  Sensitivity =  .62 v/g
                        Record length = 58.000 sec.
                                     Uncor Max  =  -.012 g , at  26.260 sec.
RMS accel of (uncor) record  =        .   Chn. metadata effective date: 09/02/99
Accelerogram bandpass filtered with 3 dB pts at   .30 and 40.00 cyc/sec
                 instrument- and baseline-corrected





Rcrd of Thu Sep  1, 2011 13:46:46.0 PDT    Thu Sep  1, 2011 13:46:46.0 PDT

24207-M0150-11244.01      Sylmar - Pacoima Dam    Chan  7:  Radl

24207-M0150-11244.01      Sylmar - Pacoima Dam    Chan  7:  Radl

Units for spectra are inches and sec, except Sa is in fraction of g.

    7  100    7   18   17  200    1    3    1   24   13  150    024207    5    0
   20   46   46    0  244    9    1 2011   10    3  70011600   39   20   74   -1
11600    0  100    3  150    1    1  580    2    0    0    0    0    0    0    0
    0    0    3    011600    1  222    1   18    4    0    0    3    1    011600
    311600    4   68    5   17    5    0    0    0    0    0    1    3    1    2
    2    2    4    0   68   99    0   10    0    0    0    1    0    0   68  222
    1    0    6    0
      .010      .670    58.000      .001      .000   624.000     -.012    26.260
    97.600      .298      .478      .000     5.000  -999.000     4.000      .000
     2.500   -37.321     2.500  2016.000    25.000    30.000  -999.000      .005
     -.004     -.009     2.000    15.000    34.335  -118.397      .015      .080
     5.303     -.013     -.005   594.000    25.800    27.800    12.800   118.940
     1.000    -1.262      .000  -999.000  -999.000  -999.000  -999.000      .000
      .100      .500     6.300   980.665      .005    58.000    15.534      .000
      .000    40.000      .000    58.000      .005      .303      .000      .000
    26.255   -11.841    26.205      .398    25.605     -.017      .000      .303
    40.000      .005      .005      .000      .005      .005      .000      .000
      .053      .190      .049      .019      .001      .000      .000      .000
      .000      .000      .000      .000      .000      .000      .000      .000
      .000      .000      .000      .000
      .000      .020      .050      .100      .200
      .040      .042      .044      .046      .048      .050      .055      .060
      .065      .070      .075      .080      .085      .090      .095      .100
      .110      .120      .130      .140      .150      .160      .170      .180
      .190      .200      .220      .240      .260      .280      .300      .320
      .340      .360      .380      .400      .420      .440      .460      .480
      .500      .550      .600      .650      .700      .750      .800      .850
      .900      .950     1.000     1.100     1.200     1.300     1.400     1.500
     1.600     1.700     1.800     1.900     2.000     2.200     2.400     2.600
     2.800     3.000     3.200     3.400      .000      .000      .000      .000
      .000      .000      .000      .000      .000      .000      .000      .000
      .000      .000      .000      .000      .000      .000      .000      .000
      .000      .000      .000      .000      .000      .000      .000      .000
      .000      .000      .000      .000
Fourier amplitude spectra in in/sec.
  .377E-01  .563E-01  .424E-01  .945E-01  .329E-01  .168E+00  .316E+00  .311E+00
  .251E+00  .238E-01  .111E+00  .189E+00  .184E+00  .302E+00  .183E+00  .154E+00
  .586E-01  .114E+00  .765E-01  .945E-01  .585E+00  .116E+00  .113E+01  .121E+01
  .737E+00  .499E+00  .713E+00  .145E+01  .850E+00  .552E+00  .381E+00  .726E+00
  .132E+00  .101E+00  .136E+00  .424E+00  .238E+00  .149E+00  .170E+00  .265E+00
  .789E-01  .202E+00  .724E-01  .212E+00  .794E-01  .673E-01  .342E-01  .143E+00
  .149E+00  .449E-01  .513E-01  .249E-01  .530E-01  .664E-01  .607E-01  .511E-01
  .585E-01  .485E-01  .243E-01  .291E-01  .193E-01  .247E-01  .294E-01  .174E-01
  .894E-02  .247E-02  .634E-02  .336E-02  .000E+00  .000E+00  .000E+00  .000E+00
  .000E+00  .000E+00  .000E+00  .000E+00  .000E+00  .000E+00  .000E+00  .000E+00
  .000E+00  .000E+00  .000E+00  .000E+00  .000E+00  .000E+00  .000E+00  .000E+00
  .000E+00  .000E+00  .000E+00  .000E+00  .000E+00  .000E+00  .000E+00  .000E+00
  .000E+00  .000E+00  .000E+00  .000E+00
Damping =  .00. Data of Sd,Sv,Sa,Pssv,ttSd,ttSv,ttSa :
  .351E-03  .673E-03  .563E-03  .853E-03  .931E-03  .160E-02  .282E-02  .300E-02
  .275E-02  .131E-02  .240E-02  .315E-02  .262E-02  .479E-02  .283E-02  .312E-02
  .271E-02  .370E-02  .481E-02  .830E-02  .158E-01  .138E-01  .336E-01  .427E-01
  .310E-01  .239E-01  .338E-01  .580E-01  .378E-01  .298E-01  .237E-01  .372E-01
  .164E-01  .141E-01  .151E-01  .303E-01  .198E-01  .108E-01  .176E-01  .249E-01
  .140E-01  .184E-01  .158E-01  .245E-01  .160E-01  .130E-01  .134E-01  .197E-01
  .230E-01  .152E-01  .119E-01  .117E-01  .141E-01  .159E-01  .147E-01  .157E-01
  .151E-01  .137E-01  .138E-01  .122E-01  .120E-01  .117E-01  .115E-01  .110E-01
  .966E-02  .854E-02  .892E-02  .878E-02  .000E+00  .000E+00  .000E+00  .000E+00
  .000E+00  .000E+00  .000E+00  .000E+00  .000E+00  .000E+00  .000E+00  .000E+00
  .000E+00  .000E+00  .000E+00  .000E+00  .000E+00  .000E+00  .000E+00  .000E+00
  .000E+00  .000E+00  .000E+00  .000E+00  .000E+00  .000E+00  .000E+00  .000E+00
  .000E+00  .000E+00  .000E+00  .000E+00
  .455E-01  .769E-01  .609E-01  .102E+00  .109E+00  .184E+00  .316E+00  .308E+00
  .264E+00  .112E+00  .193E+00  .241E+00  .188E+00  .326E+00  .186E+00  .183E+00
  .985E-01  .179E+00  .169E+00  .345E+00  .639E+00  .509E+00  .124E+01  .149E+01
  .103E+01  .747E+00  .960E+00  .152E+01  .915E+00  .711E+00  .544E+00  .730E+00
  .387E+00  .334E+00  .304E+00  .481E+00  .298E+00  .221E+00  .250E+00  .328E+00
  .229E+00  .287E+00  .279E+00  .238E+00  .233E+00  .237E+00  .230E+00  .216E+00
  .202E+00  .193E+00  .183E+00  .165E+00  .155E+00  .148E+00  .144E+00  .145E+00
  .148E+00  .151E+00  .152E+00  .157E+00  .157E+00  .159E+00  .161E+00  .164E+00
  .165E+00  .162E+00  .161E+00  .162E+00  .000E+00  .000E+00  .000E+00  .000E+00
  .000E+00  .000E+00  .000E+00  .000E+00  .000E+00  .000E+00  .000E+00  .000E+00
  .000E+00  .000E+00  .000E+00  .000E+00  .000E+00  .000E+00  .000E+00  .000E+00
  .000E+00  .000E+00  .000E+00  .000E+00  .000E+00  .000E+00  .000E+00  .000E+00
  .000E+00  .000E+00  .000E+00  .000E+00
  .225E-01  .390E-01  .297E-01  .412E-01  .413E-01  .654E-01  .953E-01  .853E-01
  .667E-01  .274E-01  .437E-01  .503E-01  .371E-01  .604E-01  .321E-01  .319E-01
  .229E-01  .263E-01  .291E-01  .433E-01  .717E-01  .549E-01  .119E+00  .135E+00
  .878E-01  .611E-01  .715E-01  .103E+00  .571E-01  .389E-01  .269E-01  .372E-01
  .145E-01  .111E-01  .107E-01  .194E-01  .115E-01  .570E-02  .852E-02  .110E-01
  .572E-02  .621E-02  .449E-02  .592E-02  .335E-02  .237E-02  .214E-02  .278E-02
  .290E-02  .173E-02  .122E-02  .991E-03  .100E-02  .962E-03  .765E-03  .714E-03
  .605E-03  .485E-03  .434E-03  .346E-03  .307E-03  .247E-03  .204E-03  .166E-03
  .126E-03  .970E-04  .891E-04  .777E-04  .000E+00  .000E+00  .000E+00  .000E+00
  .000E+00  .000E+00  .000E+00  .000E+00  .000E+00  .000E+00  .000E+00  .000E+00
  .000E+00  .000E+00  .000E+00  .000E+00  .000E+00  .000E+00  .000E+00  .000E+00
  .000E+00  .000E+00  .000E+00  .000E+00  .000E+00  .000E+00  .000E+00  .000E+00
  .000E+00  .000E+00  .000E+00  .000E+00
  .552E-01  .101E+00  .804E-01  .117E+00  .122E+00  .201E+00  .322E+00  .314E+00
  .266E+00  .118E+00  .201E+00  .247E+00  .194E+00  .334E+00  .187E+00  .196E+00
  .155E+00  .194E+00  .232E+00  .373E+00  .661E+00  .540E+00  .124E+01  .149E+01
  .102E+01  .751E+00  .966E+00  .152E+01  .913E+00  .669E+00  .497E+00  .731E+00
  .302E+00  .246E+00  .249E+00  .477E+00  .296E+00  .154E+00  .241E+00  .326E+00
  .176E+00  .210E+00  .165E+00  .236E+00  .144E+00  .109E+00  .105E+00  .145E+00
  .160E+00  .101E+00  .750E-01  .669E-01  .741E-01  .768E-01  .658E-01  .658E-01
  .594E-01  .506E-01  .480E-01  .403E-01  .377E-01  .334E-01  .301E-01  .265E-01
  .217E-01  .179E-01  .175E-01  .162E-01  .000E+00  .000E+00  .000E+00  .000E+00
  .000E+00  .000E+00  .000E+00  .000E+00  .000E+00  .000E+00  .000E+00  .000E+00
  .000E+00  .000E+00  .000E+00  .000E+00  .000E+00  .000E+00  .000E+00  .000E+00
  .000E+00  .000E+00  .000E+00  .000E+00  .000E+00  .000E+00  .000E+00  .000E+00
  .000E+00  .000E+00  .000E+00  .000E+00
  .263E+02  .260E+02  .262E+02  .260E+02  .259E+02  .272E+02  .276E+02  .275E+02
  .285E+02  .271E+02  .268E+02  .272E+02  .286E+02  .274E+02  .440E+02  .280E+02
  .261E+02  .267E+02  .261E+02  .263E+02  .280E+02  .260E+02  .289E+02  .279E+02
  .264E+02  .264E+02  .270E+02  .338E+02  .304E+02  .266E+02  .267E+02  .470E+02
  .261E+02  .260E+02  .276E+02  .377E+02  .326E+02  .268E+02  .308E+02  .358E+02
  .263E+02  .302E+02  .282E+02  .333E+02  .262E+02  .262E+02  .292E+02  .515E+02
  .417E+02  .287E+02  .260E+02  .260E+02  .371E+02  .320E+02  .310E+02  .284E+02
  .541E+02  .422E+02  .279E+02  .279E+02  .263E+02  .263E+02  .466E+02  .263E+02
  .263E+02  .263E+02  .263E+02  .263E+02  .000E+00  .000E+00  .000E+00  .000E+00
  .000E+00  .000E+00  .000E+00  .000E+00  .000E+00  .000E+00  .000E+00  .000E+00
  .000E+00  .000E+00  .000E+00  .000E+00  .000E+00  .000E+00  .000E+00  .000E+00
  .000E+00  .000E+00  .000E+00  .000E+00  .000E+00  .000E+00  .000E+00  .000E+00
  .000E+00  .000E+00  .000E+00  .000E+00
  .272E+02  .260E+02  .274E+02  .280E+02  .259E+02  .272E+02  .296E+02  .336E+02
  .285E+02  .271E+02  .269E+02  .273E+02  .292E+02  .274E+02  .440E+02  .280E+02
  .262E+02  .268E+02  .262E+02  .263E+02  .280E+02  .260E+02  .289E+02  .278E+02
  .264E+02  .264E+02  .269E+02  .338E+02  .303E+02  .267E+02  .266E+02  .471E+02
  .261E+02  .261E+02  .260E+02  .382E+02  .327E+02  .263E+02  .307E+02  .342E+02
  .262E+02  .262E+02  .262E+02  .331E+02  .261E+02  .261E+02  .261E+02  .261E+02
  .261E+02  .261E+02  .261E+02  .261E+02  .261E+02  .261E+02  .262E+02  .262E+02
  .262E+02  .262E+02  .262E+02  .262E+02  .262E+02  .262E+02  .262E+02  .262E+02
  .262E+02  .262E+02  .262E+02  .262E+02  .000E+00  .000E+00  .000E+00  .000E+00
  .000E+00  .000E+00  .000E+00  .000E+00  .000E+00  .000E+00  .000E+00  .000E+00
  .000E+00  .000E+00  .000E+00  .000E+00  .000E+00  .000E+00  .000E+00  .000E+00
  .000E+00  .000E+00  .000E+00  .000E+00  .000E+00  .000E+00  .000E+00  .000E+00
  .000E+00  .000E+00  .000E+00  .000E+00
  .263E+02  .260E+02  .262E+02  .260E+02  .259E+02  .272E+02  .276E+02  .275E+02
  .285E+02  .271E+02  .268E+02  .272E+02  .286E+02  .274E+02  .440E+02  .280E+02
  .261E+02  .267E+02  .261E+02  .263E+02  .280E+02  .260E+02  .289E+02  .279E+02
  .264E+02  .264E+02  .270E+02  .338E+02  .304E+02  .266E+02  .267E+02  .470E+02
  .261E+02  .260E+02  .276E+02  .377E+02  .326E+02  .268E+02  .308E+02  .358E+02
  .263E+02  .302E+02  .282E+02  .333E+02  .262E+02  .262E+02  .292E+02  .515E+02
  .417E+02  .287E+02  .260E+02  .260E+02  .371E+02  .320E+02  .310E+02  .284E+02
  .541E+02  .422E+02  .279E+02  .279E+02  .263E+02  .263E+02  .466E+02  .263E+02
  .263E+02  .263E+02  .263E+02  .263E+02  .000E+00  .000E+00  .000E+00  .000E+00
  .000E+00  .000E+00  .000E+00  .000E+00  .000E+00  .000E+00  .000E+00  .000E+00
  .000E+00  .000E+00  .000E+00  .000E+00  .000E+00  .000E+00  .000E+00  .000E+00
  .000E+00  .000E+00  .000E+00  .000E+00  .000E+00  .000E+00  .000E+00  .000E+00
  .000E+00  .000E+00  .000E+00  .000E+00
Damping =  .02. Data of Sd,Sv,Sa,Pssv,ttSd,ttSv,ttSa :
  .284E-03  .442E-03  .533E-03  .631E-03  .547E-03  .745E-03  .135E-02  .177E-02
  .152E-02  .135E-02  .135E-02  .174E-02  .216E-02  .293E-02  .212E-02  .194E-02
  .215E-02  .267E-02  .395E-02  .643E-02  .913E-02  .110E-01  .175E-01  .226E-01
  .240E-01  .222E-01  .255E-01  .286E-01  .267E-01  .243E-01  .195E-01  .170E-01
  .147E-01  .128E-01  .120E-01  .147E-01  .124E-01  .942E-02  .129E-01  .148E-01
  .128E-01  .131E-01  .138E-01  .156E-01  .149E-01  .126E-01  .100E-01  .145E-01
  .156E-01  .128E-01  .115E-01  .114E-01  .110E-01  .109E-01  .121E-01  .137E-01
  .133E-01  .120E-01  .124E-01  .115E-01  .115E-01  .113E-01  .112E-01  .108E-01
  .967E-02  .880E-02  .885E-02  .866E-02  .000E+00  .000E+00  .000E+00  .000E+00
  .000E+00  .000E+00  .000E+00  .000E+00  .000E+00  .000E+00  .000E+00  .000E+00
  .000E+00  .000E+00  .000E+00  .000E+00  .000E+00  .000E+00  .000E+00  .000E+00
  .000E+00  .000E+00  .000E+00  .000E+00  .000E+00  .000E+00  .000E+00  .000E+00
  .000E+00  .000E+00  .000E+00  .000E+00
  .268E-01  .441E-01  .484E-01  .585E-01  .644E-01  .662E-01  .133E+00  .161E+00
  .143E+00  .105E+00  .100E+00  .121E+00  .147E+00  .188E+00  .132E+00  .113E+00
  .861E-01  .121E+00  .146E+00  .266E+00  .360E+00  .406E+00  .645E+00  .797E+00
  .783E+00  .680E+00  .719E+00  .781E+00  .664E+00  .577E+00  .459E+00  .438E+00
  .351E+00  .311E+00  .278E+00  .251E+00  .218E+00  .214E+00  .207E+00  .206E+00
  .225E+00  .270E+00  .264E+00  .227E+00  .221E+00  .227E+00  .222E+00  .211E+00
  .200E+00  .190E+00  .181E+00  .166E+00  .156E+00  .149E+00  .144E+00  .145E+00
  .148E+00  .150E+00  .152E+00  .155E+00  .157E+00  .159E+00  .161E+00  .163E+00
  .163E+00  .162E+00  .161E+00  .162E+00  .000E+00  .000E+00  .000E+00  .000E+00
  .000E+00  .000E+00  .000E+00  .000E+00  .000E+00  .000E+00  .000E+00  .000E+00
  .000E+00  .000E+00  .000E+00  .000E+00  .000E+00  .000E+00  .000E+00  .000E+00
  .000E+00  .000E+00  .000E+00  .000E+00  .000E+00  .000E+00  .000E+00  .000E+00
  .000E+00  .000E+00  .000E+00  .000E+00
  .181E-01  .256E-01  .282E-01  .306E-01  .244E-01  .304E-01  .457E-01  .499E-01
  .367E-01  .282E-01  .246E-01  .278E-01  .304E-01  .369E-01  .242E-01  .199E-01
  .182E-01  .190E-01  .239E-01  .336E-01  .415E-01  .442E-01  .621E-01  .712E-01
  .681E-01  .569E-01  .539E-01  .509E-01  .404E-01  .316E-01  .222E-01  .170E-01
  .131E-01  .101E-01  .850E-02  .941E-02  .719E-02  .499E-02  .622E-02  .656E-02
  .524E-02  .443E-02  .393E-02  .379E-02  .313E-02  .230E-02  .161E-02  .206E-02
  .197E-02  .145E-02  .118E-02  .974E-03  .788E-03  .662E-03  .635E-03  .625E-03
  .533E-03  .426E-03  .394E-03  .333E-03  .304E-03  .249E-03  .208E-03  .172E-03
  .135E-03  .109E-03  .973E-04  .856E-04  .000E+00  .000E+00  .000E+00  .000E+00
  .000E+00  .000E+00  .000E+00  .000E+00  .000E+00  .000E+00  .000E+00  .000E+00
  .000E+00  .000E+00  .000E+00  .000E+00  .000E+00  .000E+00  .000E+00  .000E+00
  .000E+00  .000E+00  .000E+00  .000E+00  .000E+00  .000E+00  .000E+00  .000E+00
  .000E+00  .000E+00  .000E+00  .000E+00
  .446E-01  .661E-01  .761E-01  .862E-01  .716E-01  .936E-01  .154E+00  .185E+00
  .147E+00  .121E+00  .113E+00  .137E+00  .159E+00  .204E+00  .140E+00  .122E+00
  .123E+00  .140E+00  .191E+00  .289E+00  .383E+00  .434E+00  .647E+00  .788E+00
  .795E+00  .699E+00  .728E+00  .749E+00  .645E+00  .545E+00  .408E+00  .334E+00
  .273E+00  .224E+00  .198E+00  .231E+00  .185E+00  .134E+00  .176E+00  .193E+00
  .161E+00  .149E+00  .144E+00  .151E+00  .134E+00  .105E+00  .789E-01  .107E+00
  .109E+00  .846E-01  .722E-01  .651E-01  .574E-01  .528E-01  .544E-01  .575E-01
  .522E-01  .444E-01  .434E-01  .380E-01  .361E-01  .323E-01  .293E-01  .260E-01
  .217E-01  .184E-01  .174E-01  .160E-01  .000E+00  .000E+00  .000E+00  .000E+00
  .000E+00  .000E+00  .000E+00  .000E+00  .000E+00  .000E+00  .000E+00  .000E+00
  .000E+00  .000E+00  .000E+00  .000E+00  .000E+00  .000E+00  .000E+00  .000E+00
  .000E+00  .000E+00  .000E+00  .000E+00  .000E+00  .000E+00  .000E+00  .000E+00
  .000E+00  .000E+00  .000E+00  .000E+00
  .260E+02  .260E+02  .260E+02  .260E+02  .259E+02  .260E+02  .261E+02  .261E+02
  .260E+02  .259E+02  .258E+02  .272E+02  .273E+02  .273E+02  .273E+02  .273E+02
  .262E+02  .263E+02  .262E+02  .263E+02  .268E+02  .260E+02  .269E+02  .269E+02
  .264E+02  .264E+02  .264E+02  .268E+02  .267E+02  .266E+02  .262E+02  .261E+02
  .261E+02  .260E+02  .260E+02  .287E+02  .294E+02  .264E+02  .292E+02  .293E+02
  .263E+02  .263E+02  .261E+02  .261E+02  .261E+02  .262E+02  .264E+02  .289E+02
  .286E+02  .287E+02  .260E+02  .260E+02  .260E+02  .287E+02  .284E+02  .284E+02
  .284E+02  .279E+02  .279E+02  .279E+02  .263E+02  .263E+02  .263E+02  .263E+02
  .263E+02  .263E+02  .263E+02  .263E+02  .000E+00  .000E+00  .000E+00  .000E+00
  .000E+00  .000E+00  .000E+00  .000E+00  .000E+00  .000E+00  .000E+00  .000E+00
  .000E+00  .000E+00  .000E+00  .000E+00  .000E+00  .000E+00  .000E+00  .000E+00
  .000E+00  .000E+00  .000E+00  .000E+00  .000E+00  .000E+00  .000E+00  .000E+00
  .000E+00  .000E+00  .000E+00  .000E+00
  .260E+02  .260E+02  .260E+02  .260E+02  .259E+02  .261E+02  .261E+02  .261E+02
  .260E+02  .259E+02  .258E+02  .273E+02  .273E+02  .272E+02  .272E+02  .273E+02
  .256E+02  .268E+02  .257E+02  .263E+02  .268E+02  .260E+02  .269E+02  .268E+02
  .263E+02  .263E+02  .264E+02  .269E+02  .267E+02  .267E+02  .262E+02  .262E+02
  .261E+02  .261E+02  .260E+02  .260E+02  .263E+02  .263E+02  .263E+02  .263E+02
  .262E+02  .262E+02  .262E+02  .262E+02  .261E+02  .261E+02  .261E+02  .261E+02
  .261E+02  .261E+02  .261E+02  .261E+02  .261E+02  .261E+02  .261E+02  .262E+02
  .262E+02  .262E+02  .262E+02  .262E+02  .262E+02  .262E+02  .262E+02  .262E+02
  .262E+02  .262E+02  .262E+02  .262E+02  .000E+00  .000E+00  .000E+00  .000E+00
  .000E+00  .000E+00  .000E+00  .000E+00  .000E+00  .000E+00  .000E+00  .000E+00
  .000E+00  .000E+00  .000E+00  .000E+00  .000E+00  .000E+00  .000E+00  .000E+00
  .000E+00  .000E+00  .000E+00  .000E+00  .000E+00  .000E+00  .000E+00  .000E+00
  .000E+00  .000E+00  .000E+00  .000E+00
  .260E+02  .260E+02  .260E+02  .260E+02  .259E+02  .260E+02  .261E+02  .261E+02
  .260E+02  .259E+02  .258E+02  .272E+02  .273E+02  .273E+02  .273E+02  .273E+02
  .262E+02  .263E+02  .261E+02  .263E+02  .268E+02  .260E+02  .269E+02  .269E+02
  .264E+02  .264E+02  .264E+02  .268E+02  .267E+02  .266E+02  .262E+02  .263E+02
  .261E+02  .260E+02  .260E+02  .287E+02  .294E+02  .264E+02  .292E+02  .293E+02
  .262E+02  .263E+02  .261E+02  .261E+02  .261E+02  .261E+02  .264E+02  .289E+02
  .286E+02  .287E+02  .260E+02  .260E+02  .260E+02  .287E+02  .283E+02  .284E+02
  .284E+02  .279E+02  .279E+02  .262E+02  .262E+02  .262E+02  .262E+02  .262E+02
  .262E+02  .262E+02  .262E+02  .262E+02  .000E+00  .000E+00  .000E+00  .000E+00
  .000E+00  .000E+00  .000E+00  .000E+00  .000E+00  .000E+00  .000E+00  .000E+00
  .000E+00  .000E+00  .000E+00  .000E+00  .000E+00  .000E+00  .000E+00  .000E+00
  .000E+00  .000E+00  .000E+00  .000E+00  .000E+00  .000E+00  .000E+00  .000E+00
  .000E+00  .000E+00  .000E+00  .000E+00
Damping =  .05. Data of Sd,Sv,Sa,Pssv,ttSd,ttSv,ttSa :
  .285E-03  .376E-03  .459E-03  .519E-03  .547E-03  .650E-03  .106E-02  .125E-02
  .108E-02  .104E-02  .107E-02  .125E-02  .177E-02  .202E-02  .181E-02  .158E-02
  .185E-02  .250E-02  .332E-02  .503E-02  .629E-02  .858E-02  .117E-01  .163E-01
  .185E-01  .189E-01  .209E-01  .210E-01  .196E-01  .185E-01  .170E-01  .145E-01
  .129E-01  .112E-01  .103E-01  .942E-02  .902E-02  .881E-02  .985E-02  .106E-01
