Response and Fourier amplitude spectra (68 periods,  .04 -  3.4 sec)   for      
Corrected accelerogram   24207-M0150-11244.01       Chan 17: 360 Deg     from   
Uncorrected Accelerogram Data             Processed: 03/04/14, CGS  jh001       
Rcrd of Thu Sep  1, 2011 13:46:46.0 PDT               (Avol1 v0.5, 2/14 CSMIP)  
CSMIP Preliminary Processing            (Origin:  To be determined)             
24207-M0150-11244.01                 Start time:  9/01/11, 20:46:46.0 UTC (GPS) 
Station No. 24207   34.335N, 118.397W    MtWtny  s/n  150 (17 Chns of 17 at Sta)
Sylmar - Pacoima Dam                      CGS   Data: Acceleration              
Chan 17: 360 DegR                   Location: Left (South) Abutment             
Rcrd of Thu Sep  1, 2011 13:46:46.0 PDT    Thu Sep  1, 2011 13:46:46.0 PDT      
Hypocenter:  To be determined.               ML:  To be determined.
Instr Period =  .0110 sec,  Damping =  .660,  Sensitivity =  .63 v/g
                        Record length = 58.000 sec.
                                     Uncor Max  =   .018 g , at  25.715 sec.
RMS accel of (uncor) record  =        .   Chn. metadata effective date: 09/02/99
Accelerogram bandpass filtered with 3 dB pts at   .30 and 40.00 cyc/sec
                 instrument- and baseline-corrected





Rcrd of Thu Sep  1, 2011 13:46:46.0 PDT    Thu Sep  1, 2011 13:46:46.0 PDT

24207-M0150-11244.01      Sylmar - Pacoima Dam    Chan 17: 360 Deg

24207-M0150-11244.01      Sylmar - Pacoima Dam    Chan 17: 360 Deg

Units for spectra are inches and sec, except Sa is in fraction of g.

   17  100   17   18   17  200    1    3    1   24   13  150    024207    5    0
   20   46   46    0  244    9    1 2011   10    3  36011600   39   20   74   -1
11600    0  100    3  150    1    1  580    2    0    0    0    0    0    0    0
    0    0    3    011600    1  222    1   18    4    0    0    3    1    011600
    311600    4   68    5   17    5    0    0    0    0    0    1    3    1    2
    2    2    4    0   68   99    0   10    0    0    0    1    0    0   68  222
    1    0    6    0
      .011      .660    58.000      .001      .000   627.000      .018    25.715
    90.600      .298      .475      .000     5.000  -999.000     4.000      .000
     2.500    20.739     2.500  2016.000    25.000    30.000  -999.000     -.002
      .001      .003     2.000    15.000    34.335  -118.397      .025      .054
     2.166     -.001      .008   594.000    25.800    27.800    12.800   118.940
     1.000     1.140      .000  -999.000  -999.000  -999.000  -999.000      .000
      .100      .500     6.300   980.665      .005    58.000    14.419      .000
      .000    40.000      .000    58.000      .005      .303      .000      .000
    25.715    17.518    25.695     -.262    27.410      .009      .000      .303
    40.000      .005      .005      .000      .005      .004      .000      .000
      .096      .065      .018      .012      .001      .000      .000      .000
      .000      .000      .000      .000      .000      .000      .000      .000
      .000      .000      .000      .000
      .000      .020      .050      .100      .200
      .040      .042      .044      .046      .048      .050      .055      .060
      .065      .070      .075      .080      .085      .090      .095      .100
      .110      .120      .130      .140      .150      .160      .170      .180
      .190      .200      .220      .240      .260      .280      .300      .320
      .340      .360      .380      .400      .420      .440      .460      .480
      .500      .550      .600      .650      .700      .750      .800      .850
      .900      .950     1.000     1.100     1.200     1.300     1.400     1.500
     1.600     1.700     1.800     1.900     2.000     2.200     2.400     2.600
     2.800     3.000     3.200     3.400      .000      .000      .000      .000
      .000      .000      .000      .000      .000      .000      .000      .000
      .000      .000      .000      .000      .000      .000      .000      .000
      .000      .000      .000      .000      .000      .000      .000      .000
      .000      .000      .000      .000
Fourier amplitude spectra in in/sec.
  .988E-01  .125E+00  .177E+00  .841E-01  .357E+00  .274E+00  .582E+00  .345E+00
  .579E+00  .505E+00  .272E+00  .590E+00  .475E+00  .151E+00  .693E+00  .296E+00
  .209E+00  .198E+00  .248E+00  .164E+00  .210E+00  .317E+00  .222E+00  .229E+00
  .618E+00  .403E+00  .457E+00  .601E+00  .447E+00  .264E+00  .197E+00  .433E+00
  .148E+00  .147E+00  .119E+00  .548E-01  .936E-01  .648E-01  .121E+00  .240E+00
  .271E+00  .344E-01  .213E+00  .123E+00  .884E-01  .610E-01  .501E-01  .916E-02
  .698E-01  .102E+00  .156E-01  .637E-01  .764E-01  .523E-01  .217E-01  .238E-01
  .197E-01  .277E-01  .159E-01  .102E-01  .973E-02  .632E-02  .139E-02  .128E-01
  .969E-02  .119E-01  .635E-02  .346E-02  .000E+00  .000E+00  .000E+00  .000E+00
  .000E+00  .000E+00  .000E+00  .000E+00  .000E+00  .000E+00  .000E+00  .000E+00
  .000E+00  .000E+00  .000E+00  .000E+00  .000E+00  .000E+00  .000E+00  .000E+00
  .000E+00  .000E+00  .000E+00  .000E+00  .000E+00  .000E+00  .000E+00  .000E+00
  .000E+00  .000E+00  .000E+00  .000E+00
Damping =  .00. Data of Sd,Sv,Sa,Pssv,ttSd,ttSv,ttSa :
  .755E-03  .142E-02  .174E-02  .125E-02  .304E-02  .300E-02  .564E-02  .562E-02
  .107E-01  .634E-02  .748E-02  .101E-01  .769E-02  .598E-02  .106E-01  .648E-02
  .831E-02  .553E-02  .749E-02  .656E-02  .590E-02  .976E-02  .611E-02  .753E-02
  .201E-01  .136E-01  .173E-01  .251E-01  .211E-01  .156E-01  .132E-01  .222E-01
  .148E-01  .109E-01  .102E-01  .632E-02  .891E-02  .105E-01  .135E-01  .204E-01
  .216E-01  .126E-01  .232E-01  .175E-01  .159E-01  .986E-02  .859E-02  .754E-02
  .109E-01  .162E-01  .950E-02  .138E-01  .155E-01  .109E-01  .811E-02  .805E-02
  .646E-02  .780E-02  .534E-02  .512E-02  .474E-02  .459E-02  .486E-02  .540E-02
  .533E-02  .632E-02  .639E-02  .564E-02  .000E+00  .000E+00  .000E+00  .000E+00
  .000E+00  .000E+00  .000E+00  .000E+00  .000E+00  .000E+00  .000E+00  .000E+00
  .000E+00  .000E+00  .000E+00  .000E+00  .000E+00  .000E+00  .000E+00  .000E+00
  .000E+00  .000E+00  .000E+00  .000E+00  .000E+00  .000E+00  .000E+00  .000E+00
  .000E+00  .000E+00  .000E+00  .000E+00
  .116E+00  .193E+00  .231E+00  .163E+00  .390E+00  .348E+00  .639E+00  .571E+00
  .104E+01  .575E+00  .627E+00  .810E+00  .587E+00  .430E+00  .701E+00  .411E+00
  .511E+00  .275E+00  .366E+00  .312E+00  .239E+00  .385E+00  .237E+00  .271E+00
  .656E+00  .426E+00  .493E+00  .657E+00  .513E+00  .382E+00  .333E+00  .435E+00
  .283E+00  .198E+00  .194E+00  .170E+00  .160E+00  .175E+00  .194E+00  .269E+00
  .274E+00  .192E+00  .242E+00  .191E+00  .163E+00  .135E+00  .128E+00  .120E+00
  .115E+00  .112E+00  .110E+00  .115E+00  .117E+00  .112E+00  .107E+00  .106E+00
  .106E+00  .104E+00  .103E+00  .105E+00  .103E+00  .102E+00  .102E+00  .103E+00
  .101E+00  .102E+00  .104E+00  .105E+00  .000E+00  .000E+00  .000E+00  .000E+00
  .000E+00  .000E+00  .000E+00  .000E+00  .000E+00  .000E+00  .000E+00  .000E+00
  .000E+00  .000E+00  .000E+00  .000E+00  .000E+00  .000E+00  .000E+00  .000E+00
  .000E+00  .000E+00  .000E+00  .000E+00  .000E+00  .000E+00  .000E+00  .000E+00
  .000E+00  .000E+00  .000E+00  .000E+00
  .482E-01  .824E-01  .918E-01  .606E-01  .135E+00  .123E+00  .191E+00  .160E+00
  .260E+00  .132E+00  .136E+00  .161E+00  .109E+00  .755E-01  .120E+00  .663E-01
  .702E-01  .393E-01  .453E-01  .343E-01  .268E-01  .390E-01  .216E-01  .238E-01
  .571E-01  .348E-01  .365E-01  .445E-01  .319E-01  .204E-01  .150E-01  .221E-01
  .131E-01  .857E-02  .724E-02  .404E-02  .517E-02  .553E-02  .650E-02  .907E-02
  .882E-02  .426E-02  .659E-02  .423E-02  .331E-02  .179E-02  .137E-02  .107E-02
  .137E-02  .184E-02  .972E-03  .116E-02  .110E-02  .660E-03  .423E-03  .366E-03
  .258E-03  .276E-03  .169E-03  .145E-03  .121E-03  .970E-04  .863E-04  .817E-04
  .696E-04  .719E-04  .638E-04  .499E-04  .000E+00  .000E+00  .000E+00  .000E+00
  .000E+00  .000E+00  .000E+00  .000E+00  .000E+00  .000E+00  .000E+00  .000E+00
  .000E+00  .000E+00  .000E+00  .000E+00  .000E+00  .000E+00  .000E+00  .000E+00
  .000E+00  .000E+00  .000E+00  .000E+00  .000E+00  .000E+00  .000E+00  .000E+00
  .000E+00  .000E+00  .000E+00  .000E+00
  .119E+00  .213E+00  .248E+00  .171E+00  .398E+00  .377E+00  .645E+00  .589E+00
  .104E+01  .569E+00  .626E+00  .793E+00  .569E+00  .418E+00  .701E+00  .407E+00
  .475E+00  .290E+00  .362E+00  .295E+00  .247E+00  .383E+00  .226E+00  .263E+00
  .666E+00  .428E+00  .494E+00  .656E+00  .510E+00  .351E+00  .277E+00  .435E+00
  .273E+00  .190E+00  .169E+00  .993E-01  .133E+00  .150E+00  .184E+00  .267E+00
  .271E+00  .144E+00  .243E+00  .169E+00  .142E+00  .826E-01  .675E-01  .557E-01
  .760E-01  .107E+00  .597E-01  .787E-01  .810E-01  .527E-01  .364E-01  .337E-01
  .254E-01  .288E-01  .186E-01  .169E-01  .149E-01  .131E-01  .127E-01  .130E-01
  .120E-01  .132E-01  .125E-01  .104E-01  .000E+00  .000E+00  .000E+00  .000E+00
  .000E+00  .000E+00  .000E+00  .000E+00  .000E+00  .000E+00  .000E+00  .000E+00
  .000E+00  .000E+00  .000E+00  .000E+00  .000E+00  .000E+00  .000E+00  .000E+00
  .000E+00  .000E+00  .000E+00  .000E+00  .000E+00  .000E+00  .000E+00  .000E+00
  .000E+00  .000E+00  .000E+00  .000E+00
  .277E+02  .272E+02  .262E+02  .259E+02  .276E+02  .257E+02  .284E+02  .259E+02
  .262E+02  .264E+02  .272E+02  .265E+02  .261E+02  .265E+02  .416E+02  .260E+02
  .264E+02  .268E+02  .273E+02  .267E+02  .264E+02  .286E+02  .382E+02  .259E+02
  .306E+02  .383E+02  .407E+02  .327E+02  .294E+02  .266E+02  .265E+02  .546E+02
  .279E+02  .273E+02  .271E+02  .323E+02  .271E+02  .279E+02  .279E+02  .309E+02
  .323E+02  .264E+02  .340E+02  .282E+02  .315E+02  .263E+02  .263E+02  .268E+02
  .389E+02  .445E+02  .276E+02  .421E+02  .512E+02  .565E+02  .306E+02  .346E+02
  .366E+02  .522E+02  .452E+02  .274E+02  .274E+02  .274E+02  .274E+02  .274E+02
  .399E+02  .274E+02  .274E+02  .274E+02  .000E+00  .000E+00  .000E+00  .000E+00
  .000E+00  .000E+00  .000E+00  .000E+00  .000E+00  .000E+00  .000E+00  .000E+00
  .000E+00  .000E+00  .000E+00  .000E+00  .000E+00  .000E+00  .000E+00  .000E+00
  .000E+00  .000E+00  .000E+00  .000E+00  .000E+00  .000E+00  .000E+00  .000E+00
  .000E+00  .000E+00  .000E+00  .000E+00
  .287E+02  .272E+02  .262E+02  .259E+02  .276E+02  .257E+02  .284E+02  .260E+02
  .262E+02  .264E+02  .273E+02  .266E+02  .261E+02  .266E+02  .436E+02  .260E+02
  .261E+02  .269E+02  .273E+02  .266E+02  .261E+02  .267E+02  .272E+02  .259E+02
  .306E+02  .382E+02  .406E+02  .327E+02  .294E+02  .267E+02  .266E+02  .546E+02
  .278E+02  .274E+02  .265E+02  .261E+02  .261E+02  .280E+02  .278E+02  .308E+02
  .324E+02  .265E+02  .339E+02  .283E+02  .275E+02  .262E+02  .258E+02  .258E+02
  .258E+02  .258E+02  .258E+02  .265E+02  .265E+02  .265E+02  .265E+02  .257E+02
  .265E+02  .257E+02  .257E+02  .257E+02  .257E+02  .257E+02  .257E+02  .257E+02
  .257E+02  .257E+02  .257E+02  .257E+02  .000E+00  .000E+00  .000E+00  .000E+00
  .000E+00  .000E+00  .000E+00  .000E+00  .000E+00  .000E+00  .000E+00  .000E+00
  .000E+00  .000E+00  .000E+00  .000E+00  .000E+00  .000E+00  .000E+00  .000E+00
  .000E+00  .000E+00  .000E+00  .000E+00  .000E+00  .000E+00  .000E+00  .000E+00
  .000E+00  .000E+00  .000E+00  .000E+00
  .277E+02  .272E+02  .262E+02  .259E+02  .276E+02  .257E+02  .284E+02  .259E+02
  .262E+02  .264E+02  .272E+02  .265E+02  .261E+02  .265E+02  .416E+02  .260E+02
  .264E+02  .268E+02  .273E+02  .267E+02  .264E+02  .286E+02  .382E+02  .259E+02
  .306E+02  .383E+02  .407E+02  .327E+02  .294E+02  .266E+02  .265E+02  .546E+02
  .279E+02  .273E+02  .271E+02  .323E+02  .271E+02  .279E+02  .279E+02  .309E+02
  .323E+02  .264E+02  .340E+02  .282E+02  .315E+02  .263E+02  .263E+02  .268E+02
  .389E+02  .445E+02  .276E+02  .421E+02  .512E+02  .565E+02  .306E+02  .346E+02
  .366E+02  .522E+02  .452E+02  .274E+02  .274E+02  .274E+02  .274E+02  .274E+02
  .399E+02  .274E+02  .274E+02  .274E+02  .000E+00  .000E+00  .000E+00  .000E+00
  .000E+00  .000E+00  .000E+00  .000E+00  .000E+00  .000E+00  .000E+00  .000E+00
  .000E+00  .000E+00  .000E+00  .000E+00  .000E+00  .000E+00  .000E+00  .000E+00
  .000E+00  .000E+00  .000E+00  .000E+00  .000E+00  .000E+00  .000E+00  .000E+00
  .000E+00  .000E+00  .000E+00  .000E+00
Damping =  .02. Data of Sd,Sv,Sa,Pssv,ttSd,ttSv,ttSa :
  .542E-03  .742E-03  .813E-03  .109E-02  .146E-02  .164E-02  .280E-02  .301E-02
  .564E-02  .555E-02  .499E-02  .521E-02  .477E-02  .382E-02  .482E-02  .526E-02
  .540E-02  .403E-02  .439E-02  .498E-02  .475E-02  .552E-02  .467E-02  .574E-02
  .942E-02  .886E-02  .117E-01  .152E-01  .136E-01  .134E-01  .121E-01  .115E-01
  .102E-01  .912E-02  .849E-02  .682E-02  .778E-02  .818E-02  .967E-02  .109E-01
  .117E-01  .112E-01  .123E-01  .130E-01  .115E-01  .927E-02  .783E-02  .661E-02
  .693E-02  .816E-02  .852E-02  .896E-02  .965E-02  .876E-02  .716E-02  .589E-02
  .523E-02  .463E-02  .461E-02  .480E-02  .473E-02  .460E-02  .488E-02  .525E-02
  .512E-02  .597E-02  .607E-02  .549E-02  .000E+00  .000E+00  .000E+00  .000E+00
  .000E+00  .000E+00  .000E+00  .000E+00  .000E+00  .000E+00  .000E+00  .000E+00
  .000E+00  .000E+00  .000E+00  .000E+00  .000E+00  .000E+00  .000E+00  .000E+00
  .000E+00  .000E+00  .000E+00  .000E+00  .000E+00  .000E+00  .000E+00  .000E+00
  .000E+00  .000E+00  .000E+00  .000E+00
  .682E-01  .944E-01  .104E+00  .121E+00  .176E+00  .190E+00  .308E+00  .306E+00
  .534E+00  .510E+00  .422E+00  .429E+00  .381E+00  .270E+00  .313E+00  .336E+00
  .358E+00  .252E+00  .227E+00  .231E+00  .231E+00  .234E+00  .222E+00  .209E+00
  .290E+00  .294E+00  .355E+00  .386E+00  .342E+00  .321E+00  .300E+00  .272E+00
  .224E+00  .191E+00  .179E+00  .156E+00  .149E+00  .152E+00  .175E+00  .193E+00
  .206E+00  .181E+00  .169E+00  .151E+00  .142E+00  .131E+00  .125E+00  .119E+00
  .114E+00  .112E+00  .110E+00  .114E+00  .115E+00  .112E+00  .107E+00  .104E+00
  .105E+00  .103E+00  .103E+00  .104E+00  .103E+00  .102E+00  .102E+00  .103E+00
  .101E+00  .102E+00  .103E+00  .104E+00  .000E+00  .000E+00  .000E+00  .000E+00
  .000E+00  .000E+00  .000E+00  .000E+00  .000E+00  .000E+00  .000E+00  .000E+00
  .000E+00  .000E+00  .000E+00  .000E+00  .000E+00  .000E+00  .000E+00  .000E+00
  .000E+00  .000E+00  .000E+00  .000E+00  .000E+00  .000E+00  .000E+00  .000E+00
  .000E+00  .000E+00  .000E+00  .000E+00
  .346E-01  .433E-01  .431E-01  .528E-01  .648E-01  .670E-01  .945E-01  .862E-01
  .137E+00  .116E+00  .910E-01  .834E-01  .681E-01  .482E-01  .548E-01  .539E-01
  .455E-01  .287E-01  .267E-01  .259E-01  .216E-01  .220E-01  .165E-01  .181E-01
  .268E-01  .226E-01  .248E-01  .271E-01  .206E-01  .175E-01  .138E-01  .115E-01
  .898E-02  .720E-02  .602E-02  .437E-02  .453E-02  .433E-02  .468E-02  .482E-02
  .481E-02  .379E-02  .350E-02  .316E-02  .241E-02  .169E-02  .126E-02  .941E-03
  .877E-03  .925E-03  .876E-03  .758E-03  .686E-03  .531E-03  .375E-03  .268E-03
  .215E-03  .177E-03  .158E-03  .142E-03  .127E-03  .103E-03  .921E-04  .848E-04
  .720E-04  .729E-04  .657E-04  .535E-04  .000E+00  .000E+00  .000E+00  .000E+00
  .000E+00  .000E+00  .000E+00  .000E+00  .000E+00  .000E+00  .000E+00  .000E+00
  .000E+00  .000E+00  .000E+00  .000E+00  .000E+00  .000E+00  .000E+00  .000E+00
  .000E+00  .000E+00  .000E+00  .000E+00  .000E+00  .000E+00  .000E+00  .000E+00
  .000E+00  .000E+00  .000E+00  .000E+00
  .852E-01  .111E+00  .116E+00  .149E+00  .191E+00  .206E+00  .320E+00  .315E+00
  .545E+00  .498E+00  .418E+00  .409E+00  .353E+00  .267E+00  .319E+00  .331E+00
  .309E+00  .211E+00  .212E+00  .224E+00  .199E+00  .217E+00  .173E+00  .200E+00
  .312E+00  .278E+00  .335E+00  .399E+00  .328E+00  .300E+00  .254E+00  .225E+00
  .188E+00  .159E+00  .140E+00  .107E+00  .116E+00  .117E+00  .132E+00  .142E+00
  .148E+00  .128E+00  .129E+00  .126E+00  .104E+00  .777E-01  .615E-01  .489E-01
  .484E-01  .539E-01  .535E-01  .512E-01  .505E-01  .423E-01  .321E-01  .247E-01
  .205E-01  .171E-01  .161E-01  .159E-01  .149E-01  .131E-01  .128E-01  .127E-01
  .115E-01  .125E-01  .119E-01  .101E-01  .000E+00  .000E+00  .000E+00  .000E+00
  .000E+00  .000E+00  .000E+00  .000E+00  .000E+00  .000E+00  .000E+00  .000E+00
  .000E+00  .000E+00  .000E+00  .000E+00  .000E+00  .000E+00  .000E+00  .000E+00
  .000E+00  .000E+00  .000E+00  .000E+00  .000E+00  .000E+00  .000E+00  .000E+00
  .000E+00  .000E+00  .000E+00  .000E+00
  .262E+02  .262E+02  .262E+02  .257E+02  .263E+02  .264E+02  .265E+02  .259E+02
  .262E+02  .258E+02  .258E+02  .265E+02  .261E+02  .260E+02  .260E+02  .260E+02
  .261E+02  .257E+02  .273E+02  .261E+02  .264E+02  .266E+02  .268E+02  .259E+02
  .270E+02  .270E+02  .270E+02  .272E+02  .266E+02  .266E+02  .265E+02  .265E+02
  .279E+02  .273E+02  .271E+02  .271E+02  .271E+02  .272E+02  .279E+02  .292E+02
  .291E+02  .264E+02  .284E+02  .282E+02  .276E+02  .263E+02  .263E+02  .268E+02
  .326E+02  .327E+02  .276E+02  .328E+02  .309E+02  .305E+02  .306E+02  .324E+02
  .274E+02  .257E+02  .257E+02  .274E+02  .274E+02  .274E+02  .274E+02  .274E+02
  .274E+02  .274E+02  .274E+02  .274E+02  .000E+00  .000E+00  .000E+00  .000E+00
  .000E+00  .000E+00  .000E+00  .000E+00  .000E+00  .000E+00  .000E+00  .000E+00
  .000E+00  .000E+00  .000E+00  .000E+00  .000E+00  .000E+00  .000E+00  .000E+00
  .000E+00  .000E+00  .000E+00  .000E+00  .000E+00  .000E+00  .000E+00  .000E+00
  .000E+00  .000E+00  .000E+00  .000E+00
  .262E+02  .262E+02  .262E+02  .257E+02  .263E+02  .263E+02  .264E+02  .259E+02
  .262E+02  .262E+02  .258E+02  .262E+02  .261E+02  .260E+02  .260E+02  .260E+02
  .261E+02  .258E+02  .257E+02  .261E+02  .261E+02  .257E+02  .257E+02  .257E+02
  .270E+02  .269E+02  .269E+02  .274E+02  .268E+02  .267E+02  .266E+02  .266E+02
  .265E+02  .265E+02  .265E+02  .261E+02  .261E+02  .265E+02  .265E+02  .265E+02
  .265E+02  .265E+02  .263E+02  .277E+02  .275E+02  .258E+02  .258E+02  .258E+02
  .258E+02  .258E+02  .258E+02  .265E+02  .265E+02  .265E+02  .265E+02  .265E+02
  .265E+02  .257E+02  .257E+02  .257E+02  .257E+02  .257E+02  .257E+02  .257E+02
  .257E+02  .257E+02  .257E+02  .257E+02  .000E+00  .000E+00  .000E+00  .000E+00
  .000E+00  .000E+00  .000E+00  .000E+00  .000E+00  .000E+00  .000E+00  .000E+00
  .000E+00  .000E+00  .000E+00  .000E+00  .000E+00  .000E+00  .000E+00  .000E+00
  .000E+00  .000E+00  .000E+00  .000E+00  .000E+00  .000E+00  .000E+00  .000E+00
  .000E+00  .000E+00  .000E+00  .000E+00
  .262E+02  .262E+02  .262E+02  .257E+02  .263E+02  .264E+02  .265E+02  .259E+02
  .262E+02  .258E+02  .258E+02  .265E+02  .261E+02  .260E+02  .260E+02  .260E+02
  .261E+02  .257E+02  .273E+02  .261E+02  .264E+02  .266E+02  .268E+02  .259E+02
  .270E+02  .270E+02  .270E+02  .272E+02  .266E+02  .266E+02  .265E+02  .265E+02
  .279E+02  .273E+02  .271E+02  .271E+02  .271E+02  .271E+02  .279E+02  .292E+02
  .290E+02  .264E+02  .284E+02  .282E+02  .276E+02  .263E+02  .263E+02  .268E+02
  .326E+02  .327E+02  .276E+02  .328E+02  .309E+02  .305E+02  .306E+02  .324E+02
  .274E+02  .257E+02  .257E+02  .274E+02  .274E+02  .274E+02  .274E+02  .274E+02
  .274E+02  .274E+02  .274E+02  .274E+02  .000E+00  .000E+00  .000E+00  .000E+00
  .000E+00  .000E+00  .000E+00  .000E+00  .000E+00  .000E+00  .000E+00  .000E+00
  .000E+00  .000E+00  .000E+00  .000E+00  .000E+00  .000E+00  .000E+00  .000E+00
  .000E+00  .000E+00  .000E+00  .000E+00  .000E+00  .000E+00  .000E+00  .000E+00
  .000E+00  .000E+00  .000E+00  .000E+00
Damping =  .05. Data of Sd,Sv,Sa,Pssv,ttSd,ttSv,ttSa :
  .517E-03  .627E-03  .717E-03  .877E-03  .103E-02  .115E-02  .172E-02  .255E-02
  .395E-02  .446E-02  .439E-02  .382E-02  .325E-02  .297E-02  .351E-02  .379E-02
  .359E-02  .366E-02  .379E-02  .397E-02  .350E-02  .377E-02  .396E-02  .478E-02
  .634E-02  .677E-02  .873E-02  .106E-01  .111E-01  .110E-01  .105E-01  .981E-02
  .797E-02  .697E-02  .697E-02  .651E-02  .663E-02  .637E-02  .665E-02  .727E-02
