Response and Fourier amplitude spectra (68 periods,  .04 -  3.4 sec)   for      
Corrected accelerogram   24207-M0150-11244.01       Chan 14: 360 Deg     from   
Uncorrected Accelerogram Data             Processed: 03/04/14, CGS  jh001       
Rcrd of Thu Sep  1, 2011 13:46:46.0 PDT               (Avol1 v0.5, 2/14 CSMIP)  
CSMIP Preliminary Processing            (Origin:  To be determined)             
24207-M0150-11244.01                 Start time:  9/01/11, 20:46:46.0 UTC (GPS) 
Station No. 24207   34.335N, 118.397W    MtWtny  s/n  150 (17 Chns of 17 at Sta)
Sylmar - Pacoima Dam                      CGS   Data: Acceleration              
Chan 14: 360 DegR                   Location: Right (North) Abutment            
Rcrd of Thu Sep  1, 2011 13:46:46.0 PDT    Thu Sep  1, 2011 13:46:46.0 PDT      
Hypocenter:  To be determined.               ML:  To be determined.
Instr Period =  .0106 sec,  Damping =  .660,  Sensitivity =  .63 v/g
                        Record length = 58.000 sec.
                                     Uncor Max  =   .012 g , at  25.685 sec.
RMS accel of (uncor) record  =        .   Chn. metadata effective date: 09/02/99
Accelerogram bandpass filtered with 3 dB pts at   .30 and 40.00 cyc/sec
                 instrument- and baseline-corrected





Rcrd of Thu Sep  1, 2011 13:46:46.0 PDT    Thu Sep  1, 2011 13:46:46.0 PDT

24207-M0150-11244.01      Sylmar - Pacoima Dam    Chan 14: 360 Deg

24207-M0150-11244.01      Sylmar - Pacoima Dam    Chan 14: 360 Deg

Units for spectra are inches and sec, except Sa is in fraction of g.

   14  100   14   18   17  200    1    3    1   24   13  150    024207    5    0
   20   46   46    0  244    9    1 2011   10    3  36011600   39   20   74   -1
11600    0  100    3  150    1    1  580    2    0    0    0    0    0    0    0
    0    0    3    011600    1  222    1   18    4    0    0    3    1    011600
    311600    4   68    5   17    5    0    0    0    0    0    1    3    1    2
    2    2    4    0   68   99    0   10    0    0    0    1    0    0   68  222
    1    0    6    0
      .011      .660    58.000      .001      .000   625.000      .012    25.685
    94.600      .298      .477      .000     5.000  -999.000     4.000      .000
     2.500   -42.473     2.500  2016.000    25.000    30.000  -999.000     -.002
     -.001      .002     2.000    15.000    34.335  -118.397      .027      .047
     1.727     -.003      .006   594.000    25.800    27.800    12.800   118.940
     1.000     1.443      .000  -999.000  -999.000  -999.000  -999.000      .000
      .100      .500     6.300   980.665      .005    58.000    15.056      .000
      .000    40.000      .000    58.000      .005      .303      .000      .000
    25.685    12.409    25.510     -.293    25.680     -.015      .000      .303
    40.000      .005      .005      .000      .005      .003      .000      .000
      .052      .090      .011      .006      .001      .000      .000      .000
      .000      .000      .000      .000      .000      .000      .000      .000
      .000      .000      .000      .000
      .000      .020      .050      .100      .200
      .040      .042      .044      .046      .048      .050      .055      .060
      .065      .070      .075      .080      .085      .090      .095      .100
      .110      .120      .130      .140      .150      .160      .170      .180
      .190      .200      .220      .240      .260      .280      .300      .320
      .340      .360      .380      .400      .420      .440      .460      .480
      .500      .550      .600      .650      .700      .750      .800      .850
      .900      .950     1.000     1.100     1.200     1.300     1.400     1.500
     1.600     1.700     1.800     1.900     2.000     2.200     2.400     2.600
     2.800     3.000     3.200     3.400      .000      .000      .000      .000
      .000      .000      .000      .000      .000      .000      .000      .000
      .000      .000      .000      .000      .000      .000      .000      .000
      .000      .000      .000      .000      .000      .000      .000      .000
      .000      .000      .000      .000
Fourier amplitude spectra in in/sec.
  .993E-01  .826E-01  .251E+00  .797E-01  .266E+00  .290E+00  .106E+00  .238E+00
  .694E-01  .386E+00  .410E+00  .484E+00  .296E+00  .713E+00  .537E+00  .689E+00
  .345E+00  .205E+00  .229E+00  .188E+00  .242E+00  .431E+00  .182E+00  .354E+00
  .176E+00  .161E+00  .111E+00  .256E+00  .786E-01  .893E-01  .684E-01  .226E+00
  .151E+00  .155E+00  .279E+00  .230E+00  .278E+00  .121E+00  .154E+00  .305E+00
  .303E+00  .132E+00  .909E-01  .180E+00  .161E+00  .947E-01  .116E+00  .988E-01
  .605E-01  .922E-01  .319E-01  .467E-01  .771E-01  .689E-01  .470E-01  .340E-01
  .218E-01  .996E-02  .122E-01  .232E-01  .121E-01  .733E-02  .103E-01  .701E-02
  .918E-02  .124E-01  .102E-01  .731E-02  .000E+00  .000E+00  .000E+00  .000E+00
  .000E+00  .000E+00  .000E+00  .000E+00  .000E+00  .000E+00  .000E+00  .000E+00
  .000E+00  .000E+00  .000E+00  .000E+00  .000E+00  .000E+00  .000E+00  .000E+00
  .000E+00  .000E+00  .000E+00  .000E+00  .000E+00  .000E+00  .000E+00  .000E+00
  .000E+00  .000E+00  .000E+00  .000E+00
Damping =  .00. Data of Sd,Sv,Sa,Pssv,ttSd,ttSv,ttSa :
  .729E-03  .113E-02  .190E-02  .154E-02  .236E-02  .230E-02  .114E-02  .245E-02
  .267E-02  .487E-02  .603E-02  .800E-02  .406E-02  .109E-01  .840E-02  .117E-01
  .735E-02  .450E-02  .637E-02  .551E-02  .580E-02  .112E-01  .920E-02  .126E-01
  .656E-02  .731E-02  .835E-02  .107E-01  .544E-02  .546E-02  .589E-02  .137E-01
  .106E-01  .991E-02  .182E-01  .180E-01  .197E-01  .112E-01  .165E-01  .256E-01
  .242E-01  .134E-01  .142E-01  .210E-01  .218E-01  .179E-01  .154E-01  .147E-01
  .139E-01  .150E-01  .105E-01  .118E-01  .156E-01  .143E-01  .116E-01  .850E-02
  .639E-02  .563E-02  .633E-02  .755E-02  .695E-02  .643E-02  .701E-02  .762E-02
  .761E-02  .753E-02  .880E-02  .853E-02  .000E+00  .000E+00  .000E+00  .000E+00
  .000E+00  .000E+00  .000E+00  .000E+00  .000E+00  .000E+00  .000E+00  .000E+00
  .000E+00  .000E+00  .000E+00  .000E+00  .000E+00  .000E+00  .000E+00  .000E+00
  .000E+00  .000E+00  .000E+00  .000E+00  .000E+00  .000E+00  .000E+00  .000E+00
  .000E+00  .000E+00  .000E+00  .000E+00
  .107E+00  .162E+00  .273E+00  .196E+00  .298E+00  .295E+00  .121E+00  .255E+00
  .248E+00  .443E+00  .484E+00  .610E+00  .299E+00  .740E+00  .546E+00  .734E+00
  .434E+00  .243E+00  .319E+00  .254E+00  .243E+00  .438E+00  .361E+00  .451E+00
  .248E+00  .240E+00  .237E+00  .280E+00  .133E+00  .125E+00  .134E+00  .268E+00
  .212E+00  .208E+00  .302E+00  .284E+00  .296E+00  .197E+00  .228E+00  .335E+00
  .304E+00  .167E+00  .151E+00  .213E+00  .210E+00  .208E+00  .163E+00  .140E+00
  .134E+00  .131E+00  .125E+00  .124E+00  .122E+00  .123E+00  .121E+00  .122E+00
  .120E+00  .116E+00  .120E+00  .112E+00  .115E+00  .116E+00  .117E+00  .114E+00
  .117E+00  .115E+00  .117E+00  .119E+00  .000E+00  .000E+00  .000E+00  .000E+00
  .000E+00  .000E+00  .000E+00  .000E+00  .000E+00  .000E+00  .000E+00  .000E+00
  .000E+00  .000E+00  .000E+00  .000E+00  .000E+00  .000E+00  .000E+00  .000E+00
  .000E+00  .000E+00  .000E+00  .000E+00  .000E+00  .000E+00  .000E+00  .000E+00
  .000E+00  .000E+00  .000E+00  .000E+00
  .466E-01  .654E-01  .101E+00  .744E-01  .105E+00  .942E-01  .386E-01  .697E-01
  .646E-01  .102E+00  .110E+00  .128E+00  .575E-01  .137E+00  .951E-01  .120E+00
  .621E-01  .320E-01  .385E-01  .288E-01  .263E-01  .446E-01  .325E-01  .397E-01
  .186E-01  .187E-01  .176E-01  .190E-01  .822E-02  .713E-02  .669E-02  .136E-01
  .935E-02  .782E-02  .129E-01  .115E-01  .114E-01  .591E-02  .798E-02  .114E-01
  .988E-02  .454E-02  .403E-02  .509E-02  .455E-02  .325E-02  .246E-02  .208E-02
  .175E-02  .170E-02  .108E-02  .999E-03  .111E-02  .865E-03  .605E-03  .387E-03
  .255E-03  .199E-03  .200E-03  .214E-03  .178E-03  .136E-03  .124E-03  .115E-03
  .993E-04  .856E-04  .879E-04  .755E-04  .000E+00  .000E+00  .000E+00  .000E+00
  .000E+00  .000E+00  .000E+00  .000E+00  .000E+00  .000E+00  .000E+00  .000E+00
  .000E+00  .000E+00  .000E+00  .000E+00  .000E+00  .000E+00  .000E+00  .000E+00
  .000E+00  .000E+00  .000E+00  .000E+00  .000E+00  .000E+00  .000E+00  .000E+00
  .000E+00  .000E+00  .000E+00  .000E+00
  .114E+00  .169E+00  .272E+00  .210E+00  .309E+00  .289E+00  .130E+00  .257E+00
  .258E+00  .437E+00  .505E+00  .629E+00  .300E+00  .758E+00  .555E+00  .734E+00
  .420E+00  .236E+00  .308E+00  .247E+00  .243E+00  .439E+00  .340E+00  .439E+00
  .217E+00  .230E+00  .238E+00  .280E+00  .131E+00  .123E+00  .123E+00  .268E+00
  .195E+00  .173E+00  .301E+00  .282E+00  .295E+00  .160E+00  .225E+00  .335E+00
  .304E+00  .153E+00  .149E+00  .203E+00  .196E+00  .150E+00  .121E+00  .109E+00
  .969E-01  .995E-01  .663E-01  .675E-01  .817E-01  .691E-01  .520E-01  .356E-01
  .251E-01  .208E-01  .221E-01  .250E-01  .218E-01  .184E-01  .183E-01  .184E-01
  .171E-01  .158E-01  .173E-01  .158E-01  .000E+00  .000E+00  .000E+00  .000E+00
  .000E+00  .000E+00  .000E+00  .000E+00  .000E+00  .000E+00  .000E+00  .000E+00
  .000E+00  .000E+00  .000E+00  .000E+00  .000E+00  .000E+00  .000E+00  .000E+00
  .000E+00  .000E+00  .000E+00  .000E+00  .000E+00  .000E+00  .000E+00  .000E+00
  .000E+00  .000E+00  .000E+00  .000E+00
  .273E+02  .261E+02  .293E+02  .258E+02  .273E+02  .305E+02  .272E+02  .290E+02
  .258E+02  .266E+02  .269E+02  .271E+02  .377E+02  .274E+02  .274E+02  .282E+02
  .271E+02  .300E+02  .273E+02  .268E+02  .406E+02  .418E+02  .265E+02  .276E+02
  .271E+02  .261E+02  .275E+02  .373E+02  .302E+02  .312E+02  .272E+02  .349E+02
  .269E+02  .271E+02  .388E+02  .289E+02  .414E+02  .259E+02  .299E+02  .397E+02
  .550E+02  .361E+02  .330E+02  .291E+02  .307E+02  .273E+02  .271E+02  .306E+02
  .295E+02  .406E+02  .269E+02  .276E+02  .500E+02  .565E+02  .490E+02  .333E+02
  .257E+02  .260E+02  .257E+02  .393E+02  .257E+02  .257E+02  .257E+02  .257E+02
  .257E+02  .257E+02  .257E+02  .257E+02  .000E+00  .000E+00  .000E+00  .000E+00
  .000E+00  .000E+00  .000E+00  .000E+00  .000E+00  .000E+00  .000E+00  .000E+00
  .000E+00  .000E+00  .000E+00  .000E+00  .000E+00  .000E+00  .000E+00  .000E+00
  .000E+00  .000E+00  .000E+00  .000E+00  .000E+00  .000E+00  .000E+00  .000E+00
  .000E+00  .000E+00  .000E+00  .000E+00
  .276E+02  .261E+02  .294E+02  .258E+02  .273E+02  .305E+02  .275E+02  .289E+02
  .257E+02  .266E+02  .270E+02  .270E+02  .385E+02  .274E+02  .274E+02  .282E+02
  .271E+02  .270E+02  .273E+02  .269E+02  .278E+02  .418E+02  .265E+02  .275E+02
  .271E+02  .261E+02  .275E+02  .371E+02  .301E+02  .261E+02  .272E+02  .349E+02
  .271E+02  .272E+02  .387E+02  .290E+02  .415E+02  .269E+02  .300E+02  .395E+02
  .553E+02  .259E+02  .311E+02  .293E+02  .274E+02  .272E+02  .272E+02  .270E+02
  .258E+02  .258E+02  .258E+02  .255E+02  .255E+02  .255E+02  .255E+02  .255E+02
  .255E+02  .255E+02  .255E+02  .255E+02  .255E+02  .255E+02  .255E+02  .255E+02
  .255E+02  .255E+02  .255E+02  .255E+02  .000E+00  .000E+00  .000E+00  .000E+00
  .000E+00  .000E+00  .000E+00  .000E+00  .000E+00  .000E+00  .000E+00  .000E+00
  .000E+00  .000E+00  .000E+00  .000E+00  .000E+00  .000E+00  .000E+00  .000E+00
  .000E+00  .000E+00  .000E+00  .000E+00  .000E+00  .000E+00  .000E+00  .000E+00
  .000E+00  .000E+00  .000E+00  .000E+00
  .273E+02  .261E+02  .293E+02  .258E+02  .273E+02  .305E+02  .272E+02  .290E+02
  .258E+02  .266E+02  .269E+02  .271E+02  .377E+02  .274E+02  .274E+02  .282E+02
  .271E+02  .300E+02  .273E+02  .268E+02  .406E+02  .418E+02  .265E+02  .276E+02
  .271E+02  .261E+02  .275E+02  .373E+02  .302E+02  .312E+02  .272E+02  .349E+02
  .269E+02  .271E+02  .388E+02  .289E+02  .414E+02  .259E+02  .299E+02  .397E+02
  .550E+02  .361E+02  .330E+02  .291E+02  .307E+02  .273E+02  .271E+02  .306E+02
  .295E+02  .406E+02  .269E+02  .276E+02  .500E+02  .565E+02  .490E+02  .333E+02
  .257E+02  .260E+02  .257E+02  .393E+02  .257E+02  .257E+02  .257E+02  .257E+02
  .257E+02  .257E+02  .257E+02  .257E+02  .000E+00  .000E+00  .000E+00  .000E+00
  .000E+00  .000E+00  .000E+00  .000E+00  .000E+00  .000E+00  .000E+00  .000E+00
  .000E+00  .000E+00  .000E+00  .000E+00  .000E+00  .000E+00  .000E+00  .000E+00
  .000E+00  .000E+00  .000E+00  .000E+00  .000E+00  .000E+00  .000E+00  .000E+00
  .000E+00  .000E+00  .000E+00  .000E+00
Damping =  .02. Data of Sd,Sv,Sa,Pssv,ttSd,ttSv,ttSa :
  .398E-03  .668E-03  .686E-03  .801E-03  .895E-03  .962E-03  .101E-02  .115E-02
  .159E-02  .245E-02  .404E-02  .398E-02  .374E-02  .618E-02  .647E-02  .589E-02
  .406E-02  .311E-02  .444E-02  .410E-02  .436E-02  .606E-02  .731E-02  .737E-02
  .510E-02  .559E-02  .516E-02  .421E-02  .376E-02  .436E-02  .513E-02  .662E-02
  .800E-02  .850E-02  .996E-02  .108E-01  .106E-01  .104E-01  .107E-01  .130E-01
  .149E-01  .124E-01  .131E-01  .143E-01  .159E-01  .141E-01  .127E-01  .120E-01
  .108E-01  .103E-01  .983E-02  .996E-02  .953E-02  .947E-02  .830E-02  .677E-02
  .633E-02  .594E-02  .603E-02  .567E-02  .662E-02  .663E-02  .690E-02  .736E-02
  .753E-02  .758E-02  .836E-02  .827E-02  .000E+00  .000E+00  .000E+00  .000E+00
  .000E+00  .000E+00  .000E+00  .000E+00  .000E+00  .000E+00  .000E+00  .000E+00
  .000E+00  .000E+00  .000E+00  .000E+00  .000E+00  .000E+00  .000E+00  .000E+00
  .000E+00  .000E+00  .000E+00  .000E+00  .000E+00  .000E+00  .000E+00  .000E+00
  .000E+00  .000E+00  .000E+00  .000E+00
  .519E-01  .922E-01  .877E-01  .954E-01  .105E+00  .108E+00  .112E+00  .959E-01
  .150E+00  .203E+00  .317E+00  .301E+00  .259E+00  .416E+00  .420E+00  .375E+00
  .243E+00  .160E+00  .234E+00  .172E+00  .194E+00  .243E+00  .265E+00  .275E+00
  .189E+00  .183E+00  .153E+00  .143E+00  .113E+00  .116E+00  .128E+00  .153E+00
  .146E+00  .153E+00  .176E+00  .185E+00  .185E+00  .177E+00  .176E+00  .181E+00
  .196E+00  .160E+00  .143E+00  .156E+00  .169E+00  .178E+00  .149E+00  .133E+00
  .130E+00  .128E+00  .125E+00  .122E+00  .122E+00  .123E+00  .121E+00  .121E+00
  .120E+00  .117E+00  .117E+00  .114E+00  .115E+00  .115E+00  .116E+00  .115E+00
  .116E+00  .115E+00  .117E+00  .118E+00  .000E+00  .000E+00  .000E+00  .000E+00
  .000E+00  .000E+00  .000E+00  .000E+00  .000E+00  .000E+00  .000E+00  .000E+00
  .000E+00  .000E+00  .000E+00  .000E+00  .000E+00  .000E+00  .000E+00  .000E+00
  .000E+00  .000E+00  .000E+00  .000E+00  .000E+00  .000E+00  .000E+00  .000E+00
  .000E+00  .000E+00  .000E+00  .000E+00
  .256E-01  .388E-01  .364E-01  .389E-01  .396E-01  .393E-01  .341E-01  .326E-01
  .385E-01  .508E-01  .734E-01  .640E-01  .528E-01  .778E-01  .732E-01  .606E-01
  .342E-01  .221E-01  .268E-01  .214E-01  .199E-01  .242E-01  .259E-01  .232E-01
  .144E-01  .143E-01  .109E-01  .748E-02  .569E-02  .569E-02  .584E-02  .662E-02
  .710E-02  .671E-02  .707E-02  .692E-02  .614E-02  .549E-02  .517E-02  .576E-02
  .608E-02  .419E-02  .374E-02  .347E-02  .332E-02  .258E-02  .204E-02  .170E-02
  .137E-02  .117E-02  .101E-02  .844E-03  .678E-03  .574E-03  .433E-03  .314E-03
  .259E-03  .216E-03  .196E-03  .166E-03  .175E-03  .145E-03  .128E-03  .116E-03
  .103E-03  .911E-04  .884E-04  .781E-04  .000E+00  .000E+00  .000E+00  .000E+00
  .000E+00  .000E+00  .000E+00  .000E+00  .000E+00  .000E+00  .000E+00  .000E+00
  .000E+00  .000E+00  .000E+00  .000E+00  .000E+00  .000E+00  .000E+00  .000E+00
  .000E+00  .000E+00  .000E+00  .000E+00  .000E+00  .000E+00  .000E+00  .000E+00
  .000E+00  .000E+00  .000E+00  .000E+00
  .626E-01  .100E+00  .980E-01  .109E+00  .117E+00  .121E+00  .116E+00  .121E+00
  .154E+00  .220E+00  .339E+00  .313E+00  .277E+00  .431E+00  .428E+00  .370E+00
  .232E+00  .163E+00  .214E+00  .184E+00  .183E+00  .238E+00  .270E+00  .257E+00
  .168E+00  .176E+00  .147E+00  .110E+00  .908E-01  .978E-01  .107E+00  .130E+00
  .148E+00  .148E+00  .165E+00  .170E+00  .158E+00  .148E+00  .146E+00  .170E+00
  .187E+00  .141E+00  .137E+00  .138E+00  .142E+00  .119E+00  .100E+00  .886E-01
  .757E-01  .682E-01  .618E-01  .569E-01  .499E-01  .458E-01  .372E-01  .284E-01
  .249E-01  .219E-01  .210E-01  .188E-01  .208E-01  .189E-01  .181E-01  .178E-01
  .169E-01  .159E-01  .164E-01  .153E-01  .000E+00  .000E+00  .000E+00  .000E+00
  .000E+00  .000E+00  .000E+00  .000E+00  .000E+00  .000E+00  .000E+00  .000E+00
  .000E+00  .000E+00  .000E+00  .000E+00  .000E+00  .000E+00  .000E+00  .000E+00
  .000E+00  .000E+00  .000E+00  .000E+00  .000E+00  .000E+00  .000E+00  .000E+00
  .000E+00  .000E+00  .000E+00  .000E+00
  .260E+02  .261E+02  .261E+02  .258E+02  .261E+02  .261E+02  .257E+02  .255E+02
  .257E+02  .258E+02  .258E+02  .258E+02  .272E+02  .273E+02  .273E+02  .273E+02
  .261E+02  .277E+02  .273E+02  .257E+02  .257E+02  .259E+02  .259E+02  .259E+02
  .259E+02  .261E+02  .275E+02  .292E+02  .256E+02  .256E+02  .256E+02  .262E+02
  .260E+02  .259E+02  .259E+02  .259E+02  .259E+02  .259E+02  .260E+02  .282E+02
  .282E+02  .258E+02  .258E+02  .281E+02  .276E+02  .273E+02  .271E+02  .267E+02
  .268E+02  .264E+02  .264E+02  .276E+02  .290E+02  .305E+02  .287E+02  .257E+02
  .257E+02  .257E+02  .257E+02  .257E+02  .257E+02  .257E+02  .257E+02  .257E+02
  .257E+02  .257E+02  .257E+02  .257E+02  .000E+00  .000E+00  .000E+00  .000E+00
  .000E+00  .000E+00  .000E+00  .000E+00  .000E+00  .000E+00  .000E+00  .000E+00
  .000E+00  .000E+00  .000E+00  .000E+00  .000E+00  .000E+00  .000E+00  .000E+00
  .000E+00  .000E+00  .000E+00  .000E+00  .000E+00  .000E+00  .000E+00  .000E+00
  .000E+00  .000E+00  .000E+00  .000E+00
  .261E+02  .261E+02  .261E+02  .258E+02  .261E+02  .261E+02  .257E+02  .255E+02
  .257E+02  .257E+02  .258E+02  .258E+02  .272E+02  .272E+02  .274E+02  .273E+02
  .261E+02  .276E+02  .273E+02  .257E+02  .257E+02  .259E+02  .260E+02  .259E+02
  .259E+02  .259E+02  .275E+02  .272E+02  .257E+02  .261E+02  .261E+02  .261E+02
  .263E+02  .260E+02  .260E+02  .258E+02  .258E+02  .258E+02  .258E+02  .258E+02
  .281E+02  .259E+02  .257E+02  .276E+02  .274E+02  .272E+02  .272E+02  .258E+02
  .258E+02  .258E+02  .258E+02  .255E+02  .255E+02  .255E+02  .255E+02  .255E+02
  .255E+02  .255E+02  .255E+02  .255E+02  .255E+02  .255E+02  .255E+02  .255E+02
  .255E+02  .255E+02  .255E+02  .255E+02  .000E+00  .000E+00  .000E+00  .000E+00
  .000E+00  .000E+00  .000E+00  .000E+00  .000E+00  .000E+00  .000E+00  .000E+00
  .000E+00  .000E+00  .000E+00  .000E+00  .000E+00  .000E+00  .000E+00  .000E+00
  .000E+00  .000E+00  .000E+00  .000E+00  .000E+00  .000E+00  .000E+00  .000E+00
  .000E+00  .000E+00  .000E+00  .000E+00
  .260E+02  .261E+02  .261E+02  .258E+02  .261E+02  .261E+02  .257E+02  .255E+02
  .257E+02  .258E+02  .258E+02  .258E+02  .272E+02  .273E+02  .273E+02  .273E+02
  .261E+02  .276E+02  .273E+02  .257E+02  .257E+02  .259E+02  .259E+02  .259E+02
  .259E+02  .261E+02  .275E+02  .292E+02  .256E+02  .256E+02  .256E+02  .262E+02
  .260E+02  .259E+02  .259E+02  .259E+02  .259E+02  .259E+02  .260E+02  .282E+02
  .282E+02  .258E+02  .258E+02  .281E+02  .276E+02  .273E+02  .271E+02  .267E+02
  .268E+02  .264E+02  .264E+02  .276E+02  .290E+02  .305E+02  .287E+02  .257E+02
  .257E+02  .257E+02  .257E+02  .257E+02  .257E+02  .257E+02  .257E+02  .257E+02
  .257E+02  .257E+02  .257E+02  .257E+02  .000E+00  .000E+00  .000E+00  .000E+00
  .000E+00  .000E+00  .000E+00  .000E+00  .000E+00  .000E+00  .000E+00  .000E+00
  .000E+00  .000E+00  .000E+00  .000E+00  .000E+00  .000E+00  .000E+00  .000E+00
  .000E+00  .000E+00  .000E+00  .000E+00  .000E+00  .000E+00  .000E+00  .000E+00
  .000E+00  .000E+00  .000E+00  .000E+00
Damping =  .05. Data of Sd,Sv,Sa,Pssv,ttSd,ttSv,ttSa :
  .370E-03  .469E-03  .500E-03  .549E-03  .630E-03  .677E-03  .799E-03  .989E-03
  .118E-02  .184E-02  .270E-02  .273E-02  .313E-02  .413E-02  .441E-02  .392E-02
  .275E-02  .242E-02  .301E-02  .350E-02  .379E-02  .456E-02  .547E-02  .541E-02
  .471E-02  .443E-02  .365E-02  .356E-02  .369E-02  .417E-02  .480E-02  .548E-02
  .682E-02  .773E-02  .866E-02  .918E-02  .911E-02  .917E-02  .943E-02  .985E-02
