Response and Fourier amplitude spectra (68 periods,  .04 -  3.4 sec)   for      
Corrected accelerogram   24207-M0150-11244.01       Chan 11:  Tang       from   
Uncorrected Accelerogram Data             Processed: 03/04/14, CGS  jh001       
Rcrd of Thu Sep  1, 2011 13:46:46.0 PDT               (Avol1 v0.5, 2/14 CSMIP)  
CSMIP Preliminary Processing            (Origin:  To be determined)             
24207-M0150-11244.01                 Start time:  9/01/11, 20:46:46.0 UTC (GPS) 
Station No. 24207   34.335N, 118.397W    MtWtny  s/n  150 (17 Chns of 17 at Sta)
Sylmar - Pacoima Dam                      CGS   Data: Acceleration              
Chan 11:  Tang                      Location: Dam Base                          
Rcrd of Thu Sep  1, 2011 13:46:46.0 PDT    Thu Sep  1, 2011 13:46:46.0 PDT      
Hypocenter:  To be determined.               ML:  To be determined.
Instr Period =  .0102 sec,  Damping =  .660,  Sensitivity =  .63 v/g
                        Record length = 58.000 sec.
                                     Uncor Max  =  -.003 g , at  25.785 sec.
RMS accel of (uncor) record  =        .   Chn. metadata effective date: 09/02/99
Accelerogram bandpass filtered with 3 dB pts at   .30 and 40.00 cyc/sec
                 instrument- and baseline-corrected





Rcrd of Thu Sep  1, 2011 13:46:46.0 PDT    Thu Sep  1, 2011 13:46:46.0 PDT

24207-M0150-11244.01      Sylmar - Pacoima Dam    Chan 11:  Tang

24207-M0150-11244.01      Sylmar - Pacoima Dam    Chan 11:  Tang

Units for spectra are inches and sec, except Sa is in fraction of g.

   11  100   11   18   17  200    1    3    1   24   13  150    024207    5    0
   20   46   46    0  244    9    1 2011   10    3 100011600   39   20   74   -1
11600    1  100    3  150    1    1  580    2    0    0    0    0    0    0    0
    0    0    3    011600    1  222    1   18    4    0    0    3    1    011600
    311600    4   68    5   17    5    0    0    0    0    0    1    3    1    2
    2    2    4    0   68   99    0   10    0    0    0    1    0    0   68  222
    1    0    6    0
      .010      .660    58.000      .000      .000   626.000     -.003    25.785
    98.100      .298      .476      .000     5.000  -999.000     4.000      .000
     2.500   -13.243     2.500  2016.000    25.000    30.000  -999.000     -.001
      .001      .001     2.000    15.000    34.335  -118.397      .018      .026
     1.403     -.001      .004   594.000    25.800    27.800    12.800   118.940
     1.000    -1.066      .000  -999.000  -999.000  -999.000  -999.000      .000
      .100      .500     6.300   980.665      .005    58.000    15.613      .000
      .000    40.000      .000    58.000      .005      .303      .000      .000
    25.780    -2.697    25.490     -.107    25.670     -.008      .000      .303
    40.000      .005      .005      .000      .005      .002      .000      .000
      .010      .080      .004      .002      .001      .000      .000      .000
      .000      .000      .000      .000      .000      .000      .000      .000
      .000      .000      .000      .000
      .000      .020      .050      .100      .200
      .040      .042      .044      .046      .048      .050      .055      .060
      .065      .070      .075      .080      .085      .090      .095      .100
      .110      .120      .130      .140      .150      .160      .170      .180
      .190      .200      .220      .240      .260      .280      .300      .320
      .340      .360      .380      .400      .420      .440      .460      .480
      .500      .550      .600      .650      .700      .750      .800      .850
      .900      .950     1.000     1.100     1.200     1.300     1.400     1.500
     1.600     1.700     1.800     1.900     2.000     2.200     2.400     2.600
     2.800     3.000     3.200     3.400      .000      .000      .000      .000
      .000      .000      .000      .000      .000      .000      .000      .000
      .000      .000      .000      .000      .000      .000      .000      .000
      .000      .000      .000      .000      .000      .000      .000      .000
      .000      .000      .000      .000
Fourier amplitude spectra in in/sec.
  .267E-01  .278E-01  .222E-01  .225E-01  .774E-01  .108E+00  .261E-01  .853E-02
  .371E-01  .352E-01  .283E-01  .120E+00  .611E-01  .595E-01  .157E+00  .157E+00
  .718E-01  .611E-01  .627E-01  .387E-01  .169E+00  .479E-01  .205E+00  .153E+00
  .629E-01  .523E-01  .138E-01  .626E-01  .591E-01  .862E-01  .594E-01  .386E-01
  .588E-01  .767E-01  .132E+00  .774E-01  .108E+00  .874E-01  .838E-01  .114E+00
  .170E+00  .527E-01  .124E+00  .141E+00  .915E-01  .796E-01  .763E-01  .440E-01
  .106E-01  .817E-01  .218E-01  .448E-01  .685E-01  .660E-01  .365E-01  .304E-01
  .117E-01  .151E-01  .165E-01  .203E-01  .111E-01  .470E-02  .100E-01  .804E-02
  .887E-02  .929E-02  .397E-02  .450E-02  .000E+00  .000E+00  .000E+00  .000E+00
  .000E+00  .000E+00  .000E+00  .000E+00  .000E+00  .000E+00  .000E+00  .000E+00
  .000E+00  .000E+00  .000E+00  .000E+00  .000E+00  .000E+00  .000E+00  .000E+00
  .000E+00  .000E+00  .000E+00  .000E+00  .000E+00  .000E+00  .000E+00  .000E+00
  .000E+00  .000E+00  .000E+00  .000E+00
Damping =  .00. Data of Sd,Sv,Sa,Pssv,ttSd,ttSv,ttSa :
  .189E-03  .237E-03  .326E-03  .315E-03  .632E-03  .856E-03  .373E-03  .189E-03
  .524E-03  .574E-03  .833E-03  .168E-02  .108E-02  .926E-03  .243E-02  .286E-02
  .140E-02  .136E-02  .152E-02  .218E-02  .406E-02  .310E-02  .573E-02  .564E-02
  .250E-02  .291E-02  .208E-02  .284E-02  .363E-02  .437E-02  .288E-02  .447E-02
  .408E-02  .475E-02  .854E-02  .779E-02  .788E-02  .634E-02  .714E-02  .956E-02
  .136E-01  .657E-02  .137E-01  .155E-01  .148E-01  .123E-01  .980E-02  .828E-02
  .813E-02  .135E-01  .712E-02  .957E-02  .138E-01  .137E-01  .975E-02  .792E-02
  .529E-02  .454E-02  .621E-02  .622E-02  .456E-02  .446E-02  .447E-02  .473E-02
  .501E-02  .486E-02  .500E-02  .429E-02  .000E+00  .000E+00  .000E+00  .000E+00
  .000E+00  .000E+00  .000E+00  .000E+00  .000E+00  .000E+00  .000E+00  .000E+00
  .000E+00  .000E+00  .000E+00  .000E+00  .000E+00  .000E+00  .000E+00  .000E+00
  .000E+00  .000E+00  .000E+00  .000E+00  .000E+00  .000E+00  .000E+00  .000E+00
  .000E+00  .000E+00  .000E+00  .000E+00
  .286E-01  .349E-01  .408E-01  .416E-01  .825E-01  .109E+00  .384E-01  .179E-01
  .462E-01  .476E-01  .641E-01  .128E+00  .802E-01  .642E-01  .160E+00  .179E+00
  .819E-01  .713E-01  .742E-01  .936E-01  .177E+00  .119E+00  .211E+00  .196E+00
  .858E-01  .932E-01  .590E-01  .736E-01  .871E-01  .979E-01  .600E-01  .897E-01
  .763E-01  .926E-01  .141E+00  .122E+00  .119E+00  .910E-01  .100E+00  .127E+00
  .170E+00  .830E-01  .144E+00  .150E+00  .130E+00  .113E+00  .873E-01  .724E-01
  .700E-01  .890E-01  .610E-01  .561E-01  .723E-01  .661E-01  .479E-01  .451E-01
  .439E-01  .420E-01  .429E-01  .416E-01  .410E-01  .431E-01  .410E-01  .434E-01
  .440E-01  .436E-01  .448E-01  .441E-01  .000E+00  .000E+00  .000E+00  .000E+00
  .000E+00  .000E+00  .000E+00  .000E+00  .000E+00  .000E+00  .000E+00  .000E+00
  .000E+00  .000E+00  .000E+00  .000E+00  .000E+00  .000E+00  .000E+00  .000E+00
  .000E+00  .000E+00  .000E+00  .000E+00  .000E+00  .000E+00  .000E+00  .000E+00
  .000E+00  .000E+00  .000E+00  .000E+00
  .121E-01  .137E-01  .172E-01  .152E-01  .281E-01  .350E-01  .126E-01  .536E-02
  .127E-01  .120E-01  .151E-01  .268E-01  .153E-01  .117E-01  .275E-01  .292E-01
  .118E-01  .968E-02  .922E-02  .114E-01  .185E-01  .124E-01  .203E-01  .178E-01
  .710E-02  .745E-02  .440E-02  .504E-02  .549E-02  .571E-02  .327E-02  .446E-02
  .361E-02  .375E-02  .605E-02  .498E-02  .457E-02  .335E-02  .345E-02  .425E-02
  .555E-02  .222E-02  .390E-02  .375E-02  .310E-02  .223E-02  .157E-02  .117E-02
  .103E-02  .153E-02  .728E-03  .809E-03  .979E-03  .828E-03  .509E-03  .360E-03
  .211E-03  .161E-03  .196E-03  .176E-03  .117E-03  .942E-04  .793E-04  .716E-04
  .653E-04  .552E-04  .500E-04  .379E-04  .000E+00  .000E+00  .000E+00  .000E+00
  .000E+00  .000E+00  .000E+00  .000E+00  .000E+00  .000E+00  .000E+00  .000E+00
  .000E+00  .000E+00  .000E+00  .000E+00  .000E+00  .000E+00  .000E+00  .000E+00
  .000E+00  .000E+00  .000E+00  .000E+00  .000E+00  .000E+00  .000E+00  .000E+00
  .000E+00  .000E+00  .000E+00  .000E+00
  .297E-01  .354E-01  .465E-01  .430E-01  .828E-01  .108E+00  .426E-01  .198E-01
  .507E-01  .515E-01  .698E-01  .132E+00  .800E-01  .647E-01  .161E+00  .180E+00
  .799E-01  .714E-01  .737E-01  .978E-01  .170E+00  .122E+00  .212E+00  .197E+00
  .828E-01  .915E-01  .595E-01  .743E-01  .876E-01  .981E-01  .602E-01  .877E-01
  .754E-01  .829E-01  .141E+00  .122E+00  .118E+00  .905E-01  .975E-01  .125E+00
  .170E+00  .750E-01  .144E+00  .150E+00  .133E+00  .103E+00  .770E-01  .612E-01
  .568E-01  .895E-01  .448E-01  .547E-01  .722E-01  .661E-01  .437E-01  .332E-01
  .208E-01  .168E-01  .217E-01  .206E-01  .143E-01  .127E-01  .117E-01  .114E-01
  .112E-01  .102E-01  .982E-02  .792E-02  .000E+00  .000E+00  .000E+00  .000E+00
  .000E+00  .000E+00  .000E+00  .000E+00  .000E+00  .000E+00  .000E+00  .000E+00
  .000E+00  .000E+00  .000E+00  .000E+00  .000E+00  .000E+00  .000E+00  .000E+00
  .000E+00  .000E+00  .000E+00  .000E+00  .000E+00  .000E+00  .000E+00  .000E+00
  .000E+00  .000E+00  .000E+00  .000E+00
  .288E+02  .266E+02  .258E+02  .259E+02  .276E+02  .306E+02  .272E+02  .257E+02
  .256E+02  .258E+02  .258E+02  .270E+02  .259E+02  .276E+02  .417E+02  .275E+02
  .273E+02  .279E+02  .273E+02  .264E+02  .271E+02  .261E+02  .371E+02  .274E+02
  .266E+02  .261E+02  .274E+02  .364E+02  .326E+02  .372E+02  .496E+02  .289E+02
  .279E+02  .310E+02  .386E+02  .279E+02  .324E+02  .433E+02  .302E+02  .296E+02
  .573E+02  .258E+02  .340E+02  .415E+02  .276E+02  .274E+02  .555E+02  .268E+02
  .264E+02  .407E+02  .264E+02  .427E+02  .500E+02  .565E+02  .336E+02  .347E+02
  .282E+02  .261E+02  .451E+02  .393E+02  .261E+02  .257E+02  .257E+02  .257E+02
  .257E+02  .257E+02  .257E+02  .257E+02  .000E+00  .000E+00  .000E+00  .000E+00
  .000E+00  .000E+00  .000E+00  .000E+00  .000E+00  .000E+00  .000E+00  .000E+00
  .000E+00  .000E+00  .000E+00  .000E+00  .000E+00  .000E+00  .000E+00  .000E+00
  .000E+00  .000E+00  .000E+00  .000E+00  .000E+00  .000E+00  .000E+00  .000E+00
  .000E+00  .000E+00  .000E+00  .000E+00
  .288E+02  .270E+02  .257E+02  .259E+02  .293E+02  .318E+02  .272E+02  .241E+02
  .277E+02  .258E+02  .258E+02  .270E+02  .260E+02  .259E+02  .435E+02  .275E+02
  .273E+02  .278E+02  .273E+02  .265E+02  .271E+02  .261E+02  .374E+02  .274E+02
  .266E+02  .258E+02  .266E+02  .364E+02  .327E+02  .373E+02  .495E+02  .290E+02
  .266E+02  .272E+02  .404E+02  .288E+02  .323E+02  .432E+02  .299E+02  .297E+02
  .574E+02  .265E+02  .342E+02  .416E+02  .278E+02  .275E+02  .273E+02  .262E+02
  .262E+02  .418E+02  .262E+02  .275E+02  .497E+02  .569E+02  .255E+02  .255E+02
  .255E+02  .255E+02  .255E+02  .255E+02  .255E+02  .255E+02  .255E+02  .255E+02
  .255E+02  .255E+02  .255E+02  .255E+02  .000E+00  .000E+00  .000E+00  .000E+00
  .000E+00  .000E+00  .000E+00  .000E+00  .000E+00  .000E+00  .000E+00  .000E+00
  .000E+00  .000E+00  .000E+00  .000E+00  .000E+00  .000E+00  .000E+00  .000E+00
  .000E+00  .000E+00  .000E+00  .000E+00  .000E+00  .000E+00  .000E+00  .000E+00
  .000E+00  .000E+00  .000E+00  .000E+00
  .288E+02  .266E+02  .258E+02  .259E+02  .276E+02  .306E+02  .272E+02  .257E+02
  .256E+02  .258E+02  .258E+02  .270E+02  .259E+02  .276E+02  .417E+02  .275E+02
  .273E+02  .279E+02  .273E+02  .264E+02  .271E+02  .261E+02  .371E+02  .274E+02
  .266E+02  .261E+02  .274E+02  .364E+02  .326E+02  .372E+02  .496E+02  .289E+02
  .279E+02  .310E+02  .386E+02  .279E+02  .324E+02  .433E+02  .302E+02  .296E+02
  .573E+02  .258E+02  .340E+02  .415E+02  .276E+02  .274E+02  .555E+02  .268E+02
  .264E+02  .407E+02  .264E+02  .427E+02  .500E+02  .565E+02  .336E+02  .347E+02
  .282E+02  .261E+02  .451E+02  .393E+02  .261E+02  .257E+02  .257E+02  .257E+02
  .257E+02  .257E+02  .257E+02  .257E+02  .000E+00  .000E+00  .000E+00  .000E+00
  .000E+00  .000E+00  .000E+00  .000E+00  .000E+00  .000E+00  .000E+00  .000E+00
  .000E+00  .000E+00  .000E+00  .000E+00  .000E+00  .000E+00  .000E+00  .000E+00
  .000E+00  .000E+00  .000E+00  .000E+00  .000E+00  .000E+00  .000E+00  .000E+00
  .000E+00  .000E+00  .000E+00  .000E+00
Damping =  .02. Data of Sd,Sv,Sa,Pssv,ttSd,ttSv,ttSa :
  .883E-04  .104E-03  .143E-03  .202E-03  .221E-03  .251E-03  .194E-03  .223E-03
  .364E-03  .543E-03  .716E-03  .807E-03  .757E-03  .102E-02  .105E-02  .121E-02
  .940E-03  .965E-03  .122E-02  .153E-02  .203E-02  .234E-02  .296E-02  .319E-02
  .217E-02  .210E-02  .172E-02  .143E-02  .159E-02  .210E-02  .211E-02  .305E-02
  .283E-02  .335E-02  .440E-02  .482E-02  .444E-02  .442E-02  .459E-02  .667E-02
  .753E-02  .615E-02  .737E-02  .105E-01  .116E-01  .972E-02  .777E-02  .756E-02
  .744E-02  .716E-02  .665E-02  .705E-02  .880E-02  .937E-02  .693E-02  .557E-02
  .487E-02  .438E-02  .424E-02  .416E-02  .424E-02  .425E-02  .440E-02  .472E-02
  .484E-02  .480E-02  .481E-02  .439E-02  .000E+00  .000E+00  .000E+00  .000E+00
  .000E+00  .000E+00  .000E+00  .000E+00  .000E+00  .000E+00  .000E+00  .000E+00
  .000E+00  .000E+00  .000E+00  .000E+00  .000E+00  .000E+00  .000E+00  .000E+00
  .000E+00  .000E+00  .000E+00  .000E+00  .000E+00  .000E+00  .000E+00  .000E+00
  .000E+00  .000E+00  .000E+00  .000E+00
  .112E-01  .138E-01  .160E-01  .240E-01  .276E-01  .305E-01  .187E-01  .173E-01
  .301E-01  .452E-01  .533E-01  .622E-01  .553E-01  .660E-01  .685E-01  .739E-01
  .584E-01  .428E-01  .545E-01  .641E-01  .869E-01  .933E-01  .106E+00  .113E+00
  .785E-01  .755E-01  .519E-01  .375E-01  .383E-01  .443E-01  .443E-01  .612E-01
  .637E-01  .673E-01  .724E-01  .825E-01  .747E-01  .651E-01  .625E-01  .840E-01
  .938E-01  .694E-01  .773E-01  .106E+00  .103E+00  .900E-01  .733E-01  .677E-01
  .661E-01  .635E-01  .593E-01  .532E-01  .528E-01  .473E-01  .473E-01  .454E-01
  .439E-01  .425E-01  .426E-01  .418E-01  .415E-01  .427E-01  .418E-01  .431E-01
  .436E-01  .437E-01  .443E-01  .440E-01  .000E+00  .000E+00  .000E+00  .000E+00
  .000E+00  .000E+00  .000E+00  .000E+00  .000E+00  .000E+00  .000E+00  .000E+00
  .000E+00  .000E+00  .000E+00  .000E+00  .000E+00  .000E+00  .000E+00  .000E+00
  .000E+00  .000E+00  .000E+00  .000E+00  .000E+00  .000E+00  .000E+00  .000E+00
  .000E+00  .000E+00  .000E+00  .000E+00
  .564E-02  .607E-02  .756E-02  .979E-02  .984E-02  .103E-01  .657E-02  .633E-02
  .885E-02  .113E-01  .131E-01  .128E-01  .108E-01  .129E-01  .120E-01  .124E-01
  .797E-02  .689E-02  .735E-02  .799E-02  .923E-02  .940E-02  .105E-01  .101E-01
  .613E-02  .536E-02  .364E-02  .254E-02  .240E-02  .274E-02  .240E-02  .304E-02
  .251E-02  .265E-02  .312E-02  .308E-02  .258E-02  .234E-02  .222E-02  .296E-02
  .308E-02  .208E-02  .210E-02  .254E-02  .241E-02  .177E-02  .124E-02  .107E-02
  .941E-03  .813E-03  .681E-03  .596E-03  .625E-03  .568E-03  .362E-03  .255E-03
  .196E-03  .157E-03  .136E-03  .119E-03  .110E-03  .917E-04  .801E-04  .733E-04
  .650E-04  .565E-04  .499E-04  .407E-04  .000E+00  .000E+00  .000E+00  .000E+00
  .000E+00  .000E+00  .000E+00  .000E+00  .000E+00  .000E+00  .000E+00  .000E+00
  .000E+00  .000E+00  .000E+00  .000E+00  .000E+00  .000E+00  .000E+00  .000E+00
  .000E+00  .000E+00  .000E+00  .000E+00  .000E+00  .000E+00  .000E+00  .000E+00
  .000E+00  .000E+00  .000E+00  .000E+00
  .139E-01  .156E-01  .205E-01  .276E-01  .289E-01  .316E-01  .221E-01  .233E-01
  .352E-01  .487E-01  .600E-01  .634E-01  .559E-01  .715E-01  .695E-01  .762E-01
  .537E-01  .505E-01  .589E-01  .685E-01  .848E-01  .920E-01  .110E+00  .111E+00
  .717E-01  .659E-01  .492E-01  .373E-01  .383E-01  .472E-01  .442E-01  .599E-01
  .523E-01  .586E-01  .728E-01  .757E-01  .665E-01  .632E-01  .626E-01  .873E-01
  .947E-01  .702E-01  .772E-01  .101E+00  .104E+00  .814E-01  .610E-01  .559E-01
  .520E-01  .474E-01  .418E-01  .402E-01  .461E-01  .453E-01  .311E-01  .233E-01
  .191E-01  .162E-01  .148E-01  .137E-01  .133E-01  .121E-01  .115E-01  .114E-01
  .109E-01  .101E-01  .944E-02  .812E-02  .000E+00  .000E+00  .000E+00  .000E+00
  .000E+00  .000E+00  .000E+00  .000E+00  .000E+00  .000E+00  .000E+00  .000E+00
  .000E+00  .000E+00  .000E+00  .000E+00  .000E+00  .000E+00  .000E+00  .000E+00
  .000E+00  .000E+00  .000E+00  .000E+00  .000E+00  .000E+00  .000E+00  .000E+00
  .000E+00  .000E+00  .000E+00  .000E+00
  .262E+02  .263E+02  .258E+02  .256E+02  .263E+02  .263E+02  .256E+02  .256E+02
  .257E+02  .257E+02  .258E+02  .258E+02  .258E+02  .274E+02  .275E+02  .275E+02
  .273E+02  .257E+02  .257E+02  .264E+02  .268E+02  .259E+02  .269E+02  .266E+02
  .258E+02  .259E+02  .256E+02  .256E+02  .300E+02  .277E+02  .256E+02  .263E+02
  .263E+02  .271E+02  .272E+02  .277E+02  .258E+02  .258E+02  .258E+02  .282E+02
  .283E+02  .258E+02  .283E+02  .278E+02  .276E+02  .274E+02  .263E+02  .264E+02
  .264E+02  .264E+02  .264E+02  .276E+02  .309E+02  .305E+02  .300E+02  .274E+02
  .274E+02  .261E+02  .261E+02  .261E+02  .261E+02  .257E+02  .257E+02  .257E+02
  .257E+02  .257E+02  .257E+02  .257E+02  .000E+00  .000E+00  .000E+00  .000E+00
  .000E+00  .000E+00  .000E+00  .000E+00  .000E+00  .000E+00  .000E+00  .000E+00
  .000E+00  .000E+00  .000E+00  .000E+00  .000E+00  .000E+00  .000E+00  .000E+00
  .000E+00  .000E+00  .000E+00  .000E+00  .000E+00  .000E+00  .000E+00  .000E+00
  .000E+00  .000E+00  .000E+00  .000E+00
  .262E+02  .262E+02  .256E+02  .259E+02  .263E+02  .263E+02  .254E+02  .256E+02
  .257E+02  .258E+02  .258E+02  .258E+02  .258E+02  .274E+02  .275E+02  .275E+02
  .273E+02  .257E+02  .273E+02  .264E+02  .269E+02  .258E+02  .269E+02  .267E+02
  .258E+02  .258E+02  .266E+02  .265E+02  .300E+02  .277E+02  .264E+02  .263E+02
  .263E+02  .272E+02  .258E+02  .258E+02  .258E+02  .258E+02  .280E+02  .283E+02
  .281E+02  .263E+02  .282E+02  .280E+02  .274E+02  .275E+02  .273E+02  .262E+02
  .262E+02  .262E+02  .262E+02  .258E+02  .306E+02  .255E+02  .255E+02  .255E+02
  .255E+02  .255E+02  .255E+02  .255E+02  .255E+02  .255E+02  .255E+02  .255E+02
  .255E+02  .255E+02  .255E+02  .255E+02  .000E+00  .000E+00  .000E+00  .000E+00
  .000E+00  .000E+00  .000E+00  .000E+00  .000E+00  .000E+00  .000E+00  .000E+00
  .000E+00  .000E+00  .000E+00  .000E+00  .000E+00  .000E+00  .000E+00  .000E+00
  .000E+00  .000E+00  .000E+00  .000E+00  .000E+00  .000E+00  .000E+00  .000E+00
  .000E+00  .000E+00  .000E+00  .000E+00
  .262E+02  .263E+02  .258E+02  .256E+02  .263E+02  .263E+02  .256E+02  .256E+02
  .256E+02  .257E+02  .258E+02  .258E+02  .258E+02  .274E+02  .275E+02  .275E+02
  .273E+02  .257E+02  .257E+02  .264E+02  .268E+02  .259E+02  .269E+02  .266E+02
  .258E+02  .258E+02  .256E+02  .256E+02  .300E+02  .277E+02  .256E+02  .263E+02
  .263E+02  .271E+02  .272E+02  .277E+02  .258E+02  .258E+02  .258E+02  .282E+02
  .283E+02  .258E+02  .283E+02  .278E+02  .276E+02  .274E+02  .263E+02  .264E+02
  .264E+02  .264E+02  .264E+02  .276E+02  .309E+02  .305E+02  .300E+02  .274E+02
  .274E+02  .261E+02  .261E+02  .261E+02  .261E+02  .256E+02  .256E+02  .256E+02
  .256E+02  .256E+02  .256E+02  .256E+02  .000E+00  .000E+00  .000E+00  .000E+00
  .000E+00  .000E+00  .000E+00  .000E+00  .000E+00  .000E+00  .000E+00  .000E+00
  .000E+00  .000E+00  .000E+00  .000E+00  .000E+00  .000E+00  .000E+00  .000E+00
  .000E+00  .000E+00  .000E+00  .000E+00  .000E+00  .000E+00  .000E+00  .000E+00
  .000E+00  .000E+00  .000E+00  .000E+00
Damping =  .05. Data of Sd,Sv,Sa,Pssv,ttSd,ttSv,ttSa :
  .724E-04  .869E-04  .114E-03  .141E-03  .145E-03  .149E-03  .134E-03  .204E-03
  .312E-03  .428E-03  .530E-03  .619E-03  .606E-03  .712E-03  .769E-03  .772E-03
  .696E-03  .874E-03  .105E-02  .119E-02  .145E-02  .178E-02  .197E-02  .200E-02
  .183E-02  .162E-02  .157E-02  .141E-02  .148E-02  .158E-02  .186E-02  .226E-02
  .229E-02  .255E-02  .293E-02  .341E-02  .385E-02  .410E-02  .437E-02  .477E-02
