Response and Fourier amplitude spectra (68 periods,  .04 -  3.4 sec)   for      
Corrected accelerogram   24207-M0150-11244.01       Chan 12: 270 Deg     from   
Uncorrected Accelerogram Data             Processed: 03/04/14, CGS  jh001       
Rcrd of Thu Sep  1, 2011 13:46:46.0 PDT               (Avol1 v0.5, 2/14 CSMIP)  
CSMIP Preliminary Processing            (Origin:  To be determined)             
24207-M0150-11244.01                 Start time:  9/01/11, 20:46:46.0 UTC (GPS) 
Station No. 24207   34.335N, 118.397W    MtWtny  s/n  150 (17 Chns of 17 at Sta)
Sylmar - Pacoima Dam                      CGS   Data: Acceleration              
Chan 12: 270 DegR                   Location: Right (North) Abutment            
Rcrd of Thu Sep  1, 2011 13:46:46.0 PDT    Thu Sep  1, 2011 13:46:46.0 PDT      
Hypocenter:  To be determined.               ML:  To be determined.
Instr Period =  .0103 sec,  Damping =  .660,  Sensitivity =  .63 v/g
                        Record length = 58.000 sec.
                                     Uncor Max  =   .016 g , at  25.860 sec.
RMS accel of (uncor) record  =        .   Chn. metadata effective date: 09/02/99
Accelerogram bandpass filtered with 3 dB pts at   .30 and 40.00 cyc/sec
                 instrument- and baseline-corrected





Rcrd of Thu Sep  1, 2011 13:46:46.0 PDT    Thu Sep  1, 2011 13:46:46.0 PDT

24207-M0150-11244.01      Sylmar - Pacoima Dam    Chan 12: 270 Deg

24207-M0150-11244.01      Sylmar - Pacoima Dam    Chan 12: 270 Deg

Units for spectra are inches and sec, except Sa is in fraction of g.

   12  100   12   18   17  200    1    3    1   24   13  150    024207    5    0
   20   46   46    0  244    9    1 2011   10    3  27011600   39   20   74   -1
11600    0  100    3  150    1    1  580    2    0    0    0    0    0    0    0
    0    0    3    011600    1  222    1   18    4    0    0    3    1    011600
    311600    4   68    5   17    5    0    0    0    0    0    1    3    1    2
    2    2    4    0   68   99    0   10    0    0    0    1    0    0   68  222
    1    0    6    0
      .010      .660    58.000      .001      .000   625.000      .016    25.860
    97.100      .298      .477      .000     5.000  -999.000     4.000      .000
     2.500    -5.188     2.500  2016.000    25.000    30.000  -999.000      .001
     -.002     -.003     2.000    15.000    34.335  -118.397      .034      .059
     1.730     -.008      .002   594.000    25.800    27.800    12.800   118.940
     1.000     1.046      .000  -999.000  -999.000  -999.000  -999.000      .000
      .100      .500     6.300   980.665      .005    58.000    15.454      .000
      .000    40.000      .000    58.000      .005      .303      .000      .000
    25.860    15.654    25.965      .218    25.780     -.012      .000      .303
    40.000      .005      .005      .000      .005      .004      .000      .000
      .073      .075      .019      .010      .001      .000      .000      .000
      .000      .000      .000      .000      .000      .000      .000      .000
      .000      .000      .000      .000
      .000      .020      .050      .100      .200
      .040      .042      .044      .046      .048      .050      .055      .060
      .065      .070      .075      .080      .085      .090      .095      .100
      .110      .120      .130      .140      .150      .160      .170      .180
      .190      .200      .220      .240      .260      .280      .300      .320
      .340      .360      .380      .400      .420      .440      .460      .480
      .500      .550      .600      .650      .700      .750      .800      .850
      .900      .950     1.000     1.100     1.200     1.300     1.400     1.500
     1.600     1.700     1.800     1.900     2.000     2.200     2.400     2.600
     2.800     3.000     3.200     3.400      .000      .000      .000      .000
      .000      .000      .000      .000      .000      .000      .000      .000
      .000      .000      .000      .000      .000      .000      .000      .000
      .000      .000      .000      .000      .000      .000      .000      .000
      .000      .000      .000      .000
Fourier amplitude spectra in in/sec.
  .109E+00  .484E-01  .107E+00  .207E+00  .130E+00  .106E+00  .123E+00  .309E+00
  .132E+00  .296E+00  .728E+00  .626E+00  .515E+00  .689E+00  .409E+00  .229E+00
  .322E+00  .362E+00  .191E+00  .166E+00  .596E+00  .147E+00  .234E+00  .196E+00
  .515E+00  .531E+00  .201E+00  .620E+00  .394E+00  .281E+00  .330E+00  .310E+00
  .137E+00  .135E+00  .941E-01  .311E+00  .433E-01  .715E-01  .971E-01  .995E-01
  .195E+00  .243E+00  .480E-01  .210E+00  .543E-01  .848E-01  .166E-01  .139E+00
  .116E+00  .601E-01  .487E-01  .184E-01  .670E-01  .693E-01  .584E-01  .473E-01
  .501E-01  .475E-01  .307E-01  .311E-01  .193E-01  .235E-01  .262E-01  .152E-01
  .771E-02  .345E-02  .415E-02  .142E-02  .000E+00  .000E+00  .000E+00  .000E+00
  .000E+00  .000E+00  .000E+00  .000E+00  .000E+00  .000E+00  .000E+00  .000E+00
  .000E+00  .000E+00  .000E+00  .000E+00  .000E+00  .000E+00  .000E+00  .000E+00
  .000E+00  .000E+00  .000E+00  .000E+00  .000E+00  .000E+00  .000E+00  .000E+00
  .000E+00  .000E+00  .000E+00  .000E+00
Damping =  .00. Data of Sd,Sv,Sa,Pssv,ttSd,ttSv,ttSa :
  .752E-03  .643E-03  .121E-02  .171E-02  .139E-02  .217E-02  .198E-02  .304E-02
  .308E-02  .468E-02  .945E-02  .145E-01  .126E-01  .102E-01  .635E-02  .616E-02
  .588E-02  .891E-02  .497E-02  .521E-02  .145E-01  .544E-02  .669E-02  .908E-02
  .174E-01  .187E-01  .153E-01  .242E-01  .165E-01  .135E-01  .162E-01  .162E-01
  .910E-02  .941E-02  .765E-02  .221E-01  .846E-02  .981E-02  .882E-02  .122E-01
  .173E-01  .215E-01  .153E-01  .247E-01  .120E-01  .105E-01  .134E-01  .193E-01
  .179E-01  .136E-01  .971E-02  .104E-01  .180E-01  .168E-01  .146E-01  .146E-01
  .139E-01  .130E-01  .126E-01  .119E-01  .103E-01  .965E-02  .101E-01  .813E-02
  .767E-02  .705E-02  .659E-02  .670E-02  .000E+00  .000E+00  .000E+00  .000E+00
  .000E+00  .000E+00  .000E+00  .000E+00  .000E+00  .000E+00  .000E+00  .000E+00
  .000E+00  .000E+00  .000E+00  .000E+00  .000E+00  .000E+00  .000E+00  .000E+00
  .000E+00  .000E+00  .000E+00  .000E+00  .000E+00  .000E+00  .000E+00  .000E+00
  .000E+00  .000E+00  .000E+00  .000E+00
  .113E+00  .877E-01  .166E+00  .217E+00  .171E+00  .253E+00  .212E+00  .317E+00
  .277E+00  .409E+00  .766E+00  .114E+01  .916E+00  .719E+00  .419E+00  .376E+00
  .336E+00  .474E+00  .242E+00  .238E+00  .606E+00  .243E+00  .246E+00  .324E+00
  .575E+00  .586E+00  .452E+00  .632E+00  .398E+00  .345E+00  .339E+00  .316E+00
  .177E+00  .161E+00  .139E+00  .348E+00  .153E+00  .180E+00  .163E+00  .160E+00
  .219E+00  .246E+00  .189E+00  .241E+00  .190E+00  .179E+00  .164E+00  .148E+00
  .137E+00  .126E+00  .115E+00  .118E+00  .108E+00  .102E+00  .995E-01  .973E-01
  .977E-01  .972E-01  .969E-01  .971E-01  .972E-01  .982E-01  .963E-01  .959E-01
  .946E-01  .927E-01  .915E-01  .912E-01  .000E+00  .000E+00  .000E+00  .000E+00
  .000E+00  .000E+00  .000E+00  .000E+00  .000E+00  .000E+00  .000E+00  .000E+00
  .000E+00  .000E+00  .000E+00  .000E+00  .000E+00  .000E+00  .000E+00  .000E+00
  .000E+00  .000E+00  .000E+00  .000E+00  .000E+00  .000E+00  .000E+00  .000E+00
  .000E+00  .000E+00  .000E+00  .000E+00
  .481E-01  .373E-01  .639E-01  .825E-01  .615E-01  .887E-01  .670E-01  .863E-01
  .744E-01  .978E-01  .172E+00  .232E+00  .178E+00  .129E+00  .719E-01  .630E-01
  .497E-01  .633E-01  .301E-01  .272E-01  .658E-01  .217E-01  .237E-01  .287E-01
  .493E-01  .479E-01  .323E-01  .429E-01  .250E-01  .176E-01  .184E-01  .161E-01
  .805E-02  .743E-02  .542E-02  .141E-01  .490E-02  .518E-02  .426E-02  .542E-02
  .706E-02  .727E-02  .434E-02  .599E-02  .250E-02  .190E-02  .213E-02  .273E-02
  .226E-02  .154E-02  .993E-03  .877E-03  .128E-02  .102E-02  .762E-03  .662E-03
  .553E-03  .458E-03  .396E-03  .337E-03  .264E-03  .204E-03  .179E-03  .123E-03
  .100E-03  .801E-04  .658E-04  .592E-04  .000E+00  .000E+00  .000E+00  .000E+00
  .000E+00  .000E+00  .000E+00  .000E+00  .000E+00  .000E+00  .000E+00  .000E+00
  .000E+00  .000E+00  .000E+00  .000E+00  .000E+00  .000E+00  .000E+00  .000E+00
  .000E+00  .000E+00  .000E+00  .000E+00  .000E+00  .000E+00  .000E+00  .000E+00
  .000E+00  .000E+00  .000E+00  .000E+00
  .118E+00  .963E-01  .173E+00  .233E+00  .181E+00  .273E+00  .226E+00  .318E+00
  .297E+00  .420E+00  .792E+00  .114E+01  .931E+00  .713E+00  .420E+00  .387E+00
  .336E+00  .467E+00  .240E+00  .234E+00  .606E+00  .214E+00  .247E+00  .317E+00
  .576E+00  .589E+00  .437E+00  .633E+00  .399E+00  .302E+00  .338E+00  .317E+00
  .168E+00  .164E+00  .126E+00  .347E+00  .127E+00  .140E+00  .121E+00  .160E+00
  .217E+00  .246E+00  .160E+00  .239E+00  .107E+00  .877E-01  .105E+00  .142E+00
  .125E+00  .902E-01  .610E-01  .593E-01  .945E-01  .813E-01  .656E-01  .610E-01
  .544E-01  .479E-01  .438E-01  .393E-01  .325E-01  .276E-01  .263E-01  .196E-01
  .172E-01  .148E-01  .129E-01  .124E-01  .000E+00  .000E+00  .000E+00  .000E+00
  .000E+00  .000E+00  .000E+00  .000E+00  .000E+00  .000E+00  .000E+00  .000E+00
  .000E+00  .000E+00  .000E+00  .000E+00  .000E+00  .000E+00  .000E+00  .000E+00
  .000E+00  .000E+00  .000E+00  .000E+00  .000E+00  .000E+00  .000E+00  .000E+00
  .000E+00  .000E+00  .000E+00  .000E+00
  .275E+02  .242E+02  .255E+02  .269E+02  .275E+02  .257E+02  .259E+02  .302E+02
  .258E+02  .267E+02  .270E+02  .262E+02  .267E+02  .282E+02  .262E+02  .266E+02
  .298E+02  .280E+02  .286E+02  .267E+02  .450E+02  .263E+02  .424E+02  .263E+02
  .274E+02  .299E+02  .268E+02  .338E+02  .400E+02  .331E+02  .421E+02  .440E+02
  .364E+02  .385E+02  .388E+02  .401E+02  .262E+02  .307E+02  .327E+02  .328E+02
  .392E+02  .530E+02  .276E+02  .343E+02  .286E+02  .264E+02  .289E+02  .520E+02
  .462E+02  .302E+02  .260E+02  .272E+02  .365E+02  .333E+02  .296E+02  .284E+02
  .284E+02  .559E+02  .279E+02  .279E+02  .280E+02  .273E+02  .466E+02  .265E+02
  .265E+02  .265E+02  .265E+02  .265E+02  .000E+00  .000E+00  .000E+00  .000E+00
  .000E+00  .000E+00  .000E+00  .000E+00  .000E+00  .000E+00  .000E+00  .000E+00
  .000E+00  .000E+00  .000E+00  .000E+00  .000E+00  .000E+00  .000E+00  .000E+00
  .000E+00  .000E+00  .000E+00  .000E+00  .000E+00  .000E+00  .000E+00  .000E+00
  .000E+00  .000E+00  .000E+00  .000E+00
  .280E+02  .242E+02  .255E+02  .269E+02  .275E+02  .257E+02  .259E+02  .302E+02
  .258E+02  .266E+02  .269E+02  .263E+02  .268E+02  .281E+02  .303E+02  .266E+02
  .348E+02  .279E+02  .277E+02  .264E+02  .450E+02  .270E+02  .424E+02  .263E+02
  .274E+02  .299E+02  .268E+02  .342E+02  .391E+02  .264E+02  .422E+02  .441E+02
  .262E+02  .384E+02  .261E+02  .400E+02  .262E+02  .262E+02  .262E+02  .326E+02
  .393E+02  .532E+02  .269E+02  .351E+02  .261E+02  .261E+02  .261E+02  .261E+02
  .261E+02  .261E+02  .261E+02  .269E+02  .269E+02  .260E+02  .260E+02  .260E+02
  .260E+02  .260E+02  .260E+02  .260E+02  .260E+02  .260E+02  .260E+02  .260E+02
  .260E+02  .260E+02  .260E+02  .260E+02  .000E+00  .000E+00  .000E+00  .000E+00
  .000E+00  .000E+00  .000E+00  .000E+00  .000E+00  .000E+00  .000E+00  .000E+00
  .000E+00  .000E+00  .000E+00  .000E+00  .000E+00  .000E+00  .000E+00  .000E+00
  .000E+00  .000E+00  .000E+00  .000E+00  .000E+00  .000E+00  .000E+00  .000E+00
  .000E+00  .000E+00  .000E+00  .000E+00
  .275E+02  .242E+02  .255E+02  .269E+02  .275E+02  .257E+02  .259E+02  .302E+02
  .258E+02  .267E+02  .270E+02  .262E+02  .267E+02  .282E+02  .262E+02  .266E+02
  .298E+02  .280E+02  .286E+02  .267E+02  .450E+02  .263E+02  .424E+02  .263E+02
  .274E+02  .299E+02  .268E+02  .338E+02  .400E+02  .331E+02  .421E+02  .440E+02
  .364E+02  .385E+02  .388E+02  .401E+02  .262E+02  .307E+02  .327E+02  .328E+02
  .392E+02  .530E+02  .276E+02  .343E+02  .286E+02  .264E+02  .289E+02  .520E+02
  .462E+02  .302E+02  .260E+02  .272E+02  .365E+02  .333E+02  .296E+02  .284E+02
  .284E+02  .559E+02  .279E+02  .279E+02  .280E+02  .273E+02  .466E+02  .265E+02
  .265E+02  .265E+02  .265E+02  .265E+02  .000E+00  .000E+00  .000E+00  .000E+00
  .000E+00  .000E+00  .000E+00  .000E+00  .000E+00  .000E+00  .000E+00  .000E+00
  .000E+00  .000E+00  .000E+00  .000E+00  .000E+00  .000E+00  .000E+00  .000E+00
  .000E+00  .000E+00  .000E+00  .000E+00  .000E+00  .000E+00  .000E+00  .000E+00
  .000E+00  .000E+00  .000E+00  .000E+00
Damping =  .02. Data of Sd,Sv,Sa,Pssv,ttSd,ttSv,ttSa :
  .475E-03  .644E-03  .586E-03  .815E-03  .747E-03  .809E-03  .145E-02  .109E-02
  .244E-02  .347E-02  .582E-02  .679E-02  .590E-02  .581E-02  .430E-02  .359E-02
  .409E-02  .462E-02  .377E-02  .387E-02  .747E-02  .546E-02  .565E-02  .782E-02
  .951E-02  .102E-01  .118E-01  .136E-01  .127E-01  .111E-01  .103E-01  .876E-02
  .690E-02  .596E-02  .527E-02  .838E-02  .698E-02  .677E-02  .710E-02  .685E-02
  .982E-02  .110E-01  .118E-01  .134E-01  .944E-02  .950E-02  .105E-01  .130E-01
  .128E-01  .959E-02  .937E-02  .896E-02  .112E-01  .119E-01  .123E-01  .131E-01
  .122E-01  .116E-01  .116E-01  .108E-01  .956E-02  .888E-02  .834E-02  .777E-02
  .744E-02  .693E-02  .657E-02  .650E-02  .000E+00  .000E+00  .000E+00  .000E+00
  .000E+00  .000E+00  .000E+00  .000E+00  .000E+00  .000E+00  .000E+00  .000E+00
  .000E+00  .000E+00  .000E+00  .000E+00  .000E+00  .000E+00  .000E+00  .000E+00
  .000E+00  .000E+00  .000E+00  .000E+00  .000E+00  .000E+00  .000E+00  .000E+00
  .000E+00  .000E+00  .000E+00  .000E+00
  .461E-01  .743E-01  .683E-01  .990E-01  .791E-01  .937E-01  .144E+00  .975E-01
  .220E+00  .285E+00  .473E+00  .526E+00  .406E+00  .397E+00  .267E+00  .248E+00
  .265E+00  .251E+00  .183E+00  .191E+00  .320E+00  .245E+00  .204E+00  .272E+00
  .334E+00  .333E+00  .358E+00  .366E+00  .332E+00  .307E+00  .238E+00  .222E+00
  .176E+00  .149E+00  .128E+00  .147E+00  .142E+00  .163E+00  .155E+00  .144E+00
  .144E+00  .162E+00  .162E+00  .173E+00  .180E+00  .173E+00  .160E+00  .147E+00
  .136E+00  .125E+00  .117E+00  .111E+00  .105E+00  .100E+00  .984E-01  .968E-01
  .965E-01  .964E-01  .963E-01  .964E-01  .965E-01  .969E-01  .958E-01  .954E-01
  .942E-01  .926E-01  .915E-01  .911E-01  .000E+00  .000E+00  .000E+00  .000E+00
  .000E+00  .000E+00  .000E+00  .000E+00  .000E+00  .000E+00  .000E+00  .000E+00
  .000E+00  .000E+00  .000E+00  .000E+00  .000E+00  .000E+00  .000E+00  .000E+00
  .000E+00  .000E+00  .000E+00  .000E+00  .000E+00  .000E+00  .000E+00  .000E+00
  .000E+00  .000E+00  .000E+00  .000E+00
  .303E-01  .374E-01  .310E-01  .396E-01  .332E-01  .331E-01  .491E-01  .310E-01
  .586E-01  .723E-01  .106E+00  .108E+00  .836E-01  .734E-01  .489E-01  .367E-01
  .348E-01  .329E-01  .228E-01  .202E-01  .341E-01  .218E-01  .200E-01  .247E-01
  .270E-01  .262E-01  .250E-01  .241E-01  .192E-01  .145E-01  .118E-01  .876E-02
  .611E-02  .472E-02  .374E-02  .536E-02  .406E-02  .358E-02  .344E-02  .305E-02
  .402E-02  .372E-02  .336E-02  .325E-02  .197E-02  .173E-02  .168E-02  .184E-02
  .162E-02  .109E-02  .961E-03  .761E-03  .798E-03  .721E-03  .645E-03  .597E-03
  .490E-03  .415E-03  .368E-03  .308E-03  .246E-03  .191E-03  .151E-03  .121E-03
  .101E-03  .823E-04  .692E-04  .609E-04  .000E+00  .000E+00  .000E+00  .000E+00
  .000E+00  .000E+00  .000E+00  .000E+00  .000E+00  .000E+00  .000E+00  .000E+00
  .000E+00  .000E+00  .000E+00  .000E+00  .000E+00  .000E+00  .000E+00  .000E+00
  .000E+00  .000E+00  .000E+00  .000E+00  .000E+00  .000E+00  .000E+00  .000E+00
  .000E+00  .000E+00  .000E+00  .000E+00
  .747E-01  .964E-01  .837E-01  .111E+00  .978E-01  .102E+00  .166E+00  .114E+00
  .236E+00  .311E+00  .488E+00  .533E+00  .436E+00  .405E+00  .285E+00  .226E+00
  .234E+00  .242E+00  .182E+00  .174E+00  .313E+00  .214E+00  .209E+00  .273E+00
  .315E+00  .321E+00  .337E+00  .355E+00  .306E+00  .249E+00  .217E+00  .172E+00
  .128E+00  .104E+00  .872E-01  .132E+00  .104E+00  .966E-01  .969E-01  .897E-01
  .123E+00  .125E+00  .123E+00  .130E+00  .847E-01  .796E-01  .824E-01  .960E-01
  .896E-01  .634E-01  .589E-01  .512E-01  .588E-01  .575E-01  .553E-01  .550E-01
  .481E-01  .430E-01  .404E-01  .356E-01  .300E-01  .254E-01  .218E-01  .188E-01
  .167E-01  .145E-01  .129E-01  .120E-01  .000E+00  .000E+00  .000E+00  .000E+00
  .000E+00  .000E+00  .000E+00  .000E+00  .000E+00  .000E+00  .000E+00  .000E+00
  .000E+00  .000E+00  .000E+00  .000E+00  .000E+00  .000E+00  .000E+00  .000E+00
  .000E+00  .000E+00  .000E+00  .000E+00  .000E+00  .000E+00  .000E+00  .000E+00
  .000E+00  .000E+00  .000E+00  .000E+00
  .259E+02  .259E+02  .259E+02  .259E+02  .259E+02  .257E+02  .258E+02  .258E+02
  .258E+02  .259E+02  .259E+02  .260E+02  .261E+02  .273E+02  .262E+02  .260E+02
  .259E+02  .265E+02  .277E+02  .277E+02  .270E+02  .270E+02  .263E+02  .263E+02
  .274E+02  .268E+02  .267E+02  .266E+02  .266E+02  .265E+02  .264E+02  .262E+02
  .261E+02  .261E+02  .297E+02  .301E+02  .262E+02  .263E+02  .261E+02  .261E+02
  .292E+02  .270E+02  .273E+02  .310E+02  .289E+02  .260E+02  .289E+02  .286E+02
  .286E+02  .260E+02  .260E+02  .272E+02  .299E+02  .295E+02  .283E+02  .284E+02
  .284E+02  .279E+02  .279E+02  .279E+02  .280E+02  .273E+02  .273E+02  .265E+02
  .265E+02  .265E+02  .265E+02  .265E+02  .000E+00  .000E+00  .000E+00  .000E+00
  .000E+00  .000E+00  .000E+00  .000E+00  .000E+00  .000E+00  .000E+00  .000E+00
  .000E+00  .000E+00  .000E+00  .000E+00  .000E+00  .000E+00  .000E+00  .000E+00
  .000E+00  .000E+00  .000E+00  .000E+00  .000E+00  .000E+00  .000E+00  .000E+00
  .000E+00  .000E+00  .000E+00  .000E+00
  .259E+02  .259E+02  .259E+02  .259E+02  .259E+02  .257E+02  .258E+02  .258E+02
  .258E+02  .259E+02  .260E+02  .260E+02  .261E+02  .272E+02  .261E+02  .260E+02
  .259E+02  .264E+02  .277E+02  .264E+02  .270E+02  .270E+02  .263E+02  .263E+02
  .269E+02  .269E+02  .267E+02  .266E+02  .265E+02  .264E+02  .264E+02  .262E+02
  .262E+02  .262E+02  .258E+02  .258E+02  .262E+02  .262E+02  .262E+02  .262E+02
  .262E+02  .274E+02  .269E+02  .261E+02  .261E+02  .261E+02  .261E+02  .261E+02
  .261E+02  .261E+02  .261E+02  .269E+02  .269E+02  .260E+02  .260E+02  .260E+02
  .260E+02  .260E+02  .260E+02  .260E+02  .260E+02  .260E+02  .260E+02  .260E+02
  .260E+02  .260E+02  .260E+02  .260E+02  .000E+00  .000E+00  .000E+00  .000E+00
  .000E+00  .000E+00  .000E+00  .000E+00  .000E+00  .000E+00  .000E+00  .000E+00
  .000E+00  .000E+00  .000E+00  .000E+00  .000E+00  .000E+00  .000E+00  .000E+00
  .000E+00  .000E+00  .000E+00  .000E+00  .000E+00  .000E+00  .000E+00  .000E+00
  .000E+00  .000E+00  .000E+00  .000E+00
  .259E+02  .259E+02  .259E+02  .259E+02  .259E+02  .257E+02  .258E+02  .258E+02
  .258E+02  .259E+02  .260E+02  .260E+02  .261E+02  .273E+02  .262E+02  .266E+02
  .259E+02  .265E+02  .277E+02  .277E+02  .270E+02  .270E+02  .263E+02  .263E+02
  .274E+02  .268E+02  .267E+02  .266E+02  .266E+02  .265E+02  .264E+02  .262E+02
  .261E+02  .261E+02  .297E+02  .301E+02  .262E+02  .263E+02  .261E+02  .261E+02
  .292E+02  .270E+02  .273E+02  .310E+02  .289E+02  .260E+02  .289E+02  .286E+02
  .286E+02  .260E+02  .260E+02  .272E+02  .299E+02  .294E+02  .283E+02  .284E+02
  .284E+02  .279E+02  .279E+02  .279E+02  .279E+02  .273E+02  .273E+02  .265E+02
  .265E+02  .265E+02  .265E+02  .265E+02  .000E+00  .000E+00  .000E+00  .000E+00
  .000E+00  .000E+00  .000E+00  .000E+00  .000E+00  .000E+00  .000E+00  .000E+00
  .000E+00  .000E+00  .000E+00  .000E+00  .000E+00  .000E+00  .000E+00  .000E+00
  .000E+00  .000E+00  .000E+00  .000E+00  .000E+00  .000E+00  .000E+00  .000E+00
  .000E+00  .000E+00  .000E+00  .000E+00
Damping =  .05. Data of Sd,Sv,Sa,Pssv,ttSd,ttSv,ttSa :
  .446E-03  .542E-03  .585E-03  .634E-03  .633E-03  .644E-03  .949E-03  .110E-02
  .180E-02  .286E-02  .405E-02  .438E-02  .409E-02  .362E-02  .314E-02  .298E-02
  .318E-02  .326E-02  .288E-02  .323E-02  .481E-02  .454E-02  .520E-02  .641E-02
  .672E-02  .728E-02  .859E-02  .104E-01  .989E-02  .882E-02  .875E-02  .765E-02
  .642E-02  .552E-02  .435E-02  .543E-02  .572E-02  .580E-02  .647E-02  .670E-02
