Response and Fourier amplitude spectra (68 periods,  .04 -  3.4 sec)   for      
Corrected accelerogram   24207-M0150-11244.01       Chan  3:  Up         from   
Uncorrected Accelerogram Data             Processed: 03/04/14, CGS  jh001       
Rcrd of Thu Sep  1, 2011 13:46:46.0 PDT               (Avol1 v0.5, 2/14 CSMIP)  
CSMIP Preliminary Processing            (Origin:  To be determined)             
24207-M0150-11244.01                 Start time:  9/01/11, 20:46:46.0 UTC (GPS) 
Station No. 24207   34.335N, 118.397W    MtWtny  s/n  150 (17 Chns of 17 at Sta)
Sylmar - Pacoima Dam                      CGS   Data: Acceleration              
Chan  3:  Up                        Location: Crest: Center                     
Rcrd of Thu Sep  1, 2011 13:46:46.0 PDT    Thu Sep  1, 2011 13:46:46.0 PDT      
Hypocenter:  To be determined.               ML:  To be determined.
Instr Period =  .0101 sec,  Damping =  .650,  Sensitivity =  .63 v/g
                        Record length = 58.000 sec.
                                     Uncor Max  =  -.014 g , at  25.985 sec.
RMS accel of (uncor) record  =        .   Chn. metadata effective date: 09/02/99
Accelerogram bandpass filtered with 3 dB pts at   .30 and 40.00 cyc/sec
                 instrument- and baseline-corrected





Rcrd of Thu Sep  1, 2011 13:46:46.0 PDT    Thu Sep  1, 2011 13:46:46.0 PDT

24207-M0150-11244.01      Sylmar - Pacoima Dam    Chan  3:  Up

24207-M0150-11244.01      Sylmar - Pacoima Dam    Chan  3:  Up

Units for spectra are inches and sec, except Sa is in fraction of g.

    3  100    3   18   17  200    1    3    1   24   13  150    024207    5    0
   20   46   46    0  244    9    1 2011   10    3  50011600   39   20   74   -1
11600    0  100    3  150    1    1  580    2    0    0    0    0    0    0    0
    0    0    3    011600    1  222    1   18    4    0    0    3    1    011600
    311600    4   68    5   17    5    0    0    0    0    0    1    3    1    2
    2    2    4    0   68   99    0   10    0    0    0    1    0    0   68  222
    1    0    6    0
      .010      .650    58.000      .001      .000   627.000     -.014    25.985
    99.300      .298      .475      .000     5.000  -999.000     4.000      .000
     2.500    59.250     2.500  2016.000    25.000    30.000  -999.000      .001
     -.001     -.003     2.000    15.000    34.335  -118.397      .025      .042
     1.671     -.007      .001   594.000    25.800    27.800    12.800   118.940
     1.000    -1.154      .000  -999.000  -999.000  -999.000  -999.000      .000
      .100      .500     6.300   980.665      .005    58.000    15.804      .000
      .000    40.000      .000    58.000      .005      .303      .000      .000
    25.985   -12.972    25.520     -.204    25.645     -.014      .000      .303
    40.000      .005      .005      .000      .005      .002      .000      .000
      .048      .060      .007      .005      .001      .000      .000      .000
      .000      .000      .000      .000      .000      .000      .000      .000
      .000      .000      .000      .000
      .000      .020      .050      .100      .200
      .040      .042      .044      .046      .048      .050      .055      .060
      .065      .070      .075      .080      .085      .090      .095      .100
      .110      .120      .130      .140      .150      .160      .170      .180
      .190      .200      .220      .240      .260      .280      .300      .320
      .340      .360      .380      .400      .420      .440      .460      .480
      .500      .550      .600      .650      .700      .750      .800      .850
      .900      .950     1.000     1.100     1.200     1.300     1.400     1.500
     1.600     1.700     1.800     1.900     2.000     2.200     2.400     2.600
     2.800     3.000     3.200     3.400      .000      .000      .000      .000
      .000      .000      .000      .000      .000      .000      .000      .000
      .000      .000      .000      .000      .000      .000      .000      .000
      .000      .000      .000      .000      .000      .000      .000      .000
      .000      .000      .000      .000
Fourier amplitude spectra in in/sec.
  .856E-01  .950E-01  .854E-01  .867E-01  .185E+00  .315E+00  .494E+00  .348E+00
  .156E+00  .495E-01  .587E+00  .300E+00  .239E+00  .369E+00  .185E+00  .354E+00
  .618E-01  .145E+00  .458E-01  .847E-01  .294E+00  .122E+00  .303E+00  .944E-01
  .248E+00  .900E-01  .555E-01  .209E+00  .116E+00  .123E+00  .162E+00  .150E+00
  .777E-01  .115E+00  .868E-01  .126E+00  .169E+00  .928E-01  .520E-01  .918E-01
  .434E-01  .579E-01  .156E+00  .137E+00  .101E+00  .276E-01  .110E+00  .115E+00
  .110E+00  .779E-01  .659E-01  .826E-01  .995E-01  .579E-01  .521E-01  .305E-01
  .329E-01  .342E-01  .473E-01  .364E-01  .206E-01  .251E-01  .151E-01  .119E-01
  .150E-01  .145E-01  .966E-02  .488E-02  .000E+00  .000E+00  .000E+00  .000E+00
  .000E+00  .000E+00  .000E+00  .000E+00  .000E+00  .000E+00  .000E+00  .000E+00
  .000E+00  .000E+00  .000E+00  .000E+00  .000E+00  .000E+00  .000E+00  .000E+00
  .000E+00  .000E+00  .000E+00  .000E+00  .000E+00  .000E+00  .000E+00  .000E+00
  .000E+00  .000E+00  .000E+00  .000E+00
Damping =  .00. Data of Sd,Sv,Sa,Pssv,ttSd,ttSv,ttSa :
  .973E-03  .890E-03  .113E-02  .118E-02  .191E-02  .266E-02  .436E-02  .394E-02
  .184E-02  .187E-02  .730E-02  .643E-02  .482E-02  .633E-02  .560E-02  .578E-02
  .385E-02  .373E-02  .398E-02  .475E-02  .768E-02  .563E-02  .893E-02  .651E-02
  .968E-02  .655E-02  .403E-02  .843E-02  .517E-02  .649E-02  .899E-02  .842E-02
  .675E-02  .729E-02  .794E-02  .870E-02  .117E-01  .861E-02  .690E-02  .777E-02
  .729E-02  .929E-02  .161E-01  .153E-01  .117E-01  .108E-01  .174E-01  .183E-01
  .174E-01  .141E-01  .157E-01  .153E-01  .203E-01  .156E-01  .147E-01  .116E-01
  .105E-01  .101E-01  .151E-01  .116E-01  .973E-02  .903E-02  .839E-02  .846E-02
  .960E-02  .839E-02  .792E-02  .759E-02  .000E+00  .000E+00  .000E+00  .000E+00
  .000E+00  .000E+00  .000E+00  .000E+00  .000E+00  .000E+00  .000E+00  .000E+00
  .000E+00  .000E+00  .000E+00  .000E+00  .000E+00  .000E+00  .000E+00  .000E+00
  .000E+00  .000E+00  .000E+00  .000E+00  .000E+00  .000E+00  .000E+00  .000E+00
  .000E+00  .000E+00  .000E+00  .000E+00
  .140E+00  .121E+00  .149E+00  .148E+00  .243E+00  .322E+00  .496E+00  .410E+00
  .177E+00  .160E+00  .608E+00  .498E+00  .350E+00  .442E+00  .377E+00  .361E+00
  .219E+00  .190E+00  .200E+00  .205E+00  .322E+00  .239E+00  .328E+00  .238E+00
  .321E+00  .219E+00  .117E+00  .221E+00  .125E+00  .161E+00  .203E+00  .166E+00
  .136E+00  .161E+00  .151E+00  .147E+00  .175E+00  .127E+00  .131E+00  .124E+00
  .122E+00  .121E+00  .168E+00  .147E+00  .117E+00  .108E+00  .139E+00  .142E+00
  .124E+00  .105E+00  .108E+00  .109E+00  .111E+00  .996E-01  .980E-01  .971E-01
  .956E-01  .929E-01  .932E-01  .898E-01  .900E-01  .854E-01  .834E-01  .823E-01
  .844E-01  .857E-01  .845E-01  .842E-01  .000E+00  .000E+00  .000E+00  .000E+00
  .000E+00  .000E+00  .000E+00  .000E+00  .000E+00  .000E+00  .000E+00  .000E+00
  .000E+00  .000E+00  .000E+00  .000E+00  .000E+00  .000E+00  .000E+00  .000E+00
  .000E+00  .000E+00  .000E+00  .000E+00  .000E+00  .000E+00  .000E+00  .000E+00
  .000E+00  .000E+00  .000E+00  .000E+00
  .622E-01  .516E-01  .599E-01  .568E-01  .848E-01  .109E+00  .147E+00  .112E+00
  .447E-01  .390E-01  .133E+00  .103E+00  .682E-01  .799E-01  .635E-01  .592E-01
  .326E-01  .265E-01  .241E-01  .248E-01  .349E-01  .225E-01  .316E-01  .205E-01
  .274E-01  .167E-01  .851E-02  .150E-01  .782E-02  .847E-02  .102E-01  .841E-02
  .597E-02  .575E-02  .562E-02  .556E-02  .680E-02  .455E-02  .333E-02  .345E-02
  .298E-02  .314E-02  .459E-02  .369E-02  .244E-02  .196E-02  .278E-02  .258E-02
  .220E-02  .160E-02  .160E-02  .129E-02  .144E-02  .947E-03  .769E-03  .527E-03
  .421E-03  .356E-03  .478E-03  .328E-03  .249E-03  .191E-03  .149E-03  .128E-03
  .125E-03  .953E-04  .791E-04  .672E-04  .000E+00  .000E+00  .000E+00  .000E+00
  .000E+00  .000E+00  .000E+00  .000E+00  .000E+00  .000E+00  .000E+00  .000E+00
  .000E+00  .000E+00  .000E+00  .000E+00  .000E+00  .000E+00  .000E+00  .000E+00
  .000E+00  .000E+00  .000E+00  .000E+00  .000E+00  .000E+00  .000E+00  .000E+00
  .000E+00  .000E+00  .000E+00  .000E+00
  .153E+00  .133E+00  .162E+00  .161E+00  .250E+00  .334E+00  .498E+00  .412E+00
  .178E+00  .168E+00  .612E+00  .505E+00  .356E+00  .442E+00  .371E+00  .363E+00
  .220E+00  .195E+00  .192E+00  .213E+00  .322E+00  .221E+00  .330E+00  .227E+00
  .320E+00  .206E+00  .115E+00  .221E+00  .125E+00  .146E+00  .188E+00  .165E+00
  .125E+00  .127E+00  .131E+00  .137E+00  .175E+00  .123E+00  .942E-01  .102E+00
  .916E-01  .106E+00  .169E+00  .147E+00  .105E+00  .905E-01  .137E+00  .135E+00
  .122E+00  .936E-01  .985E-01  .873E-01  .106E+00  .756E-01  .661E-01  .485E-01
  .414E-01  .372E-01  .528E-01  .382E-01  .306E-01  .258E-01  .220E-01  .204E-01
  .215E-01  .176E-01  .156E-01  .140E-01  .000E+00  .000E+00  .000E+00  .000E+00
  .000E+00  .000E+00  .000E+00  .000E+00  .000E+00  .000E+00  .000E+00  .000E+00
  .000E+00  .000E+00  .000E+00  .000E+00  .000E+00  .000E+00  .000E+00  .000E+00
  .000E+00  .000E+00  .000E+00  .000E+00  .000E+00  .000E+00  .000E+00  .000E+00
  .000E+00  .000E+00  .000E+00  .000E+00
  .260E+02  .260E+02  .260E+02  .261E+02  .269E+02  .273E+02  .312E+02  .261E+02
  .281E+02  .259E+02  .267E+02  .263E+02  .269E+02  .273E+02  .265E+02  .281E+02
  .262E+02  .268E+02  .274E+02  .264E+02  .286E+02  .272E+02  .299E+02  .267E+02
  .278E+02  .261E+02  .275E+02  .339E+02  .378E+02  .268E+02  .279E+02  .335E+02
  .263E+02  .262E+02  .272E+02  .297E+02  .481E+02  .294E+02  .259E+02  .348E+02
  .297E+02  .294E+02  .332E+02  .389E+02  .433E+02  .263E+02  .339E+02  .297E+02
  .385E+02  .274E+02  .270E+02  .293E+02  .422E+02  .300E+02  .345E+02  .284E+02
  .278E+02  .263E+02  .407E+02  .367E+02  .263E+02  .440E+02  .256E+02  .256E+02
  .256E+02  .256E+02  .256E+02  .256E+02  .000E+00  .000E+00  .000E+00  .000E+00
  .000E+00  .000E+00  .000E+00  .000E+00  .000E+00  .000E+00  .000E+00  .000E+00
  .000E+00  .000E+00  .000E+00  .000E+00  .000E+00  .000E+00  .000E+00  .000E+00
  .000E+00  .000E+00  .000E+00  .000E+00  .000E+00  .000E+00  .000E+00  .000E+00
  .000E+00  .000E+00  .000E+00  .000E+00
  .260E+02  .267E+02  .260E+02  .261E+02  .269E+02  .318E+02  .313E+02  .274E+02
  .281E+02  .259E+02  .267E+02  .263E+02  .269E+02  .273E+02  .264E+02  .489E+02
  .262E+02  .267E+02  .274E+02  .264E+02  .286E+02  .272E+02  .288E+02  .266E+02
  .276E+02  .261E+02  .270E+02  .339E+02  .378E+02  .269E+02  .277E+02  .332E+02
  .261E+02  .260E+02  .260E+02  .270E+02  .480E+02  .258E+02  .258E+02  .258E+02
  .258E+02  .258E+02  .333E+02  .387E+02  .260E+02  .260E+02  .341E+02  .295E+02
  .388E+02  .272E+02  .272E+02  .264E+02  .264E+02  .264E+02  .260E+02  .260E+02
  .260E+02  .260E+02  .260E+02  .260E+02  .260E+02  .260E+02  .255E+02  .255E+02
  .255E+02  .255E+02  .255E+02  .255E+02  .000E+00  .000E+00  .000E+00  .000E+00
  .000E+00  .000E+00  .000E+00  .000E+00  .000E+00  .000E+00  .000E+00  .000E+00
  .000E+00  .000E+00  .000E+00  .000E+00  .000E+00  .000E+00  .000E+00  .000E+00
  .000E+00  .000E+00  .000E+00  .000E+00  .000E+00  .000E+00  .000E+00  .000E+00
  .000E+00  .000E+00  .000E+00  .000E+00
  .260E+02  .260E+02  .260E+02  .261E+02  .269E+02  .273E+02  .312E+02  .261E+02
  .281E+02  .259E+02  .267E+02  .263E+02  .269E+02  .273E+02  .265E+02  .281E+02
  .262E+02  .268E+02  .274E+02  .264E+02  .286E+02  .272E+02  .299E+02  .267E+02
  .278E+02  .261E+02  .275E+02  .339E+02  .378E+02  .268E+02  .279E+02  .335E+02
  .263E+02  .262E+02  .272E+02  .297E+02  .481E+02  .294E+02  .259E+02  .348E+02
  .297E+02  .294E+02  .332E+02  .389E+02  .433E+02  .263E+02  .339E+02  .297E+02
  .385E+02  .274E+02  .270E+02  .293E+02  .422E+02  .300E+02  .345E+02  .284E+02
  .278E+02  .263E+02  .407E+02  .367E+02  .263E+02  .440E+02  .256E+02  .256E+02
  .256E+02  .256E+02  .256E+02  .256E+02  .000E+00  .000E+00  .000E+00  .000E+00
  .000E+00  .000E+00  .000E+00  .000E+00  .000E+00  .000E+00  .000E+00  .000E+00
  .000E+00  .000E+00  .000E+00  .000E+00  .000E+00  .000E+00  .000E+00  .000E+00
  .000E+00  .000E+00  .000E+00  .000E+00  .000E+00  .000E+00  .000E+00  .000E+00
  .000E+00  .000E+00  .000E+00  .000E+00
Damping =  .02. Data of Sd,Sv,Sa,Pssv,ttSd,ttSv,ttSa :
  .528E-03  .683E-03  .775E-03  .883E-03  .110E-02  .108E-02  .190E-02  .234E-02
  .143E-02  .162E-02  .334E-02  .380E-02  .307E-02  .280E-02  .267E-02  .262E-02
  .269E-02  .220E-02  .258E-02  .321E-02  .384E-02  .398E-02  .411E-02  .476E-02
  .497E-02  .437E-02  .312E-02  .363E-02  .392E-02  .534E-02  .564E-02  .469E-02
  .532E-02  .589E-02  .541E-02  .625E-02  .615E-02  .578E-02  .611E-02  .608E-02
  .615E-02  .754E-02  .880E-02  .964E-02  .985E-02  .969E-02  .102E-01  .124E-01
  .120E-01  .125E-01  .135E-01  .125E-01  .132E-01  .126E-01  .116E-01  .107E-01
  .995E-02  .966E-02  .975E-02  .940E-02  .914E-02  .855E-02  .839E-02  .847E-02
  .907E-02  .838E-02  .789E-02  .760E-02  .000E+00  .000E+00  .000E+00  .000E+00
  .000E+00  .000E+00  .000E+00  .000E+00  .000E+00  .000E+00  .000E+00  .000E+00
  .000E+00  .000E+00  .000E+00  .000E+00  .000E+00  .000E+00  .000E+00  .000E+00
  .000E+00  .000E+00  .000E+00  .000E+00  .000E+00  .000E+00  .000E+00  .000E+00
  .000E+00  .000E+00  .000E+00  .000E+00
  .710E-01  .935E-01  .986E-01  .109E+00  .133E+00  .125E+00  .213E+00  .239E+00
  .129E+00  .135E+00  .284E+00  .294E+00  .219E+00  .203E+00  .182E+00  .201E+00
  .161E+00  .115E+00  .124E+00  .143E+00  .167E+00  .156E+00  .174E+00  .179E+00
  .183E+00  .165E+00  .109E+00  .114E+00  .955E-01  .130E+00  .126E+00  .124E+00
  .119E+00  .140E+00  .139E+00  .127E+00  .120E+00  .120E+00  .122E+00  .120E+00
  .118E+00  .114E+00  .968E-01  .109E+00  .110E+00  .103E+00  .102E+00  .101E+00
  .101E+00  .890E-01  .917E-01  .101E+00  .104E+00  .962E-01  .941E-01  .945E-01
  .936E-01  .919E-01  .911E-01  .892E-01  .883E-01  .846E-01  .826E-01  .821E-01
  .835E-01  .846E-01  .839E-01  .836E-01  .000E+00  .000E+00  .000E+00  .000E+00
  .000E+00  .000E+00  .000E+00  .000E+00  .000E+00  .000E+00  .000E+00  .000E+00
  .000E+00  .000E+00  .000E+00  .000E+00  .000E+00  .000E+00  .000E+00  .000E+00
  .000E+00  .000E+00  .000E+00  .000E+00  .000E+00  .000E+00  .000E+00  .000E+00
  .000E+00  .000E+00  .000E+00  .000E+00
  .339E-01  .398E-01  .411E-01  .425E-01  .485E-01  .443E-01  .644E-01  .672E-01
  .348E-01  .336E-01  .604E-01  .608E-01  .435E-01  .351E-01  .302E-01  .270E-01
  .228E-01  .156E-01  .155E-01  .167E-01  .175E-01  .159E-01  .146E-01  .150E-01
  .141E-01  .111E-01  .660E-02  .646E-02  .595E-02  .697E-02  .642E-02  .468E-02
  .472E-02  .466E-02  .384E-02  .400E-02  .357E-02  .305E-02  .296E-02  .270E-02
  .252E-02  .255E-02  .250E-02  .234E-02  .207E-02  .177E-02  .163E-02  .175E-02
  .151E-02  .141E-02  .139E-02  .106E-02  .937E-03  .764E-03  .604E-03  .494E-03
  .403E-03  .344E-03  .310E-03  .269E-03  .237E-03  .183E-03  .152E-03  .131E-03
  .121E-03  .978E-04  .814E-04  .697E-04  .000E+00  .000E+00  .000E+00  .000E+00
  .000E+00  .000E+00  .000E+00  .000E+00  .000E+00  .000E+00  .000E+00  .000E+00
  .000E+00  .000E+00  .000E+00  .000E+00  .000E+00  .000E+00  .000E+00  .000E+00
  .000E+00  .000E+00  .000E+00  .000E+00  .000E+00  .000E+00  .000E+00  .000E+00
  .000E+00  .000E+00  .000E+00  .000E+00
  .830E-01  .102E+00  .111E+00  .121E+00  .144E+00  .136E+00  .217E+00  .245E+00
  .138E+00  .145E+00  .280E+00  .298E+00  .227E+00  .195E+00  .176E+00  .165E+00
  .153E+00  .115E+00  .124E+00  .144E+00  .161E+00  .156E+00  .152E+00  .166E+00
  .164E+00  .137E+00  .892E-01  .951E-01  .948E-01  .120E+00  .118E+00  .920E-01
  .984E-01  .103E+00  .895E-01  .982E-01  .920E-01  .825E-01  .835E-01  .796E-01
  .773E-01  .862E-01  .922E-01  .931E-01  .884E-01  .812E-01  .801E-01  .913E-01
  .835E-01  .824E-01  .850E-01  .714E-01  .690E-01  .608E-01  .519E-01  .449E-01
  .391E-01  .357E-01  .340E-01  .311E-01  .287E-01  .244E-01  .220E-01  .205E-01
  .204E-01  .175E-01  .155E-01  .140E-01  .000E+00  .000E+00  .000E+00  .000E+00
  .000E+00  .000E+00  .000E+00  .000E+00  .000E+00  .000E+00  .000E+00  .000E+00
  .000E+00  .000E+00  .000E+00  .000E+00  .000E+00  .000E+00  .000E+00  .000E+00
  .000E+00  .000E+00  .000E+00  .000E+00  .000E+00  .000E+00  .000E+00  .000E+00
  .000E+00  .000E+00  .000E+00  .000E+00
  .260E+02  .260E+02  .260E+02  .261E+02  .261E+02  .261E+02  .261E+02  .260E+02
  .259E+02  .259E+02  .261E+02  .262E+02  .263E+02  .265E+02  .264E+02  .260E+02
  .259E+02  .268E+02  .270E+02  .264E+02  .270E+02  .270E+02  .270E+02  .267E+02
  .266E+02  .256E+02  .271E+02  .270E+02  .269E+02  .268E+02  .268E+02  .263E+02
  .263E+02  .260E+02  .260E+02  .271E+02  .273E+02  .259E+02  .259E+02  .259E+02
  .257E+02  .257E+02  .308E+02  .258E+02  .258E+02  .258E+02  .263E+02  .293E+02
  .290E+02  .264E+02  .270E+02  .271E+02  .290E+02  .267E+02  .268E+02  .261E+02
  .261E+02  .263E+02  .263E+02  .263E+02  .263E+02  .256E+02  .256E+02  .256E+02
  .256E+02  .256E+02  .256E+02  .256E+02  .000E+00  .000E+00  .000E+00  .000E+00
  .000E+00  .000E+00  .000E+00  .000E+00  .000E+00  .000E+00  .000E+00  .000E+00
  .000E+00  .000E+00  .000E+00  .000E+00  .000E+00  .000E+00  .000E+00  .000E+00
  .000E+00  .000E+00  .000E+00  .000E+00  .000E+00  .000E+00  .000E+00  .000E+00
  .000E+00  .000E+00  .000E+00  .000E+00
  .260E+02  .260E+02  .260E+02  .261E+02  .262E+02  .262E+02  .262E+02  .260E+02
  .258E+02  .259E+02  .260E+02  .262E+02  .261E+02  .265E+02  .264E+02  .260E+02
  .259E+02  .257E+02  .270E+02  .264E+02  .270E+02  .272E+02  .270E+02  .266E+02
  .260E+02  .261E+02  .270E+02  .269E+02  .268E+02  .269E+02  .268E+02  .264E+02
  .261E+02  .260E+02  .260E+02  .260E+02  .260E+02  .258E+02  .258E+02  .258E+02
  .258E+02  .258E+02  .259E+02  .260E+02  .260E+02  .260E+02  .265E+02  .270E+02
  .275E+02  .272E+02  .272E+02  .264E+02  .264E+02  .264E+02  .260E+02  .260E+02
  .260E+02  .260E+02  .260E+02  .260E+02  .260E+02  .260E+02  .255E+02  .255E+02
  .255E+02  .255E+02  .255E+02  .255E+02  .000E+00  .000E+00  .000E+00  .000E+00
  .000E+00  .000E+00  .000E+00  .000E+00  .000E+00  .000E+00  .000E+00  .000E+00
  .000E+00  .000E+00  .000E+00  .000E+00  .000E+00  .000E+00  .000E+00  .000E+00
  .000E+00  .000E+00  .000E+00  .000E+00  .000E+00  .000E+00  .000E+00  .000E+00
  .000E+00  .000E+00  .000E+00  .000E+00
  .260E+02  .260E+02  .260E+02  .261E+02  .261E+02  .261E+02  .261E+02  .260E+02
  .259E+02  .259E+02  .261E+02  .262E+02  .263E+02  .265E+02  .264E+02  .260E+02
  .259E+02  .268E+02  .270E+02  .264E+02  .270E+02  .270E+02  .270E+02  .267E+02
  .266E+02  .256E+02  .271E+02  .270E+02  .269E+02  .268E+02  .268E+02  .263E+02
  .263E+02  .260E+02  .260E+02  .271E+02  .273E+02  .259E+02  .259E+02  .259E+02
  .257E+02  .257E+02  .308E+02  .258E+02  .258E+02  .258E+02  .263E+02  .293E+02
  .290E+02  .264E+02  .270E+02  .270E+02  .290E+02  .267E+02  .268E+02  .261E+02
  .261E+02  .263E+02  .263E+02  .263E+02  .263E+02  .256E+02  .256E+02  .256E+02
  .256E+02  .256E+02  .256E+02  .256E+02  .000E+00  .000E+00  .000E+00  .000E+00
  .000E+00  .000E+00  .000E+00  .000E+00  .000E+00  .000E+00  .000E+00  .000E+00
  .000E+00  .000E+00  .000E+00  .000E+00  .000E+00  .000E+00  .000E+00  .000E+00
  .000E+00  .000E+00  .000E+00  .000E+00  .000E+00  .000E+00  .000E+00  .000E+00
  .000E+00  .000E+00  .000E+00  .000E+00
Damping =  .05. Data of Sd,Sv,Sa,Pssv,ttSd,ttSv,ttSa :
  .480E-03  .568E-03  .645E-03  .717E-03  .811E-03  .913E-03  .137E-02  .166E-02
  .125E-02  .146E-02  .215E-02  .253E-02  .221E-02  .178E-02  .194E-02  .203E-02
  .193E-02  .185E-02  .197E-02  .222E-02  .276E-02  .303E-02  .275E-02  .318E-02
  .310E-02  .327E-02  .241E-02  .276E-02  .306E-02  .394E-02  .380E-02  .407E-02
  .422E-02  .456E-02  .460E-02  .454E-02  .462E-02  .492E-02  .521E-02  .545E-02
