Response and Fourier amplitude spectra (68 periods,  .04 -  3.4 sec)   for      
Corrected accelerogram   24207-M0150-11244.01       Chan  2:  Radl       from   
Uncorrected Accelerogram Data             Processed: 03/04/14, CGS  jh001       
Rcrd of Thu Sep  1, 2011 13:46:46.0 PDT               (Avol1 v0.5, 2/14 CSMIP)  
CSMIP Preliminary Processing            (Origin:  To be determined)             
24207-M0150-11244.01                 Start time:  9/01/11, 20:46:46.0 UTC (GPS) 
Station No. 24207   34.335N, 118.397W    MtWtny  s/n  150 (17 Chns of 17 at Sta)
Sylmar - Pacoima Dam                      CGS   Data: Acceleration              
Chan  2:  Radl                      Location: Crest: Center                     
Rcrd of Thu Sep  1, 2011 13:46:46.0 PDT    Thu Sep  1, 2011 13:46:46.0 PDT      
Hypocenter:  To be determined.               ML:  To be determined.
Instr Period =  .0104 sec,  Damping =  .660,  Sensitivity =  .63 v/g
                        Record length = 58.000 sec.
                                     Uncor Max  =  -.044 g , at  26.010 sec.
RMS accel of (uncor) record  =        .   Chn. metadata effective date: 06/25/09
Accelerogram bandpass filtered with 3 dB pts at   .30 and 40.00 cyc/sec
                 instrument- and baseline-corrected





Rcrd of Thu Sep  1, 2011 13:46:46.0 PDT    Thu Sep  1, 2011 13:46:46.0 PDT

24207-M0150-11244.01      Sylmar - Pacoima Dam    Chan  2:  Radl

24207-M0150-11244.01      Sylmar - Pacoima Dam    Chan  2:  Radl

Units for spectra are inches and sec, except Sa is in fraction of g.

    2  100    2   18   17  200    1    3    1   24   13  150    024207    5    0
   20   46   46    0  244    9    1 2011   10    3  70011600   39   20   74   -1
11600    0  100    3  150    1    1  580    2    0    0    0    0    0    0    0
    0    0    3    011600    1  222    1   18    4    0    0    3    1    011600
    311600    4   68    5   17    5    0    0    0    0    0    1    3    1    2
    2    2    4    0   68   99    0   10    0    0    0    1    0    0   68  222
    1    0    6    0
      .010      .660    58.000      .002      .000   627.000     -.044    26.010
    95.800      .298      .475      .000     5.000  -999.000     4.000      .000
     2.500    20.851     2.500  2016.000    25.000    30.000  -999.000      .006
     -.001     -.007     2.000    15.000    34.335  -118.397      .041      .171
     4.194     -.016      .003   594.000    25.800    27.800    12.800   118.940
     1.000    -1.366      .000  -999.000  -999.000  -999.000  -999.000      .000
      .100      .500     6.300   980.665      .005    58.000    15.247      .000
      .000    40.000      .000    58.000      .005      .303      .000      .000
    26.010   -44.121    25.995      .886    26.265      .026      .000      .303
    40.000      .005      .005      .000      .005      .009      .000      .000
      .146      .060      .088      .031      .002      .000      .000      .000
      .000      .000      .000      .000      .000      .000      .000      .000
      .000      .000      .000      .000
      .000      .020      .050      .100      .200
      .040      .042      .044      .046      .048      .050      .055      .060
      .065      .070      .075      .080      .085      .090      .095      .100
      .110      .120      .130      .140      .150      .160      .170      .180
      .190      .200      .220      .240      .260      .280      .300      .320
      .340      .360      .380      .400      .420      .440      .460      .480
      .500      .550      .600      .650      .700      .750      .800      .850
      .900      .950     1.000     1.100     1.200     1.300     1.400     1.500
     1.600     1.700     1.800     1.900     2.000     2.200     2.400     2.600
     2.800     3.000     3.200     3.400      .000      .000      .000      .000
      .000      .000      .000      .000      .000      .000      .000      .000
      .000      .000      .000      .000      .000      .000      .000      .000
      .000      .000      .000      .000      .000      .000      .000      .000
      .000      .000      .000      .000
Fourier amplitude spectra in in/sec.
  .257E+00  .333E+00  .270E+00  .426E+00  .321E+00  .813E+00  .132E+01  .111E+01
  .993E+00  .162E+00  .652E+00  .140E+00  .938E+00  .117E+01  .452E+00  .924E+00
  .784E+00  .699E+00  .496E+00  .192E+00  .183E+01  .473E+00  .258E+01  .234E+01
  .128E+01  .857E+00  .126E+01  .244E+01  .125E+01  .784E+00  .514E+00  .105E+01
  .148E+00  .141E+00  .202E+00  .567E+00  .378E+00  .174E+00  .236E+00  .391E+00
  .157E+00  .235E+00  .113E+00  .263E+00  .127E+00  .396E-01  .620E-01  .155E+00
  .186E+00  .703E-01  .570E-01  .388E-01  .469E-01  .646E-01  .603E-01  .506E-01
  .626E-01  .515E-01  .248E-01  .324E-01  .188E-01  .237E-01  .300E-01  .167E-01
  .100E-01  .618E-02  .314E-02  .304E-02  .000E+00  .000E+00  .000E+00  .000E+00
  .000E+00  .000E+00  .000E+00  .000E+00  .000E+00  .000E+00  .000E+00  .000E+00
  .000E+00  .000E+00  .000E+00  .000E+00  .000E+00  .000E+00  .000E+00  .000E+00
  .000E+00  .000E+00  .000E+00  .000E+00  .000E+00  .000E+00  .000E+00  .000E+00
  .000E+00  .000E+00  .000E+00  .000E+00
Damping =  .00. Data of Sd,Sv,Sa,Pssv,ttSd,ttSv,ttSa :
  .218E-02  .334E-02  .278E-02  .387E-02  .339E-02  .659E-02  .117E-01  .113E-01
  .110E-01  .513E-02  .117E-01  .167E-01  .225E-01  .241E-01  .160E-01  .148E-01
  .146E-01  .194E-01  .110E-01  .207E-01  .448E-01  .317E-01  .759E-01  .842E-01
  .574E-01  .433E-01  .610E-01  .979E-01  .563E-01  .460E-01  .352E-01  .538E-01
  .265E-01  .226E-01  .217E-01  .405E-01  .299E-01  .187E-01  .251E-01  .363E-01
  .223E-01  .240E-01  .216E-01  .308E-01  .244E-01  .211E-01  .168E-01  .223E-01
  .289E-01  .192E-01  .162E-01  .161E-01  .151E-01  .163E-01  .152E-01  .166E-01
  .161E-01  .152E-01  .157E-01  .160E-01  .160E-01  .156E-01  .155E-01  .146E-01
  .139E-01  .138E-01  .123E-01  .119E-01  .000E+00  .000E+00  .000E+00  .000E+00
  .000E+00  .000E+00  .000E+00  .000E+00  .000E+00  .000E+00  .000E+00  .000E+00
  .000E+00  .000E+00  .000E+00  .000E+00  .000E+00  .000E+00  .000E+00  .000E+00
  .000E+00  .000E+00  .000E+00  .000E+00  .000E+00  .000E+00  .000E+00  .000E+00
  .000E+00  .000E+00  .000E+00  .000E+00
  .302E+00  .427E+00  .340E+00  .474E+00  .426E+00  .843E+00  .132E+01  .117E+01
  .106E+01  .457E+00  .926E+00  .124E+01  .162E+01  .166E+01  .109E+01  .932E+00
  .827E+00  .955E+00  .558E+00  .876E+00  .187E+01  .125E+01  .280E+01  .297E+01
  .191E+01  .138E+01  .180E+01  .257E+01  .138E+01  .115E+01  .837E+00  .106E+01
  .611E+00  .591E+00  .622E+00  .646E+00  .535E+00  .484E+00  .472E+00  .483E+00
  .442E+00  .429E+00  .424E+00  .369E+00  .351E+00  .374E+00  .373E+00  .361E+00
  .350E+00  .338E+00  .334E+00  .345E+00  .352E+00  .355E+00  .354E+00  .355E+00
  .356E+00  .356E+00  .357E+00  .359E+00  .358E+00  .358E+00  .358E+00  .356E+00
  .355E+00  .355E+00  .353E+00  .351E+00  .000E+00  .000E+00  .000E+00  .000E+00
  .000E+00  .000E+00  .000E+00  .000E+00  .000E+00  .000E+00  .000E+00  .000E+00
  .000E+00  .000E+00  .000E+00  .000E+00  .000E+00  .000E+00  .000E+00  .000E+00
  .000E+00  .000E+00  .000E+00  .000E+00  .000E+00  .000E+00  .000E+00  .000E+00
  .000E+00  .000E+00  .000E+00  .000E+00
  .140E+00  .194E+00  .147E+00  .187E+00  .151E+00  .270E+00  .397E+00  .322E+00
  .267E+00  .107E+00  .214E+00  .267E+00  .319E+00  .304E+00  .182E+00  .152E+00
  .124E+00  .138E+00  .668E-01  .108E+00  .204E+00  .126E+00  .269E+00  .266E+00
  .163E+00  .111E+00  .129E+00  .174E+00  .852E-01  .600E-01  .400E-01  .538E-01
  .234E-01  .179E-01  .154E-01  .259E-01  .173E-01  .990E-02  .121E-01  .161E-01
  .913E-02  .813E-02  .615E-02  .744E-02  .509E-02  .384E-02  .269E-02  .316E-02
  .365E-02  .218E-02  .166E-02  .136E-02  .107E-02  .984E-03  .795E-03  .753E-03
  .643E-03  .538E-03  .495E-03  .453E-03  .408E-03  .329E-03  .275E-03  .221E-03
  .182E-03  .157E-03  .123E-03  .105E-03  .000E+00  .000E+00  .000E+00  .000E+00
  .000E+00  .000E+00  .000E+00  .000E+00  .000E+00  .000E+00  .000E+00  .000E+00
  .000E+00  .000E+00  .000E+00  .000E+00  .000E+00  .000E+00  .000E+00  .000E+00
  .000E+00  .000E+00  .000E+00  .000E+00  .000E+00  .000E+00  .000E+00  .000E+00
  .000E+00  .000E+00  .000E+00  .000E+00
  .343E+00  .500E+00  .396E+00  .528E+00  .444E+00  .829E+00  .134E+01  .119E+01
  .107E+01  .461E+00  .984E+00  .131E+01  .167E+01  .168E+01  .106E+01  .932E+00
  .835E+00  .102E+01  .533E+00  .929E+00  .188E+01  .124E+01  .281E+01  .294E+01
  .190E+01  .136E+01  .174E+01  .256E+01  .136E+01  .103E+01  .737E+00  .106E+01
  .489E+00  .395E+00  .359E+00  .636E+00  .448E+00  .268E+00  .343E+00  .475E+00
  .280E+00  .275E+00  .227E+00  .297E+00  .219E+00  .177E+00  .132E+00  .165E+00
  .202E+00  .127E+00  .102E+00  .919E-01  .791E-01  .786E-01  .684E-01  .694E-01
  .632E-01  .562E-01  .548E-01  .529E-01  .502E-01  .444E-01  .406E-01  .353E-01
  .313E-01  .289E-01  .242E-01  .220E-01  .000E+00  .000E+00  .000E+00  .000E+00
  .000E+00  .000E+00  .000E+00  .000E+00  .000E+00  .000E+00  .000E+00  .000E+00
  .000E+00  .000E+00  .000E+00  .000E+00  .000E+00  .000E+00  .000E+00  .000E+00
  .000E+00  .000E+00  .000E+00  .000E+00  .000E+00  .000E+00  .000E+00  .000E+00
  .000E+00  .000E+00  .000E+00  .000E+00
  .260E+02  .260E+02  .261E+02  .261E+02  .267E+02  .273E+02  .277E+02  .275E+02
  .286E+02  .271E+02  .267E+02  .263E+02  .267E+02  .273E+02  .265E+02  .513E+02
  .306E+02  .268E+02  .440E+02  .266E+02  .457E+02  .273E+02  .289E+02  .278E+02
  .264E+02  .264E+02  .270E+02  .338E+02  .304E+02  .266E+02  .267E+02  .471E+02
  .261E+02  .260E+02  .276E+02  .377E+02  .315E+02  .268E+02  .303E+02  .358E+02
  .263E+02  .263E+02  .261E+02  .333E+02  .261E+02  .261E+02  .261E+02  .289E+02
  .417E+02  .287E+02  .260E+02  .260E+02  .260E+02  .320E+02  .310E+02  .284E+02
  .541E+02  .263E+02  .263E+02  .263E+02  .263E+02  .263E+02  .263E+02  .263E+02
  .263E+02  .263E+02  .263E+02  .263E+02  .000E+00  .000E+00  .000E+00  .000E+00
  .000E+00  .000E+00  .000E+00  .000E+00  .000E+00  .000E+00  .000E+00  .000E+00
  .000E+00  .000E+00  .000E+00  .000E+00  .000E+00  .000E+00  .000E+00  .000E+00
  .000E+00  .000E+00  .000E+00  .000E+00  .000E+00  .000E+00  .000E+00  .000E+00
  .000E+00  .000E+00  .000E+00  .000E+00
  .273E+02  .260E+02  .261E+02  .261E+02  .269E+02  .273E+02  .453E+02  .276E+02
  .285E+02  .271E+02  .267E+02  .263E+02  .267E+02  .273E+02  .264E+02  .513E+02
  .305E+02  .268E+02  .258E+02  .264E+02  .457E+02  .273E+02  .289E+02  .277E+02
  .263E+02  .263E+02  .269E+02  .338E+02  .303E+02  .267E+02  .263E+02  .534E+02
  .261E+02  .260E+02  .260E+02  .382E+02  .260E+02  .260E+02  .260E+02  .347E+02
  .263E+02  .262E+02  .262E+02  .262E+02  .261E+02  .261E+02  .261E+02  .261E+02
  .261E+02  .261E+02  .260E+02  .260E+02  .260E+02  .260E+02  .260E+02  .260E+02
  .260E+02  .260E+02  .260E+02  .260E+02  .260E+02  .260E+02  .260E+02  .260E+02
  .260E+02  .260E+02  .260E+02  .260E+02  .000E+00  .000E+00  .000E+00  .000E+00
  .000E+00  .000E+00  .000E+00  .000E+00  .000E+00  .000E+00  .000E+00  .000E+00
  .000E+00  .000E+00  .000E+00  .000E+00  .000E+00  .000E+00  .000E+00  .000E+00
  .000E+00  .000E+00  .000E+00  .000E+00  .000E+00  .000E+00  .000E+00  .000E+00
  .000E+00  .000E+00  .000E+00  .000E+00
  .260E+02  .260E+02  .261E+02  .261E+02  .267E+02  .273E+02  .277E+02  .275E+02
  .286E+02  .271E+02  .267E+02  .263E+02  .267E+02  .273E+02  .265E+02  .513E+02
  .306E+02  .268E+02  .440E+02  .266E+02  .457E+02  .273E+02  .289E+02  .278E+02
  .264E+02  .264E+02  .270E+02  .338E+02  .304E+02  .266E+02  .267E+02  .471E+02
  .261E+02  .260E+02  .276E+02  .377E+02  .315E+02  .268E+02  .303E+02  .358E+02
  .263E+02  .263E+02  .261E+02  .333E+02  .261E+02  .261E+02  .261E+02  .289E+02
  .417E+02  .287E+02  .260E+02  .260E+02  .260E+02  .320E+02  .310E+02  .284E+02
  .541E+02  .263E+02  .263E+02  .263E+02  .263E+02  .263E+02  .263E+02  .263E+02
  .263E+02  .263E+02  .263E+02  .263E+02  .000E+00  .000E+00  .000E+00  .000E+00
  .000E+00  .000E+00  .000E+00  .000E+00  .000E+00  .000E+00  .000E+00  .000E+00
  .000E+00  .000E+00  .000E+00  .000E+00  .000E+00  .000E+00  .000E+00  .000E+00
  .000E+00  .000E+00  .000E+00  .000E+00  .000E+00  .000E+00  .000E+00  .000E+00
  .000E+00  .000E+00  .000E+00  .000E+00
Damping =  .02. Data of Sd,Sv,Sa,Pssv,ttSd,ttSv,ttSa :
  .142E-02  .205E-02  .209E-02  .246E-02  .266E-02  .317E-02  .540E-02  .655E-02
  .463E-02  .513E-02  .813E-02  .114E-01  .118E-01  .114E-01  .105E-01  .743E-02
  .808E-02  .117E-01  .966E-02  .145E-01  .238E-01  .245E-01  .395E-01  .473E-01
  .450E-01  .403E-01  .445E-01  .490E-01  .436E-01  .375E-01  .305E-01  .277E-01
  .242E-01  .210E-01  .189E-01  .208E-01  .172E-01  .160E-01  .170E-01  .206E-01
  .206E-01  .218E-01  .201E-01  .232E-01  .228E-01  .201E-01  .166E-01  .171E-01
  .191E-01  .164E-01  .157E-01  .157E-01  .150E-01  .145E-01  .140E-01  .146E-01
  .145E-01  .149E-01  .154E-01  .156E-01  .156E-01  .154E-01  .151E-01  .145E-01
  .139E-01  .136E-01  .125E-01  .120E-01  .000E+00  .000E+00  .000E+00  .000E+00
  .000E+00  .000E+00  .000E+00  .000E+00  .000E+00  .000E+00  .000E+00  .000E+00
  .000E+00  .000E+00  .000E+00  .000E+00  .000E+00  .000E+00  .000E+00  .000E+00
  .000E+00  .000E+00  .000E+00  .000E+00  .000E+00  .000E+00  .000E+00  .000E+00
  .000E+00  .000E+00  .000E+00  .000E+00
  .142E+00  .226E+00  .238E+00  .282E+00  .265E+00  .308E+00  .549E+00  .658E+00
  .428E+00  .452E+00  .661E+00  .810E+00  .833E+00  .790E+00  .652E+00  .470E+00
  .431E+00  .568E+00  .510E+00  .667E+00  .102E+01  .998E+00  .152E+01  .167E+01
  .153E+01  .133E+01  .131E+01  .138E+01  .111E+01  .964E+00  .781E+00  .674E+00
  .545E+00  .562E+00  .583E+00  .571E+00  .523E+00  .483E+00  .464E+00  .447E+00
  .420E+00  .406E+00  .404E+00  .358E+00  .335E+00  .358E+00  .361E+00  .354E+00
  .344E+00  .334E+00  .331E+00  .342E+00  .349E+00  .352E+00  .352E+00  .353E+00
  .354E+00  .355E+00  .356E+00  .357E+00  .357E+00  .357E+00  .356E+00  .355E+00
  .354E+00  .354E+00  .353E+00  .351E+00  .000E+00  .000E+00  .000E+00  .000E+00
  .000E+00  .000E+00  .000E+00  .000E+00  .000E+00  .000E+00  .000E+00  .000E+00
  .000E+00  .000E+00  .000E+00  .000E+00  .000E+00  .000E+00  .000E+00  .000E+00
  .000E+00  .000E+00  .000E+00  .000E+00  .000E+00  .000E+00  .000E+00  .000E+00
  .000E+00  .000E+00  .000E+00  .000E+00
  .910E-01  .119E+00  .111E+00  .119E+00  .118E+00  .130E+00  .183E+00  .187E+00
  .112E+00  .107E+00  .148E+00  .182E+00  .167E+00  .144E+00  .119E+00  .761E-01
  .682E-01  .827E-01  .584E-01  .754E-01  .108E+00  .983E-01  .140E+00  .149E+00
  .127E+00  .103E+00  .940E-01  .871E-01  .660E-01  .491E-01  .346E-01  .277E-01
  .214E-01  .166E-01  .134E-01  .133E-01  .997E-02  .844E-02  .822E-02  .917E-02
  .845E-02  .741E-02  .573E-02  .565E-02  .480E-02  .368E-02  .268E-02  .243E-02
  .241E-02  .186E-02  .164E-02  .135E-02  .110E-02  .906E-03  .762E-03  .665E-03
  .595E-03  .544E-03  .502E-03  .458E-03  .416E-03  .341E-03  .285E-03  .235E-03
  .197E-03  .169E-03  .140E-03  .121E-03  .000E+00  .000E+00  .000E+00  .000E+00
  .000E+00  .000E+00  .000E+00  .000E+00  .000E+00  .000E+00  .000E+00  .000E+00
  .000E+00  .000E+00  .000E+00  .000E+00  .000E+00  .000E+00  .000E+00  .000E+00
  .000E+00  .000E+00  .000E+00  .000E+00  .000E+00  .000E+00  .000E+00  .000E+00
  .000E+00  .000E+00  .000E+00  .000E+00
  .223E+00  .307E+00  .299E+00  .336E+00  .348E+00  .398E+00  .617E+00  .686E+00
  .448E+00  .460E+00  .681E+00  .893E+00  .874E+00  .798E+00  .696E+00  .467E+00
  .462E+00  .611E+00  .467E+00  .649E+00  .995E+00  .963E+00  .146E+01  .165E+01
  .149E+01  .127E+01  .127E+01  .128E+01  .105E+01  .842E+00  .638E+00  .543E+00
  .446E+00  .367E+00  .312E+00  .327E+00  .257E+00  .228E+00  .232E+00  .270E+00
  .258E+00  .249E+00  .210E+00  .225E+00  .205E+00  .168E+00  .131E+00  .127E+00
  .133E+00  .108E+00  .986E-01  .895E-01  .786E-01  .699E-01  .627E-01  .612E-01
  .569E-01  .551E-01  .537E-01  .516E-01  .491E-01  .439E-01  .396E-01  .350E-01
  .313E-01  .284E-01  .246E-01  .223E-01  .000E+00  .000E+00  .000E+00  .000E+00
  .000E+00  .000E+00  .000E+00  .000E+00  .000E+00  .000E+00  .000E+00  .000E+00
  .000E+00  .000E+00  .000E+00  .000E+00  .000E+00  .000E+00  .000E+00  .000E+00
  .000E+00  .000E+00  .000E+00  .000E+00  .000E+00  .000E+00  .000E+00  .000E+00
  .000E+00  .000E+00  .000E+00  .000E+00
  .260E+02  .260E+02  .260E+02  .261E+02  .261E+02  .261E+02  .261E+02  .260E+02
  .260E+02  .259E+02  .260E+02  .261E+02  .263E+02  .263E+02  .262E+02  .262E+02
  .262E+02  .268E+02  .258E+02  .263E+02  .268E+02  .270E+02  .269E+02  .269E+02
  .264E+02  .264E+02  .263E+02  .268E+02  .267E+02  .266E+02  .263E+02  .261E+02
  .261E+02  .260E+02  .260E+02  .287E+02  .272E+02  .268E+02  .292E+02  .293E+02
  .263E+02  .263E+02  .261E+02  .261E+02  .261E+02  .261E+02  .261E+02  .289E+02
  .286E+02  .286E+02  .260E+02  .260E+02  .260E+02  .260E+02  .260E+02  .284E+02
  .263E+02  .263E+02  .263E+02  .263E+02  .263E+02  .263E+02  .263E+02  .263E+02
  .263E+02  .263E+02  .263E+02  .263E+02  .000E+00  .000E+00  .000E+00  .000E+00
  .000E+00  .000E+00  .000E+00  .000E+00  .000E+00  .000E+00  .000E+00  .000E+00
  .000E+00  .000E+00  .000E+00  .000E+00  .000E+00  .000E+00  .000E+00  .000E+00
  .000E+00  .000E+00  .000E+00  .000E+00  .000E+00  .000E+00  .000E+00  .000E+00
  .000E+00  .000E+00  .000E+00  .000E+00
  .260E+02  .260E+02  .260E+02  .261E+02  .262E+02  .262E+02  .262E+02  .260E+02
  .260E+02  .259E+02  .260E+02  .262E+02  .264E+02  .265E+02  .262E+02  .272E+02
  .262E+02  .268E+02  .258E+02  .264E+02  .270E+02  .270E+02  .270E+02  .269E+02
  .263E+02  .263E+02  .264E+02  .269E+02  .267E+02  .267E+02  .263E+02  .262E+02
  .261E+02  .260E+02  .260E+02  .260E+02  .260E+02  .260E+02  .260E+02  .260E+02
  .260E+02  .262E+02  .262E+02  .262E+02  .261E+02  .261E+02  .261E+02  .261E+02
  .261E+02  .261E+02  .260E+02  .260E+02  .260E+02  .260E+02  .260E+02  .260E+02
  .260E+02  .260E+02  .260E+02  .260E+02  .260E+02  .260E+02  .260E+02  .260E+02
  .260E+02  .260E+02  .260E+02  .260E+02  .000E+00  .000E+00  .000E+00  .000E+00
  .000E+00  .000E+00  .000E+00  .000E+00  .000E+00  .000E+00  .000E+00  .000E+00
  .000E+00  .000E+00  .000E+00  .000E+00  .000E+00  .000E+00  .000E+00  .000E+00
  .000E+00  .000E+00  .000E+00  .000E+00  .000E+00  .000E+00  .000E+00  .000E+00
  .000E+00  .000E+00  .000E+00  .000E+00
  .260E+02  .260E+02  .260E+02  .261E+02  .261E+02  .261E+02  .261E+02  .260E+02
  .260E+02  .259E+02  .260E+02  .261E+02  .263E+02  .263E+02  .262E+02  .262E+02
  .262E+02  .268E+02  .258E+02  .263E+02  .268E+02  .270E+02  .269E+02  .269E+02
  .264E+02  .264E+02  .263E+02  .268E+02  .267E+02  .266E+02  .263E+02  .261E+02
  .261E+02  .260E+02  .260E+02  .287E+02  .272E+02  .268E+02  .292E+02  .293E+02
  .263E+02  .263E+02  .261E+02  .261E+02  .261E+02  .261E+02  .261E+02  .289E+02
  .286E+02  .286E+02  .260E+02  .260E+02  .260E+02  .260E+02  .260E+02  .284E+02
  .263E+02  .263E+02  .263E+02  .263E+02  .262E+02  .262E+02  .262E+02  .262E+02
  .262E+02  .262E+02  .262E+02  .262E+02  .000E+00  .000E+00  .000E+00  .000E+00
  .000E+00  .000E+00  .000E+00  .000E+00  .000E+00  .000E+00  .000E+00  .000E+00
  .000E+00  .000E+00  .000E+00  .000E+00  .000E+00  .000E+00  .000E+00  .000E+00
  .000E+00  .000E+00  .000E+00  .000E+00  .000E+00  .000E+00  .000E+00  .000E+00
  .000E+00  .000E+00  .000E+00  .000E+00
Damping =  .05. Data of Sd,Sv,Sa,Pssv,ttSd,ttSv,ttSa :
  .137E-02  .171E-02  .193E-02  .208E-02  .219E-02  .257E-02  .405E-02  .509E-02
  .396E-02  .433E-02  .637E-02  .809E-02  .879E-02  .848E-02  .791E-02  .648E-02
  .600E-02  .806E-02  .828E-02  .113E-01  .162E-01  .193E-01  .257E-01  .301E-01
  .338E-01  .336E-01  .376E-01  .365E-01  .328E-01  .288E-01  .267E-01  .238E-01
  .213E-01  .188E-01  .167E-01  .152E-01  .149E-01  .144E-01  .151E-01  .169E-01
