UNCORRECTED ACCELEROGRAM DATA              PROCESSED: 03/20/95, CDMG QN94207B   
NORTHRIDGE EARTHQUAKE                                                           
JANUARY 17, 1994 04:31 PST              (ORIGIN(CIT): 01/17/94, 12:30:55.4 GMT) 
24207-C0157-94019.02                                                            
STATION NO. 24207   34.334N, 118.396W     CRA-1  S/N 0157 (11 CHNS OF 17 AT STA)
PACOIMA RESERVOIR - PACOIMA DAM                                                 
CHAN  5: RAD      (STA CHN:  5)     LOCATION: CREST: LEFT 1/4-LENGTH POINT      
NORTHRIDGE EARTHQUAKE     JANUARY 17, 1994 04:31 PST                            
HYPOCENTER(CIT): 34.215N, 118.538W, H=18KM. ML=6.6, MW=6.7(CIT); MS=6.7(NEIC)   
INSTR PERIOD =  .0196 SEC,  DAMPING =  .620,  SENSITIVITY = 1.71 CM/G.          
NO. OF POINTS =   2224  RECORD LENGTH = 10.998 SEC                              
UNITS OF UNCOR ACCEL ARE SEC AND G/10.     MAX  = -1.272 G, AT   8.174 SEC.     
RMS ACCEL OF COMPLETE RECORD =  .298 G.                                         
    5    1    5   11   17    0    1    1    1 2048    0    0    0    0    0    0
    0    0    0    0    0    0    0    0    0    0  700 2224   21   31   52    0
    0    0    0    0    0    0    0    0    0    0    0    0    0    0    0    0
    0    0    0    0    0    0    0    0    0    0    0    0    0    0    0    0
    0    0    0    0    0    0    0    0    0    0    0    0    0    0    0    0
    0    0    0    0    0    0    0    0    0    0    0    0    0    0    0    0
    0    0    0    0
      .020      .620    10.998      .298     1.000     1.710    -1.272     8.174
    50.900    50.000     2.924    50.000     4.945      .199     3.074     8.678
      .000      .000      .000      .000      .000      .000      .000      .000
      .000      .000      .000      .000      .000      .000      .000      .000
      .000      .000      .000      .000      .000      .000      .000      .000
      .000      .000      .000      .000      .000      .000      .000      .000
      .000      .000
   .000  -.096   .005  -.096   .010  -.096   .015  -.096   .020  -.095
   .025  -.095   .030  -.081   .034  -.051   .039  -.007   .044   .007
   .049   .036   .054   .065   .059   .094   .064   .109   .069   .109
   .074   .080   .079   .065   .084   .065   .089   .080   .094   .123
   .098   .182   .103   .226   .108   .270   .113   .329   .118   .358
   .123   .373   .128   .373   .133   .329   .138   .241   .143   .125
   .148  -.007   .153  -.109   .158  -.182   .163  -.197   .168  -.153
   .172  -.095   .177  -.007   .182   .052   .187   .125   .192   .184
   .197   .213   .202   .228   .207   .184   .212   .111   .217  -.006
   .221  -.079   .227  -.167   .231  -.226   .236  -.255   .241  -.240
   .246  -.211   .251  -.212   .256  -.226   .261  -.285   .266  -.314
   .271  -.313   .276  -.255   .280  -.196   .285  -.153   .290  -.182
   .295  -.299   .300  -.431   .305  -.504   .310  -.460   .315  -.329
   .320  -.182   .325  -.066   .330   .022   .335   .109   .339   .241
   .344   .358   .349   .445   .354   .563   .359   .636   .364   .709
   .369   .723   .374   .723   .379   .767   .384   .825   .388   .971
   .393  1.176   .398  1.395   .403  1.542   .408  1.585   .413  1.542
   .418  1.381   .423  1.074   .428   .679   .433   .211   .438  -.198
   .443  -.651   .448 -1.075   .453 -1.367   .458 -1.572   .463 -1.630
   .467 -1.557   .472 -1.353   .477 -1.104   .482  -.826   .487  -.651
   .492  -.636   .497  -.840   .502 -1.133   .507 -1.571   .512 -2.010
   .517 -2.331   .522 -2.506   .527 -2.404   .531 -1.922   .536 -1.307
   .541  -.591   .546   .140   .551   .696   .555  1.135   .560  1.515
   .565  1.836   .570  2.070   .575  2.143   .580  2.114   .585  1.997
   .590  1.807   .595  1.632   .600  1.559   .604  1.618   .609  1.822
   .614  2.173   .619  2.583   .624  2.890   .629  3.050   .634  2.977
   .639  2.801   .643  2.611   .649  1.573   .654   .974   .659   .155
   .664  -.722   .669 -1.175   .674 -1.965   .679 -2.755   .684 -3.617
   .689 -4.640   .694 -4.786   .699 -4.816   .704 -4.260   .709 -3.836
   .714 -3.267   .719 -2.813   .724 -2.287   .729 -1.688   .733  -.898
   .738  -.079   .743   .578   .748   .973   .753  1.133   .758  1.192
   .763  1.177   .768  1.149   .773  1.119   .778  1.076   .783  1.061
   .788  1.105   .793  1.295   .797  1.616   .802  2.011   .807  2.421
   .812  2.918   .817  3.327   .822  3.634   .827  3.502   .832  3.166
   .837  2.815   .842  2.128   .847   .871   .853  -.533   .858 -1.526
   .863 -2.330   .868 -2.930   .873 -3.003   .878 -2.740   .883 -2.462
   .888 -2.199   .893 -1.848   .897 -1.365   .902  -.970   .907  -.634
   .912  -.473   .917  -.444   .922  -.341   .927  -.224   .932  -.107
   .937   .024   .942   .069   .947  -.005   .952  -.078   .957   .054
   .962   .302   .967   .507   .972   .712   .977   .902   .982  1.092
   .987  1.297   .992  1.472   .996  1.574  1.001  1.501  1.007  1.282
  1.012   .946  1.016   .551  1.022   .127  1.027  -.355  1.032  -.793
  1.037 -1.115  1.042 -1.276  1.047 -1.232  1.052 -1.086  1.057  -.852
  1.062  -.677  1.066  -.516  1.071  -.413  1.076  -.443  1.081  -.560
  1.087  -.721  1.092  -.896  1.096 -1.072  1.102 -1.174  1.107 -1.174
  1.111 -1.057  1.116  -.735  1.121  -.340  1.126   .215  1.131   .961
  1.136  1.721  1.141  2.291  1.145  2.759  1.150  3.066  1.155  3.198
  1.160  3.183  1.165  3.008  1.170  2.715  1.175  2.218  1.180  1.940
  1.185  1.867  1.191  1.561  1.196   .947  1.201  -.106  1.206  -.574
  1.211 -1.173  1.216 -1.699  1.221 -2.094  1.226 -2.328  1.231 -2.401
  1.236 -2.386  1.241 -2.284  1.246 -2.167  1.251 -1.992  1.256 -1.788
  1.261 -1.598  1.266 -1.539  1.271 -1.583  1.276 -1.656  1.281 -1.787
  1.286 -1.889  1.291 -1.963  1.296 -1.890  1.301 -1.700  1.306 -1.305
  1.311  -.706  1.316  -.092  1.321   .639  1.326  1.267  1.331  1.778
  1.336  2.319  1.340  2.714  1.345  2.933  1.350  3.021  1.355  2.947
  1.360  2.684  1.365  2.392  1.371  2.012  1.376  1.690  1.381  1.514
  1.386  1.383  1.391  1.353  1.396  1.397  1.401  1.440  1.406  1.454
  1.411  1.454  1.416  1.425  1.421  1.191  1.426   .635  1.431  -.096
  1.436 -1.280  1.441 -2.011  1.447 -2.684  1.452 -3.166  1.457 -3.765
  1.462 -4.087  1.467 -4.131  1.472 -3.912  1.477 -2.830  1.482 -1.807
  1.486  -.345  1.491   .591  1.496  1.015  1.501  1.161  1.506  1.102
  1.511   .898  1.516   .635  1.521   .123  1.526  -.330  1.531  -.651
  1.536  -.855  1.541  -.958  1.546  -.987  1.551  -.811  1.556  -.358
  1.561   .300  1.566   .739  1.571  1.762  1.576  2.786  1.581  3.020
  1.586  2.830  1.591  2.304  1.596  1.602  1.601   .871  1.606   .184
  1.611  -.239  1.616  -.385  1.621  -.238  1.626   .040  1.631   .347
  1.636   .552  1.641   .669  1.646   .684  1.651   .611  1.656   .406
  1.661   .114  1.666  -.251  1.672  -.719  1.677 -1.172  1.682 -1.582
  1.687 -1.845  1.692 -1.932  1.697 -1.800  1.702 -1.523  1.707 -1.142
  1.711  -.835  1.716  -.630  1.721  -.484  1.726  -.323  1.731  -.089
  1.736   .203  1.741   .685  1.746  1.109  1.750  1.329  1.755  1.446
  1.760  1.460  1.765  1.402  1.770  1.328  1.775  1.138  1.780   .831
  1.785   .407  1.790  -.133  1.795  -.602  1.800  -.967  1.806 -1.201
  1.810 -1.377  1.815 -1.333  1.820 -1.129  1.825  -.895  1.830  -.749
  1.835  -.676  1.840  -.706  1.845  -.764  1.850  -.750  1.855  -.648
  1.860  -.531  1.865  -.444  1.870  -.371  1.875  -.313  1.880  -.224
  1.884  -.049  1.889   .155  1.894   .462  1.899   .827  1.904  1.222
  1.909  1.675  1.914  2.011  1.919  2.405  1.923  2.595  1.929  2.478
  1.934  2.185  1.939  1.908  1.944  1.571  1.949  1.205  1.954   .679
  1.959   .064  1.964  -.710  1.969 -1.222  1.974 -1.514  1.979 -1.734
  1.984 -1.792  1.989 -1.690  1.994 -1.427  1.998 -1.091  2.003  -.726
  2.008  -.448  2.013  -.287  2.018  -.302  2.023  -.462  2.028  -.755
  2.033 -1.004  2.038 -1.106  2.043 -1.121  2.048 -1.120  2.053 -1.150
  2.058 -1.018  2.063  -.696  2.068  -.185  2.072   .356  2.077   .882
  2.082  1.364  2.087  1.774  2.092  2.256  2.097  2.490  2.102  2.519
  2.107  2.227  2.112  1.613  2.117   .926  2.122   .326  2.127  -.229
  2.132  -.535  2.137  -.579  2.142  -.477  2.147  -.389  2.152  -.360
  2.157  -.388  2.162  -.374  2.167  -.417  2.172  -.592  2.177  -.899
  2.182 -1.191  2.187 -1.484  2.192 -1.702  2.197 -1.951  2.202 -2.169
  2.207 -2.257  2.211 -2.198  2.216 -1.993  2.221 -1.510  2.226  -.734
  2.231   .347  2.235  1.035  2.240  1.650  2.245  2.133  2.250  2.396
  2.255  2.397  2.260  2.178  2.265  1.871  2.270  1.447  2.275  1.068
  2.280   .893  2.285   .835  2.289   .923  2.294  1.084  2.299  1.290
  2.304  1.524  2.309  1.758  2.314  1.876  2.319  1.817  2.324  1.584
  2.329  1.291  2.334  1.072  2.339   .897  2.344   .649  2.349   .342
  2.354  -.112  2.359  -.857  2.364 -2.319  2.369 -2.948  2.374 -3.796
  2.379 -4.074  2.384 -4.114  2.389 -4.044  2.394 -3.854  2.399 -3.387
  2.404 -2.978  2.408 -2.671  2.413 -2.321  2.418 -1.955  2.423 -1.488
  2.428 -1.036  2.432  -.539  2.437  -.174  2.442   .104  2.447   .410
  2.452   .629  2.457   .847  2.462  1.139  2.467  1.417  2.471  1.782
  2.476  2.176  2.481  2.629  2.486  2.994  2.491  3.329  2.496  3.650
  2.500  3.825  2.505  3.986  2.510  4.219  2.515  4.423  2.520  4.452
  2.525  4.247  2.530  3.604  2.535  2.697  2.540  1.556  2.545  1.029
  2.550   .605  2.555   .108  2.560  -.960  2.566 -1.588  2.571 -2.466
  2.576 -3.665  2.581 -4.440  2.586 -5.449  2.591 -5.961  2.596 -6.341
  2.601 -6.546  2.606 -6.326  2.611 -5.712  2.615 -4.037  2.620 -2.590
  2.625 -1.248  2.629  -.141  2.634   .604  2.639  1.073  2.644  1.219
  2.649  1.175  2.654  1.000  2.659   .736  2.664   .445  2.668   .386
  2.673   .591  2.678  1.044  2.683  1.380  2.688  1.805  2.693  2.302
  2.697  2.828  2.702  3.223  2.707  3.442  2.712  3.706  2.717  3.823
  2.722  3.458  2.727  2.756  2.732  1.777  2.737   .826  2.743   .256
  2.747  -.241  2.753  -.694  2.757  -.972  2.762 -1.060  2.767 -1.030
  2.772 -1.206  2.777 -1.498  2.782 -1.688  2.787 -1.791  2.792 -1.878
  2.797 -2.156  2.802 -2.492  2.807 -2.711  2.812 -2.653  2.817 -2.360
  2.822 -1.820  2.827 -1.177  2.831  -.446  2.836   .227  2.841   .651
  2.846   .885  2.851  1.002  2.856  1.060  2.861  1.016  2.866   .943
  2.871   .884  2.875   .928  2.880  1.045  2.885  1.294  2.890  1.528
  2.895  1.718  2.900  1.806  2.905  1.777  2.910  1.718  2.915  1.660
  2.920  1.557  2.925  1.440  2.930  1.163  2.935   .709  2.940   .256
  2.945  -.080  2.950  -.314  2.955  -.782  2.960 -1.235  2.965 -1.513
  2.970 -1.629  2.975 -1.673  2.980 -1.629  2.984 -1.498  2.989 -1.337
  2.994 -1.249  2.999 -1.205  3.004 -1.234  3.009 -1.205  3.014  -.986
  3.019  -.635  3.024  -.255  3.029   .023  3.033   .286  3.038   .476
  3.043   .593  3.048   .652  3.053   .608  3.058   .521  3.063   .477
  3.068   .535  3.073   .652  3.078   .754  3.083   .827  3.088   .915
  3.092   .929  3.098   .783  3.102   .520  3.108   .154  3.112  -.255
  3.117  -.460  3.122  -.592  3.127  -.533  3.132  -.402  3.137  -.241
  3.142  -.138  3.147  -.036  3.152  -.007  3.157  -.080  3.162  -.197
  3.167  -.373  3.172  -.548  3.177  -.680  3.182  -.797  3.187  -.841
  3.191  -.885  3.197  -.885  3.201  -.855  3.206  -.739  3.211  -.534
  3.216  -.286  3.221  -.110  3.226   .007  3.231   .066  3.236   .080
  3.241   .007  3.246  -.066  3.251  -.095  3.256  -.081  3.261  -.008
  3.266   .109  3.270   .299  3.275   .518  3.280   .825  3.285  1.088
  3.290  1.235  3.295  1.337  3.300  1.308  3.305  1.264  3.310  1.206
  3.315  1.147  3.320  1.045  3.325   .957  3.330   .854  3.335   .708
  3.340   .547  3.345   .254  3.349  -.053  3.355  -.403  3.360  -.769
  3.365 -1.106  3.370 -1.310  3.375 -1.457  3.380 -1.676  3.385 -2.013
  3.390 -2.378  3.395 -2.729  3.400 -2.875  3.405 -2.802  3.409 -2.495
  3.414 -2.013  3.419 -1.472  3.424  -.829  3.429  -.186  3.434   .487
  3.438  1.129  3.443  1.656  3.448  2.007  3.453  2.211  3.458  2.270
  3.463  2.152  3.468  1.787  3.473  1.261  3.478   .808  3.483   .603
  3.488   .530  3.493   .661  3.498   .676  3.503   .427  3.508   .135
  3.513   .047  3.518  -.012  3.523  -.202  3.528  -.611  3.533  -.889
  3.538 -1.020  3.543 -1.064  3.547  -.991  3.553  -.800  3.557  -.581
  3.562  -.361  3.567  -.230  3.572  -.054  3.577   .150  3.582   .355
  3.587   .545  3.592   .604  3.597   .487  3.602   .282  3.607   .136
  3.612  -.010  3.616  -.112  3.622  -.215  3.626  -.361  3.632  -.478
  3.636  -.595  3.641  -.667  3.646  -.726  3.651  -.901  3.656 -1.092
  3.661  -.989  3.666  -.551  3.671  -.054  3.676  -.096  3.681  -.102
  3.686  -.102  3.691  -.102  3.696  -.102  3.701  -.102  3.705  -.102
  3.710  -.102  3.715  -.102  3.720  -.102  3.725  -.102  3.730  -.102
  3.735  -.102  3.740  -.102  3.745  -.101  3.750  -.101  3.755  -.101
  3.760  -.101  3.765  -.101  3.770  -.100  3.774  -.100  3.780  -.100
  3.784  -.100  3.789  -.100  3.794  -.099  3.799  -.099  3.804  -.099
  3.809  -.099  3.814  -.098  3.819  -.098  3.824  -.098  3.829  -.097
  3.834  -.096  3.839  -.096  3.844  -.096  3.849  -.096  3.853  -.096
  3.858  -.096  3.863  -.095  3.868  -.095  3.873  -.096  3.878  -.096
  3.883  -.096  3.888  -.096  3.893  -.096  3.898  -.097  3.903  -.097
  3.908  -.098  3.913  -.098  3.918  -.099  3.922  -.100  3.927  -.101
  3.932  -.102  3.937  -.103  3.942  -.105  3.947  -.106  3.952  -.107
  3.957  -.109  3.962  -.110  3.967  -.112  3.972  -.113  3.977  -.115
  3.982  -.117  3.987  -.119  3.992  -.121  3.997  -.123  4.001  -.125
  4.006  -.127  4.011  -.129  4.016  -.131  4.021  -.133  4.026  -.135
  4.031  -.137  4.036  -.139  4.041  -.141  4.046  -.142  4.051  -.144
  4.056  -.144  4.061  -.146  4.065  -.147  4.070  -.148  4.075  -.148
  4.080  -.149  4.085  -.149  4.090  -.150  4.095  -.150  4.100  -.150
  4.105  -.149  4.110  -.148  4.115  -.147  4.120  -.147  4.125  -.146
  4.130  -.144  4.135  -.143  4.140  -.140  4.144  -.138  4.149  -.136
  4.154  -.134  4.159  -.131  4.164  -.129  4.169  -.126  4.174  -.123
  4.179  -.120  4.184  -.117  4.189  -.114  4.194  -.111  4.199  -.107
  4.204  -.104  4.209  -.100  4.214  -.098  4.218  -.094  4.223  -.090
  4.228  -.086  4.233  -.084  4.238  -.080  4.243  -.077  4.248  -.074
  4.253  -.071  4.258  -.068  4.263  -.065  4.268  -.062  4.273  -.060
  4.278  -.057  4.283  -.055  4.287  -.053  4.292  -.051  4.297  -.048
  4.302  -.047  4.307  -.045  4.312  -.044  4.317  -.043  4.322  -.041
  4.327  -.040  4.332  -.040  4.337  -.039  4.342  -.038  4.347  -.038
  4.352  -.038  4.357  -.038  4.361  -.038  4.366  -.038  4.371  -.038
  4.376  -.039  4.381  -.039  4.386  -.040  4.391  -.040  4.396  -.040
  4.401  -.041  4.406  -.041  4.411  -.042  4.416  -.043  4.421  -.044
  4.426  -.044  4.431  -.046  4.436  -.046  4.440  -.047  4.445  -.047
  4.450  -.048  4.455  -.049  4.460  -.050  4.465  -.050  4.470  -.051
  4.475  -.051  4.480  -.051  4.485  -.051  4.490  -.052  4.495  -.053
  4.500  -.053  4.504  -.053  4.509  -.053  4.514  -.054  4.519  -.054
  4.524  -.054  4.529  -.054  4.534  -.054  4.539  -.054  4.544  -.054
  4.549  -.054  4.554  -.054  4.559  -.054  4.564  -.053  4.569  -.053
  4.574  -.053  4.578  -.053  4.583  -.052  4.588  -.052  4.593  -.052
  4.598  -.051  4.603  -.051  4.608  -.051  4.613  -.051  4.618  -.051
  4.623  -.050  4.628  -.050  4.633  -.050  4.638  -.050  4.643  -.058
  4.648  -.058  4.653  -.058  4.657  -.057  4.662  -.057  4.667  -.057
  4.672  -.056  4.677  -.056  4.682  -.056  4.687  -.055  4.692  -.055
  4.697  -.055  4.702  -.055  4.707  -.055  4.712  -.055  4.717  -.055
  4.722  -.055  4.727  -.055  4.732  -.055  4.735  5.866  4.740  5.442
  4.746  4.828  4.751  3.424  4.756  2.042  4.761  -.277  4.767 -3.709
  4.773 -5.713  4.777 -5.202  4.782 -4.544  4.787 -4.675  4.792 -5.275
  4.797 -5.933  4.802 -6.416  4.807 -7.220  4.813 -8.024  4.818 -8.801
  4.823 -9.705  4.828-10.868  4.833-11.781  4.838-11.635  4.843-10.310
  4.847 -8.414  4.852 -6.191  4.856 -4.039  4.861 -1.887  4.865   .264
  4.870  2.415  4.874  4.567  4.879  6.917  4.884  7.195  4.889  7.268
  4.894  7.224  4.899  6.856  4.904  5.763  4.909  4.449  4.914  3.875
  4.919  3.404  4.924  2.125  4.930   .365  4.935 -2.082  4.941 -4.208
  4.946 -6.130  4.951 -4.761  4.955 -3.538  4.960  -.420  4.964  3.250
  4.969  3.046  4.974  1.757  4.979  1.801  4.984  2.225  4.989  2.971
  4.994  3.687  4.999  3.673  5.003  3.395  5.009  3.278  5.014  3.293
  5.018  3.234  5.023  3.308  5.028  3.512  5.033  3.439  5.038  2.811
  5.043  2.328  5.048  2.240  5.053  2.416  5.058  2.445  5.063  2.123
  5.069  1.363  5.074   .589  5.079  -.200  5.084 -1.151  5.089 -2.540
  5.094 -3.521  5.099 -3.931  5.104 -4.220  5.109 -4.732  5.114 -4.937
  5.119 -5.083  5.124 -5.229  5.129 -5.448  5.134 -5.697  5.139 -5.829
  5.144 -5.989  5.149 -6.121  5.154 -6.282  5.159 -6.384  5.164 -6.369
  5.169 -6.209  5.174 -5.799  5.179 -4.663  5.183 -3.816  5.188  -.405
  5.192  1.266  5.197  3.309  5.202  3.660  5.207  4.815  5.211  5.283
  5.216  5.312  5.221  5.385  5.226  5.750  5.231  6.131  5.236  5.911
  5.241  5.108  5.246  4.172  5.251  3.441  5.256  2.812  5.261  2.388
  5.266  1.877  5.272  -.231  5.278 -3.741  5.283 -4.994  5.287 -3.837
  5.292  -.743  5.296  2.680  5.301  1.829  5.306   .950  5.311   .648
  5.316   .882  5.321  1.218  5.326   .573  5.331  -.433  5.336  -.682
  5.341  -.813  5.346 -1.091  5.351 -1.544  5.356 -1.764  5.361 -1.574
  5.366 -1.354  5.371 -1.325  5.376 -1.559  5.381 -1.865  5.386 -2.085
  5.391 -2.158  5.396 -2.114  5.401 -2.070  5.406 -2.055  5.411 -2.040
  5.416 -1.938  5.421 -1.704  5.425 -1.324  5.430  -.929  5.435  -.476
  5.440  -.140  5.445   .211  5.450   .504  5.455   .752  5.460  1.001
  5.465  1.220  5.470  1.512  5.475  1.761  5.479  2.068  5.484  2.287
  5.489  2.477  5.494  2.639  5.499  2.770  5.504  2.858  5.509  2.990
  5.514  3.180  5.519  3.472  5.524  3.764  5.528  4.056  5.533  4.378
  5.538  4.670  5.543  5.270  5.548  5.591  5.553  5.138  5.558  4.290
  5.563  3.529  5.568  2.638  5.574  1.863  5.578  1.088  5.584 -1.963
  5.589 -3.869  5.595 -4.438  5.599 -4.526  5.604 -4.215  5.609 -3.923
  5.614 -4.322  5.619 -4.803  5.624 -5.272  5.629 -4.966  5.634 -4.440
  5.639 -3.943  5.644 -3.124  5.648 -2.145  5.653 -1.341  5.658  -.054
  5.663   .400  5.668   .940  5.673  1.642  5.677  2.460  5.682  3.323
  5.687  3.863  5.692  4.039  5.697  3.878  5.702  3.527  5.707  3.118
  5.712  2.752  5.717  2.343  5.722  1.773  5.727  1.143  5.732   .295
  5.737  -.275  5.742  -.538  5.747  -.552  5.752  -.625  5.757 -1.107
  5.762 -2.087  5.767 -2.627  5.772 -2.408  5.777 -1.867  5.782 -1.575
  5.787 -1.546  5.792 -1.633  5.797 -1.706  5.802 -1.692  5.807 -1.413
  5.811  -.887  5.816  -.448  5.821  -.039  5.826   .239  5.831   .518
  5.836   .766  5.841  1.044  5.845  1.380  5.851  1.629  5.855  1.776
  5.860  1.673  5.865  1.498  5.870  1.220  5.875   .971  5.880   .650
  5.885   .343  5.890   .109  5.895   .066  5.900   .183  5.905   .343
  5.910   .431  5.915   .519  5.920   .695  5.925   .709  5.930   .374
  5.935   .067  5.940  -.094  5.945  -.240  5.950  -.562  5.955 -1.177
  5.960 -1.381  5.965 -1.074  5.970  -.826  5.975  -.928  5.979 -1.074
  5.985 -1.264  5.990 -1.717  5.995 -2.728  6.000 -4.109  6.005 -4.693
  6.010 -4.189  6.015 -3.445  6.019 -2.653  6.024 -1.806  6.029 -1.177
  6.034  -.534  6.039  -.081  6.044   .139  6.049   .109  6.054  -.008
  6.058  -.213  6.063  -.403  6.068  -.534  6.074  -.667  6.078  -.754
  6.083  -.827  6.088  -.885  6.093  -.915  6.098 -1.002  6.103 -1.075
  6.108 -1.134  6.113 -1.105  6.118  -.959  6.123  -.623  6.128  -.301
  6.133  -.009  6.138   .196  6.142   .328  6.147   .518  6.152   .737
  6.157  1.058  6.162  1.497  6.167  1.877  6.172  2.389  6.176  2.886
  6.181  3.339  6.186  3.778  6.191  4.085  6.196  4.538  6.201  5.123
  6.206  6.015  6.210  6.541  6.215  5.912  6.220  5.474  6.226  5.328
