UNCORRECTED ACCELEROGRAM DATA              PROCESSED: 03/20/95, CDMG QN94A207   
NORTHRIDGE EARTHQUAKE                                                           
JANUARY 17, 1994 04:31 PST              (ORIGIN(CIT): 01/17/94, 12:30:55.4 GMT) 
24207-C0140-94019.02                                                            
STATION NO. 24207   34.334N, 118.396W     CRA-1  S/N 0140 ( 6 CHNS OF 17 AT STA)
PACOIMA RESERVOIR - PACOIMA DAM                                                 
CHAN  5: UP       (STA CHN: 16)     LOCATION: LEFT (SOUTH) ABUTMENT             
NORTHRIDGE EARTHQUAKE     JANUARY 17, 1994 04:31 PST                            
HYPOCENTER(CIT): 34.215N, 118.538W, H=18KM. ML=6.6, MW=6.7(CIT); MS=6.7(NEIC)   
INSTR PERIOD =  .0215 SEC,  DAMPING =  .656,  SENSITIVITY = 1.78 CM/G.          
NO. OF POINTS =   2222  RECORD LENGTH = 11.000 SEC                              
UNITS OF UNCOR ACCEL ARE SEC AND G/10.     MAX  =   .323 G, AT   4.704 SEC.     
RMS ACCEL OF COMPLETE RECORD =  .070 G.                                         
    5    1   16    6   17    0    1    1    1 2048    0    0    0    0    0    0
    0    0    0    0    0    0    0    0    0    0  500 2222   21   31   52    0
    0    0    0    0    0    0    0    0    0    0    0    0    0    0    0    0
    0    0    0    0    0    0    0    0    0    0    0    0    0    0    0    0
    0    0    0    0    0    0    0    0    0    0    0    0    0    0    0    0
    0    0    0    0    0    0    0    0    0    0    0    0    0    0    0    0
    0    0    0    0
      .021      .656    11.000      .070     1.000     1.780      .323     4.704
    46.600    50.000     2.809    50.000     4.950      .180     4.123     9.802
      .000      .000      .000      .000      .000      .000      .000      .000
      .000      .000      .000      .000      .000      .000      .000      .000
      .000      .000      .000      .000      .000      .000      .000      .000
      .000      .000      .000      .000      .000      .000      .000      .000
      .000      .000
   .000  -.079   .005  -.063   .010  -.063   .015  -.048   .020  -.033
   .025  -.046   .030  -.031   .035  -.044   .040  -.099   .045  -.126
   .050  -.139   .054  -.153   .060  -.124   .064  -.123   .069  -.122
   .074  -.122   .079  -.149   .084  -.191   .089  -.204   .094  -.245
   .099  -.245   .104  -.245   .109  -.216   .114  -.202   .119  -.188
   .124  -.174   .129  -.187   .134  -.173   .139  -.159   .144  -.103
   .149  -.060   .154  -.046   .159  -.116   .164  -.243   .169  -.397
   .174  -.481   .178  -.580   .184  -.594   .189  -.594   .193  -.553
   .198  -.511   .203  -.426   .208  -.258   .213  -.075   .218   .163
   .223   .416   .228   .654   .233   .879   .238  1.117   .243  1.271
   .247  1.397   .252  1.496   .257  1.524   .262  1.411   .267  1.186
   .272   .877   .278   .624   .282   .427   .287   .343   .292   .371
   .297   .398   .302   .314   .308   .160   .313  -.065   .317  -.304
   .323  -.585   .328  -.739   .333  -.852   .338  -.908   .343  -.950
   .348  -.992   .353 -1.006   .358 -1.006   .363  -.977   .367  -.935
   .372  -.921   .377  -.921   .382 -1.034   .387 -1.188   .392 -1.371
   .397 -1.539   .403 -1.638   .407 -1.652   .412 -1.539   .417 -1.286
   .422  -.879   .427  -.429   .432   .175   .437   .723   .441  1.271
   .446  1.706   .451  2.015   .456  2.226   .461  2.212   .466  2.072
   .471  1.819   .476  1.609   .481  1.441   .486  1.356   .491  1.342
   .496  1.412   .501  1.483   .506  1.483   .511  1.286   .516   .851
   .521   .303   .526  -.188   .531  -.763   .536 -1.129   .541 -1.424
   .547 -1.550   .551 -1.522   .556 -1.325   .561 -1.100   .566  -.932
   .571  -.861   .576  -.903   .581  -.903   .586  -.805   .591  -.580
   .596  -.313   .601   .010   .606   .207   .610   .305   .615   .319
   .620   .305   .626   .249   .631   .165   .635   .095   .640   .151
   .645   .264   .650   .390   .655   .306   .660  -.003   .665  -.494
   .670  -.803   .675  -.874   .680  -.648   .685  -.157   .690   .349
   .695   .659   .700   .757   .705   .560   .710   .153   .715  -.212
   .720  -.451   .725  -.563   .730  -.605   .735  -.689   .740  -.829
   .745  -.956   .750 -1.012   .755  -.899   .760  -.661   .765  -.380
   .770  -.168   .775   .098   .779   .407   .784   .829   .789  1.180
   .794  1.307   .799  1.096   .804   .717   .809   .282   .814  -.069
   .819  -.294   .824  -.392   .829  -.252   .834   .001   .839   .240
   .844   .381   .849   .226   .854   .016   .859  -.279   .864  -.433
   .869  -.545   .874  -.531   .879  -.433   .884  -.307   .889  -.152
   .894  -.012   .899  -.025   .904  -.152   .909  -.250   .914  -.180
   .919  -.025   .924   .157   .929   .214   .934   .157   .938   .157
   .943   .185   .948   .158   .953   .158   .958   .214   .963   .130
   .968   .017   .973  -.207   .979  -.395   .984  -.657   .988  -.881
   .994  -.980   .998  -.811  1.003  -.488  1.008   .032  1.013   .608
  1.018   .903  1.023  1.114  1.028  1.128  1.033  1.016  1.038   .847
  1.043   .679  1.048   .552  1.053   .510  1.058   .511  1.063   .609
  1.067   .693  1.073   .567  1.078   .356  1.083  -.108  1.088  -.388
  1.093  -.571  1.098  -.656  1.103  -.683  1.108  -.571  1.113  -.416
  1.117  -.177  1.122  -.037  1.127   .061  1.132   .019  1.137  -.065
  1.142  -.177  1.147  -.290  1.152  -.472  1.158  -.669  1.162  -.795
  1.167  -.879  1.172  -.907  1.177  -.949  1.182  -.935  1.187  -.823
  1.192  -.683  1.197  -.500  1.202  -.304  1.207  -.163  1.212  -.009
  1.217   .104  1.222   .315  1.227   .567  1.232   .862  1.236  1.284
  1.241  1.565  1.246  1.663  1.251  1.480  1.256  1.200  1.261   .722
  1.266   .329  1.271   .048  1.276  -.106  1.281  -.078  1.286   .062
  1.291   .175  1.296   .189  1.301  -.008  1.306  -.233  1.311  -.527
  1.316  -.696  1.321  -.822  1.326  -.808  1.331  -.667  1.336  -.485
  1.341  -.344  1.346  -.260  1.351  -.161  1.356  -.077  1.361   .078
  1.366   .302  1.370   .611  1.375   .991  1.380  1.216  1.385  1.328
  1.390  1.174  1.395   .823  1.400   .401  1.406  -.062  1.411  -.469
  1.416  -.638  1.420  -.553  1.425  -.216  1.430   .065  1.435   .150
  1.440  -.019  1.445  -.328  1.450  -.581  1.455  -.707  1.460  -.721
  1.465  -.623  1.470  -.539  1.475  -.651  1.480  -.834  1.485 -1.170
  1.490 -1.437  1.495 -1.634  1.500 -1.465  1.505  -.974  1.510  -.047
  1.514   .894  1.519  1.821  1.524  2.383  1.529  2.510  1.534  2.144
  1.539  1.471  1.544   .867  1.549   .319  1.554  -.144  1.559  -.678
  1.565 -1.043  1.570 -1.282  1.575 -1.380  1.579 -1.366  1.584 -1.254
  1.589 -1.071  1.594  -.762  1.599  -.397  1.604  -.074  1.609   .249
  1.614   .389  1.619   .474  1.624   .347  1.629   .221  1.634   .080
  1.639  -.003  1.644  -.059  1.649  -.130  1.654  -.130  1.658   .053
  1.663   .264  1.668   .488  1.673   .348  1.678  -.004  1.684  -.425
  1.689  -.664  1.694  -.875  1.699  -.958  1.703  -.818  1.708  -.453
  1.713   .053  1.718   .544  1.723   .839  1.728  1.078  1.732  1.190
  1.738  1.106  1.743   .783  1.748   .319  1.753  -.368  1.758  -.832
  1.763 -1.029  1.768 -1.043  1.773  -.818  1.778  -.229  1.782   .347
  1.787   .811  1.792   .937  1.797   .684  1.802   .095  1.808  -.383
  1.813  -.663  1.817  -.621  1.822  -.383  1.827   .067  1.832   .446
  1.837   .713  1.842   .713  1.847   .587  1.852   .460  1.857   .334
  1.862   .292  1.867   .208  1.872   .166  1.877   .237  1.882   .363
  1.887   .517  1.891   .672  1.896   .602  1.901   .350  1.907  -.113
  1.912  -.549  1.917  -.774  1.922  -.829  1.927  -.618  1.931  -.169
  1.936   .407  1.941   .759  1.946   .941  1.951   .857  1.956   .661
  1.961   .366  1.966   .226  1.971   .156  1.976   .241  1.981   .367
  1.986   .325  1.991   .115  1.996  -.250  2.001  -.602  2.006  -.925
  2.011 -1.107  2.016 -1.163  2.021  -.966  2.026  -.671  2.031  -.263
  2.036  -.025  2.041   .088  2.046  -.080  2.051  -.305  2.056  -.586
  2.061  -.797  2.066  -.979  2.071 -1.119  2.076 -1.203  2.081 -1.245
  2.086 -1.231  2.091 -1.217  2.096 -1.063  2.100  -.810  2.105  -.290
  2.110   .384  2.115  1.058  2.119  1.704  2.124  2.126  2.129  2.294
  2.134  1.999  2.139  1.535  2.145   .819  2.150   .384  2.155   .117
  2.160   .159  2.165   .468  2.169   .917  2.174  1.170  2.179  1.128
  2.184   .833  2.189   .412  2.194  -.108  2.200  -.473  2.205  -.810
  2.210  -.979  2.215 -1.021  2.220  -.951  2.225  -.965  2.230 -1.077
  2.235 -1.245  2.240 -1.358  2.244 -1.344  2.249 -1.204  2.254  -.909
  2.259  -.572  2.264  -.207  2.269   .032  2.274   .088  2.279  -.067
  2.284  -.221  2.289  -.235  2.294  -.010  2.298   .355  2.303   .833
  2.308  1.184  2.313  1.352  2.318  1.254  2.323  1.015  2.328   .579
  2.333   .284  2.338   .060  2.343   .088  2.348   .397  2.353   .959
  2.358  1.268  2.363  1.380  2.368  1.183  2.373   .776  2.378   .186
  2.383  -.109  2.388  -.263  2.393  -.165  2.398   .018  2.403   .187
  2.408   .284  2.412   .200  2.418  -.039  2.423  -.362  2.428  -.657
  2.433  -.881  2.438 -1.022  2.443  -.994  2.447  -.811  2.452  -.544
  2.457  -.348  2.462  -.320  2.467  -.516  2.472  -.881  2.477 -1.190
  2.482 -1.345  2.487 -1.218  2.492  -.994  2.497  -.600  2.502  -.179
  2.507   .229  2.512   .524  2.516   .664  2.522   .566  2.526   .355
  2.532   .046  2.537  -.179  2.542  -.291  2.546  -.235  2.551   .005
  2.556   .412  2.561   .889  2.566  1.128  2.571  1.269  2.576  1.101
  2.581   .721  2.586   .089  2.591  -.486  2.596 -1.006  2.601 -1.217
  2.606 -1.188  2.611 -1.048  2.616  -.865  2.621  -.766  2.626  -.710
  2.631  -.584  2.636  -.359  2.641   .062  2.645   .596  2.650   .919
  2.655  1.130  2.660  1.173  2.665  1.019  2.670   .682  2.675   .246
  2.680  -.175  2.685  -.442  2.690  -.596  2.695  -.498  2.700  -.343
  2.705  -.175  2.710  -.174  2.715  -.244  2.720  -.286  2.725  -.202
  2.730  -.103  2.735   .079  2.740   .290  2.744   .487  2.749   .613
  2.754   .585  2.759   .374  2.764   .066  2.769  -.243  2.774  -.397
  2.779  -.341  2.784  -.116  2.789   .137  2.794   .333  2.799   .375
  2.804   .249  2.809  -.018  2.814  -.313  2.819  -.565  2.824  -.762
  2.829  -.888  2.834  -.818  2.839  -.566  2.843  -.018  2.848   .417
  2.853   .741  2.858   .755  2.863   .558  2.868   .080  2.873  -.284
  2.878  -.565  2.883  -.706  2.888  -.720  2.893  -.594  2.898  -.425
  2.903  -.200  2.908  -.102  2.913  -.088  2.918  -.173  2.923  -.257
  2.928  -.172  2.932  -.004  2.937   .235  2.942   .502  2.947   .740
  2.952   .937  2.957   .979  2.962   .852  2.967   .571  2.972   .305
  2.977  -.004  2.982  -.186  2.987  -.327  2.992  -.369  2.997  -.440
  3.002  -.552  3.007  -.636  3.012  -.707  3.017  -.735  3.022  -.622
  3.027  -.384  3.031  -.060  3.036   .376  3.041   .685  3.046   .867
  3.051   .924  3.056   .825  3.061   .587  3.066   .362  3.071   .179
  3.076   .221  3.081   .446  3.086   .855  3.090  1.178  3.095  1.374
  3.100  1.360  3.105  1.135  3.110   .728  3.115   .419  3.120   .195
  3.125   .167  3.130   .307  3.135   .532  3.140   .715  3.145   .856
  3.150   .814  3.155   .730  3.160   .632  3.165   .561  3.170   .575
  3.174   .632  3.179   .702  3.184   .688  3.189   .605  3.194   .450
  3.199   .310  3.204   .183  3.209   .197  3.214   .408  3.219   .774
  3.224  1.139  3.229  1.378  3.234  1.279  3.239  1.026  3.244   .578
  3.249   .241  3.254   .016  3.259  -.068  3.263   .030  3.269   .199
  3.273   .353  3.278   .410  3.283   .396  3.288   .353  3.293   .339
  3.298   .341  3.303   .355  3.308   .411  3.313   .467  3.318   .579
  3.322   .720  3.328   .860  3.332  1.029  3.337  1.127  3.342  1.197
  3.347  1.113  3.352   .973  3.357   .776  3.362   .636  3.367   .566
  3.372   .608  3.377   .678  3.382   .635  3.387   .467  3.392   .074
  3.397  -.291  3.402  -.671  3.407 -1.036  3.412 -1.331  3.417 -1.626
  3.422 -1.753  3.427 -1.809  3.432 -1.809  3.437 -1.782  3.442 -1.684
  3.447 -1.586  3.451 -1.432  3.456 -1.305  3.461 -1.235  3.466 -1.208
  3.471 -1.208  3.476 -1.279  3.481 -1.406  3.486 -1.504  3.491 -1.617
  3.496 -1.632  3.501 -1.604  3.506 -1.492  3.511 -1.366  3.516 -1.141
  3.520  -.847  3.525  -.468  3.530  -.159  3.535   .009  3.540  -.118
  3.545  -.372  3.550  -.738  3.555 -1.018  3.560 -1.258  3.565 -1.483
  3.570 -1.637  3.575 -1.652  3.580 -1.525  3.585 -1.301  3.589 -1.062
  3.594  -.824  3.599  -.656  3.604  -.628  3.609  -.726  3.614  -.810
  3.619  -.880  3.624  -.880  3.629  -.825  3.634  -.726  3.639  -.614
  3.644  -.544  3.648  -.530  3.653  -.501  3.658  -.445  3.663  -.361
  3.668  -.332  3.673  -.374  3.678  -.416  3.683  -.289  3.688  -.050
  3.693   .427  3.697   .975  3.702  1.537  3.707  1.861  3.712  1.945
  3.717  1.776  3.722  1.764  3.727   .192  3.732   .192  3.737   .192
  3.742   .193  3.747   .193  3.752   .194  3.757   .194  3.762   .194
  3.767   .194  3.772   .194  3.777   .195  3.782   .195  3.787   .196
  3.792   .196  3.797   .196  3.802   .197  3.806   .197  3.811   .197
  3.816   .197  3.821   .197  3.826   .198  3.831   .198  3.836   .198
  3.841   .198  3.846   .198  3.851   .198  3.856   .199  3.861   .199
  3.866   .200  3.871   .200  3.876   .200  3.881   .200  3.886   .200
  3.891   .200  3.896   .200  3.901   .200  3.905   .201  3.910   .201
  3.915   .201  3.920   .201  3.925   .201  3.930   .201  3.935   .201
  3.940   .201  3.945   .201  3.950   .201  3.955   .202  3.960   .202
  3.965   .202  3.970   .202  3.975   .202  3.980   .202  3.985   .202
  3.990   .202  3.995   .202  4.000   .202  4.004   .202  4.009   .202
  4.014   .203  4.019   .203  4.024   .203  4.029   .206  4.034   .206
  4.039   .206  4.044   .206  4.049   .206  4.054   .206  4.059   .206
  4.064   .206  4.069   .206  4.074   .206  4.079   .206  4.084   .206
  4.089   .206  4.094   .206  4.098   .206  4.103   .206  4.108   .206
  4.113   .206  4.118   .206  4.123   .206  4.128   .206  4.133   .206
  4.138   .206  4.143   .206  4.148   .206  4.153   .206  4.158   .206
  4.163   .206  4.168   .206  4.173   .205  4.178   .206  4.183   .206
  4.188   .206  4.193   .206  4.198   .206  4.202   .206  4.207   .206
  4.213   .205  4.217   .205  4.222   .205  4.227   .205  4.232   .206
  4.237   .206  4.242   .206  4.247   .206  4.252   .206  4.257   .206
  4.262   .206  4.267   .206  4.272   .205  4.277   .205  4.282   .206
  4.287   .206  4.292   .206  4.297   .206  4.302   .206  4.307   .206
  4.312   .206  4.317   .206  4.322   .206  4.327   .206  4.332   .206
  4.337   .206  4.342   .206  4.347   .206  4.352   .206  4.357   .206
  4.362   .206  4.367   .206  4.372   .206  4.377   .206  4.382   .206
  4.387   .206  4.392   .206  4.397   .206  4.402   .206  4.406   .206
  4.411   .206  4.416   .206  4.421   .206  4.426   .206  4.431   .206
  4.436   .206  4.441   .206  4.446   .206  4.451   .206  4.456   .206
  4.461   .206  4.466   .206  4.471   .206  4.476   .206  4.481   .206
  4.486   .206  4.491   .206  4.496   .207  4.501   .207  4.506   .207
  4.511   .207  4.516   .207  4.521   .208  4.526   .208  4.531   .209
  4.536   .897  4.541   .584  4.546   .380  4.550  1.330  4.555  2.283
  4.560  2.635  4.565  1.428  4.571  -.158  4.576  -.382  4.581   .040
  4.586   .195  4.591  -.226  4.596  -.731  4.601  -.421  4.606  -.112
  4.611  -.224  4.615  -.153  4.621  -.012  4.626  -.348  4.631 -1.148
  4.636 -1.906  4.641 -2.270  4.646 -2.353  4.651 -2.268  4.656 -1.903
  4.661 -1.102  4.665  -.300  4.670   .121  4.675   .473  4.680   .895
  4.685  1.500  4.689  2.048  4.694  2.737  4.699  3.088  4.704  3.229
  4.709  2.948  4.714  2.485  4.719  1.656  4.725  1.038  4.730   .294
  4.735   .166  4.740   .158  4.745   .239  4.749   .171  4.754  -.093
  4.760 -1.342  4.765 -1.400  4.769  -.261  4.774  1.457  4.778  2.681
  4.783  2.844  4.788  2.980  4.793  3.117  4.798  2.221  4.804   .320
  4.809  -.494  4.814 -1.015  4.819 -1.226  4.824 -1.142  4.829 -1.016
  4.834  -.988  4.839 -1.115  4.844 -1.241  4.849 -1.115  4.854 -1.102
  4.859 -1.271  4.864 -1.453  4.869 -1.636  4.874 -1.594  4.878 -1.398
  4.883 -1.047  4.888  -.823  4.893  -.640  4.898  -.640  4.903  -.893
  4.908 -1.160  4.913 -1.104  4.918  -.935  4.923  -.823  4.928  -.710
  4.933  -.415  4.938  -.092  4.942   .217  4.947   .415  4.952   .583
  4.957   .429  4.962   .162  4.967  -.357  4.972  -.848  4.977 -1.002
  4.982  -.637  4.987   .038  4.992   .684  4.996  1.204  5.001  1.402
  5.006  1.598  5.011  1.753  5.016  1.515  5.021   .841  5.026   .223
  5.031   .125  5.036   .561  5.041  1.025  5.046  1.109  5.051  1.081
  5.056   .534  5.061   .029  5.066  -.603  5.071 -1.502  5.076 -1.811
  5.081 -1.881  5.086 -1.797  5.091 -1.741  5.096 -1.839  5.101 -1.825
  5.106 -1.572  5.111 -1.193  5.116  -.968  5.121  -.842  5.125  -.491
  5.130   .211  5.135   .759  5.140  1.110  5.145  1.039  5.150   .435
  5.155  -.478  5.160 -1.054  5.165 -1.349  5.170 -1.377  5.175  -.928
  5.180  -.127  5.185  -.128  5.190  -.339  5.195  -.690  5.199  1.080
  5.204   .378  5.209  -.058  5.214  -.170  5.219  -.002  5.224  -.142
  5.229  -.507  5.234  -.395  5.239  -.226  5.244  -.254  5.249  -.507
  5.254  -.760  5.259  -.970  5.264 -1.068  5.268  -.633  5.273   .950
  5.278   .987  5.283   .660  5.288   .464  5.293   .408  5.298   .534
  5.302   .576  5.307   .465  5.312   .437  5.317   .324  5.322   .227
  5.327   .297  5.332   .382  5.337   .424  5.342   .523  5.347   .284
  5.352  -.475  5.357   .233  5.361   .233  5.366   .233  5.371   .233
  5.376   .233  5.381   .233  5.386   .233  5.391  -.052  5.396   .510
  5.400   .959  5.405  1.493  5.410  1.675  5.415  1.212  5.420   .608
  5.425   .594  5.430   .693  5.435   .650  5.440   .664  5.445   .776
  5.450   .538  5.455   .767  5.459  1.599  5.464  1.307  5.470  -.038
  5.475 -1.226  5.479   .074  5.484   .185  5.489  -.962  5.494 -1.273
  5.499   .820  5.503   .812  5.509  -.949  5.514 -1.471  5.519 -1.106
  5.524 -1.038  5.529 -1.502  5.534 -2.118  5.539 -1.820  5.543   .628
  5.548   .648  5.553  -.729  5.558 -1.179  5.563 -1.052  5.568  -.575
  5.573  -.125  5.577   .267  5.582   .380  5.587   .437  5.592   .366
  5.597   .465  5.602   .380  5.607   .015  5.612  -.112  5.617   .071
  5.622  -.041  5.626   .028  5.631   .660  5.636   .324  5.641  -.674
  5.646  -.351  5.651   .098  5.656   .014  5.661  -.140  5.666  -.267
  5.671  -.211  5.676  -.183  5.681  -.085  5.685  -.212  5.690  -.506
  5.695  -.155  5.700   .421  5.705   .420  5.710   .196  5.715  -.099
  5.720  -.450  5.725  -.437  5.730  -.254  5.734  -.184  5.740  -.648
  5.744  -.004  5.749   .798  5.754  -.700  5.759  -.756  5.764   .588
  5.769   .602  5.774  -.156  5.779  -.507  5.784  -.886  5.789 -1.083
  5.794 -1.209  5.798  -.576  5.803  1.053  5.808  1.334  5.813  1.137
  5.818  1.235  5.822  1.531  5.827  1.405  5.832  1.264  5.837  1.223
  5.842   .928  5.847   .254  5.852  -.293  5.857  -.574  5.862  -.644
  5.867  -.517  5.872  -.433  5.877  -.335  5.882  -.292  5.887  -.208
  5.891   .017  5.896   .200  5.901   .243  5.906   .116  5.911  -.024
  5.916  -.136  5.921  -.304  5.926  -.445  5.931  -.712  5.936  -.852
  5.941  -.824  5.946  -.683  5.951  -.739  5.956  -.584  5.960  -.359
  5.965  -.177  5.970  -.036  5.975   .104  5.980   .301  5.985   .385
  5.990   .314  5.995   .244  5.999   .103  6.004  -.051  6.009  -.247
  6.014  -.529  6.019  -.711  6.024  -.739  6.029  -.501  6.034  -.122
  6.039   .116  6.044   .088  6.048   .369  6.053   .481  6.058   .256
  6.063   .017  6.068  -.095  6.073   .017  6.078   .157  6.083   .297
  6.088   .339  6.093   .339  6.097   .311  6.102   .311  6.107   .282
  6.112   .142  6.117  -.041  6.122  -.139  6.127  -.083  6.132  -.056
  6.137   .015  6.142   .113  6.147   .211  6.152   .295  6.156   .337
  6.161   .421  6.166   .310  6.171   .183  6.176   .084  6.181   .126
  6.186   .239  6.191   .421  6.196   .590  6.201   .702  6.205   .618
  6.210   .421  6.215   .169  6.220  -.084  6.225  -.294  6.230  -.476
