UNCORRECTED ACCELEROGRAM DATA              PROCESSED: 03/20/95, CDMG QN94207B   
NORTHRIDGE EARTHQUAKE                                                           
JANUARY 17, 1994 04:31 PST              (ORIGIN(CIT): 01/17/94, 12:30:55.4 GMT) 
24207-C0157-94019.02                                                            
STATION NO. 24207   34.334N, 118.396W     CRA-1  S/N 0157 (11 CHNS OF 17 AT STA)
PACOIMA RESERVOIR - PACOIMA DAM                                                 
CHAN  3: UP       (STA CHN:  3)     LOCATION: CREST: CENTER                     
NORTHRIDGE EARTHQUAKE     JANUARY 17, 1994 04:31 PST                            
HYPOCENTER(CIT): 34.215N, 118.538W, H=18KM. ML=6.6, MW=6.7(CIT); MS=6.7(NEIC)   
INSTR PERIOD =  .0185 SEC,  DAMPING =  .640,  SENSITIVITY = 1.75 CM/G.          
NO. OF POINTS =   2224  RECORD LENGTH = 10.998 SEC                              
UNITS OF UNCOR ACCEL ARE SEC AND G/10.     MAX  =   .641 G, AT   8.135 SEC.     
RMS ACCEL OF COMPLETE RECORD =  .081 G.                                         
    3    1    3   11   17    0    1    1    1 2048    0    0    0    0    0    0
    0    0    0    0    0    0    0    0    0    0  500 2224   21   31   52    0
    0    0    0    0    0    0    0    0    0    0    0    0    0    0    0    0
    0    0    0    0    0    0    0    0    0    0    0    0    0    0    0    0
    0    0    0    0    0    0    0    0    0    0    0    0    0    0    0    0
    0    0    0    0    0    0    0    0    0    0    0    0    0    0    0    0
    0    0    0    0
      .018      .640    10.998      .081     1.000     1.750      .641     8.135
    54.100    50.000     2.857    50.000     4.945      .134     4.189     6.084
      .000      .000      .000      .000      .000      .000      .000      .000
      .000      .000      .000      .000      .000      .000      .000      .000
      .000      .000      .000      .000      .000      .000      .000      .000
      .000      .000      .000      .000      .000      .000      .000      .000
      .000      .000
   .000  -.014   .005  -.057   .010  -.072   .015  -.073   .020  -.058
   .025  -.059   .030  -.045   .034  -.046   .039  -.061   .044  -.090
   .049  -.133   .054  -.162   .059  -.163   .064  -.164   .069  -.164
   .074  -.164   .079  -.236   .084  -.194   .089  -.180   .094  -.152
   .098  -.109   .103  -.080   .108  -.081   .113  -.109   .118  -.196
   .123  -.267   .128  -.353   .133  -.410   .138  -.425   .143  -.468
   .148  -.482   .153  -.469   .158  -.426   .162  -.312   .167  -.184
   .172  -.012   .177   .102   .182   .231   .187   .346   .192   .531
   .197   .731   .202   .902   .207  1.045   .211  1.116   .216  1.102
   .221  1.016   .226   .859   .231   .616   .236   .473   .241   .416
   .246   .444   .251   .502   .256   .459   .261   .344   .266   .144
   .271   .016   .275  -.041   .280  -.056   .285  -.098   .290  -.213
   .295  -.385   .300  -.542   .305  -.585   .310  -.499   .315  -.413
   .320  -.342   .325  -.371   .330  -.442   .335  -.600   .340  -.814
   .345 -1.014   .349 -1.200   .354 -1.371   .359 -1.500   .364 -1.542
   .369 -1.514   .374 -1.386   .379 -1.100   .384  -.786   .389  -.457
   .394  -.043   .398   .386   .403   .786   .408  1.114   .413  1.328
   .418  1.428   .423  1.471   .428  1.399   .433  1.342   .437  1.257
   .442  1.257   .447  1.257   .452  1.271   .457  1.328   .462  1.257
   .467  1.100   .472   .743   .477   .329   .482  -.028   .487  -.357
   .492  -.557   .497  -.657   .502  -.571   .507  -.328   .511  -.042
   .516   .086   .521   .030   .526  -.070   .531  -.056   .536   .101
   .541   .258   .546   .301   .551   .187   .556  -.056   .561  -.328
   .566  -.470   .570  -.570   .575  -.599   .580  -.542   .585  -.513
   .590  -.599   .595  -.785   .600 -1.070   .605 -1.313   .610 -1.428
   .615 -1.385   .620 -1.256   .625 -1.028   .629  -.685   .634  -.299
   .639   .115   .644   .543   .649   .886   .654  1.072   .659  1.058
   .664   .943   .668   .843   .673   .771   .678   .557   .683   .157
   .688  -.385   .693  -.700   .698  -.900   .703  -.842   .708  -.485
   .713  -.243   .718  -.157   .723  -.014   .728   .328   .733   .686
   .738   .871   .743   .900   .748   .814   .753   .557   .758   .186
   .763  -.129   .768  -.343   .773  -.513   .778  -.628   .783  -.656
   .788  -.585   .793  -.499   .798  -.428   .803  -.398   .808  -.284
   .813  -.098   .818  -.113   .823  -.241   .828  -.341   .833  -.398
   .837  -.341   .842  -.212   .848  -.055   .852   .060   .857   .132
   .862   .332   .867   .532   .872   .475   .877   .318   .882   .147
   .887   .132   .892   .147   .897   .161   .902   .247   .907   .290
   .912   .232   .917   .118   .922  -.082   .927  -.339   .932  -.582
   .937  -.739   .942  -.824   .947  -.825   .952  -.768   .957  -.610
   .962  -.268   .967   .175   .972   .603   .977   .946   .982  1.060
   .987  1.017   .992   .916   .997   .745  1.002   .573  1.007   .473
  1.012   .401  1.016   .315  1.021   .215  1.026   .101  1.031   .015
  1.036  -.057  1.041  -.100  1.046  -.114  1.051  -.144  1.056  -.072
  1.061   .027  1.066   .127  1.071   .098  1.076   .070  1.081   .055
  1.086   .098  1.091   .098  1.096   .026  1.101  -.131  1.106  -.317
  1.111  -.531  1.116  -.688  1.121  -.845  1.126  -.988  1.131 -1.160
  1.136 -1.245  1.141 -1.217  1.146 -1.117  1.151  -.845  1.156  -.445
  1.161  -.145  1.166  -.074  1.171   .040  1.176   .226  1.181   .498
  1.186   .769  1.191   .898  1.196   .927  1.201   .827  1.206   .727
  1.211   .612  1.216   .427  1.221   .298  1.226   .241  1.231   .255
  1.236   .284  1.241   .355  1.246   .312  1.251   .240  1.256   .126
  1.261   .012  1.266  -.103  1.271  -.160  1.276  -.203  1.281  -.246
  1.286  -.189  1.291  -.118  1.296   .011  1.301   .110  1.306   .210
  1.311   .352  1.316   .552  1.321   .708  1.326   .780  1.331   .808
  1.336   .779  1.341   .679  1.346   .450  1.351   .120  1.356  -.180
  1.361  -.380  1.366  -.623  1.371  -.794  1.376  -.895  1.381  -.909
  1.386  -.853  1.391  -.810  1.396  -.825  1.401  -.796  1.406  -.654
  1.411  -.297  1.416   .174  1.421   .388  1.426   .188  1.431  -.169
  1.436  -.612  1.441  -.840  1.446  -.726  1.451  -.454  1.456  -.140
  1.461   .075  1.466   .203  1.471   .375  1.476   .789  1.481  1.118
  1.486  1.189  1.491  1.104  1.496   .990  1.501   .718  1.506   .332
  1.511  -.238  1.516  -.938  1.521 -1.366  1.526 -1.509  1.531 -1.409
  1.536 -1.237  1.541 -1.008  1.546  -.737  1.551  -.450  1.556  -.265
  1.561  -.107  1.566   .122  1.571   .364  1.576   .565  1.581   .665
  1.586   .622  1.591   .551  1.596   .466  1.601   .308  1.606   .138
  1.611   .009  1.616  -.120  1.621  -.247  1.626  -.418  1.631  -.533
  1.636  -.618  1.641  -.646  1.646  -.704  1.651  -.775  1.656  -.774
  1.661  -.603  1.666  -.246  1.671   .283  1.676   .669  1.681   .826
  1.686   .769  1.691   .669  1.696   .541  1.701   .412  1.706   .256
  1.711   .085  1.716  -.044  1.721  -.129  1.726  -.158  1.731  -.043
  1.736   .171  1.741   .314  1.746   .228  1.751  -.042  1.756  -.400
  1.761  -.585  1.766  -.585  1.771  -.470  1.776  -.399  1.780  -.256
  1.785  -.027  1.790   .259  1.795   .503  1.800   .574  1.805   .603
  1.810   .574  1.815   .574  1.820   .603  1.825   .618  1.830   .575
  1.835   .489  1.840   .404  1.845   .347  1.850   .290  1.855   .147
  1.860  -.082  1.865  -.310  1.870  -.481  1.875  -.524  1.880  -.438
  1.884  -.266  1.889  -.038  1.894   .134  1.899   .276  1.904   .376
  1.909   .505  1.914   .691  1.919   .776  1.924   .705  1.929   .534
  1.934   .404  1.939   .290  1.944   .176  1.949  -.053  1.954  -.338
  1.959  -.610  1.964  -.738  1.969  -.681  1.974  -.524  1.979  -.410
  1.983  -.296  1.988  -.182  1.993  -.068  1.998  -.054  2.003  -.140
  2.008  -.297  2.013  -.426  2.018  -.612  2.023  -.854  2.028 -1.026
  2.033 -1.126  2.038 -1.170  2.043 -1.198  2.048 -1.255  2.053 -1.141
  2.058  -.813  2.063  -.342  2.068   .258  2.072   .815  2.077  1.072
  2.082  1.143  2.087  1.100  2.092  1.000  2.097   .843  2.102   .756
  2.107   .671  2.112   .542  2.117   .356  2.122   .213  2.127   .212
  2.132   .356  2.137   .470  2.142   .427  2.147   .312  2.152   .227
  2.157   .184  2.161   .126  2.167   .055  2.171  -.060  2.177  -.202
  2.181  -.432  2.187  -.589  2.191  -.674  2.196  -.589  2.201  -.417
  2.206  -.217  2.211  -.074  2.216   .083  2.221   .083  2.226  -.060
  2.231  -.232  2.236  -.374  2.241  -.517  2.246  -.574  2.250  -.474
  2.255  -.246  2.260   .040  2.265   .225  2.270   .225  2.275   .139
  2.280  -.018  2.285  -.232  2.290  -.432  2.295  -.504  2.299  -.360
  2.305  -.103  2.309   .197  2.314   .483  2.319   .711  2.324   .954
  2.329   .954  2.334   .726  2.339   .483  2.344   .397  2.349   .454
  2.353   .583  2.358   .668  2.363   .740  2.368   .654  2.373   .555
  2.378   .412  2.383   .241  2.388   .070  2.393  -.088  2.398  -.159
  2.403  -.188  2.408  -.130  2.413  -.087  2.418  -.087  2.422  -.201
  2.428  -.487  2.432  -.744  2.438  -.872  2.442  -.944  2.447  -.972
  2.452 -1.014  2.457  -.972  2.462  -.786  2.467  -.528  2.472  -.414
  2.477  -.342  2.482  -.285  2.487  -.185  2.491  -.199  2.496  -.385
  2.501  -.627  2.506  -.741  2.511  -.570  2.516  -.198  2.521   .202
  2.526   .516  2.531   .573  2.536   .473  2.540   .344  2.545   .159
  2.550  -.112  2.555  -.298  2.560  -.184  2.565  -.041  2.570  -.041
  2.575  -.126  2.580  -.255  2.585  -.241  2.590  -.027  2.595   .273
  2.600   .487  2.604   .630  2.609   .802  2.614   .916  2.619   .887
  2.624   .772  2.629   .544  2.634   .302  2.639   .058  2.644  -.213
  2.649  -.399  2.654  -.614  2.659  -.642  2.664  -.485  2.668  -.314
  2.674  -.286  2.678  -.400  2.683  -.529  2.688  -.372  2.693  -.186
  2.698  -.201  2.703  -.230  2.708  -.101  2.713   .042  2.718   .184
  2.723   .213  2.728   .184  2.733   .184  2.737   .255  2.742   .298
  2.747   .255  2.752   .169  2.757   .154  2.762   .183  2.767   .140
  2.772  -.004  2.777  -.261  2.782  -.446  2.787  -.547  2.792  -.576
  2.797  -.476  2.802  -.233  2.807   .010  2.811   .167  2.816   .252
  2.821   .295  2.826   .252  2.831   .138  2.836  -.062  2.841  -.234
  2.846  -.292  2.851  -.277  2.856  -.249  2.861  -.192  2.866  -.035
  2.871   .022  2.876  -.021  2.881  -.178  2.885  -.306  2.890  -.364
  2.895  -.349  2.900  -.306  2.905  -.164  2.910   .122  2.915   .336
  2.920   .436  2.925   .351  2.930   .208  2.935   .122  2.940   .108
  2.945   .066  2.950  -.006  2.955  -.149  2.960  -.334  2.964  -.448
  2.970  -.476  2.974  -.405  2.979  -.276  2.984  -.090  2.989   .139
  2.994   .325  2.999   .425  3.004   .411  3.009   .526  3.014   .668
  3.019   .712  3.023   .598  3.029   .427  3.033   .312  3.038   .298
  3.043   .427  3.048   .627  3.053   .814  3.058   .914  3.063   .857
  3.068   .657  3.073   .372  3.078   .115  3.083   .000  3.088   .058
  3.093   .201  3.098   .287  3.102   .344  3.107   .444  3.112   .573
  3.117   .744  3.122   .887  3.127   .973  3.132   .959  3.137   .902
  3.142   .831  3.147   .774  3.152   .702  3.157   .631  3.162   .531
  3.167   .445  3.171   .445  3.176   .560  3.181   .703  3.186   .817
  3.191   .803  3.196   .674  3.201   .517  3.206   .388  3.211   .331
  3.216   .316  3.221   .317  3.226   .274  3.231   .231  3.236   .160
  3.241   .117  3.246   .160  3.251   .303  3.256   .446  3.260   .460
  3.265   .388  3.270   .303  3.275   .274  3.280   .274  3.285   .346
  3.290   .431  3.295   .517  3.300   .618  3.305   .689  3.310   .631
  3.315   .474  3.320   .317  3.325   .231  3.330   .274  3.335   .403
  3.339   .574  3.344   .702  3.349   .702  3.354   .445  3.359  -.027
  3.365  -.398  3.369  -.541  3.374  -.556  3.379  -.542  3.384  -.599
  3.389  -.728  3.394  -.885  3.399  -.928  3.404  -.785  3.409  -.542
  3.414  -.343  3.419  -.257  3.424  -.329  3.429  -.472  3.434  -.730
  3.439 -1.044  3.444 -1.230  3.449 -1.373  3.454 -1.488  3.459 -1.588
  3.464 -1.674  3.468 -1.731  3.473 -1.817  3.478 -1.860  3.483 -1.803
  3.488 -1.646  3.493 -1.489  3.498 -1.304  3.503 -1.075  3.508  -.961
  3.513 -1.018  3.518 -1.004  3.523  -.761  3.528  -.476  3.533  -.347
  3.537  -.347  3.542  -.333  3.547  -.347  3.552  -.390  3.557  -.447
  3.562  -.476  3.567  -.404  3.572  -.333  3.577  -.233  3.582  -.132
  3.587  -.075  3.592  -.018  3.597  -.032  3.602  -.075  3.607  -.075
  3.612  -.104  3.616  -.089  3.622   .068  3.626   .311  3.631   .754
  3.636  1.126  3.641  1.512  3.646  1.883  3.651  2.255  3.656  2.398
  3.661  2.227  3.666  1.898  3.671  1.684  3.676  1.584  3.681  1.484
  3.685  1.370  3.690  1.113  3.695   .699  3.701   .256  3.705  -.087
  3.710  -.344  3.716  -.473  3.720  -.036  3.725  -.036  3.730  -.036
  3.735  -.036  3.740  -.027  3.745  -.027  3.750  -.027  3.755  -.027
  3.760  -.027  3.765  -.027  3.770  -.027  3.774  -.027  3.780  -.027
  3.784  -.026  3.789  -.026  3.794  -.026  3.799  -.026  3.804  -.026
  3.809  -.026  3.814  -.026  3.819  -.026  3.824  -.026  3.829  -.026
  3.834  -.026  3.839  -.026  3.844  -.026  3.849  -.026  3.853  -.026
  3.858  -.026  3.863  -.027  3.868  -.026  3.873  -.026  3.878  -.026
  3.883  -.026  3.888  -.026  3.893  -.026  3.898  -.026  3.903  -.027
  3.908  -.027  3.913  -.027  3.918  -.027  3.922  -.028  3.927  -.028
  3.932  -.028  3.937  -.028  3.942  -.028  3.947  -.029  3.952  -.028
  3.957  -.028  3.962  -.029  3.967  -.029  3.972  -.029  3.977  -.029
  3.982  -.029  3.987  -.030  3.992  -.030  3.997  -.030  4.001  -.030
  4.006  -.030  4.011  -.030  4.016  -.030  4.021  -.030  4.026  -.030
  4.031  -.030  4.036  -.030  4.041  -.030  4.046  -.030  4.051  -.030
  4.056  -.030  4.061  -.029  4.065  -.029  4.070  -.029  4.075  -.028
  4.080  -.028  4.085  -.026  4.090  -.026  4.095  -.025  4.100  -.024
  4.105  -.024  4.110  -.022  4.115  -.021  4.120  -.020  4.125  -.018
  4.130  -.017  4.135  -.016  4.140  -.014  4.144  -.013  4.149  -.012
  4.154  -.010  4.159  -.009  4.164  -.007  4.169  -.005  4.174  -.004
  4.179  -.002  4.184  -.001  4.189   .001  4.194   .003  4.199   .004
  4.204   .006  4.209   .008  4.214   .010  4.218   .012  4.223   .013
  4.228   .015  4.233   .016  4.238   .018  4.243   .019  4.248   .020
  4.253   .022  4.258   .023  4.263   .024  4.268   .026  4.273   .027
  4.278   .027  4.283   .028  4.287   .029  4.292   .031  4.297   .031
  4.302   .032  4.307   .032  4.312   .033  4.317   .034  4.322   .034
  4.327   .034  4.332   .034  4.337   .034  4.342   .034  4.347   .034
  4.352   .034  4.357   .034  4.361   .034  4.366   .034  4.371   .034
  4.376   .034  4.381   .034  4.386   .033  4.391   .033  4.396   .032
  4.401   .032  4.406   .032  4.411   .031  4.416   .031  4.421   .030
  4.426   .030  4.431   .030  4.436   .029  4.440   .028  4.445   .028
  4.450   .028  4.455   .027  4.460   .028  4.465   .027  4.470   .027
  4.475   .027  4.480   .027  4.485   .026  4.490   .026  4.495   .026
  4.500   .026  4.504   .026  4.509   .026  4.514   .025  4.519   .025
  4.524   .025  4.529   .025  4.534   .025  4.539   .025  4.544   .026
  4.549   .026  4.554   .026  4.559   .026  4.564   .026  4.569   .026
  4.574   .026  4.578   .026  4.583   .027  4.588   .027  4.593   .027
  4.598   .027  4.603   .027  4.608   .027  4.613   .027  4.618   .798
  4.623  1.341  4.627  2.055  4.632  1.970  4.637  1.698  4.642  1.270
  4.647   .213  4.653  -.758  4.657   .186  4.662   .935  4.667   .671
  4.672   .043  4.677  -.257  4.682   .057  4.687   .643  4.692  1.128
  4.697   .471  4.702  -.771  4.707  -.318  4.711  1.739  4.717   .643
  4.722  -.114  4.727  -.271  4.732  -.385  4.737  -.128  4.741   .672
  4.746  1.015  4.751   .900  4.756   .507  4.761   .572  4.766   .586
  4.771   .615  4.776   .486  4.781   .400  4.786   .514  4.791  1.008
  4.796  1.557  4.801  1.786  4.806  1.526  4.811  1.485  4.816  1.285
  4.820  1.243  4.826  1.042  4.831   .514  4.836  -.058  4.841  -.401
  4.846  -.701  4.851  -.916  4.856 -1.401  4.861 -2.701  4.866 -3.201
  4.871 -2.916  4.876 -2.630  4.881 -2.573  4.886 -2.830  4.891 -2.945
  4.896 -2.730  4.901 -2.673  4.906 -2.973  4.911 -3.144  4.916 -2.930
  4.920 -2.302  4.925  -.660  4.930   .998  4.935  1.584  4.939  1.612
  4.944  1.484  4.949  1.370  4.954  1.155  4.959   .555  4.965   .155
  4.970   .055  4.975   .141  4.979   .327  4.984   .441  4.989   .399
  4.994   .113  4.999  -.301  5.004  -.501  5.009  -.116  5.014   .784
  5.019  1.156  5.024  1.142  5.029   .956  5.034   .499  5.039   .013
  5.044  -.273  5.049  -.430  5.054  -.444  5.059  -.544  5.064  -.544
  5.069  -.301  5.074   .314  5.078   .814  5.083   .928  5.088   .656
  5.093   .242  5.098  -.086  5.103  -.386  5.108  -.786  5.114 -1.172
  5.119 -1.372  5.123 -1.444  5.128 -1.244  5.133  -.772  5.138  -.215
  5.143   .085  5.148   .199  5.153   .199  5.158   .228  5.163   .428
  5.168   .714  5.173   .971  5.177   .828  5.183   .542  5.188   .071
  5.193  -.329  5.198  -.744  5.203 -1.129  5.208 -1.372  5.213 -1.486
  5.218 -1.444  5.223 -1.372  5.227 -1.372  5.233 -1.344  5.237 -1.201
  5.242 -1.057  5.247  -.943  5.252  -.786  5.257  -.414  5.262  -.086
  5.267   .043  5.272   .157  5.277   .271  5.282   .571  5.286   .871
  5.291  1.028  5.296  1.071  5.301  1.043  5.306  1.057  5.311  1.086
  5.316  1.128  5.321   .957  5.326   .772  5.331   .672  5.336   .700
  5.341   .672  5.346   .643  5.351   .758  5.356   .829  5.361   .686
  5.366   .486  5.371   .443  5.376   .515  5.381   .615  5.385   .686
  5.390   .786  5.395   .886  5.400   .972  5.405  1.044  5.410  1.115
  5.415  1.087  5.420   .944  5.425   .687  5.430   .401  5.435   .158
  5.440  -.028  5.445  -.070  5.450  -.128  5.455  -.185  5.460  -.299
  5.465  -.385  5.470  -.399  5.475  -.485  5.480  -.614  5.485  -.885
  5.490 -1.171  5.495 -1.385  5.500 -1.499  5.505 -1.542  5.510 -1.570
  5.515 -1.556  5.520 -1.528  5.524 -1.485  5.530 -1.442  5.534 -1.156
  5.539  -.714  5.544  -.071  5.549   .686  5.554  1.129  5.559  1.229
  5.564  1.100  5.569   .900  5.574   .600  5.579   .372  5.583   .372
  5.589   .600  5.593   .643  5.598   .257  5.603  -.129  5.608   .014
  5.613   .756  5.618  1.271  5.623  1.185  5.628   .899  5.633   .799
  5.638   .813  5.643   .756  5.648   .598  5.653   .312  5.658  -.016
  5.663  -.416  5.668  -.773  5.673 -1.173  5.678 -1.373  5.683 -1.317
  5.688 -1.231  5.693 -1.245  5.698 -1.560  5.703 -2.088  5.708 -2.374
  5.713 -2.074  5.718 -1.560  5.722  -.174  5.727   .068  5.732   .154
  5.737   .225  5.742   .396  5.747   .726  5.752   .954  5.757   .783
  5.762   .597  5.766   .783  5.771  1.226  5.776  1.626  5.781  1.826
  5.786  2.068  5.791  1.826  5.796  1.511  5.801  1.298  5.806  1.069
  5.811   .755  5.816   .383  5.821   .183  5.826  -.031  5.831  -.188
  5.836  -.401  5.841  -.587  5.846  -.744  5.851  -.873  5.856  -.887
  5.861  -.844  5.866  -.815  5.871  -.772  5.876  -.758  5.880  -.729
  5.885  -.729  5.890  -.744  5.895  -.701  5.900  -.586  5.905  -.444
  5.910  -.315  5.915  -.214  5.920  -.114  5.925  -.042  5.930   .100
  5.935   .471  5.940   .828  5.944   .714  5.950   .271  5.955  -.257
  5.960  -.557  5.965  -.672  5.970  -.700  5.975  -.529  5.979  -.129
  5.984   .285  5.989   .428  5.994   .414  5.999   .386  6.004   .328
  6.009   .200  6.014   .014  6.019  -.072  6.024   .085  6.029   .385
  6.034   .728  6.038   .971  6.043  1.014  6.048   .871  6.053   .699
  6.058   .499  6.063   .370  6.068   .370  6.073   .527  6.078   .756
  6.083   .885  6.088   .771  6.093   .456  6.098   .056  6.103  -.301
  6.108  -.414  6.113  -.286  6.118  -.114  6.123  -.029  6.128  -.172
  6.133  -.243  6.137  -.186  6.142  -.185  6.147  -.285  6.153  -.571
  6.157  -.800  6.162  -.971  6.167 -1.128  6.172 -1.227  6.177 -1.370
  6.182 -1.484  6.187 -1.570  6.192 -1.470  6.197 -1.355  6.202 -1.241
  6.207 -1.126  6.212  -.884  6.217  -.669  6.222  -.441  6.226   .388
