UNCORRECTED ACCELEROGRAM DATA              PROCESSED: 03/20/95, CDMG QN94A207   
NORTHRIDGE EARTHQUAKE                                                           
JANUARY 17, 1994 04:31 PST              (ORIGIN(CIT): 01/17/94, 12:30:55.4 GMT) 
24207-C0140-94019.02                                                            
STATION NO. 24207   34.334N, 118.396W     CRA-1  S/N 0140 ( 6 CHNS OF 17 AT STA)
PACOIMA RESERVOIR - PACOIMA DAM                                                 
CHAN  6:   0 DEG  (STA CHN: 17)     LOCATION: LEFT (SOUTH) ABUTMENT             
NORTHRIDGE EARTHQUAKE     JANUARY 17, 1994 04:31 PST                            
HYPOCENTER(CIT): 34.215N, 118.538W, H=18KM. ML=6.6, MW=6.7(CIT); MS=6.7(NEIC)   
INSTR PERIOD =  .0204 SEC,  DAMPING =  .682,  SENSITIVITY = 1.83 CM/G.          
NO. OF POINTS =   2223  RECORD LENGTH = 10.999 SEC                              
UNITS OF UNCOR ACCEL ARE SEC AND G/10.     MAX  = -2.019 G, AT   4.508 SEC.     
RMS ACCEL OF COMPLETE RECORD =  .149 G.                                         
    6    1   17    6   17    0    1    1    1 2048    0    0    0    0    0    0
    0    0    0    0    0    0    0    0    0    0    0 2223   21   31   52    0
    0    0    0    0    0    0    0    0    0    0    0    0    0    0    0    0
    0    0    0    0    0    0    0    0    0    0    0    0    0    0    0    0
    0    0    0    0    0    0    0    0    0    0    0    0    0    0    0    0
    0    0    0    0    0    0    0    0    0    0    0    0    0    0    0    0
    0    0    0    0
      .020      .682    10.999      .149     1.000     1.830    -2.019     4.508
    48.900    50.000     2.732    50.000     4.948      .223     1.393    11.841
      .000      .000      .000      .000      .000      .000      .000      .000
      .000      .000      .000      .000      .000      .000      .000      .000
      .000      .000      .000      .000      .000      .000      .000      .000
      .000      .000      .000      .000      .000      .000      .000      .000
      .000      .000
   .000   .094   .005   .095   .010   .110   .015   .111   .020   .112
   .025   .099   .030   .113   .035   .141   .040   .143   .045   .116
   .050   .104   .054   .118   .060   .091   .064   .079   .069   .079
   .074   .093   .079   .107   .084   .108   .089   .136   .094   .151
   .099   .165   .104   .192   .109   .193   .114   .220   .119   .221
   .124   .207   .129   .180   .134   .153   .139   .139   .144   .153
   .149   .194   .154   .235   .159   .290   .163   .345   .168   .372
   .173   .372   .178   .385   .183   .358   .188   .303   .193   .248
   .198   .166   .203   .070   .208   .002   .213  -.053   .218  -.080
   .223  -.108   .228  -.108   .233  -.095   .238  -.082   .243  -.041
   .248   .027   .253   .096   .258   .150   .263   .218   .268   .245
   .273   .232   .278   .150   .283   .081   .288  -.015   .293  -.056
   .298  -.084   .303  -.056   .308  -.070   .313  -.083   .318  -.111
   .323  -.138   .327  -.152   .333  -.152   .338  -.125   .343  -.070
   .347  -.015   .352  -.002   .357  -.002   .362  -.001   .367  -.001
   .372  -.001   .377   .026   .382   .067   .387   .149   .392   .231
   .397   .381   .402   .518   .407   .668   .412   .778   .417   .846
   .422   .819   .427   .710   .432   .574   .437   .382   .442   .205
   .447   .095   .452   .013   .457   .027   .462   .150   .467   .369
   .471   .642   .476   .875   .481  1.066   .486  1.176   .491  1.121
   .496   .916   .501   .684   .506   .370   .511   .069   .516  -.204
   .521  -.422   .526  -.545   .531  -.626   .536  -.640   .541  -.654
   .546  -.613   .551  -.585   .556  -.517   .561  -.421   .566  -.340
   .571  -.326   .576  -.448   .581  -.667   .586  -.940   .591 -1.186
   .596 -1.282   .601 -1.281   .606 -1.158   .611  -.953   .616  -.571
   .621  -.134   .626   .359   .630   .755   .635  1.015   .640  1.220
   .645  1.342   .650  1.452   .655  1.329   .660  1.152   .665   .892
   .670   .646   .675   .510   .680   .497   .685   .592   .690   .770
   .695   .948   .700  1.112   .705  1.057   .710   .866   .715   .634
   .720   .483   .725   .401   .730   .443   .735   .498   .740   .566
   .745   .580   .750   .526   .755   .471   .760   .389   .765   .198
   .770  -.020   .775  -.253   .780  -.389   .785  -.512   .790  -.525
   .795  -.430   .800  -.225   .804   .048   .809   .309   .814   .500
   .819   .541   .824   .445   .829   .281   .834   .104   .839  -.237
   .844  -.538   .850  -.879   .855 -1.166   .860 -1.344   .865 -1.466
   .870 -1.412   .874 -1.179   .879  -.824   .884  -.401   .889   .091
   .894   .433   .899   .734   .904   .884   .909   .884   .914   .706
   .919   .515   .924   .187   .929  -.113   .934  -.305   .939  -.373
   .944  -.277   .949  -.017   .953   .352   .958   .748   .963  1.103
   .968  1.308   .973  1.445   .978  1.431   .983  1.212   .988   .775
   .993   .379   .998   .010  1.003  -.249  1.008  -.399  1.013  -.344
  1.018  -.235  1.023  -.071  1.028   .052  1.033   .162  1.038   .175
  1.043   .080  1.048  -.002  1.053  -.084  1.058  -.097  1.063  -.015
  1.068   .135  1.073   .285  1.078   .353  1.083   .339  1.088   .285
  1.093   .203  1.098   .025  1.103  -.166  1.108  -.371  1.113  -.480
  1.118  -.521  1.123  -.398  1.128  -.207  1.133   .026  1.137   .217
  1.142   .381  1.147   .435  1.152   .394  1.157   .312  1.162   .217
  1.167   .067  1.172  -.056  1.177  -.165  1.182  -.193  1.187  -.179
  1.192  -.097  1.197  -.015  1.202   .053  1.207   .094  1.212   .094
  1.217   .094  1.222   .108  1.227   .108  1.232   .190  1.237   .313
  1.242   .545  1.247   .764  1.251  1.010  1.256  1.146  1.261  1.242
  1.266  1.201  1.271  1.038  1.276   .792  1.281   .532  1.286   .341
  1.291   .259  1.296   .232  1.301   .232  1.306   .232  1.311   .204
  1.316   .163  1.321   .109  1.326   .068  1.331   .068  1.336   .068
  1.341   .082  1.346   .068  1.351  -.027  1.356  -.177  1.361  -.409
  1.366  -.614  1.371  -.806  1.376  -.942  1.381  -.969  1.386  -.901
  1.391  -.682  1.396  -.272  1.401   .179  1.405   .493  1.410   .766
  1.415   .903  1.420   .971  1.425   .958  1.430   .781  1.435   .521
  1.440   .234  1.445  -.012  1.450  -.271  1.455  -.408  1.460  -.476
  1.465  -.340  1.470  -.053  1.475   .398  1.480   .808  1.485  1.232
  1.489  1.464  1.494  1.533  1.499  1.273  1.505   .877  1.510   .385
  1.515  -.052  1.520  -.312  1.525  -.544  1.530  -.626  1.535  -.558
  1.540  -.352  1.544  -.011  1.549   .427  1.554   .741  1.559  1.082
  1.564  1.301  1.569  1.410  1.574  1.274  1.579  1.000  1.584   .550
  1.589   .045  1.594  -.352  1.599  -.871  1.605 -1.226  1.610 -1.513
  1.615 -1.623  1.620 -1.595  1.624 -1.377  1.629  -.980  1.634  -.338
  1.639   .235  1.643   .755  1.648  1.206  1.653  1.424  1.658  1.383
  1.663  1.138  1.668   .591  1.673   .004  1.679  -.461  1.684  -.817
  1.689  -.953  1.694  -.858  1.699  -.611  1.703  -.215  1.708   .250
  1.713   .577  1.718   .919  1.723  1.301  1.727  1.629  1.732  1.656
  1.738  1.315  1.743   .700  1.748   .235  1.753  -.215  1.758  -.652
  1.763  -.871  1.768  -.953  1.773  -.884  1.778  -.721  1.783  -.393
  1.788   .017  1.793   .454  1.797   .645  1.802   .741  1.807   .605
  1.812   .359  1.817   .099  1.822  -.065  1.827  -.078  1.832   .031
  1.837   .154  1.842   .250  1.847   .250  1.852   .263  1.857   .236
  1.862   .045  1.867  -.242  1.872  -.583  1.877  -.979  1.882 -1.170
  1.887 -1.020  1.892  -.665  1.897  -.146  1.902   .401  1.906   .770
  1.911  1.085  1.916  1.194  1.921  1.058  1.926   .758  1.931   .334
  1.937  -.089  1.942  -.335  1.947  -.444  1.952  -.525  1.957  -.594
  1.962  -.594  1.967  -.538  1.971  -.429  1.976  -.251  1.981   .036
  1.986   .391  1.991   .597  1.996   .720  2.001   .774  2.006   .706
  2.011   .556  2.016   .352  2.021   .092  2.026  -.140  2.031  -.277
  2.036  -.318  2.041  -.180  2.046   .106  2.050   .393  2.055   .694
  2.060   .899  2.065   .994  2.070   .968  2.075   .968  2.080   .995
  2.085  1.036  2.090  1.022  2.095   .940  2.100   .763  2.105   .517
  2.110   .216  2.115  -.016  2.120  -.207  2.125  -.275  2.130  -.166
  2.135   .175  2.140   .517  2.145   .831  2.150   .954  2.155   .954
  2.160   .845  2.165   .681  2.170   .421  2.175   .106  2.180  -.207
  2.185  -.494  2.190  -.672  2.195  -.808  2.200  -.836  2.205  -.822
  2.210  -.754  2.215  -.631  2.220  -.385  2.224  -.112  2.229   .134
  2.234   .380  2.239   .489  2.244   .407  2.249   .079  2.254  -.344
  2.259  -.823  2.264 -1.096  2.269 -1.246  2.274 -1.232  2.279 -1.083
  2.284  -.754  2.289  -.399  2.294   .079  2.299   .489  2.303   .981
  2.308  1.486  2.313  1.759  2.318  1.869  2.323  1.691  2.328  1.335
  2.333   .926  2.338   .530  2.343   .147  2.348  -.017  2.353   .052
  2.358   .270  2.363   .584  2.368   .803  2.373   .912  2.378   .871
  2.383   .666  2.388   .338  2.393   .024  2.398  -.112  2.403  -.126
  2.408  -.017  2.413   .174  2.418   .283  2.422   .379  2.427   .420
  2.432   .352  2.437   .174  2.443  -.071  2.447  -.317  2.453  -.454
  2.457  -.454  2.462  -.386  2.467  -.290  2.472  -.181  2.477  -.072
  2.482   .024  2.487   .106  2.492   .120  2.497   .106  2.502   .106
  2.507   .106  2.512   .120  2.517   .188  2.522   .298  2.526   .380
  2.532   .448  2.536   .489  2.541   .462  2.546   .421  2.551   .366
  2.556   .298  2.561   .244  2.566   .244  2.571   .271  2.576   .312
  2.581   .340  2.586   .326  2.591   .230  2.596   .135  2.601   .080
  2.606   .163  2.611   .354  2.616   .559  2.621   .737  2.626   .805
  2.631   .655  2.636   .341  2.641   .027  2.646  -.342  2.651  -.588
  2.656  -.738  2.661  -.778  2.666  -.655  2.671  -.368  2.675  -.018
  2.680   .315  2.685   .574  2.690   .725  2.695   .834  2.700   .698
  2.705   .452  2.710  -.135  2.715  -.408  2.720  -.695  2.725  -.900
  2.730  -.982  2.735  -.941  2.740  -.804  2.745  -.531  2.750  -.148
  2.754   .193  2.759   .644  2.764   .945  2.769  1.110  2.774   .918
  2.779   .604  2.784   .112  2.789  -.270  2.794  -.516  2.799  -.625
  2.804  -.598  2.809  -.379  2.814  -.052  2.819   .332  2.823   .687
  2.828   .933  2.833  1.124  2.838  1.233  2.843  1.301  2.848  1.192
  2.853  1.041  2.858   .673  2.863   .358  2.868  -.024  2.873  -.311
  2.878  -.474  2.883  -.571  2.888  -.530  2.893  -.407  2.898  -.243
  2.903   .017  2.908   .304  2.913   .495  2.918   .604  2.922   .536
  2.928   .345  2.933   .044  2.938  -.243  2.943  -.434  2.947  -.503
  2.953  -.421  2.957  -.216  2.962   .126  2.967   .535  2.972   .781
  2.977   .918  2.982   .946  2.987   .836  2.992   .645  2.997   .412
  3.002   .207  3.007   .044  3.012  -.079  3.017  -.189  3.022  -.257
  3.027  -.298  3.032  -.311  3.036  -.324  3.042  -.324  3.046  -.270
  3.051  -.147  3.056  -.024  3.061   .113  3.066   .154  3.071   .127
  3.076  -.010  3.081  -.174  3.086  -.405  3.091  -.596  3.096  -.747
  3.101  -.774  3.106  -.665  3.111  -.487  3.116  -.337  3.121  -.186
  3.125  -.036  3.130   .142  3.135   .375  3.140   .511  3.145   .634
  3.150   .607  3.155   .444  3.160   .129  3.165  -.171  3.170  -.444
  3.175  -.595  3.180  -.649  3.185  -.471  3.190  -.225  3.195   .089
  3.200   .308  3.204   .445  3.209   .458  3.214   .472  3.219   .432
  3.224   .268  3.229   .145  3.234   .063  3.239   .063  3.244   .118
  3.249   .173  3.254   .255  3.259   .351  3.263   .474  3.269   .638
  3.273   .788  3.278   .897  3.283   .870  3.288   .706  3.293   .474
  3.298   .297  3.303   .188  3.308   .147  3.313   .256  3.318   .420
  3.323   .639  3.328   .830  3.332  1.021  3.337  1.158  3.342  1.267
  3.347  1.295  3.352  1.227  3.357  1.158  3.362  1.076  3.367   .994
  3.372   .940  3.377   .953  3.382  1.035  3.387  1.130  3.392  1.199
  3.397  1.226  3.401  1.171  3.406  1.035  3.411   .898  3.416   .720
  3.421   .570  3.426   .433  3.431   .310  3.436   .186  3.441   .063
  3.446  -.088  3.451  -.266  3.456  -.538  3.461  -.771  3.466 -1.018
  3.471 -1.182  3.476 -1.319  3.481 -1.511  3.486 -1.634  3.491 -1.758
  3.496 -1.867  3.501 -2.059  3.506 -2.319  3.511 -2.551  3.516 -2.866
  3.521 -3.071  3.526 -3.249  3.531 -3.345  3.536 -3.523  3.541 -3.824
  3.546 -4.058  3.551 -4.140  3.556 -4.126  3.561 -4.085  3.566 -4.140
  3.571 -4.209  3.576 -4.264  3.581 -4.332  3.586 -4.414  3.591 -4.511
  3.596 -4.593  3.601 -4.634  3.605 -4.648  3.611 -4.702  3.615 -4.702
  3.620 -4.688  3.625 -4.675  3.630 -4.661  3.635 -4.620  3.640 -4.566
  3.645 -4.511  3.650 -4.511  3.655 -4.538  3.660 -4.606  3.665 -4.674
  3.670 -4.756  3.675 -4.865  3.680 -5.001  3.685 -5.193  3.690 -5.411
  3.695 -5.588  3.700 -5.684  3.705 -5.615  3.709 -5.328  3.714 -4.836
  3.719 -3.811  3.722   .235  3.727   .235  3.732   .235  3.737   .235
  3.742   .236  3.747   .236  3.752   .236  3.757   .236  3.762   .236
  3.767   .237  3.772   .237  3.777   .238  3.782   .238  3.787   .239
  3.792   .239  3.797   .239  3.802   .239  3.807   .239  3.812   .240
  3.816   .240  3.821   .240  3.826   .240  3.831   .241  3.836   .241
  3.841   .241  3.846   .241  3.851   .241  3.856   .241  3.861   .241
  3.866   .242  3.871   .242  3.876   .242  3.881   .242  3.886   .243
  3.891   .243  3.896   .243  3.901   .243  3.906   .243  3.911   .243
  3.915   .244  3.920   .244  3.925   .244  3.930   .244  3.935   .244
  3.940   .244  3.945   .244  3.950   .244  3.955   .245  3.960   .245
  3.965   .245  3.970   .245  3.975   .245  3.980   .245  3.985   .245
  3.990   .245  3.995   .245  4.000   .245  4.005   .245  4.010   .245
  4.015   .245  4.019   .245  4.024   .245  4.029   .245  4.034   .245
  4.039   .245  4.044   .246  4.049   .245  4.054   .245  4.059   .245
  4.064   .245  4.069   .245  4.074   .245  4.079   .245  4.084   .245
  4.089   .245  4.094   .246  4.099   .245  4.104   .245  4.109   .245
  4.114   .245  4.118   .245  4.123   .245  4.128   .245  4.133   .245
  4.138   .245  4.143   .245  4.148   .245  4.153   .245  4.158   .245
  4.163   .245  4.168   .245  4.173   .245  4.178   .245  4.183   .245
  4.188   .245  4.193   .245  4.198   .245  4.203   .245  4.208   .245
  4.213   .245  4.218   .245  4.222   .245  4.227   .245  4.233   .245
  4.237   .245  4.242   .245  4.247   .245  4.252   .245  4.257   .245
  4.262   .245  4.267   .245  4.272   .245  4.277   .245  4.282   .245
  4.287   .245  4.292   .245  4.297   .245  4.302   .245  4.307   .245
  4.312   .245  4.317   .245  4.322   .245  4.327   .245  4.332   .245
  4.337   .245  4.342   .245  4.347   .245  4.352   .213  4.357   .212
  4.362   .212  4.367   .212  4.372   .212  4.377   .212  4.382   .212
  4.387   .212  4.392   .212  4.397   .212  4.402   .213  4.407   .212
  4.412   .212  4.417   .212  4.422   .212  4.426   .212  4.431   .212
  4.436   .212  4.441   .212  4.446   .212  4.451   .213  4.456   .213
  4.461   .213  4.466   .213  4.471   .213  4.476   .213  4.481   .213
  4.486   .213  4.491   .213  4.496   .213  4.508-20.190  4.509 -9.591
  4.514 -9.578  4.519 -9.396  4.523 -6.175  4.528 -6.297  4.534 -8.480
  4.538 -5.232  4.542 -4.105  4.547 -3.331  4.552 -3.332  4.557 -3.673
  4.562 -3.646  4.567 -4.235  4.572 -4.614  4.577 -4.203  4.582 -3.547
  4.587 -3.834  4.592 -4.638  4.597 -4.979  4.602 -4.763  4.607 -4.801
  4.612 -4.705  4.617 -3.980  4.622 -3.461  4.627 -2.982  4.631 -2.803
  4.636 -2.420  4.641 -1.832  4.646 -1.421  4.651 -1.107  4.656  -.874
  4.661  -.423  4.665  -.053  4.670   .098  4.675   .371  4.680   .823
  4.685  1.616  4.689  2.368  4.694  3.133  4.699  3.652  4.704  4.336
  4.708  5.019  4.713  5.648  4.718  6.235  4.723  6.591  4.728  6.800
  4.733  6.728  4.738  6.452  4.743  6.187  4.748  5.923  4.753  5.493
  4.758  5.275  4.763  5.057  4.768  4.665  4.773  4.254  4.778  3.681
  4.783  3.106  4.788  2.095  4.794  1.057  4.799   .100  4.804  -.419
  4.809  -.392  4.814  -.270  4.819  -.174  4.824  -.148  4.829  -.161
  4.834  -.203  4.839  -.190  4.844  -.121  4.849  -.080  4.854  -.245
  4.859  -.478  4.864  -.710  4.869  -.642  4.873  -.314  4.878   .081
  4.883   .395  4.888   .573  4.893   .613  4.898   .696  4.903   .491
  4.908  -.042  4.913  -.520  4.918  -.794  4.923 -1.149  4.928 -1.490
  4.933 -1.790  4.938 -2.118  4.943 -2.487  4.948 -2.787  4.953 -3.087
  4.958 -3.387  4.964 -3.524  4.968 -3.564  4.973 -3.387  4.978 -3.249
  4.983 -3.195  4.988 -3.085  4.993 -3.003  4.998 -2.784  5.003 -2.482
  5.007 -1.908  5.012 -1.102  5.017  -.446  5.022   .238  5.026   .934
  5.031  2.246  5.035  3.216  5.040  3.490  5.045  3.845  5.050  4.323
  5.055  4.267  5.060  3.426  5.065  2.793  5.070  2.589  5.075  2.507
  5.080  2.275  5.085  2.357  5.090  2.576  5.095  2.344  5.100  2.057
  5.105  2.221  5.110  2.262  5.115  2.221  5.120  1.975  5.125  1.729
  5.130  1.374  5.135   .881  5.140   .376  5.145  -.280  5.150 -1.100
  5.156 -1.824  5.161 -2.275  5.166 -2.466  5.171 -2.207  5.176 -2.590
  5.180 -1.893  5.185 -1.566  5.190 -1.334  5.195  -.036  5.199   .360
  5.205  -.090  5.209  -.323  5.214  -.077  5.219  -.131  5.224  -.500
  5.229  -.828  5.234 -1.047  5.239 -1.361  5.244 -1.620  5.249 -2.017
  5.254 -2.303  5.259 -2.317  5.264 -2.303  5.269 -1.647  5.273  -.267
  5.278   .287  5.283   .649  5.288  1.209  5.292  1.756  5.297  2.439
  5.302  3.136  5.306  3.492  5.311  3.847  5.316  3.765  5.321  3.493
  5.326  3.288  5.331  3.138  5.336  2.305  5.341  2.018  5.346  1.813
  5.352   .488  5.357  -.768  5.361   .240  5.366   .240  5.371   .240
  5.376   .202  5.381  -.221  5.386   .270  5.391   .080  5.396  -.358
  5.401  -.522  5.406  -.727  5.411 -1.123  5.416 -1.697  5.421 -1.970
  5.426 -1.710  5.431 -1.519  5.436 -1.629  5.441 -1.574  5.445 -1.683
  5.451 -1.861  5.455 -1.383  5.460  -.714  5.465 -1.055  5.470 -1.315
  5.475  -.783  5.479   .434  5.484   .598  5.489  -.414  5.494  -.687
  5.498  1.635  5.503   .952  5.509   .173  5.514   .433  5.518   .528
  5.523   .418  5.528   .432  5.533   .392  5.538   .022  5.543  -.374
  5.548  -.128  5.553   .186  5.558  -.019  5.563  -.279  5.568  -.279
  5.573  -.183  5.577  -.102  5.582  -.156  5.588  -.538  5.593  -.525
  5.597  -.374  5.602  -.416  5.607  -.744  5.612  -.758  5.617  -.840
  5.622 -1.085  5.627  -.744  5.631  -.034  5.636  -.498  5.642  -.921
  5.646  -.649  5.651  -.662  5.656  -.690  5.661  -.772  5.666  -.731
  5.671  -.636  5.676  -.554  5.681  -.444  5.686  -.500  5.690  -.499
  5.695   .034  5.700   .580  5.705   .648  5.710   .388  5.715  -.008
  5.720  -.144  5.725  -.159  5.730   .005  5.734   .142  5.739   .279
  5.744   .361  5.749   .211  5.754   .197  5.759   .770  5.764  1.057
  5.769   .948  5.774   .798  5.779   .770  5.783   .757  5.788   .703
  5.793   .511  5.798   .539  5.803  1.250  5.808  1.031  5.813   .006
  5.818  -.294  5.823  -.512  5.828  -.785  5.833  -.990  5.838 -1.031
  5.843 -1.072  5.848 -1.126  5.853 -1.057  5.858  -.893  5.862  -.688
  5.867  -.496  5.872  -.278  5.877  -.032  5.882   .146  5.887   .324
  5.891   .570  5.896   .940  5.901  1.254  5.906  1.459  5.911  1.582
  5.916  1.555  5.921  1.487  5.925  1.377  5.931  1.104  5.936   .873
  5.940   .859  5.945   .913  5.950   .832  5.955   .996  5.960  1.256
  5.965  1.570  5.970  1.816  5.974  2.089  5.979  2.348  5.984  2.417
  5.989  2.252  5.994  1.938  5.999  1.583  6.004  1.214  6.009   .996
  6.014   .750  6.019   .558  6.024   .381  6.029   .230  6.034   .025
  6.039  -.208  6.044  -.741  6.049 -1.001  6.054 -1.083  6.059 -1.273
  6.064 -1.383  6.069 -1.315  6.074 -1.097  6.078  -.892  6.083  -.838
  6.088 -1.015  6.093 -1.248  6.098 -1.494  6.103 -1.685  6.108 -1.823
  6.113 -2.082  6.118 -2.260  6.123 -2.273  6.128 -2.205  6.133 -2.315
  6.138 -2.397  6.143 -2.301  6.148 -2.042  6.152 -1.892  6.157 -1.591
  6.162 -1.387  6.167 -1.031  6.172  -.744  6.176  -.335  6.181   .021
  6.186   .266  6.191   .512  6.196   .786  6.201  1.032  6.205  1.400
  6.210  1.660  6.215  1.960  6.220  2.221  6.225  2.480  6.229  2.590
