UNCORRECTED ACCELEROGRAM DATA              PROCESSED: 03/20/95, CDMG QN94207B   
NORTHRIDGE EARTHQUAKE                                                           
JANUARY 17, 1994 04:31 PST              (ORIGIN(CIT): 01/17/94, 12:30:55.4 GMT) 
24207-C0157-94019.02                                                            
STATION NO. 24207   34.334N, 118.396W     CRA-1  S/N 0157 (11 CHNS OF 17 AT STA)
PACOIMA RESERVOIR - PACOIMA DAM                                                 
CHAN  4: TAN      (STA CHN:  4)     LOCATION: CREST: CENTER                     
NORTHRIDGE EARTHQUAKE     JANUARY 17, 1994 04:31 PST                            
HYPOCENTER(CIT): 34.215N, 118.538W, H=18KM. ML=6.6, MW=6.7(CIT); MS=6.7(NEIC)   
INSTR PERIOD =  .0192 SEC,  DAMPING =  .650,  SENSITIVITY = 1.80 CM/G.          
NO. OF POINTS =   2224  RECORD LENGTH = 10.998 SEC                              
UNITS OF UNCOR ACCEL ARE SEC AND G/10.     MAX  =   .581 G, AT   7.036 SEC.     
RMS ACCEL OF COMPLETE RECORD =  .091 G.                                         
    4    1    4   11   17    0    1    1    1 2048    0    0    0    0    0    0
    0    0    0    0    0    0    0    0    0    0  800 2224   21   31   52    0
    0    0    0    0    0    0    0    0    0    0    0    0    0    0    0    0
    0    0    0    0    0    0    0    0    0    0    0    0    0    0    0    0
    0    0    0    0    0    0    0    0    0    0    0    0    0    0    0    0
    0    0    0    0    0    0    0    0    0    0    0    0    0    0    0    0
    0    0    0    0
      .019      .650    10.998      .091     1.000     1.800      .581     7.036
    52.200    50.000     2.778    50.000     4.945      .138     3.757     5.984
      .000      .000      .000      .000      .000      .000      .000      .000
      .000      .000      .000      .000      .000      .000      .000      .000
      .000      .000      .000      .000      .000      .000      .000      .000
      .000      .000      .000      .000      .000      .000      .000      .000
      .000      .000
   .000   .095   .005   .094   .010   .094   .015   .107   .020   .107
   .025   .106   .030   .106   .034   .119   .039   .119   .044   .132
   .049   .117   .054   .131   .059   .130   .064   .144   .069   .144
   .074   .157   .079   .156   .084   .170   .089   .197   .094   .183
   .098   .224   .103   .197   .108   .238   .113   .252   .118   .237
   .123   .251   .128   .223   .133   .209   .138   .195   .143   .195
   .148   .195   .153   .194   .158   .180   .162   .194   .167   .180
   .172   .221   .177   .221   .182   .194   .187   .194   .192   .180
   .197   .138   .202   .124   .207   .069   .212   .027   .217  -.015
   .221  -.056   .226  -.071   .231  -.085   .236  -.126   .241  -.154
   .246  -.140   .251  -.085   .256  -.057   .261  -.015   .266   .026
   .271   .096   .275   .137   .280   .165   .285   .165   .290   .165
   .295   .137   .300   .040   .305  -.030   .310  -.113   .315  -.127
   .320  -.169   .325  -.155   .330  -.141   .335  -.114   .339  -.100
   .344  -.031   .349  -.003   .354   .095   .359   .220   .364   .372
   .369   .469   .374   .511   .379   .552   .384   .622   .388   .719
   .393   .789   .398   .844   .403   .816   .408   .775   .413   .705
   .418   .580   .423   .510   .428   .441   .433   .413   .438   .344
   .442   .289   .447   .219   .452   .136   .457   .080   .462   .025
   .467   .011   .472   .025   .477  -.016   .482  -.044   .487  -.114
   .492  -.197   .497  -.294   .502  -.419   .507  -.516   .512  -.628
   .516  -.711   .521  -.766   .526  -.780   .531  -.683   .536  -.502
   .541  -.335   .546  -.266   .551  -.308   .556  -.363   .561  -.321
   .565  -.196   .570  -.016   .575   .081   .580   .137   .585   .109
   .590   .137   .595   .248   .600   .442   .605   .679   .609   .942
   .614  1.054   .619  1.095   .624  1.095   .629  1.137   .634  1.248
   .639  1.401   .644  1.595   .649  1.442   .654   .859   .659   .511
   .664   .525   .669   .497   .673   .261   .678   .052   .683  -.045
   .688  -.128   .693  -.294   .698  -.475   .703  -.572   .708  -.586
   .713  -.670   .718  -.739   .723  -.725   .728  -.670   .733  -.600
   .738  -.448   .743  -.184   .748   .052   .753   .177   .758   .191
   .763   .164   .768   .136   .773   .137   .778   .179   .783   .234
   .788   .345   .793   .540   .798   .748   .803   .860   .808   .860
   .812   .915   .817   .929   .822   .818   .827   .707   .832   .721
   .837   .694   .842   .541   .847   .332   .852   .361   .857   .347
   .862  -.180   .868  -.694   .873  -.777   .877  -.819   .882  -.833
   .887  -.819   .892  -.777   .897  -.777   .902  -.777   .907  -.735
   .912  -.596   .917  -.402   .922  -.249   .927  -.180   .932  -.180
   .937  -.096   .942   .071   .947   .320   .952   .626   .957   .806
   .962   .834   .967   .806   .972   .806   .977   .861   .982   .916
   .987   .847   .992   .680   .997   .527  1.002   .429  1.007   .374
  1.012   .317  1.016   .276  1.022   .206  1.027   .095  1.031   .011
  1.036  -.058  1.041  -.059  1.046  -.086  1.051  -.156  1.056  -.226
  1.061  -.282  1.066  -.296  1.071  -.310  1.076  -.324  1.081  -.283
  1.086  -.228  1.091  -.116  1.096   .022  1.101   .175  1.106   .244
  1.111   .300  1.116   .300  1.121   .300  1.126   .300  1.131   .328
  1.136   .384  1.141   .453  1.146   .467  1.151   .453  1.156   .467
  1.161   .564  1.166   .592  1.171   .592  1.176   .606  1.181   .620
  1.186   .606  1.191   .578  1.196   .579  1.201   .481  1.206   .231
  1.211   .009  1.216  -.102  1.221  -.130  1.226  -.144  1.231  -.213
  1.236  -.338  1.241  -.421  1.246  -.435  1.251  -.394  1.256  -.394
  1.261  -.311  1.266  -.228  1.271  -.173  1.276  -.200  1.281  -.200
  1.286  -.200  1.291  -.187  1.296  -.159  1.301  -.118  1.306  -.049
  1.311   .062  1.316   .256  1.321   .380  1.326   .450  1.331   .449
  1.336   .379  1.341   .337  1.346   .365  1.351   .392  1.356   .475
  1.361   .447  1.366   .350  1.371   .239  1.376   .071  1.381   .057
  1.386   .237  1.391   .529  1.396   .806  1.401  1.029  1.406  1.056
  1.411   .861  1.416   .569  1.421   .458  1.426   .569  1.431   .486
  1.436   .194  1.441   .027  1.446  -.042  1.451  -.153  1.456  -.236
  1.461  -.222  1.466  -.250  1.471  -.333  1.476  -.403  1.481  -.416
  1.486  -.375  1.491  -.402  1.496  -.416  1.501  -.360  1.506  -.235
  1.511  -.110  1.516   .001  1.521   .071  1.526   .127  1.531   .182
  1.536   .350  1.541   .600  1.546   .767  1.551   .809  1.556   .781
  1.561   .740  1.566   .740  1.571   .796  1.576   .838  1.581   .796
  1.586   .644  1.591   .394  1.596   .144  1.601  -.092  1.606  -.258
  1.611  -.369  1.616  -.355  1.621  -.257  1.626  -.104  1.631  -.076
  1.636  -.160  1.641  -.256  1.646  -.256  1.651  -.090  1.656   .077
  1.661   .175  1.666   .105  1.671  -.061  1.676  -.228  1.681  -.283
  1.686  -.214  1.691  -.130  1.696   .023  1.701   .134  1.706   .190
  1.711   .191  1.716   .149  1.721   .107  1.726   .094  1.731   .136
  1.736   .191  1.741   .219  1.746   .275  1.751   .331  1.756   .317
  1.760   .247  1.766   .179  1.770   .192  1.775   .248  1.780   .360
  1.785   .318  1.790   .124  1.795  -.070  1.800  -.209  1.805  -.320
  1.810  -.375  1.815  -.403  1.820  -.347  1.825  -.305  1.830  -.264
  1.835  -.264  1.840  -.180  1.845  -.096  1.850  -.027  1.855   .001
  1.860   .001  1.865   .029  1.870   .085  1.875   .182  1.879   .280
  1.884   .335  1.889   .349  1.894   .377  1.899   .377  1.904   .377
  1.909   .363  1.914   .335  1.919   .307  1.924   .307  1.929   .335
  1.934   .307  1.939   .237  1.944   .196  1.949   .210  1.954   .237
  1.959   .196  1.964   .140  1.969   .071  1.974   .099  1.979   .085
  1.983   .029  1.988  -.027  1.993  -.027  1.998  -.041  2.003  -.028
  2.008  -.041  2.013  -.042  2.018  -.014  2.023   .014  2.028   .055
  2.033   .110  2.038   .193  2.043   .304  2.048   .388  2.053   .485
  2.058   .568  2.063   .623  2.068   .609  2.072   .609  2.077   .609
  2.082   .636  2.087   .677  2.092   .650  2.097   .608  2.102   .552
  2.107   .441  2.112   .343  2.117   .246  2.122   .176  2.127   .134
  2.132   .176  2.137   .218  2.142   .273  2.147   .315  2.152   .259
  2.157   .162  2.162   .078  2.167  -.019  2.171  -.158  2.177  -.325
  2.181  -.478  2.187  -.561  2.191  -.645  2.196  -.686  2.201  -.673
  2.206  -.603  2.211  -.548  2.216  -.506  2.221  -.409  2.226  -.256
  2.231  -.048  2.236   .050  2.240   .105  2.245   .091  2.250   .077
  2.255   .077  2.260   .119  2.265   .216  2.270   .327  2.275   .466
  2.280   .549  2.285   .605  2.289   .674  2.294   .744  2.299   .814
  2.304   .911  2.309   .980  2.314  1.022  2.319   .966  2.324   .925
  2.329   .925  2.334   .869  2.339   .730  2.344   .577  2.349   .480
  2.354   .411  2.359   .230  2.364   .036  2.368  -.159  2.373  -.325
  2.378  -.450  2.383  -.560  2.388  -.658  2.393  -.755  2.398  -.838
  2.403  -.949  2.408  -.991  2.413 -1.032  2.418  -.990  2.423  -.851
  2.428  -.518  2.432  -.156  2.437   .135  2.442   .330  2.447   .385
  2.452   .400  2.457   .414  2.462   .525  2.467   .706  2.471   .914
  2.477  1.054  2.481  1.095  2.486  1.109  2.491  1.081  2.496  1.026
  2.501   .915  2.506   .818  2.511   .679  2.516   .540  2.521   .471
  2.526   .526  2.531   .679  2.536   .929  2.540  1.082  2.545  1.151
  2.550  1.082  2.555   .707  2.560  -.334  2.565  -.306  2.570  -.223
  2.575  -.251  2.580  -.445  2.585  -.640  2.590  -.751  2.595  -.835
  2.600  -.904  2.605 -1.029  2.610 -1.113  2.615 -1.196  2.620 -1.252
  2.625 -1.196  2.629 -1.002  2.634  -.696  2.639  -.377  2.644  -.099
  2.649   .040  2.654   .053  2.659   .025  2.664   .053  2.668   .164
  2.673   .358  2.678   .525  2.683   .622  2.688   .705  2.693   .913
  2.698  1.010  2.703   .912  2.708   .801  2.713   .746  2.718   .732
  2.723   .690  2.728   .635  2.733   .523  2.737   .440  2.742   .398
  2.747   .439  2.752   .286  2.757  -.006  2.762  -.242  2.767  -.339
  2.772  -.298  2.777  -.201  2.782  -.159  2.787  -.160  2.792  -.146
  2.797  -.146  2.802  -.215  2.807  -.257  2.812  -.285  2.816  -.258
  2.821  -.202  2.826  -.078  2.831   .034  2.836   .131  2.841   .158
  2.846   .186  2.851   .241  2.856   .296  2.861   .394  2.866   .505
  2.871   .574  2.876   .560  2.881   .504  2.885   .477  2.890   .463
  2.895   .505  2.900   .491  2.905   .449  2.910   .380  2.915   .296
  2.920   .241  2.925   .338  2.930   .394  2.935   .255  2.940   .046
  2.945  -.106  2.950  -.120  2.955  -.009  2.960   .089  2.964   .034
  2.969  -.119  2.974  -.202  2.979  -.105  2.984   .007  2.989   .062
  2.994   .063  2.999   .035  3.004  -.048  3.009  -.159  3.014  -.214
  3.019  -.255  3.024  -.255  3.029  -.255  3.033  -.241  3.038  -.213
  3.043  -.213  3.048  -.226  3.053  -.281  3.058  -.350  3.063  -.364
  3.068  -.267  3.073  -.155  3.078  -.030  3.083   .039  3.088   .026
  3.093   .054  3.098   .123  3.102   .206  3.107   .262  3.112   .235
  3.117   .137  3.122   .040  3.127  -.029  3.132  -.071  3.137  -.056
  3.142  -.056  3.147  -.084  3.152  -.126  3.157  -.181  3.162  -.195
  3.167  -.154  3.172  -.112  3.177  -.056  3.181   .000  3.186   .055
  3.191   .125  3.196   .208  3.201   .277  3.206   .332  3.211   .402
  3.216   .471  3.221   .541  3.226   .597  3.231   .639  3.236   .652
  3.241   .666  3.246   .680  3.250   .680  3.255   .694  3.260   .722
  3.265   .750  3.270   .819  3.275   .875  3.280   .902  3.285   .875
  3.290   .833  3.295   .847  3.300   .875  3.305   .945  3.310   .972
  3.315   .986  3.320   .972  3.325   .944  3.330   .944  3.335   .986
  3.339  1.069  3.344  1.027  3.349   .888  3.354   .763  3.359   .762
  3.364   .804  3.369   .735  3.374   .623  3.379   .512  3.384   .401
  3.389   .248  3.394   .067  3.399  -.100  3.404  -.239  3.409  -.391
  3.414  -.517  3.419  -.559  3.424  -.587  3.429  -.656  3.434  -.824
  3.439 -1.157  3.444 -1.601  3.449 -2.130  3.454 -2.685  3.459 -3.130
  3.464 -3.408  3.469 -3.519  3.474 -3.603  3.479 -3.603  3.484 -3.409
  3.489 -3.159  3.494 -3.228  3.499 -3.465  3.503 -3.576  3.509 -3.534
  3.513 -3.479  3.518 -3.507  3.523 -3.549  3.528 -3.549  3.533 -3.438
  3.538 -3.354  3.543 -3.354  3.548 -3.438  3.553 -3.619  3.558 -3.882
  3.563 -4.132  3.568 -4.229  3.573 -4.215  3.578 -4.243  3.583 -4.243
  3.588 -4.159  3.593 -4.062  3.598 -4.006  3.602 -4.020  3.607 -4.006
  3.612 -3.979  3.617 -3.937  3.622 -3.909  3.627 -3.923  3.632 -3.964
  3.637 -3.992  3.642 -3.769  3.647 -3.214  3.652 -2.171  3.656   .084
  3.661   .079  3.666   .079  3.671   .079  3.676   .079  3.681   .079
  3.686   .079  3.691   .079  3.696   .079  3.701   .079  3.705   .079
  3.710   .080  3.715   .080  3.720   .080  3.725   .080  3.730   .080
  3.735   .080  3.740   .080  3.745   .080  3.750   .080  3.755   .080
  3.760   .080  3.765   .080  3.770   .081  3.774   .081  3.780   .081
  3.784   .081  3.789   .081  3.794   .081  3.799   .081  3.804   .081
  3.809   .081  3.814   .081  3.819   .081  3.824   .081  3.829   .081
  3.834   .081  3.839   .081  3.844   .081  3.849   .081  3.853   .081
  3.858   .081  3.863   .081  3.868   .081  3.873   .081  3.878   .081
  3.883   .081  3.888   .081  3.893   .081  3.898   .081  3.903   .080
  3.908   .080  3.913   .080  3.918   .080  3.922   .080  3.927   .080
  3.932   .080  3.937   .080  3.942   .080  3.947   .079  3.952   .079
  3.957   .079  3.962   .079  3.967   .079  3.972   .078  3.977   .078
  3.982   .078  3.987   .077  3.992   .077  3.997   .077  4.001   .077
  4.006   .077  4.011   .077  4.016   .077  4.021   .077  4.026   .077
  4.031   .077  4.036   .077  4.041   .077  4.046   .077  4.051   .078
  4.056   .078  4.061   .079  4.065   .079  4.070   .079  4.075   .080
  4.080   .080  4.085   .081  4.090   .082  4.095   .082  4.100   .084
  4.105   .085  4.110   .086  4.115   .087  4.120   .088  4.125   .089
  4.130   .090  4.135   .091  4.140   .093  4.144   .094  4.149   .096
  4.154   .097  4.159   .099  4.164   .100  4.169   .102  4.174   .104
  4.179   .105  4.184   .106  4.189   .108  4.194   .110  4.199   .112
  4.204   .114  4.209   .115  4.214   .117  4.218   .119  4.223   .120
  4.228   .121  4.233   .123  4.238   .124  4.243   .126  4.248   .127
  4.253   .129  4.258   .130  4.263   .131  4.268   .132  4.273   .133
  4.278   .134  4.283   .135  4.287   .136  4.292   .137  4.297   .137
  4.302   .138  4.307   .139  4.312   .139  4.317   .140  4.322   .140
  4.327   .140  4.332   .140  4.337   .140  4.342   .140  4.347   .140
  4.352   .140  4.357   .140  4.361   .141  4.366   .140  4.371   .149
  4.376   .149  4.381   .149  4.386   .148  4.391   .148  4.396   .147
  4.401   .147  4.406   .147  4.411   .146  4.416   .146  4.421   .145
  4.426   .145  4.431   .145  4.436   .144  4.440   .144  4.445   .144
  4.450   .144  4.455   .143  4.460   .143  4.465   .142  4.470   .142
  4.475   .142  4.480   .142  4.485   .141  4.490   .141  4.495   .141
  4.500   .141  4.504   .141  4.509   .141  4.514   .140  4.519   .140
  4.524   .140  4.529   .140  4.534   .141  4.539   .141  4.544   .141
  4.549   .141  4.554   .141  4.559   .141  4.564   .141  4.569   .141
  4.574   .141  4.578   .141  4.583   .142  4.588   .142  4.593   .142
  4.598   .142  4.603   .142  4.608   .142  4.613   .142  4.618   .143
  4.623   .144  4.628   .144  4.633   .144  4.638   .144  4.643   .144
  4.648   .144  4.653   .144  4.657   .144  4.662   .145  4.667   .145
  4.672   .145  4.677   .145  4.682   .145  4.687   .145  4.692   .145
  4.697   .145  4.702   .146  4.707   .146  4.712   .146  4.716   .817
  4.721   .886  4.727   .622  4.732   .539  4.736   .929  4.741  1.470
  4.746  2.122  4.751  1.872  4.756  1.484  4.761  1.303  4.766  1.178
  4.771  1.053  4.776   .817  4.781   .636  4.786   .511  4.791   .400
  4.796   .233  4.801  -.073  4.806  -.406  4.811  -.698  4.816  -.768
  4.821  -.809  4.826  -.990  4.831 -1.156  4.836 -1.129  4.841 -1.087
  4.846 -1.309  4.851 -1.768  4.856 -1.990  4.861 -1.824  4.866 -1.851
  4.871 -2.310  4.876 -2.602  4.881 -2.755  4.886 -2.796  4.891 -2.824
  4.896 -2.616  4.901 -2.185  4.905 -1.504  4.910 -1.254  4.915  -.783
  4.920  -.366  4.925   .009  4.930   .287  4.935   .259  4.940   .120
  4.945   .134  4.950   .523  4.955  1.176  4.959  1.606  4.964  1.842
  4.969  1.842  4.974  1.856  4.979  1.954  4.984  1.940  4.989  1.662
  4.994  1.537  4.999  1.801  5.004  1.996  5.009  1.760  5.014  1.232
  5.019   .537  5.024   .246  5.029   .579  5.034   .912  5.039   .843
  5.044   .551  5.049   .135  5.054  -.199  5.059  -.407  5.064  -.254
  5.069   .024  5.074   .080  5.079  -.129  5.084  -.309  5.089  -.309
  5.094  -.365  5.098  -.545  5.104  -.740  5.109  -.934  5.114 -1.059
  5.118 -1.115  5.123 -1.129  5.128 -1.129  5.133 -1.143  5.138 -1.156
  5.143 -1.143  5.148 -1.143  5.153 -1.115  5.158 -1.156  5.163 -1.184
  5.168 -1.100  5.173  -.892  5.178  -.573  5.183  -.351  5.188  -.115
  5.193  -.004  5.198   .052  5.202   .107  5.207   .121  5.212   .107
  5.217   .080  5.222   .052  5.227   .066  5.232   .121  5.237   .316
  5.242   .622  5.247  1.094  5.252  1.511  5.256  1.914  5.261  2.372
  5.266  2.650  5.271  2.802  5.276  2.816  5.281  2.705  5.286  2.497
  5.291  2.344  5.296  2.150  5.301  1.914  5.306  1.441  5.311   .941
  5.316   .650  5.321   .414  5.326   .095  5.331  -.280  5.336  -.405
  5.341  -.197  5.346  -.016  5.351  -.030  5.356  -.016  5.361  -.058
  5.366  -.225  5.371  -.461  5.376  -.614  5.381  -.711  5.386  -.753
  5.391  -.822  5.396  -.878  5.401  -.850  5.406  -.739  5.411  -.599
  5.415  -.419  5.420  -.308  5.425  -.266  5.430  -.238  5.435  -.210
  5.440  -.169  5.445  -.113  5.450   .012  5.455   .137  5.460   .290
  5.465   .512  5.470   .692  5.475   .775  5.479   .775  5.484   .664
  5.490   .470  5.495   .220  5.499  -.141  5.504  -.446  5.510  -.780
  5.515  -.988  5.519 -1.155  5.524 -1.196  5.529 -1.071  5.534  -.738
  5.539  -.364  5.544  -.072  5.549   .164  5.554   .261  5.559   .109
  5.564  -.003  5.569   .150  5.574   .497  5.578   .817  5.583  1.053
  5.589   .720  5.594   .053  5.599  -.225  5.604  -.225  5.609  -.323
  5.614  -.365  5.618  -.295  5.623  -.490  5.628  -.768  5.633  -.865
  5.638  -.740  5.643  -.518  5.648  -.144  5.653   .162  5.658   .287
  5.663   .246  5.668   .106  5.673  -.074  5.678  -.158  5.683  -.311
  5.688  -.589  5.693  -.839  5.698 -1.089  5.703 -1.228  5.708 -1.117
  5.713  -.825  5.717  -.464  5.722   .147  5.727   .883  5.732  1.521
  5.737  1.813  5.742  1.424  5.747   .577  5.752   .216  5.757   .577
  5.762   .966  5.766   .841  5.772   .411  5.777  -.020  5.782  -.228
  5.787  -.353  5.792  -.311  5.796  -.131  5.801   .078  5.806   .106
  5.811   .036  5.816  -.075  5.821  -.116  5.826  -.074  5.831   .023
  5.836   .149  5.841   .274  5.846   .385  5.851   .468  5.856   .524
  5.861   .524  5.865   .580  5.871   .552  5.875   .524  5.880   .469
  5.885   .399  5.890   .357  5.895   .302  5.900   .302  5.905   .399
  5.910   .649  5.915   .830  5.920   .886  5.925   .720  5.930   .344
  5.935  -.128  5.940  -.323  5.945  -.156  5.950  -.003  5.955   .025
  5.960   .150  5.964   .261  5.969   .233  5.974   .136  5.979   .094
  5.984   .149  5.989   .080  5.994  -.101  5.999  -.281  6.004  -.489
  6.009  -.781  6.014 -1.073  6.019 -1.254  6.024 -1.170  6.029 -1.018
  6.034 -1.031  6.039 -1.143  6.044 -1.212  6.049 -1.254  6.054 -1.240
  6.059 -1.185  6.064 -1.101  6.069 -1.032  6.074  -.949  6.078  -.851
  6.083  -.726  6.088  -.545  6.093  -.351  6.098  -.240  6.103  -.156
  6.108  -.128  6.113  -.114  6.118  -.128  6.123  -.031  6.128   .247
  6.133   .552  6.137   .872  6.142  1.164  6.147  1.303  6.152  1.317
  6.157  1.164  6.162   .886  6.167   .512  6.172   .137  6.177  -.224
  6.182  -.474  6.187  -.751  6.192 -1.015  6.197 -1.237  6.202 -1.418
  6.207 -1.528  6.212 -1.395  6.217  -.799  6.222  -.320  6.227   .360
