UNCORRECTED ACCELEROGRAM DATA              PROCESSED: 03/20/95, CDMG QN94207B   
NORTHRIDGE EARTHQUAKE                                                           
JANUARY 17, 1994 04:31 PST              (ORIGIN(CIT): 01/17/94, 12:30:55.4 GMT) 
24207-C0157-94019.02                                                            
STATION NO. 24207   34.334N, 118.396W     CRA-1  S/N 0157 (11 CHNS OF 17 AT STA)
PACOIMA RESERVOIR - PACOIMA DAM                                                 
CHAN  2: RAD      (STA CHN:  2)     LOCATION: CREST: CENTER                     
NORTHRIDGE EARTHQUAKE     JANUARY 17, 1994 04:31 PST                            
HYPOCENTER(CIT): 34.215N, 118.538W, H=18KM. ML=6.6, MW=6.7(CIT); MS=6.7(NEIC)   
INSTR PERIOD =  .0186 SEC,  DAMPING =  .640,  SENSITIVITY = 1.71 CM/G.          
NO. OF POINTS =   2224  RECORD LENGTH = 10.998 SEC                              
UNITS OF UNCOR ACCEL ARE SEC AND G/10.     MAX  = -1.238 G, AT   7.089 SEC.     
RMS ACCEL OF COMPLETE RECORD =  .299 G.                                         
    2    1    2   11   17    0    1    1    1 2048    0    0    0    0    0    0
    0    0    0    0    0    0    0    0    0    0  700 2224   21   31   52    0
    0    0    0    0    0    0    0    0    0    0    0    0    0    0    0    0
    0    0    0    0    0    0    0    0    0    0    0    0    0    0    0    0
    0    0    0    0    0    0    0    0    0    0    0    0    0    0    0    0
    0    0    0    0    0    0    0    0    0    0    0    0    0    0    0    0
    0    0    0    0
      .019      .640    10.998      .299     1.000     1.710    -1.238     7.089
    53.700    50.000     2.924    50.000     4.945      .178     2.874     7.004
      .000      .000      .000      .000      .000      .000      .000      .000
      .000      .000      .000      .000      .000      .000      .000      .000
      .000      .000      .000      .000      .000      .000      .000      .000
      .000      .000      .000      .000      .000      .000      .000      .000
      .000      .000
   .000  -.148   .005  -.118   .010  -.089   .015  -.088   .020  -.058
   .025  -.028   .029   .001   .034   .001   .039   .002   .044   .002
   .049  -.013   .054  -.027   .059   .002   .064   .017   .069   .047
   .074   .076   .079   .076   .084   .076   .089   .106   .094   .106
   .098   .135   .103   .151   .108   .137   .113   .137   .118   .093
   .123   .020   .128  -.068   .133  -.170   .138  -.257   .143  -.286
   .148  -.301   .153  -.286   .158  -.242   .162  -.183   .167  -.125
   .172  -.037   .177   .021   .182   .124   .187   .168   .192   .198
   .197   .227   .202   .183   .207   .140   .212   .081   .216   .037
   .221  -.021   .226  -.124   .231  -.255   .236  -.372   .241  -.445
   .246  -.445   .251  -.431   .256  -.372   .261  -.372   .266  -.459
   .271  -.532   .276  -.576   .281  -.546   .285  -.386   .290  -.152
   .295   .082   .300   .170   .305   .214   .310   .228   .315   .214
   .320   .199   .325   .214   .329   .199   .334   .199   .339   .287
   .344   .331   .349   .345   .354   .418   .359   .492   .364   .623
   .369   .799   .373  1.018   .378  1.179   .383  1.295   .388  1.339
   .393  1.280   .398  1.061   .403   .783   .408   .344   .413  -.153
   .418  -.563   .423 -1.001   .428 -1.265   .433 -1.441   .438 -1.528
   .443 -1.543   .448 -1.499   .453 -1.470   .458 -1.412   .462 -1.383
   .467 -1.383   .472 -1.384   .477 -1.398   .482 -1.428   .487 -1.516
   .492 -1.604   .497 -1.604   .502 -1.487   .507 -1.239   .512  -.932
   .516  -.538   .521  -.187   .526   .164   .531   .486   .536   .792
   .541  1.304   .545  1.816   .550  2.240   .555  2.473   .560  2.429
   .565  2.268   .570  2.166   .575  2.166   .580  2.283   .585  2.487
   .589  2.648   .594  2.678   .599  2.487   .604  2.137   .609  1.684
   .614  1.275   .619   .821   .624   .310   .629  -.172   .634  -.655
   .639 -1.166   .644 -1.707   .649 -2.073   .654 -2.452   .659 -2.847
   .664 -3.125   .669 -3.183   .674 -3.096   .679 -2.920   .684 -2.583
   .689 -2.305   .694 -2.129   .698 -1.983   .704 -2.042   .708 -1.939
   .713 -1.530   .718 -1.120   .723  -.989   .728  -.828   .733  -.506
   .738  -.024   .743   .488   .748   .956   .753  1.394   .757  1.745
   .762  1.949   .767  2.037   .772  2.155   .777  2.301   .782  2.476
   .787  2.666   .792  2.769   .797  2.710   .802  2.286   .807  1.306
   .812   .794   .817   .634   .822   .341   .827  -.112   .833  -.609
   .838 -1.033   .843 -1.179   .848 -1.136   .853  -.858   .858  -.653
   .863  -.755   .867  -.711   .872  -.580   .877  -.360   .882  -.273
   .887  -.360   .892  -.521   .897  -.741   .902  -.799   .907  -.594
   .912  -.214   .917   .078   .922   .239   .927   .385   .932   .517
   .937   .576   .942   .562   .947   .445   .952   .284   .957   .079
   .962  -.125   .967  -.359   .972  -.607   .977  -.680   .982  -.695
   .987  -.695   .992  -.710   .997  -.695  1.002  -.666  1.007  -.622
  1.012  -.680  1.017  -.797  1.022 -1.002  1.027 -1.264  1.032 -1.439
  1.037 -1.513  1.042 -1.425  1.047 -1.162  1.051  -.811  1.056  -.416
  1.061  -.036  1.066   .417  1.071   .768  1.076  1.002  1.081  1.162
  1.086  1.338  1.091  1.630  1.096  1.981  1.101  2.230  1.106  2.317
  1.111  2.274  1.116  2.157  1.121  1.982  1.126  1.849  1.131  1.732
  1.136  1.586  1.141  1.294  1.146   .826  1.151  -.417  1.156  -.827
  1.161  -.973  1.166 -1.002  1.171 -1.134  1.176 -1.368  1.181 -1.544
  1.186 -1.514  1.191 -1.280  1.196  -.871  1.201  -.651  1.206  -.769
  1.211  -.915  1.216 -1.003  1.221 -1.032  1.226  -.944  1.231  -.798
  1.236  -.638  1.241  -.623  1.246  -.725  1.251  -.857  1.256  -.959
  1.261 -1.032  1.266 -1.193  1.271 -1.296  1.276 -1.282  1.281 -1.165
  1.286 -1.032  1.291  -.872  1.296  -.682  1.301  -.448  1.306  -.228
  1.311  -.097  1.316   .035  1.321   .313  1.326   .707  1.331  1.058
  1.336  1.263  1.341  1.336  1.346  1.365  1.351  1.351  1.356  1.365
  1.360  1.482  1.365  1.702  1.370  2.023  1.375  2.316  1.380  2.447
  1.385  2.374  1.390  2.125  1.396  1.628  1.401  1.058  1.406   .532
  1.411  -.068  1.416  -.565  1.421  -.901  1.426 -1.281  1.431 -1.924
  1.436 -2.538  1.441 -2.860  1.446 -2.787  1.451 -2.450  1.456 -1.924
  1.461 -1.310  1.466  -.857  1.471  -.769  1.476  -.915  1.481 -1.076
  1.486 -1.106  1.491 -1.179  1.496 -1.164  1.501 -1.062  1.506  -.784
  1.511  -.521  1.516  -.316  1.521  -.082  1.526   .152  1.531   .517
  1.536   .941  1.541  1.351  1.546  1.761  1.551  1.965  1.556  1.790
  1.561  1.307  1.566   .649  1.571   .211  1.576  -.082  1.581  -.125
  1.586   .035  1.591   .284  1.596   .620  1.601   .854  1.606  1.029
  1.611  1.102  1.616  1.117  1.621  1.000  1.626   .796  1.631   .459
  1.636   .123  1.641  -.198  1.646  -.608  1.651 -1.003  1.656 -1.325
  1.662 -1.544  1.667 -1.588  1.671 -1.325  1.676  -.915  1.681  -.477
  1.686  -.244  1.691  -.170  1.696  -.156  1.701  -.156  1.706  -.185
  1.711  -.273  1.716  -.375  1.721  -.375  1.726  -.360  1.731  -.273
  1.736   .004  1.741   .355  1.746   .531  1.750   .516  1.756   .282
  1.761  -.098  1.766  -.493  1.771  -.829  1.776 -1.020  1.781 -1.035
  1.786 -1.093  1.791 -1.122  1.796 -1.093  1.800  -.946  1.805  -.727
  1.810  -.508  1.815  -.318  1.820  -.011  1.825   .369  1.830   .807
  1.835  1.173  1.839  1.245  1.844  1.143  1.849  1.011  1.855   .924
  1.859   .894  1.864   .909  1.869   .836  1.874   .763  1.879   .676
  1.884   .676  1.889   .587  1.894   .485  1.899   .266  1.904  -.085
  1.909  -.392  1.914  -.582  1.919  -.670  1.924  -.611  1.929  -.509
  1.934  -.407  1.939  -.319  1.944  -.290  1.949  -.246  1.954  -.377
  1.959  -.611  1.964  -.889  1.969 -1.035  1.974  -.962  1.979  -.669
  1.983  -.333  1.988   .032  1.993   .281  1.998   .398  2.003   .486
  2.008   .486  2.013   .500  2.018   .486  2.023   .544  2.028   .573
  2.033   .603  2.038   .559  2.043   .325  2.048   .048  2.053  -.303
  2.058  -.537  2.063  -.756  2.068  -.961  2.073 -1.063  2.078 -1.049
  2.082 -1.005  2.088  -.903  2.092  -.815  2.097  -.698  2.102  -.581
  2.107  -.391  2.112  -.069  2.117   .355  2.122   .662  2.127   .837
  2.132   .867  2.137   .779  2.142   .545  2.147   .253  2.152  -.025
  2.157  -.230  2.162  -.464  2.167  -.639  2.172  -.771  2.177  -.829
  2.181  -.786  2.187  -.800  2.191  -.829  2.196  -.829  2.201  -.800
  2.206  -.654  2.211  -.390  2.216  -.069  2.221   .282  2.226   .487
  2.230   .545  2.235   .516  2.240   .545  2.245   .691  2.250   .910
  2.255  1.232  2.260  1.554  2.265  1.758  2.270  1.831  2.275  1.817
  2.280  1.700  2.284  1.495  2.289  1.276  2.294  1.071  2.299   .925
  2.304   .823  2.309   .721  2.314   .516  2.319   .121  2.324  -.318
  2.329  -.639  2.334  -.990  2.339 -1.502  2.344 -2.087  2.349 -2.569
  2.354 -2.891  2.359 -2.964  2.364 -2.964  2.369 -2.979  2.374 -3.066
  2.379 -3.169  2.384 -3.139  2.389 -2.964  2.394 -2.598  2.398 -2.087
  2.403 -1.444  2.408  -.829  2.413  -.347  2.418   .033  2.422   .355
  2.427   .516  2.432   .706  2.437   .998  2.442  1.466  2.447  1.934
  2.452  2.314  2.456  2.533  2.461  2.562  2.466  2.592  2.471  2.607
  2.476  2.446  2.481  2.182  2.486  2.109  2.491  2.241  2.496  2.372
  2.501  2.343  2.506  2.168  2.511  1.890  2.516  1.568  2.521  1.247
  2.526   .998  2.531   .691  2.536   .296  2.541  -.303  2.546  -.786
  2.551 -1.092  2.556 -1.808  2.561 -2.642  2.566 -3.519  2.571 -4.235
  2.576 -4.601  2.581 -4.776  2.586 -4.820  2.591 -4.645  2.595 -3.987
  2.600 -2.920  2.605 -1.868  2.610  -.932  2.614  -.215  2.619   .457
  2.624   .925  2.629  1.115  2.634  1.056  2.639   .940  2.644   .881
  2.649   .969  2.654  1.071  2.658  1.086  2.663  1.129  2.668  1.319
  2.673  1.611  2.678  1.714  2.683  1.378  2.688  1.041  2.693  1.275
  2.698  1.538  2.703  1.494  2.708  1.172  2.713   .675  2.718   .295
  2.723   .120  2.728   .061  2.733   .031  2.737  -.056  2.742   .002
  2.747   .148  2.752   .104  2.757   .002  2.762  -.115  2.767  -.233
  2.772  -.482  2.777  -.949  2.782 -1.432  2.787 -1.827  2.792 -2.003
  2.797 -1.929  2.802 -1.578  2.807 -1.096  2.812  -.701  2.816  -.438
  2.821  -.204  2.826  -.087  2.831  -.044  2.836  -.176  2.841  -.293
  2.846  -.322  2.851  -.249  2.856  -.103  2.861   .028  2.866   .131
  2.871   .365  2.875   .642  2.880   .789  2.885   .891  2.890   .935
  2.895  1.052  2.900  1.110  2.905  1.037  2.910   .935  2.915   .774
  2.920   .627  2.925   .656  2.930   .642  2.935   .525  2.940   .437
  2.945   .423  2.949   .452  2.954   .452  2.959   .203  2.964  -.148
  2.969  -.542  2.974 -1.039  2.979 -1.405  2.984 -1.683  2.989 -1.800
  2.994 -1.770  2.999 -1.580  3.004 -1.229  3.009  -.922  3.014  -.660
  3.019  -.484  3.024  -.426  3.029  -.441  3.033  -.441  3.038  -.309
  3.043  -.090  3.048   .217  3.053   .525  3.058   .671  3.063   .686
  3.068   .627  3.073   .583  3.078   .525  3.083   .510  3.088   .510
  3.092   .540  3.097   .641  3.102   .700  3.107   .744  3.112   .714
  3.117   .597  3.122   .422  3.127   .276  3.132   .144  3.137   .028
  3.142  -.075  3.147  -.162  3.152  -.265  3.157  -.425  3.162  -.615
  3.167  -.893  3.172 -1.142  3.177 -1.259  3.182 -1.215  3.187 -1.083
  3.191  -.937  3.196  -.937  3.201  -.981  3.206 -1.083  3.211 -1.127
  3.216 -1.069  3.221  -.863  3.226  -.600  3.231  -.264  3.236   .087
  3.241   .394  3.246   .657  3.250   .847  3.255  1.023  3.260  1.154
  3.265  1.169  3.270  1.154  3.275  1.183  3.280  1.183  3.285  1.212
  3.290  1.168  3.295  1.037  3.300   .862  3.305   .686  3.310   .525
  3.315   .379  3.320   .131  3.325  -.162  3.330  -.483  3.335  -.820
  3.340 -1.200  3.345 -1.537  3.350 -1.770  3.355 -1.975  3.360 -2.238
  3.365 -2.560  3.370 -2.779  3.375 -2.882  3.380 -2.882  3.385 -2.809
  3.390 -2.721  3.395 -2.633  3.399 -2.545  3.404 -2.341  3.409 -2.034
  3.414 -1.610  3.419 -1.025  3.424  -.426  3.428   .188  3.433   .744
  3.438  1.138  3.443  1.475  3.448  1.840  3.453  2.307  3.458  2.790
  3.463  3.316  3.467  3.740  3.472  3.945  3.477  3.975  3.482  3.959
  3.487  3.754  3.492  3.521  3.497  3.038  3.502  2.614  3.507  2.117
  3.512  1.473  3.517   .699  3.523  -.047  3.527  -.398  3.533  -.617
  3.537  -.763  3.543  -.808  3.547  -.720  3.552  -.618  3.557  -.427
  3.562  -.222  3.567  -.076  3.572   .085  3.577   .303  3.582   .479
  3.587   .683  3.592   .932  3.596  1.210  3.601  1.473  3.606  1.707
  3.611  1.882  3.616  1.940  3.621  1.999  3.626  1.867  3.631  1.779
  3.636  1.867  3.641  2.233  3.646  2.686  3.650  3.621  3.655  5.123
  3.660  6.617  3.664  7.671  3.669  8.227  3.674  8.563  3.679  8.870
  3.684  9.396  3.689  9.996  3.694 10.522  3.698 10.683  3.703 10.814
  3.708 11.385  3.713 11.809  3.718 10.769  3.723 10.380  3.730  -.146
  3.735  -.148  3.740  -.148  3.745  -.148  3.750  -.148  3.755  -.148
  3.760  -.148  3.765  -.148  3.770  -.148  3.774  -.148  3.780  -.147
  3.784  -.147  3.789  -.147  3.794  -.146  3.799  -.146  3.804  -.146
  3.809  -.146  3.814  -.145  3.819  -.145  3.824  -.145  3.829  -.145
  3.834  -.145  3.839  -.145  3.844  -.145  3.849  -.145  3.853  -.144
  3.858  -.144  3.863  -.144  3.868  -.144  3.873  -.144  3.878  -.145
  3.883  -.145  3.888  -.145  3.893  -.144  3.898  -.145  3.903  -.145
  3.908  -.145  3.913  -.145  3.918  -.146  3.922  -.146  3.927  -.146
  3.932  -.147  3.937  -.148  3.942  -.148  3.947  -.149  3.952  -.149
  3.957  -.150  3.962  -.151  3.967  -.152  3.972  -.152  3.977  -.152
  3.982  -.153  3.987  -.154  3.992  -.155  3.997  -.155  4.001  -.156
  4.006  -.157  4.011  -.158  4.016  -.166  4.021  -.166  4.026  -.168
  4.031  -.168  4.036  -.168  4.041  -.168  4.046  -.169  4.051  -.169
  4.056  -.169  4.061  -.169  4.065  -.169  4.070  -.169  4.075  -.169
  4.080  -.169  4.085  -.169  4.090  -.168  4.095  -.168  4.100  -.167
  4.105  -.166  4.110  -.165  4.115  -.164  4.120  -.162  4.125  -.161
  4.130  -.159  4.135  -.158  4.140  -.156  4.144  -.155  4.149  -.153
  4.154  -.151  4.159  -.149  4.164  -.147  4.169  -.145  4.174  -.142
  4.179  -.140  4.184  -.138  4.189  -.135  4.194  -.133  4.199  -.131
  4.204  -.128  4.209  -.125  4.214  -.123  4.218  -.121  4.223  -.118
  4.228  -.116  4.233  -.114  4.238  -.111  4.243  -.109  4.248  -.107
  4.253  -.105  4.258  -.103  4.263  -.101  4.268  -.099  4.273  -.097
  4.278  -.096  4.283  -.094  4.287  -.092  4.292  -.091  4.297  -.089
  4.302  -.088  4.307  -.087  4.312  -.086  4.317  -.085  4.322  -.084
  4.327  -.083  4.332  -.083  4.337  -.082  4.342  -.082  4.347  -.082
  4.352  -.081  4.357  -.081  4.361  -.081  4.366  -.081  4.371  -.080
  4.376  -.080  4.381  -.080  4.386  -.081  4.391  -.081  4.396  -.082
  4.401  -.082  4.406  -.082  4.411  -.083  4.416  -.083  4.421  -.084
  4.426  -.084  4.431  -.084  4.436  -.085  4.440  -.086  4.445  -.086
  4.450  -.087  4.455  -.087  4.460  -.087  4.465  -.087  4.470  -.088
  4.475  -.089  4.480  -.089  4.485  -.089  4.490  -.090  4.495  -.090
  4.500  -.090  4.504  -.091  4.509  -.091  4.514  -.091  4.519  -.091
  4.524  -.092  4.529  -.092  4.534  -.092  4.539  -.091  4.544  -.092
  4.549  -.092  4.554  -.092  4.559  -.092  4.564  -.092  4.569  -.092
  4.574  -.092  4.578  -.092  4.583  -.092  4.588  -.092  4.593  -.092
  4.598  -.092  4.603  -.092  4.608  -.092  4.613  -.091  4.618  -.091
  4.623  -.091  4.628  -.091  4.633  -.091  4.638  -.091  4.643  -.090
  4.648  -.090  4.653  -.090  4.657   .282  4.662  -.479  4.668 -1.019
  4.673 -1.545  4.678 -2.773  4.683 -3.256  4.688 -3.636  4.693 -3.401
  4.697 -2.685  4.702 -2.860  4.707 -3.460  4.712 -2.656  4.717 -2.597
  4.722 -3.711  4.728 -5.326  4.733 -5.681  4.737 -4.653  4.743 -6.090
  4.748 -6.266  4.753 -6.646  4.758 -7.201  4.763 -8.006  4.768 -8.868
  4.773 -9.292  4.778 -9.277  4.783 -9.248  4.788 -9.336  4.793 -9.541
  4.798 -9.541  4.803 -8.766  4.807 -6.761  4.812 -4.401  4.816 -2.318
  4.821  -.639  4.826  1.308  4.830  3.096  4.835  4.421  4.839  6.366
  4.844  7.654  4.849  9.275  4.853  9.491  4.859  8.239  4.864  7.360
  4.869  7.199  4.874  8.158  4.878  8.836  4.884  8.266  4.889  7.608
  4.894  7.345  4.899  6.979  4.904  6.483  4.909  5.663  4.914  4.669
  4.919  3.310  4.924  2.009  4.930   .620  4.935   .283  4.940   .240
  4.945   .166  4.950  -.111  4.955  -.228  4.959   .181  4.964   .737
  4.969   .956  4.974   .751  4.979   .576  4.984   .766  4.989  1.742
  4.994  2.389  4.999  1.921  5.004   .591  5.009 -1.397  5.015 -2.932
  5.020 -3.254  5.025 -3.152  5.030 -3.137  5.035 -3.400  5.040 -3.751
  5.044 -3.941  5.050 -4.028  5.055 -4.131  5.060 -4.131  5.064 -4.101
  5.069 -4.131  5.074 -4.130  5.079 -3.882  5.084 -3.501  5.089 -3.019
  5.094 -2.639  5.099 -2.113  5.103 -1.294  5.108  -.475  5.113  -.110
  5.118  -.110  5.123  -.256  5.128  -.709  5.133 -1.338  5.138 -1.952
  5.143 -2.420  5.148 -2.625  5.153 -2.406  5.158 -1.879  5.163 -1.265
  5.168  -.710  5.173  -.110  5.177   .723  5.182  1.586  5.187  2.653
  5.192  3.120  5.197  3.734  5.202  3.675  5.207  3.498  5.212  3.398
  5.217  3.383  5.222  3.427  5.227  3.339  5.232  2.944  5.237  2.506
  5.242  2.111  5.247  1.687  5.252   .605  5.257   .210  5.262  -.301
  5.267  -.550  5.272  -.755  5.277 -1.135  5.282 -1.676  5.287 -2.305
  5.292 -2.890  5.297 -3.489  5.302 -3.942  5.307 -4.279  5.312 -4.542
  5.317 -4.455  5.322 -4.045  5.327 -3.767  5.332 -3.972  5.337 -4.118
  5.342 -3.606  5.346 -2.860  5.352 -2.524  5.356 -2.013  5.361 -1.355
  5.366  -.317  5.371  -.200  5.376  -.039  5.381   .282  5.385   .692
  5.390  1.028  5.395  1.145  5.400  1.072  5.405   .867  5.410   .619
  5.415   .619  5.420   .824  5.425  1.028  5.430  1.233  5.435  1.408
  5.440  1.613  5.445  1.949  5.450  2.373  5.454  2.987  5.459  3.572
  5.464  3.659  5.469  3.630  5.474  3.659  5.479  3.893  5.484  4.507
  5.489  4.741  5.494  4.741  5.498  4.609  5.503  4.536  5.508  4.536
  5.513  4.478  5.518  4.317  5.523  3.928  5.529  3.483  5.534  2.532
  5.539  1.114  5.544  -.158  5.549 -1.386  5.554 -2.497  5.560 -3.010
  5.564 -3.112  5.569 -2.980  5.574 -2.834  5.579 -3.170  5.584 -3.960
  5.589 -4.340  5.594 -4.092  5.599 -3.653  5.604 -3.507  5.609 -3.654
  5.614 -3.756  5.619 -3.566  5.624 -2.791  5.628 -1.564  5.633  -.628
  5.638   .205  5.643  1.038  5.648  1.856  5.652  2.748  5.657  3.756
  5.662  4.532  5.667  5.117  5.672  5.175  5.677  4.882  5.682  4.502
  5.687  4.341  5.692  4.751  5.696  5.289  5.701  5.262  5.707  4.472
  5.712  2.996  5.717  1.855  5.722   .993  5.727   .144  5.732  -.835
  5.737 -2.009  5.742 -2.926  5.747 -3.364  5.753 -3.393  5.757 -3.262
  5.762 -3.379  5.767 -3.700  5.772 -4.051  5.777 -4.431  5.782 -5.001
  5.787 -5.399  5.792 -5.118  5.797 -4.401  5.802 -3.860  5.807 -3.129
  5.812 -2.068  5.816  -.953  5.821   .335  5.826  1.169  5.831  1.769
  5.835  2.237  5.840  2.530  5.845  2.822  5.850  2.968  5.855  3.056
  5.860  3.086  5.865  3.144  5.870  3.071  5.875  2.852  5.880  2.472
  5.885  2.165  5.890  1.829  5.895  1.420  5.900   .996  5.905   .557
  5.910   .294  5.915   .002  5.920  -.305  5.925  -.612  5.930 -1.197
  5.935 -1.869  5.940 -2.059  5.945 -1.679  5.950 -1.094  5.955 -1.066
  5.960 -1.577  5.965 -2.235  5.970 -2.776  5.975 -3.200  5.980 -3.625
  5.985 -4.049  5.990 -4.268  5.995 -4.312  6.000 -4.370  6.005 -4.590
  6.010 -4.853  6.015 -4.868  6.020 -4.868  6.025 -4.751  6.030 -4.620
  6.035 -4.518  6.039 -4.445  6.044 -4.138  6.049 -3.612  6.054 -2.837
  6.059 -1.872  6.064 -1.186  6.068  -.235  6.073   .496  6.078  1.197
  6.083  1.972  6.088  2.689  6.092  3.117  6.097  3.534  6.102  3.723
  6.107  3.792  6.112  3.845  6.117  4.238  6.122  4.573  6.127  4.536
  6.132  4.340  6.137  4.164  6.142  4.383  6.146  4.866  6.151  5.319
  6.156  5.465  6.161  5.451  6.166  5.275  6.171  5.130  6.176  5.100
  6.181  4.983  6.186  4.749  6.191  4.559  6.196  4.325  6.201  3.898
  6.206  3.534  6.211  3.039  6.216  2.454  6.221  1.109  6.227 -2.819
