UNCORRECTED ACCELEROGRAM DATA              PROCESSED: 03/20/95, CDMG QN94A207   
NORTHRIDGE EARTHQUAKE                                                           
JANUARY 17, 1994 04:31 PST              (ORIGIN(CIT): 01/17/94, 12:30:55.4 GMT) 
24207-C0140-94019.02                                                            
STATION NO. 24207   34.334N, 118.396W     CRA-1  S/N 0140 ( 6 CHNS OF 17 AT STA)
PACOIMA RESERVOIR - PACOIMA DAM                                                 
CHAN  1: 270 DEG  (STA CHN: 12)     LOCATION: RIGHT (NORTH) ABUTMENT            
NORTHRIDGE EARTHQUAKE     JANUARY 17, 1994 04:31 PST                            
HYPOCENTER(CIT): 34.215N, 118.538W, H=18KM. ML=6.6, MW=6.7(CIT); MS=6.7(NEIC)   
INSTR PERIOD =  .0205 SEC,  DAMPING =  .694,  SENSITIVITY = 1.81 CM/G.          
NO. OF POINTS =   2223  RECORD LENGTH = 11.000 SEC                              
UNITS OF UNCOR ACCEL ARE SEC AND G/10.     MAX  = -1.055 G, AT   4.286 SEC.     
RMS ACCEL OF COMPLETE RECORD =  .171 G.                                         
    1    1   12    6   17    0    1    1    1 2048    0    0    0    0    0    0
    0    0    0    0    0    0    0    0    0    0  270 2223   21   31   52    0
    0    0    0    0    0    0    0    0    0    0    0    0    0    0    0    0
    0    0    0    0    0    0    0    0    0    0    0    0    0    0    0    0
    0    0    0    0    0    0    0    0    0    0    0    0    0    0    0    0
    0    0    0    0    0    0    0    0    0    0    0    0    0    0    0    0
    0    0    0    0
      .021      .694    11.000      .171     1.000     1.810    -1.055     4.286
    48.700    50.000     2.762    50.000     4.948      .168     3.169     8.458
      .000      .000      .000      .000      .000      .000      .000      .000
      .000      .000      .000      .000      .000      .000      .000      .000
      .000      .000      .000      .000      .000      .000      .000      .000
      .000      .000      .000      .000      .000      .000      .000      .000
      .000      .000
   .000  -.171   .005  -.157   .010  -.184   .015  -.322   .020  -.308
   .025  -.127   .030  -.085   .035  -.044   .040  -.030   .045  -.015
   .049   .000   .054   .000   .059   .000   .064  -.013   .069  -.013
   .074  -.026   .079  -.013   .084   .002   .089   .002   .094   .002
   .099   .004   .104   .017   .109   .017   .114   .032   .119   .045
   .124   .074   .129   .074   .134   .060   .139   .033   .144  -.009
   .149  -.022   .154  -.049   .159  -.049   .163  -.049   .168  -.021
   .173  -.008   .178   .021   .183   .034   .188   .076   .193   .076
   .198   .076   .203   .076   .208   .076   .213   .049   .218   .021
   .223  -.020   .228  -.062   .233  -.103   .238  -.158   .243  -.227
   .248  -.296   .253  -.366   .258  -.407   .263  -.366   .268  -.269
   .273  -.186   .278  -.076   .283   .007   .288   .007   .292  -.048
   .298  -.076   .303  -.062   .307  -.035   .312   .007   .317   .021
   .322   .007   .327  -.034   .332  -.076   .337  -.104   .342  -.090
   .347  -.035   .352   .007   .357   .076   .362   .131   .367   .187
   .372   .228   .377   .256   .382   .311   .387   .366   .392   .407
   .397   .476   .402   .532   .407   .573   .412   .573   .417   .559
   .422   .518   .427   .422   .432   .297   .437   .132   .442  -.089
   .447  -.352   .452  -.559   .457  -.738   .462  -.863   .467  -.849
   .472  -.724   .477  -.614   .482  -.448   .486  -.338   .491  -.296
   .496  -.324   .501  -.366   .506  -.407   .511  -.448   .516  -.435
   .521  -.352   .526  -.268   .531  -.185   .536  -.075   .541  -.006
   .546  -.006   .551  -.006   .556  -.006   .561   .063   .566   .146
   .571   .229   .576   .326   .581   .381   .586   .395   .591   .354
   .595   .299   .601   .243   .606   .216   .610   .257   .615   .298
   .620   .367   .625   .422   .630   .436   .635   .381   .640   .285
   .645   .243   .650   .133   .655   .050   .660  -.005   .665  -.088
   .670  -.185   .675  -.295   .680  -.392   .685  -.488   .690  -.557
   .695  -.558   .700  -.516   .705  -.461   .710  -.392   .715  -.309
   .720  -.240   .725  -.130   .730  -.019   .735   .105   .740   .202
   .745   .327   .750   .423   .755   .437   .760   .326   .765   .202
   .770   .036   .775  -.185   .780  -.364   .785  -.516   .790  -.641
   .795  -.682   .800  -.613   .804  -.530   .809  -.392   .814  -.213
   .819  -.047   .824   .091   .829   .202   .834   .188   .839   .091
   .844   .036   .849  -.088   .854  -.116   .859  -.116   .864  -.116
   .869  -.088   .874  -.088   .879  -.061   .884   .022   .889   .091
   .894   .174   .899   .270   .904   .354   .909   .409   .914   .478
   .919   .533   .923   .575   .928   .561   .933   .450   .938   .299
   .943   .147   .948  -.034   .953  -.171   .959  -.226   .963  -.226
   .968  -.171   .973  -.116   .978  -.088   .983  -.047   .988  -.088
   .993  -.157   .998  -.241  1.003  -.324  1.008  -.392  1.013  -.434
  1.018  -.434  1.023  -.406  1.028  -.378  1.033  -.323  1.038  -.295
  1.043  -.282  1.048  -.254  1.053  -.254  1.058  -.213  1.063  -.199
  1.068  -.171  1.073  -.088  1.078  -.005  1.083   .078  1.088   .147
  1.092   .257  1.097   .312  1.102   .257  1.107   .174  1.112   .106
  1.117   .009  1.122  -.060  1.127  -.101  1.132  -.115  1.137  -.116
  1.142  -.102  1.147  -.088  1.152  -.074  1.157  -.061  1.162  -.019
  1.167   .064  1.172   .202  1.177   .313  1.182   .437  1.187   .520
  1.192   .534  1.197   .506  1.202   .479  1.207   .423  1.212   .354
  1.217   .244  1.222   .133  1.227  -.046  1.232  -.212  1.237  -.378
  1.242  -.502  1.247  -.599  1.252  -.557  1.257  -.433  1.262  -.336
  1.266  -.212  1.271  -.143  1.276  -.156  1.281  -.184  1.286  -.240
  1.291  -.267  1.296  -.253  1.301  -.240  1.306  -.212  1.311  -.184
  1.316  -.199  1.321  -.226  1.326  -.226  1.331  -.184  1.336  -.157
  1.341  -.060  1.346   .022  1.351   .147  1.356   .257  1.361   .354
  1.365   .409  1.370   .285  1.376   .119  1.380  -.019  1.386  -.171
  1.391  -.295  1.395  -.295  1.401  -.226  1.405  -.171  1.410  -.102
  1.415  -.130  1.420  -.199  1.425  -.254  1.430  -.295  1.435  -.253
  1.440  -.198  1.445  -.129  1.450  -.129  1.455  -.198  1.460  -.253
  1.465  -.309  1.470  -.198  1.475  -.032  1.480   .147  1.485   .369
  1.490   .507  1.495   .562  1.500   .410  1.505   .244  1.510   .038
  1.515  -.197  1.520  -.377  1.525  -.487  1.530  -.584  1.535  -.667
  1.540  -.749  1.545  -.776  1.549  -.610  1.554  -.431  1.559  -.085
  1.564   .246  1.569   .509  1.574   .661  1.579   .537  1.584   .343
  1.589   .108  1.594  -.112  1.599  -.278  1.604  -.346  1.609  -.374
  1.614  -.388  1.619  -.388  1.624  -.360  1.629  -.305  1.634  -.222
  1.639  -.153  1.644  -.042  1.648   .055  1.653   .180  1.658   .318
  1.663   .428  1.668   .553  1.673   .649  1.678   .663  1.683   .607
  1.688   .525  1.693   .373  1.698   .180  1.703  -.055  1.708  -.304
  1.713  -.497  1.718  -.649  1.723  -.663  1.728  -.621  1.733  -.566
  1.738  -.525  1.743  -.469  1.748  -.414  1.753  -.317  1.758  -.220
  1.763  -.137  1.768  -.096  1.773  -.096  1.778  -.068  1.783  -.055
  1.788  -.014  1.792   .028  1.797   .083  1.802   .124  1.807   .153
  1.812   .097  1.817  -.041  1.822  -.220  1.827  -.386  1.832  -.524
  1.837  -.538  1.842  -.276  1.847  -.013  1.852   .374  1.857   .608
  1.862   .664  1.867   .471  1.872   .195  1.877  -.206  1.882  -.537
  1.887  -.716  1.892  -.661  1.897  -.413  1.902  -.136  1.907   .126
  1.911   .320  1.916   .362  1.921   .237  1.926   .113  1.931  -.039
  1.936  -.163  1.941  -.259  1.946  -.259  1.951  -.190  1.956  -.108
  1.961  -.025  1.966   .031  1.971   .031  1.976  -.038  1.981  -.093
  1.986  -.134  1.991  -.079  1.996   .004  2.001   .073  2.006   .184
  2.011   .266  2.016   .211  2.021   .087  2.026  -.050  2.031  -.188
  2.036  -.326  2.041  -.395  2.046  -.382  2.051  -.285  2.056  -.161
  2.060   .005  2.065   .185  2.070   .365  2.075   .531  2.080   .642
  2.085   .752  2.090   .738  2.095   .628  2.100   .448  2.105   .255
  2.110  -.049  2.115  -.297  2.120  -.477  2.125  -.629  2.130  -.697
  2.135  -.628  2.140  -.531  2.145  -.421  2.150  -.338  2.155  -.241
  2.160  -.214  2.165  -.227  2.170  -.283  2.175  -.310  2.180  -.352
  2.185  -.379  2.190  -.351  2.194  -.337  2.200  -.337  2.205  -.351
  2.210  -.364  2.214  -.309  2.219  -.171  2.224  -.005  2.229   .188
  2.234   .423  2.239   .575  2.244   .686  2.249   .631  2.254   .534
  2.259   .424  2.264   .300  2.269   .217  2.274   .203  2.279   .244
  2.284   .244  2.289   .148  2.294   .010  2.299  -.100  2.304  -.238
  2.309  -.390  2.314  -.417  2.319  -.307  2.323  -.224  2.328  -.127
  2.333  -.031  2.338  -.086  2.343  -.237  2.348  -.375  2.353  -.568
  2.358  -.748  2.363  -.858  2.368  -.720  2.373  -.610  2.378  -.457
  2.383  -.333  2.388  -.278  2.393  -.347  2.398  -.388  2.403  -.443
  2.408  -.429  2.413  -.277  2.418  -.069  2.422   .165  2.427   .373
  2.432   .524  2.437   .442  2.442   .290  2.447   .166  2.452   .001
  2.457  -.055  2.462   .042  2.467   .181  2.472   .291  2.477   .443
  2.482   .499  2.487   .416  2.492   .305  2.497   .167  2.502   .057
  2.507  -.040  2.512  -.081  2.517  -.108  2.522  -.108  2.527  -.108
  2.532  -.136  2.537  -.163  2.542  -.232  2.546  -.329  2.552  -.384
  2.556  -.467  2.561  -.453  2.566  -.356  2.571  -.219  2.576  -.067
  2.581   .058  2.586   .168  2.591   .168  2.596   .127  2.601   .058
  2.606   .002  2.611  -.011  2.616   .002  2.621   .030  2.626   .044
  2.631  -.011  2.636  -.163  2.641  -.288  2.646  -.468  2.651  -.647
  2.656  -.730  2.661  -.634  2.665  -.468  2.670  -.261  2.675   .043
  2.680   .236  2.685   .374  2.690   .471  2.695   .415  2.700   .318
  2.705   .236  2.710   .139  2.715   .056  2.720  -.027  2.725  -.165
  2.730  -.262  2.735  -.373  2.740  -.469  2.745  -.497  2.750  -.429
  2.754  -.332  2.760  -.152  2.764   .055  2.769   .207  2.774   .359
  2.779   .428  2.784   .386  2.789   .289  2.794   .220  2.799   .110
  2.804   .082  2.809   .095  2.814   .123  2.819   .150  2.824   .123
  2.829   .095  2.834   .040  2.839  -.029  2.843  -.126  2.849  -.209
  2.853  -.320  2.858  -.334  2.863  -.223  2.868  -.099  2.873   .039
  2.878   .150  2.883   .233  2.888   .178  2.893   .122  2.898   .053
  2.903  -.003  2.908  -.016  2.913   .066  2.918   .121  2.923   .176
  2.928   .177  2.932   .039  2.938  -.099  2.942  -.293  2.947  -.459
  2.952  -.556  2.957  -.459  2.962  -.348  2.967  -.169  2.972   .038
  2.977   .204  2.982   .315  2.987   .397  2.992   .314  2.997   .273
  3.002   .204  3.007   .134  3.012   .121  3.016   .107  3.021   .037
  3.026  -.073  3.031  -.211  3.036  -.363  3.041  -.487  3.046  -.570
  3.051  -.529  3.056  -.419  3.061  -.294  3.066  -.142  3.071  -.059
  3.076  -.059  3.081  -.115  3.086  -.184  3.091  -.252  3.096  -.266
  3.101  -.183  3.106  -.100  3.110  -.031  3.115   .052  3.120   .024
  3.125  -.100  3.130  -.211  3.135  -.377  3.140  -.515  3.145  -.597
  3.150  -.625  3.155  -.528  3.160  -.459  3.165  -.376  3.170  -.306
  3.175  -.293  3.180  -.320  3.185  -.334  3.190  -.306  3.195  -.292
  3.200  -.278  3.204  -.278  3.209  -.278  3.214  -.278  3.219  -.264
  3.224  -.264  3.229  -.222  3.234  -.167  3.239  -.153  3.244  -.153
  3.249  -.180  3.254  -.208  3.259  -.221  3.264  -.221  3.269  -.179
  3.273  -.166  3.279  -.152  3.283  -.179  3.288  -.179  3.293  -.179
  3.298  -.193  3.303  -.206  3.308  -.275  3.313  -.344  3.318  -.413
  3.323  -.482  3.328  -.524  3.333  -.524  3.338  -.468  3.343  -.399
  3.348  -.344  3.352  -.247  3.357  -.219  3.362  -.274  3.367  -.330
  3.372  -.385  3.377  -.385  3.382  -.261  3.387  -.109  3.392   .070
  3.397   .278  3.402   .443  3.406   .554  3.411   .637  3.416   .720
  3.421   .802  3.426   .871  3.431   .953  3.436  1.008  3.441  1.078
  3.446  1.050  3.451  1.008  3.456   .939  3.461   .870  3.466   .842
  3.470   .842  3.475   .869  3.480   .938  3.485   .993  3.490  1.076
  3.495  1.145  3.500  1.200  3.505  1.227  3.510  1.254  3.515  1.255
  3.520  1.269  3.525  1.282  3.530  1.268  3.534  1.268  3.539  1.282
  3.544  1.295  3.549  1.295  3.554  1.309  3.559  1.323  3.564  1.295
  3.569  1.281  3.574  1.240  3.579  1.226  3.584  1.199  3.589  1.212
  3.594  1.240  3.599  1.268  3.603  1.337  3.608  1.392  3.613  1.489
  3.618  1.558  3.623  1.627  3.628  1.710  3.633  1.765  3.638  1.834
  3.643  1.904  3.648  1.973  3.652  2.084  3.658  2.236  3.662  2.360
  3.667  2.539  3.672  2.775  3.677  3.024  3.682  3.259  3.687  3.535
  3.691  3.866  3.696  4.115  3.701  4.336  3.706  4.419  3.711  4.060
  3.716  3.342  3.721  2.817  3.727  2.293  3.732  1.271  3.737  -.082
  3.743 -1.394  3.748 -1.933  3.753 -2.651  3.758 -3.066  3.763 -3.438
  3.768 -3.535  3.773 -3.494  3.778 -2.803  3.783 -2.194  3.787 -1.808
  3.792 -1.490  3.797 -1.545  3.802 -1.811  3.807 -2.208  3.812 -2.576
  3.818 -3.381  3.823 -3.824  3.828 -4.031  3.833 -4.238  3.838 -4.321
  3.843 -4.459  3.848 -4.666  3.853 -4.832  3.858 -5.440  3.863 -5.442
  3.868 -5.371  3.873 -5.108  3.878 -5.205  3.883 -5.495  3.888 -5.149
  3.892 -5.010  3.897 -4.651  3.902 -4.375  3.907 -4.071  3.912 -3.355
  3.916 -2.897  3.921 -2.893  3.926 -3.256  3.931 -3.618  3.936 -3.458
  3.941 -3.328  3.946 -3.645  3.951 -4.161  3.957 -4.221  3.961 -4.640
  3.967 -5.282  3.972 -5.943  3.977 -5.186  3.981 -4.846  3.986 -3.793
  3.991 -2.949  3.995 -2.240  4.000  -.630  4.004  1.513  4.008  4.604
  4.012  5.879  4.017  5.952  4.022  6.321  4.027  6.637  4.032  7.558
  4.036  8.980  4.041  9.482  4.046  9.591  4.051  9.885  4.056 10.261
  4.061  9.846  4.066  9.432  4.071  9.169  4.076  9.032  4.081  8.248
  4.086  7.907  4.091  7.740  4.096  7.350  4.101  7.008  4.106  6.846
  4.111  6.359  4.116  6.272  4.121  6.314  4.126  6.342  4.131  6.370
  4.136  6.370  4.141  6.301  4.146  6.136  4.151  6.068  4.156  5.999
  4.161  5.779  4.166  5.544  4.171  5.310  4.176  4.979  4.181  4.662
  4.186  4.304  4.191  4.124  4.196  4.000  4.201  3.932  4.206  3.947
  4.211  4.071  4.216  4.071  4.221  3.989  4.227  -.095  4.232  -.094
  4.237  -.093  4.242  -.091  4.247  -.090  4.252  -.089  4.257  -.088
  4.262  -.086  4.267  -.085  4.272  -.084  4.277  -.083  4.286-10.552
  4.290 -9.361  4.295 -8.601  4.300 -8.325  4.305 -8.504  4.310 -8.821
  4.315 -9.124  4.320 -9.289  4.325 -9.110  4.330 -8.719  4.334 -7.988
  4.339 -7.134  4.344 -6.247  4.349 -5.445  4.353 -5.061  4.358 -4.785
  4.363 -4.661  4.368 -4.701  4.373 -4.632  4.378 -4.328  4.383 -3.969
  4.388 -3.444  4.393 -3.264  4.398 -3.126  4.403 -3.030  4.407 -3.002
  4.412 -2.988  4.417 -2.905  4.422 -2.753  4.427 -2.490  4.432 -2.504
  4.437 -2.753  4.442 -2.892  4.447 -2.957  4.452 -2.968  4.457 -2.905
  4.462 -2.560  4.467 -2.367  4.472 -2.146  4.477 -1.676  4.482 -1.510
  4.486 -1.193  4.491  -.944  4.496  -.530  4.501  -.364  4.506   .202
  4.511   .395  4.516   .685  4.521   .906  4.526  1.169  4.530  2.285
  4.535  3.365  4.540  3.834  4.544  4.359  4.549  4.884  4.554  5.216
  4.559  5.533  4.564  5.782  4.569  5.823  4.574  5.837  4.579  5.809
  4.584  5.671  4.589  5.409  4.594  5.354  4.599  5.174  4.604  5.202
  4.609  5.257  4.614  5.437  4.619  5.561  4.624  5.519  4.628  5.505
  4.634  5.450  4.639  5.354  4.644  5.129  4.649  2.831  4.655  2.287
  4.660  1.945  4.665  1.297  4.670   .675  4.676 -1.622  4.681 -2.050
  4.686 -2.230  4.691 -2.326  4.696 -2.340  4.701 -2.174  4.706 -2.022
  4.710 -1.691  4.715 -1.387  4.720 -1.152  4.725  -.848  4.730  -.821
  4.735  -.904  4.740 -1.221  4.745 -1.525  4.750 -1.760  4.755 -2.161
  4.760 -2.699  4.765 -2.906  4.770 -3.114  4.775 -3.252  4.780 -3.349
  4.785 -3.390  4.790 -3.587  4.795 -3.652  4.800 -3.716  4.805 -3.678
  4.810 -3.565  4.815 -3.096  4.820 -2.405  4.824 -1.714  4.829  -.868
  4.834  -.476  4.839  -.296  4.844  -.296  4.849  -.434  4.853  -.516
  4.859  -.764  4.864  -.972  4.869 -1.068  4.873 -1.178  4.878 -1.234
  4.883 -1.040  4.888  -.860  4.893  -.556  4.898  -.211  4.903   .108
  4.908   .343  4.912   .647  4.917   .841  4.922  1.007  4.927  1.242
  4.932  1.422  4.937  1.546  4.942  1.685  4.947  1.782  4.952  1.796
  4.957  1.797  4.962  1.825  4.966  1.853  4.971  1.867  4.976  1.840
  4.981  1.729  4.986  1.675  4.991  1.592  4.996  1.399  5.001  1.317
  5.006  1.207  5.011   .945  5.016   .655  5.021   .448  5.026   .186
  5.031   .062  5.036  -.021  5.041  -.131  5.046  -.255  5.051  -.406
  5.056  -.683  5.061  -.889  5.066 -1.137  5.071 -1.372  5.076 -1.552
  5.081 -1.662  5.086 -1.731  5.091 -1.538  5.096 -1.220  5.101  -.709
  5.106  -.171  5.110   .175  5.115   .383  5.120   .438  5.125   .258
  5.130   .175  5.135  -.032  5.140  -.281  5.145  -.433  5.150  -.613
  5.155  -.820  5.160  -.917  5.165  -.986  5.170 -1.013  5.175  -.916
  5.180  -.765  5.185  -.585  5.190  -.406  5.195  -.185  5.200  -.089
  5.204   .008  5.209   .049  5.214   .076  5.219  -.034  5.224  -.213
  5.229  -.338  5.234  -.545  5.239  -.780  5.244  -.890  5.249  -.974
  5.254 -1.084  5.259 -1.153  5.264 -1.112  5.269 -1.126  5.273 -1.056
  5.279 -1.001  5.283  -.849  5.288  -.629  5.293  -.490  5.298  -.269
  5.303  -.117  5.308  -.035  5.313  -.104  5.317  -.228  5.322  -.463
  5.327  -.808  5.332 -1.070  5.337 -1.374  5.343 -1.622  5.347 -1.733
  5.352 -1.761  5.357 -1.540  5.362 -1.346  5.367  -.945  5.372  -.641
  5.376  -.434  5.381  -.185  5.386   .036  5.391   .188  5.396   .312
  5.401   .464  5.405   .630  5.410   .699  5.415   .782  5.420   .796
  5.425   .823  5.430   .838  5.435   .852  5.440   .907  5.445   .948
  5.450   .990  5.455  1.004  5.459  1.058  5.464  1.113  5.469  1.210
  5.474  1.334  5.479  1.459  5.484  1.528  5.489  1.597  5.494  1.501
  5.498  1.307  5.503  1.183  5.508   .879  5.513   .671  5.518   .520
  5.523   .340  5.528   .285  5.533   .229  5.538   .244  5.543   .285
  5.548   .285  5.553   .340  5.558   .395  5.563   .450  5.568   .561
  5.572   .575  5.577   .547  5.582   .520  5.587   .533  5.592   .589
  5.597   .671  5.602   .782  5.607   .851  5.611  1.017  5.616  1.141
  5.621  1.224  5.626  1.376  5.631  1.528  5.636  1.597  5.641  1.666
  5.646  1.653  5.651  1.625  5.655  1.515  5.661  1.294  5.666  1.142
  5.670   .893  5.675   .616  5.680   .423  5.685   .271  5.690   .036
  5.695  -.198  5.700  -.336  5.705  -.530  5.710  -.764  5.715  -.861
  5.720 -1.013  5.725 -1.151  5.730 -1.234  5.735 -1.234  5.740 -1.372
  5.745 -1.552  5.750 -1.690  5.755 -1.828  5.760 -1.759  5.765 -1.593
  5.769 -1.427  5.774 -1.179  5.779  -.792  5.784  -.461  5.789  -.061
  5.793   .216  5.798   .395  5.803   .686  5.808   .852  5.813   .852
  5.818   .838  5.823   .754  5.828   .616  5.833   .492  5.838   .368
  5.842   .285  5.847   .174  5.852   .133  5.857   .009  5.862  -.115
  5.867  -.240  5.872  -.405  5.877  -.489  5.882  -.572  5.887  -.668
  5.892  -.793  5.897  -.889  5.902  -.958  5.907  -.985  5.912 -1.013
  5.917 -1.027  5.921 -1.055  5.926 -1.068  5.931 -1.082  5.936 -1.082
  5.941 -1.096  5.946 -1.110  5.951 -1.165  5.956 -1.206  5.961 -1.164
  5.966 -1.123  5.970 -1.054  5.975 -1.082  5.980 -1.178  5.985 -1.234
  5.990 -1.331  5.995 -1.414  6.000 -1.372  6.005 -1.331  6.010 -1.331
  6.015 -1.385  6.020 -1.413  6.025 -1.413  6.030 -1.316  6.034 -1.234
  6.039 -1.082  6.044  -.847  6.049  -.653  6.054  -.419  6.058  -.142
  6.063   .037  6.068   .148  6.073   .286  6.078   .355  6.083   .410
  6.088   .479  6.093   .576  6.097   .659  6.102   .824  6.107  1.045
  6.112  1.183  6.117  1.308  6.122  1.405  6.127  1.363  6.132  1.308
  6.137  1.322  6.141  1.349  6.146  1.349  6.151  1.335  6.156  1.294
  6.161  1.307  6.166  1.252  6.171  1.128  6.176  1.004  6.181   .769
  6.186   .506  6.191   .230  6.196  -.060  6.201  -.350  6.206  -.502
  6.211  -.723  6.216  -.820  6.221  -.917  6.226  -.958  6.231  -.999
