UNCORRECTED ACCELEROGRAM DATA              PROCESSED: 03/20/95, CDMG QN94207B   
NORTHRIDGE EARTHQUAKE                                                           
JANUARY 17, 1994 04:31 PST              (ORIGIN(CIT): 01/17/94, 12:30:55.4 GMT) 
24207-C0157-94019.02                                                            
STATION NO. 24207   34.334N, 118.396W     CRA-1  S/N 0157 (11 CHNS OF 17 AT STA)
PACOIMA RESERVOIR - PACOIMA DAM                                                 
CHAN  6: RAD      (STA CHN:  6)     LOCATION: 80% HEIGHT: RIGHT 1/6-LENGTH POINT
NORTHRIDGE EARTHQUAKE     JANUARY 17, 1994 04:31 PST                            
HYPOCENTER(CIT): 34.215N, 118.538W, H=18KM. ML=6.6, MW=6.7(CIT); MS=6.7(NEIC)   
INSTR PERIOD =  .0193 SEC,  DAMPING =  .630,  SENSITIVITY = 1.71 CM/G.          
NO. OF POINTS =   2224  RECORD LENGTH = 10.998 SEC                              
UNITS OF UNCOR ACCEL ARE SEC AND G/10.     MAX  =  -.956 G, AT   3.801 SEC.     
RMS ACCEL OF COMPLETE RECORD =  .123 G.                                         
    6    1    6   11   17    0    1    1    1 2048    0    0    0    0    0    0
    0    0    0    0    0    0    0    0    0    0  700 2224   21   31   52    0
    0    0    0    0    0    0    0    0    0    0    0    0    0    0    0    0
    0    0    0    0    0    0    0    0    0    0    0    0    0    0    0    0
    0    0    0    0    0    0    0    0    0    0    0    0    0    0    0    0
    0    0    0    0    0    0    0    0    0    0    0    0    0    0    0    0
    0    0    0    0
      .020      .703    10.998      .123     1.000     1.720     -.956     3.801
    50.500    50.000     2.924    50.000     4.945      .116     4.439     5.524
      .000      .000      .000      .000      .000      .000      .000      .000
      .000      .000      .000      .000      .000      .000      .000      .000
      .000      .000      .000      .000      .000      .000      .000      .000
      .000      .000      .000      .000      .000      .000      .000      .000
      .000      .000
   .000   .005   .005  -.010   .010  -.010   .015   .005   .020   .005
   .025   .005   .030   .020   .034   .034   .039   .049   .044   .049
   .049   .063   .054   .048   .059   .048   .064   .034   .069   .034
   .074   .034   .079   .034   .084   .048   .089   .048   .094   .063
   .098   .063   .103   .063   .108   .063   .113   .049   .118   .034
   .123   .020   .128  -.009   .133  -.024   .138  -.053   .143  -.067
   .148  -.081   .153  -.096   .158  -.081   .162  -.052   .167  -.052
   .172  -.009   .177   .020   .182   .035   .187   .050   .192   .079
   .197   .108   .202   .123   .207   .137   .212   .152   .216   .166
   .221   .152   .226   .137   .231   .079   .236   .035   .241  -.008
   .246  -.052   .251  -.096   .256  -.096   .261  -.081   .266  -.052
   .271  -.052   .275  -.008   .280  -.023   .285  -.052   .290  -.066
   .295  -.096   .300  -.096   .305  -.067   .310   .006   .315   .064
   .320   .137   .325   .238   .329   .281   .334   .296   .339   .339
   .344   .310   .349   .281   .354   .252   .359   .223   .364   .180
   .369   .151   .374   .136   .379   .151   .384   .164   .388   .179
   .393   .179   .398   .150   .403   .150   .408   .106   .413   .063
   .418   .005   .423  -.097   .428  -.199   .433  -.286   .438  -.373
   .443  -.460   .448  -.518   .452  -.547   .457  -.547   .462  -.547
   .467  -.533   .472  -.533   .477  -.533   .482  -.547   .487  -.547
   .492  -.533   .497  -.503   .502  -.416   .507  -.270   .511  -.081
   .516   .151   .521   .384   .526   .588   .531   .748   .536   .835
   .541   .864   .546   .879   .550   .864   .555   .864   .560   .850
   .565   .835   .570   .821   .575   .792   .580   .748   .585   .676
   .590   .574   .595   .487   .600   .370   .605   .226   .609   .095
   .614  -.080   .619  -.196   .624  -.341   .629  -.458   .634  -.516
   .639  -.545   .644  -.545   .649  -.545   .654  -.545   .659  -.574
   .664  -.618   .669  -.676   .674  -.763   .678  -.851   .683  -.909
   .688  -.909   .693  -.851   .698  -.734   .703  -.633   .708  -.473
   .713  -.270   .718  -.008   .723   .297   .728   .515   .733   .733
   .738   .864   .743   .922   .748   .921   .753   .863   .758   .747
   .763   .573   .768   .384   .773   .195   .778   .050   .783  -.095
   .788  -.241   .793  -.299   .798  -.357   .803  -.372   .808  -.372
   .813  -.372   .818  -.401   .823  -.444   .828  -.473   .833  -.488
   .838  -.459   .843  -.415   .848  -.299   .853  -.154   .857   .021
   .862   .196   .867   .370   .872   .530   .877   .632   .882   .734
   .887   .821   .892   .879   .897   .937   .902   .938   .907   .909
   .912   .880   .917   .836   .922   .749   .927   .647   .932   .473
   .937   .255   .942   .037   .947  -.239   .952  -.442   .957  -.617
   .962  -.733   .967  -.777   .972  -.806   .977  -.791   .982  -.762
   .987  -.719   .992  -.704   .997  -.675  1.002  -.661  1.007  -.675
  1.012  -.646  1.017  -.573  1.022  -.472  1.027  -.340  1.032  -.180
  1.036  -.035  1.041   .096  1.046   .227  1.051   .328  1.056   .416
  1.061   .488  1.066   .532  1.071   .605  1.076   .648  1.081   .691
  1.086   .677  1.091   .648  1.096   .560  1.101   .473  1.106   .357
  1.111   .241  1.116   .125  1.121   .038  1.126  -.035  1.131  -.079
  1.136  -.122  1.141  -.137  1.146  -.122  1.151  -.079  1.156  -.064
  1.161  -.035  1.166  -.006  1.171   .009  1.176   .052  1.181   .067
  1.186   .067  1.191   .067  1.196   .082  1.201   .082  1.206   .067
  1.211   .038  1.216  -.034  1.221  -.092  1.226  -.151  1.231  -.194
  1.236  -.238  1.241  -.281  1.246  -.223  1.251  -.165  1.256  -.137
  1.261  -.079  1.266  -.108  1.271  -.137  1.276  -.180  1.281  -.238
  1.286  -.281  1.291  -.311  1.296  -.267  1.301  -.180  1.306  -.079
  1.311   .052  1.316   .168  1.321   .255  1.326   .342  1.331   .371
  1.336   .414  1.341   .414  1.346   .399  1.351   .356  1.356   .312
  1.361   .195  1.366   .138  1.371   .051  1.376  -.008  1.381  -.066
  1.386  -.110  1.391  -.154  1.396  -.169  1.401  -.183  1.406  -.213
  1.411  -.242  1.416  -.271  1.421  -.300  1.426  -.301  1.431  -.315
  1.436  -.330  1.441  -.359  1.446  -.417  1.451  -.431  1.456  -.431
  1.461  -.359  1.466  -.213  1.471  -.024  1.476   .150  1.481   .309
  1.486   .426  1.491   .513  1.496   .484  1.501   .426  1.506   .309
  1.511   .164  1.516   .034  1.521  -.112  1.526  -.213  1.531  -.330
  1.536  -.373  1.541  -.402  1.546  -.387  1.551  -.358  1.556  -.285
  1.561  -.198  1.566  -.125  1.571  -.081  1.576  -.052  1.581  -.066
  1.586  -.095  1.591  -.095  1.596  -.109  1.601  -.095  1.606  -.037
  1.611   .051  1.616   .139  1.621   .226  1.626   .299  1.631   .343
  1.636   .387  1.641   .401  1.646   .402  1.651   .402  1.656   .416
  1.661   .416  1.666   .417  1.671   .431  1.676   .417  1.681   .402
  1.686   .373  1.691   .272  1.696   .170  1.701   .025  1.706  -.178
  1.711  -.323  1.716  -.483  1.721  -.599  1.726  -.687  1.731  -.716
  1.736  -.701  1.741  -.599  1.746  -.483  1.751  -.338  1.756  -.251
  1.761  -.192  1.766  -.192  1.771  -.222  1.776  -.251  1.781  -.222
  1.785  -.164  1.790  -.076  1.795   .069  1.800   .228  1.805   .359
  1.810   .504  1.815   .591  1.820   .591  1.825   .533  1.830   .489
  1.835   .402  1.840   .343  1.845   .270  1.850   .226  1.855   .197
  1.860   .139  1.865   .109  1.870   .080  1.875   .021  1.880  -.007
  1.884  -.036  1.889  -.066  1.894  -.080  1.899  -.081  1.904  -.066
  1.909  -.037  1.914  -.009  1.919   .006  1.924  -.009  1.929  -.038
  1.934  -.067  1.939  -.111  1.944  -.126  1.949  -.155  1.954  -.155
  1.959  -.141  1.964  -.097  1.969  -.083  1.974  -.054  1.979  -.011
  1.983   .019  1.988   .077  1.993   .135  1.998   .164  2.003   .207
  2.008   .207  2.013   .192  2.018   .149  2.023   .047  2.028  -.055
  2.033  -.113  2.038  -.186  2.043  -.201  2.048  -.186  2.053  -.142
  2.058  -.084  2.063  -.011  2.068   .076  2.072   .148  2.077   .206
  2.082   .235  2.087   .221  2.092   .177  2.097   .105  2.102  -.012
  2.107  -.157  2.112  -.259  2.117  -.361  2.122  -.390  2.127  -.389
  2.132  -.374  2.137  -.316  2.142  -.272  2.147  -.229  2.152  -.199
  2.157  -.199  2.162  -.213  2.167  -.228  2.171  -.242  2.177  -.227
  2.181  -.212  2.186  -.169  2.191  -.110  2.196  -.008  2.201   .109
  2.206   .210  2.211   .313  2.216   .386  2.221   .459  2.226   .518
  2.230   .576  2.235   .620  2.240   .621  2.245   .621  2.250   .607
  2.255   .578  2.260   .550  2.265   .521  2.270   .507  2.275   .464
  2.280   .406  2.285   .290  2.290   .145  2.295  -.043  2.299  -.217
  2.305  -.405  2.309  -.522  2.314  -.594  2.319  -.623  2.324  -.622
  2.329  -.593  2.334  -.593  2.339  -.607  2.344  -.651  2.349  -.723
  2.354  -.825  2.359  -.898  2.364  -.927  2.368  -.854  2.373  -.723
  2.378  -.534  2.383  -.331  2.388  -.142  2.393  -.026  2.398   .090
  2.403   .177  2.408   .235  2.413   .307  2.418   .380  2.422   .466
  2.427   .524  2.432   .552  2.437   .596  2.442   .581  2.447   .537
  2.452   .492  2.457   .463  2.462   .433  2.467   .419  2.472   .403
  2.477   .388  2.481   .359  2.486   .300  2.491   .212  2.496   .081
  2.501  -.051  2.506  -.181  2.511  -.269  2.516  -.342  2.521  -.372
  2.526  -.373  2.531  -.329  2.536  -.301  2.541  -.287  2.546  -.287
  2.550  -.330  2.555  -.388  2.560  -.462  2.565  -.563  2.570  -.608
  2.575  -.637  2.580  -.564  2.585  -.434  2.590  -.230  2.595  -.056
  2.600   .104  2.605   .220  2.609   .322  2.614   .380  2.619   .453
  2.624   .482  2.629   .496  2.634   .453  2.639   .410  2.644   .338
  2.649   .251  2.654   .163  2.659   .105  2.664   .077  2.668   .062
  2.674   .048  2.678   .033  2.683   .019  2.688  -.010  2.693  -.054
  2.698  -.112  2.703  -.155  2.708  -.213  2.713  -.227  2.718  -.227
  2.723  -.198  2.728  -.154  2.733  -.081  2.738  -.009  2.743   .035
  2.747   .078  2.752   .093  2.757   .108  2.762   .078  2.767   .064
  2.772   .035  2.777   .035  2.782   .078  2.787   .093  2.792   .122
  2.797   .122  2.802   .152  2.806   .181  2.811   .224  2.816   .253
  2.821   .296  2.826   .326  2.831   .282  2.836   .238  2.841   .122
  2.846  -.009  2.851  -.154  2.856  -.285  2.861  -.358  2.866  -.373
  2.871  -.315  2.876  -.227  2.881  -.126  2.885  -.038  2.891   .020
  2.895   .020  2.900   .006  2.905  -.009  2.910  -.009  2.915   .020
  2.920   .078  2.925   .151  2.930   .238  2.935   .296  2.940   .355
  2.945   .340  2.950   .282  2.954   .209  2.959   .122  2.964   .049
  2.969  -.008  2.974  -.023  2.979  -.037  2.984  -.023  2.989   .006
  2.994   .006  2.999   .035  3.004   .035  3.009   .064  3.014   .064
  3.019   .035  3.024   .021  3.029  -.008  3.033  -.023  3.038  -.052
  3.043  -.066  3.048  -.066  3.053  -.022  3.058   .021  3.063   .094
  3.068   .181  3.073   .239  3.078   .268  3.083   .224  3.088   .181
  3.093   .108  3.098   .006  3.102  -.037  3.108  -.052  3.112  -.023
  3.117   .035  3.122   .108  3.127   .137  3.132   .151  3.137   .108
  3.142   .035  3.147  -.038  3.152  -.096  3.157  -.183  3.162  -.212
  3.167  -.242  3.172  -.256  3.177  -.256  3.181  -.242  3.186  -.213
  3.191  -.184  3.196  -.169  3.201  -.155  3.206  -.170  3.211  -.213
  3.216  -.242  3.221  -.286  3.226  -.300  3.231  -.329  3.236  -.344
  3.241  -.329  3.246  -.271  3.251  -.198  3.256  -.140  3.261  -.097
  3.266  -.054  3.270  -.054  3.275  -.068  3.280  -.112  3.285  -.155
  3.290  -.199  3.295  -.242  3.300  -.257  3.305  -.256  3.310  -.256
  3.315  -.257  3.320  -.257  3.325  -.301  3.330  -.388  3.335  -.475
  3.340  -.562  3.345  -.650  3.350  -.708  3.355  -.723  3.359  -.737
  3.365  -.723  3.369  -.723  3.374  -.709  3.379  -.694  3.384  -.666
  3.389  -.578  3.394  -.447  3.399  -.273  3.404  -.055  3.409   .177
  3.414   .439  3.419   .714  3.424   .933  3.428  1.180  3.433  1.369
  3.438  1.484  3.443  1.615  3.448  1.702  3.453  1.775  3.458  1.848
  3.463  1.963  3.468  2.094  3.473  2.167  3.478  2.226  3.483  2.269
  3.487  2.313  3.492  2.370  3.497  2.414  3.502  2.443  3.507  2.414
  3.512  2.414  3.517  2.414  3.522  2.414  3.527  2.399  3.532  2.385
  3.537  2.341  3.542  2.312  3.547  2.283  3.552  2.255  3.557  2.212
  3.562  2.168  3.567  2.183  3.572  2.197  3.576  2.255  3.581  2.313
  3.586  2.313  3.591  2.299  3.596  2.357  3.601  2.444  3.606  2.531
  3.611  2.662  3.616  2.823  3.621  2.953  3.626  3.099  3.631  3.259
  3.636  3.470  3.641  3.687  3.645  3.870  3.650  4.175  3.655  4.276
  3.660  4.276  3.665  3.913  3.670  3.389  3.675  3.084  3.680  2.445
  3.685  1.965  3.690  1.805  3.695  1.616  3.700  1.355  3.705   .933
  3.710   .308  3.716  -.652  3.720 -1.219  3.726 -1.654  3.731 -2.236
  3.736 -2.613  3.740 -2.875  3.746 -3.063  3.750 -3.412  3.756 -4.110
  3.761 -4.502  3.766 -4.967  3.771 -5.961  3.776 -6.925  3.781 -7.948
  3.786 -8.135  3.791 -8.136  3.796 -9.413  3.801 -9.558  3.806 -9.294
  3.811 -9.324  3.816 -8.743  3.820 -7.821  3.825 -7.395  3.830 -7.497
  3.835 -7.538  3.840 -7.055  3.845 -6.343  3.850 -5.878  3.855 -5.398
  3.859 -4.919  3.864 -4.686  3.869 -4.656  3.874 -4.642  3.879 -4.468
  3.884 -4.163  3.889 -3.741  3.894 -3.174  3.898 -2.797  3.903 -2.463
  3.908 -2.144  3.913 -1.811  3.918 -1.361  3.923  -.838  3.927  -.113
  3.932   .526  3.937  1.194  3.942  2.093  3.947  2.571  3.952  -.005
  3.957  -.006  3.962  -.008  3.967  -.010  3.972  -.012  3.977  -.014
  3.982  -.016  3.987  -.018  3.992  -.020  3.997  -.022  4.001  -.024
  4.006  -.026  4.011  -.028  4.016  -.025  4.021  -.027  4.026  -.029
  4.031  -.031  4.036  -.033  4.041  -.034  4.046  -.035  4.051  -.037
  4.056  -.038  4.061  -.039  4.065  -.040  4.070  -.041  4.075  -.042
  4.080  -.042  4.085  -.042  4.090  -.043  4.095  -.043  4.100  -.043
  4.105  -.042  4.110  -.042  4.115  -.041  4.120  -.040  4.125  -.038
  4.130  -.037  4.135  -.035  4.140  -.033  4.144  -.031  4.149  -.029
  4.154  -.026  4.159  -.024  4.164  -.022  4.169  -.019  4.174  -.016
  4.179  -.013  4.184  -.010  4.189  -.006  4.194  -.004  4.199   .000
  4.204   .003  4.209   .008  4.214   .010  4.218   .014  4.223   .017
  4.228   .021  4.233   .024  4.238   .027  4.243   .030  4.248   .034
  4.253   .037  4.258   .039  4.263   .042  4.268   .045  4.273   .048
  4.278   .050  4.283   .052  4.287   .054  4.292   .056  4.297   .058
  4.302   .060  4.307   .061  4.312   .062  4.317   .063  4.322   .064
  4.327   .066  4.332   .066  4.337   .067  4.342   .067  4.347   .067
  4.352   .068  4.357   .069  4.361   .069  4.366   .068  4.371   .068
  4.376   .067  4.381   .067  4.386   .067  4.391   .066  4.396   .066
  4.401   .065  4.405  2.388  4.410  2.446  4.415  1.980  4.420  1.834
  4.425  2.429  4.430  2.544  4.435  1.991  4.440  1.366  4.445   .871
  4.450   .579  4.455   .346  4.460   .302  4.465   .417  4.470   .693
  4.475   .823  4.480   .866  4.485   .925  4.490   .997  4.494  1.171
  4.499  1.418  4.504  1.970  4.509  2.478  4.514  2.652  4.519  2.623
  4.524  2.710  4.529  2.899  4.533  3.190  4.538  3.583  4.543  3.696
  4.548  3.813  4.553  3.842  4.558  3.728  4.563  3.614  4.568  3.490
  4.573  3.290  4.578  3.060  4.583  2.828  4.588  2.610  4.593  2.320
  4.598  2.001  4.603  1.506  4.608   .939  4.613   .504  4.618   .097
  4.623  -.208  4.628  -.440  4.633  -.643  4.638  -.890  4.643 -1.181
  4.648 -1.515  4.653 -1.805  4.658 -2.051  4.663 -2.371  4.668 -2.691
  4.673 -2.734  4.678 -2.574  4.683 -2.429  4.687 -2.283  4.692 -2.224
  4.697 -2.326  4.702 -2.544  4.707 -2.776  4.712 -3.081  4.717 -3.256
  4.722 -3.241  4.727 -2.980  4.732 -2.704  4.737 -2.513  4.742 -2.455
  4.747 -2.397  4.752 -2.281  4.757 -2.106  4.762 -1.932  4.767 -1.787
  4.772 -1.612  4.777 -1.409  4.781 -1.162  4.786  -.929  4.791  -.653
  4.796  -.392  4.801  -.188  4.806   .021  4.811   .264  4.816   .509
  4.821   .771  4.826   .960  4.831  1.120  4.835  1.192  4.840  1.251
  4.845  1.251  4.850  1.294  4.855  1.251  4.860  1.251  4.865  1.206
  4.870  1.163  4.875  1.090  4.880  1.046  4.885  1.003  4.890  1.017
  4.895  1.017  4.900  1.046  4.905  1.047  4.910  1.091  4.915  1.091
  4.920  1.076  4.925  1.032  4.930   .988  4.935   .974  4.940   .974
  4.944  1.337  4.949  1.192  4.954  1.279  4.959  1.309  4.964  1.251
  4.969  1.062  4.974   .698  4.979   .349  4.984   .001  4.989  -.261
  4.994  -.464  4.999  -.726  5.004  -.987  5.009 -1.249  5.014 -1.365
  5.019 -1.409  5.024 -1.365  5.029 -1.263  5.034 -1.088  5.039  -.929
  5.044  -.783  5.049  -.667  5.054  -.580  5.059  -.434  5.064  -.347
  5.069  -.289  5.074  -.317  5.079  -.390  5.084  -.477  5.089  -.579
  5.094  -.666  5.098  -.754  5.103  -.811  5.109  -.869  5.114  -.884
  5.118  -.811  5.123  -.680  5.128  -.506  5.133  -.244  5.138  -.026
  5.143   .235  5.148   .410  5.153   .541  5.158   .628  5.163   .657
  5.168   .657  5.173   .628  5.178   .599  5.183   .497  5.188   .381
  5.193   .235  5.198   .046  5.202  -.099  5.207  -.288  5.213  -.433
  5.217  -.535  5.222  -.666  5.227  -.753  5.232  -.840  5.237  -.898
  5.242  -.985  5.247 -1.029  5.252 -1.116  5.257 -1.174  5.262 -1.232
  5.267 -1.261  5.272 -1.276  5.277 -1.290  5.282 -1.291  5.287 -1.305
  5.292 -1.334  5.297 -1.363  5.302 -1.378  5.307 -1.378  5.312 -1.392
  5.317 -1.349  5.321 -1.320  5.326 -1.290  5.331 -1.232  5.336 -1.145
  5.341 -1.014  5.346  -.869  5.351  -.680  5.356  -.462  5.361  -.171
  5.366   .105  5.371   .294  5.376   .483  5.380   .629  5.385   .760
  5.390   .891  5.395   .992  5.400  1.094  5.405  1.196  5.410  1.298
  5.415  1.356  5.420  1.429  5.425  1.473  5.430  1.502  5.435  1.502
  5.440  1.487  5.445  1.473  5.450  1.429  5.455  1.400  5.460  1.356
  5.465  1.327  5.470  1.269  5.475  1.226  5.479  1.182  5.484  1.124
  5.489  1.066  5.494   .979  5.499   .892  5.504   .790  5.509   .703
  5.514   .630  5.519   .587  5.524   .558  5.529   .499  5.534   .484
  5.539   .455  5.544   .426  5.549   .383  5.554   .383  5.559   .353
  5.564   .338  5.569   .353  5.574   .367  5.579   .383  5.584   .426
  5.589   .484  5.594   .585  5.598   .687  5.603   .774  5.608   .832
  5.613   .846  5.618   .817  5.623   .832  5.628   .860  5.633   .860
  5.638   .860  5.643   .846  5.648   .860  5.653   .860  5.658   .831
  5.663   .802  5.668   .714  5.673   .613  5.678   .511  5.683   .380
  5.688   .249  5.693   .118  5.698   .016  5.702  -.115  5.707  -.187
  5.712  -.231  5.717  -.289  5.722  -.318  5.727  -.348  5.732  -.420
  5.737  -.493  5.742  -.595  5.747  -.681  5.752  -.783  5.757  -.841
  5.762  -.841  5.767  -.768  5.772  -.652  5.777  -.506  5.782  -.405
  5.786  -.317  5.792  -.245  5.796  -.187  5.801  -.158  5.806  -.128
  5.811  -.157  5.816  -.113  5.821  -.142  5.826  -.186  5.831  -.214
  5.836  -.258  5.841  -.243  5.846  -.229  5.851  -.199  5.856  -.141
  5.861  -.068  5.866  -.024  5.871   .034  5.876   .077  5.880   .078
  5.885   .136  5.890   .151  5.895   .136  5.900   .107  5.905   .005
  5.910  -.111  5.915  -.270  5.920  -.459  5.925  -.648  5.930  -.837
  5.935 -1.011  5.940 -1.156  5.945 -1.302  5.950 -1.433  5.955 -1.549
  5.960 -1.622  5.965 -1.709  5.970 -1.767  5.975 -1.826  5.980 -1.855
  5.985 -1.869  5.990 -1.826  5.995 -1.754  5.999 -1.608  6.004 -1.433
  6.009 -1.259  6.014 -1.041  6.019  -.852  6.024  -.634  6.029  -.460
  6.034  -.242  6.039  -.038  6.043   .165  6.049   .368  6.053   .513
  6.058   .644  6.063   .746  6.068   .833  6.073   .905  6.078   .963
  6.083  1.022  6.088  1.080  6.093  1.153  6.098  1.240  6.103  1.298
  6.108  1.370  6.113  1.428  6.117  1.472  6.122  1.530  6.127  1.516
  6.132  1.501  6.137  1.443  6.142  1.370  6.147  1.269  6.152  1.167
  6.157  1.050  6.162   .919  6.167   .833  6.172   .702  6.177   .600
  6.182   .498  6.187   .396  6.192   .338  6.197   .251  6.202   .208
  6.207   .135  6.212   .048  6.217  -.069  6.222  -.214  6.227  -.388
