UNCORRECTED ACCELEROGRAM DATA              PROCESSED: 03/20/95, CDMG QN94207B   
NORTHRIDGE EARTHQUAKE                                                           
JANUARY 17, 1994 04:31 PST              (ORIGIN(CIT): 01/17/94, 12:30:55.4 GMT) 
24207-C0157-94019.02                                                            
STATION NO. 24207   34.334N, 118.396W     CRA-1  S/N 0157 (11 CHNS OF 17 AT STA)
PACOIMA RESERVOIR - PACOIMA DAM                                                 
CHAN  1: RAD      (STA CHN:  1)     LOCATION: CREST: RIGHT 1/6-LENGTH POINT     
NORTHRIDGE EARTHQUAKE     JANUARY 17, 1994 04:31 PST                            
HYPOCENTER(CIT): 34.215N, 118.538W, H=18KM. ML=6.6, MW=6.7(CIT); MS=6.7(NEIC)   
INSTR PERIOD =  .0186 SEC,  DAMPING =  .650,  SENSITIVITY = 1.69 CM/G.          
NO. OF POINTS =   2224  RECORD LENGTH = 10.998 SEC                              
UNITS OF UNCOR ACCEL ARE SEC AND G/10.     MAX  = -1.010 G, AT   7.904 SEC.     
RMS ACCEL OF COMPLETE RECORD =  .210 G.                                         
    1    1    1   11   17    0    1    1    1 2048    0    0    0    0    0    0
    0    0    0    0    0    0    0    0    0    0  700 2224   21   31   52    0
    0    0    0    0    0    0    0    0    0    0    0    0    0    0    0    0
    0    0    0    0    0    0    0    0    0    0    0    0    0    0    0    0
    0    0    0    0    0    0    0    0    0    0    0    0    0    0    0    0
    0    0    0    0    0    0    0    0    0    0    0    0    0    0    0    0
    0    0    0    0
      .019      .650    10.998      .210     1.000     1.690    -1.010     7.904
    53.700    50.000     2.959    50.000     4.945      .152     4.252     6.641
      .000      .000      .000      .000      .000      .000      .000      .000
      .000      .000      .000      .000      .000      .000      .000      .000
      .000      .000      .000      .000      .000      .000      .000      .000
      .000      .000      .000      .000      .000      .000      .000      .000
      .000      .000
   .000  -.019   .005  -.033   .010  -.033   .015  -.047   .020  -.076
   .025  -.076   .030  -.091   .035  -.091   .040  -.105   .044  -.060
   .049  -.045   .054  -.001   .059   .059   .064   .118   .069   .133
   .074   .104   .079   .089   .084   .045   .089   .016   .094   .046
   .098   .001   .103   .002   .108   .032   .113  -.027   .118   .003
   .123  -.027   .128  -.041   .133  -.056   .138  -.056   .143  -.100
   .148  -.174   .153  -.248   .158  -.292   .163  -.307   .168  -.307
   .172  -.247   .177  -.233   .182  -.114   .187   .034   .192   .153
   .197   .286   .202   .390   .207   .449   .212   .434   .217   .420
   .221   .331   .226   .242   .231   .168   .236   .109   .241   .020
   .246  -.143   .251  -.350   .256  -.646   .261  -.941   .266 -1.118
   .271 -1.133   .276  -.999   .281  -.674   .285  -.304   .290  -.053
   .295   .110   .300   .214   .305   .258   .310   .302   .315   .332
   .320   .273   .325   .243   .330   .228   .335   .258   .339   .347
   .344   .495   .349   .643   .354   .717   .359   .746   .364   .731
   .369   .657   .374   .598   .379   .554   .384   .509   .389   .464
   .394   .405   .398   .346   .403   .272   .408   .183   .413   .109
   .418   .034   .423  -.069   .428  -.218   .433  -.425   .438  -.661
   .443 -1.031   .448 -1.386   .453 -1.712   .458 -2.008   .463 -2.186
   .468 -2.290   .473 -2.202   .477 -1.906   .482 -1.521   .487 -1.122
   .492  -.694   .497  -.339   .502  -.058   .507   .119   .511   .296
   .516   .370   .521   .489   .526   .740   .531  1.110   .536  1.583
   .540  1.953   .545  2.101   .550  2.101   .555  1.967   .560  1.819
   .565  1.597   .570  1.464   .575  1.316   .580  1.183   .585   .976
   .590   .695   .595   .502   .600   .310   .605   .222   .610   .192
   .615   .207   .619   .163   .624   .044   .629  -.266   .634  -.769
   .639 -1.301   .644 -1.967   .649 -2.470   .655 -2.721   .659 -2.809
   .664 -2.676   .669 -2.366   .674 -1.833   .679 -1.522   .684 -1.374
   .689 -1.225   .693  -.989   .698  -.796   .703  -.575   .708  -.294
   .713  -.042   .718   .314   .723   .743   .728  1.246   .733  1.822
   .738  2.444   .742  2.947   .747  3.243   .752  3.227   .757  2.946
   .762  2.562   .767  2.088   .772  1.438   .778   .595   .783  -.441
   .788 -1.343   .793 -1.950   .798 -2.749   .803 -3.237   .808 -3.563
   .813 -3.651   .818 -3.533   .823 -3.134   .828 -2.202   .833 -1.299
   .838  -.870   .842  -.308   .847   .164   .852   .579   .857   .860
   .862  1.023   .867  1.275   .872  1.482   .877  1.704   .882  2.073
   .887  2.251   .892  2.251   .897  2.236   .902  2.236   .907  2.103
   .912  1.911   .917  1.674   .922  1.378   .927  1.097   .932   .757
   .937   .417   .942   .033   .947  -.411   .952  -.943   .957 -1.624
   .962 -2.304   .967 -2.866   .973 -3.398   .978 -3.798   .983 -3.960
   .988 -3.768   .992 -3.117   .997 -2.304  1.002 -1.830  1.007  -.913
  1.012   .315  1.016   .744  1.021   .921  1.026   .922  1.031   .849
  1.036   .804  1.041   .819  1.046   .834  1.051   .893  1.056   .849
  1.061   .834  1.066   .804  1.071   .789  1.076   .878  1.081  1.025
  1.086  1.247  1.091  1.484  1.096  1.602  1.101  1.588  1.106  1.366
  1.111  1.041  1.116   .627  1.121   .183  1.126  -.276  1.131  -.735
  1.136 -1.090  1.141 -1.445  1.146 -1.652  1.151 -1.741  1.156 -1.727
  1.161 -1.564  1.166 -1.238  1.171  -.543  1.176   .004  1.181   .640
  1.186   .788  1.191   .935  1.196  1.083  1.201  1.114  1.206   .950
  1.211   .625  1.216   .255  1.221   .122  1.226   .122  1.231  -.026
  1.236  -.367  1.241  -.811  1.246 -1.343  1.251 -1.639  1.256 -1.713
  1.261 -1.550  1.266 -1.195  1.271  -.648  1.276  -.131  1.281   .239
  1.286   .388  1.291   .417  1.296   .343  1.301   .225  1.306   .047
  1.311  -.086  1.316  -.145  1.321  -.056  1.326   .047  1.331   .151
  1.336   .314  1.341   .432  1.346   .550  1.351   .654  1.356   .786
  1.361   .920  1.366   .935  1.371   .802  1.376   .595  1.381   .328
  1.386   .033  1.391  -.219  1.396  -.500  1.401  -.692  1.406  -.781
  1.411  -.870  1.416  -.959  1.421 -1.166  1.426 -1.388  1.431 -1.506
  1.436 -1.402  1.441 -1.121  1.446  -.678  1.451  -.218  1.456  -.026
  1.461  -.159  1.466  -.263  1.471  -.189  1.476  -.041  1.481   .210
  1.486   .580  1.491  1.068  1.496  1.527  1.501  1.719  1.506  1.763
  1.511  1.689  1.516  1.571  1.521  1.320  1.526   .905  1.531   .240
  1.536  -.456  1.541 -1.165  1.546 -1.816  1.552 -2.363  1.557 -2.733
  1.562 -2.970  1.567 -2.970  1.572 -2.644  1.577 -1.949  1.581 -1.017
  1.586  -.189  1.591   .403  1.596   .876  1.601  1.127  1.606  1.275
  1.611  1.364  1.616  1.364  1.621  1.305  1.626  1.172  1.631   .995
  1.636   .862  1.641   .788  1.646   .772  1.651   .728  1.656   .713
  1.661   .698  1.666   .683  1.671   .654  1.676   .580  1.681   .417
  1.686   .239  1.691   .091  1.696  -.012  1.701  -.146  1.706  -.308
  1.711  -.589  1.716  -.974  1.721 -1.373  1.726 -1.743  1.731 -2.128
  1.736 -2.439  1.741 -2.705  1.746 -2.779  1.751 -2.528  1.756 -1.951
  1.761 -1.094  1.766  -.044  1.770  1.003  1.775  1.628  1.780  1.924
  1.785  1.924  1.790  1.731  1.795  1.333  1.800   .785  1.805   .430
  1.810   .208  1.815   .134  1.820   .237  1.825   .430  1.830   .666
  1.835   .799  1.840   .754  1.845   .651  1.850   .459  1.855   .207
  1.860  -.030  1.865  -.207  1.870  -.340  1.875  -.399  1.880  -.443
  1.885  -.473  1.889  -.473  1.894  -.473  1.899  -.503  1.904  -.518
  1.909  -.533  1.914  -.444  1.919  -.355  1.924  -.251  1.929  -.148
  1.934  -.030  1.939   .074  1.944   .148  1.949   .133  1.954  -.015
  1.959  -.163  1.964  -.280  1.969  -.340  1.974  -.384  1.979  -.369
  1.984  -.354  1.988  -.369  1.993  -.414  1.998  -.369  2.003  -.147
  2.008   .193  2.013   .548  2.018   .933  2.023  1.184  2.028  1.362
  2.033  1.362  2.038  1.169  2.043   .814  2.048   .371  2.053  -.132
  2.058  -.531  2.063  -.857  2.068 -1.138  2.073 -1.301  2.078 -1.286
  2.083 -1.094  2.088  -.665  2.092  -.191  2.097   .267  2.102   .682
  2.107   .844  2.112   .770  2.117   .534  2.122   .193  2.127  -.176
  2.132  -.516  2.137  -.915  2.142 -1.285  2.147 -1.507  2.152 -1.567
  2.157 -1.508  2.162 -1.315  2.167 -1.020  2.172  -.650  2.177  -.339
  2.181  -.162  2.186  -.058  2.191   .031  2.196   .149  2.201   .312
  2.206   .534  2.211   .815  2.216  1.008  2.221  1.126  2.226  1.170
  2.230  1.200  2.235  1.273  2.240  1.347  2.245  1.436  2.250  1.480
  2.255  1.421  2.260  1.259  2.265  1.007  2.270   .711  2.275   .489
  2.280   .341  2.285   .253  2.290   .179  2.295   .016  2.300  -.205
  2.305  -.649  2.310 -1.182  2.315 -1.833  2.320 -2.262  2.325 -2.662
  2.330 -2.898  2.335 -2.943  2.339 -2.647  2.344 -2.085  2.349 -1.508
  2.354  -.975  2.359  -.665  2.364  -.605  2.369  -.709  2.374  -.931
  2.378 -1.049  2.383  -.930  2.388  -.561  2.393   .016  2.398   .415
  2.403   .844  2.408  1.214  2.412  1.495  2.417  1.628  2.422  1.658
  2.427  1.599  2.432  1.584  2.437  1.628  2.442  1.673  2.447  1.614
  2.452  1.392  2.457  1.037  2.462   .682  2.467   .372  2.472   .031
  2.477  -.191  2.482  -.428  2.487  -.620  2.492  -.738  2.497  -.665
  2.501  -.502  2.506  -.413  2.511  -.517  2.516  -.635  2.521  -.709
  2.526  -.842  2.531  -.990  2.536 -1.138  2.541 -1.197  2.546 -1.079
  2.551  -.797  2.556  -.486  2.560  -.294  2.565  -.324  2.570  -.605
  2.575  -.812  2.580  -.901  2.585  -.989  2.590 -1.034  2.595  -.753
  2.600  -.236  2.605   .223  2.609   .696  2.614  1.037  2.619  1.421
  2.624  1.835  2.629  2.131  2.634  2.146  2.639  1.909  2.644  1.599
  2.649  1.199  2.654   .711  2.659   .134  2.664  -.443  2.669 -1.035
  2.674 -1.464  2.679 -1.715  2.684 -1.834  2.689 -1.908  2.694 -1.790
  2.698 -1.420  2.703  -.710  2.708  -.045  2.713  -.001  2.718  -.059
  2.723   .059  2.728   .251  2.733   .384  2.737   .384  2.743   .236
  2.747   .088  2.752   .088  2.757   .191  2.762   .132  2.767  -.076
  2.772  -.165  2.777  -.105  2.782  -.002  2.787   .012  2.792   .146
  2.797   .575  2.802  1.034  2.806  1.270  2.811  1.166  2.816   .944
  2.821   .678  2.826   .515  2.831   .352  2.836   .160  2.841  -.047
  2.846  -.240  2.851  -.447  2.856  -.788  2.861 -1.172  2.866 -1.557
  2.871 -1.912  2.876 -2.075  2.881 -2.045  2.886 -1.720  2.891 -1.113
  2.895  -.403  2.900   .425  2.905   .825  2.910  1.387  2.915  1.372
  2.920  1.238  2.925  1.120  2.930  1.046  2.935  1.017  2.940   .987
  2.945   .824  2.950   .602  2.954   .543  2.959   .454  2.964   .217
  2.970  -.152  2.974  -.507  2.979  -.729  2.984  -.847  2.989  -.907
  2.994 -1.010  2.999 -1.099  3.004 -1.025  3.009  -.685  3.014  -.256
  3.019   .054  3.024   .306  3.028   .483  3.033   .557  3.038   .587
  3.043   .543  3.048   .380  3.053   .144  3.058  -.211  3.063  -.537
  3.068  -.744  3.073  -.759  3.078  -.551  3.083  -.122  3.088   .336
  3.093   .573  3.098   .617  3.102   .483  3.108   .232  3.112  -.005
  3.117  -.182  3.122  -.286  3.127  -.345  3.132  -.330  3.137  -.256
  3.142  -.137  3.147  -.019  3.152   .055  3.157   .025  3.162  -.078
  3.167  -.270  3.172  -.448  3.177  -.581  3.182  -.685  3.187  -.714
  3.191  -.714  3.196  -.670  3.201  -.611  3.206  -.522  3.211  -.389
  3.216  -.241  3.221  -.166  3.226  -.107  3.231  -.137  3.236  -.211
  3.241  -.299  3.246  -.403  3.251  -.477  3.256  -.477  3.261  -.403
  3.266  -.299  3.270  -.063  3.275   .188  3.280   .395  3.285   .528
  3.290   .514  3.295   .380  3.300   .144  3.305  -.137  3.310  -.344
  3.315  -.462  3.320  -.507  3.325  -.477  3.330  -.462  3.335  -.522
  3.340  -.670  3.345  -.907  3.350 -1.247  3.355 -1.617  3.360 -1.898
  3.365 -1.986  3.370 -1.972  3.375 -1.942  3.380 -1.854  3.385 -1.736
  3.389 -1.558  3.394 -1.409  3.399 -1.202  3.404  -.833  3.409  -.418
  3.414  -.094  3.419   .291  3.424   .602  3.428   .986  3.433  1.475
  3.438  1.992  3.443  2.480  3.448  2.879  3.453  3.072  3.458  3.160
  3.463  3.146  3.468  3.131  3.473  3.087  3.477  2.954  3.483  2.791
  3.487  2.672  3.492  2.554  3.497  2.524  3.502  2.495  3.507  2.435
  3.512  2.331  3.517  2.183  3.522  2.050  3.527  1.962  3.532  1.917
  3.537  1.932  3.542  1.931  3.547  1.843  3.552  1.724  3.557  1.533
  3.562  1.222  3.567   .956  3.572   .822  3.577   .763  3.582   .763
  3.587  1.059  3.592  1.458  3.596  1.680  3.601  1.813  3.606  1.991
  3.611  2.167  3.616  2.227  3.621  2.522  3.626  3.070  3.631  3.321
  3.636  3.454  3.641  3.425  3.645  3.440  3.650  3.913  3.655  5.908
  3.660  7.168  3.664  8.535  3.671   .001  3.676  -.015  3.681  -.015
  3.686  -.015  3.691  -.015  3.696  -.015  3.701  -.015  3.705  -.015
  3.710  -.015  3.715  -.015  3.720  -.015  3.725  -.014  3.730  -.014
  3.735  -.014  3.740  -.014  3.745  -.014  3.750  -.014  3.755  -.014
  3.760  -.013  3.765  -.013  3.770  -.013  3.774  -.013  3.780  -.012
  3.784  -.012  3.789  -.012  3.794  -.012  3.799  -.012  3.804  -.012
  3.809  -.012  3.814  -.011  3.819  -.011  3.824  -.011  3.829  -.010
  3.834  -.010  3.839  -.010  3.844  -.010  3.849  -.010  3.853  -.009
  3.858  -.009  3.863  -.009  3.868  -.009  3.873  -.009  3.878  -.010
  3.883  -.010  3.888  -.010  3.893  -.010  3.898  -.011  3.903  -.011
  3.908  -.011  3.913  -.011  3.918  -.011  3.922  -.011  3.927  -.012
  3.932  -.012  3.937  -.013  3.942  -.014  3.947  -.014  3.952  -.015
  3.957  -.015  3.962  -.016  3.967  -.017  3.972  -.018  3.977  -.018
  3.982  -.020  3.987  -.020  3.992  -.018  3.997  -.018  4.001  -.020
  4.006  -.020  4.011  -.020  4.016  -.021  4.021  -.021  4.026  -.022
  4.031  -.022  4.036  -.023  4.041  -.024  4.046  -.024  4.051  -.024
  4.056  -.025  4.061  -.025  4.065  -.025  4.070  -.025  4.075  -.025
  4.080  -.024  4.085  -.024  4.090  -.023  4.095  -.022  4.100  -.022
  4.105  -.021  4.110  -.020  4.115  -.019  4.120  -.018  4.125  -.017
  4.130  -.015  4.135  -.014  4.140  -.012  4.144  -.011  4.149  -.009
  4.154  -.007  4.159  -.005  4.164  -.003  4.169  -.001  4.174   .002
  4.179   .004  4.184   .006  4.189   .009  4.194   .011  4.199   .014
  4.204   .016  4.209   .018  4.214   .021  4.218   .023  4.223   .025
  4.228   .028  4.233   .030  4.238   .033  4.243   .035  4.248   .037
  4.253   .039  4.258   .042  4.263   .044  4.268   .046  4.273   .048
  4.278   .050  4.283   .051  4.287   .053  4.292   .054  4.297   .056
  4.302   .057  4.307   .034  4.312   .034  4.317   .034  4.322   .035
  4.327   .036  4.332   .037  4.337   .037  4.342   .038  4.347   .038
  4.352   .039  4.357   .039  4.361   .039  4.366   .039  4.371   .039
  4.376   .039  4.381   .039  4.386   .038  4.391   .038  4.396   .038
  4.401   .037  4.406   .037  4.411   .037  4.416   .036  4.421   .035
  4.426   .035  4.431   .035  4.435   .035  4.440   .034  4.445   .034
  4.450   .033  4.455   .033  4.460   .032  4.465   .032  4.470   .031
  4.475   .031  4.480   .030  4.485   .030  4.490   .030  4.495   .029
  4.500   .029  4.504   .028  4.509   .028  4.514   .028  4.519   .028
  4.524   .028  4.529   .028  4.534   .028  4.539   .028  4.544   .027
  4.549   .027  4.554   .027  4.559   .027  4.564   .027  4.569   .027
  4.574   .027  4.578   .027  4.583   .027  4.588   .027  4.593   .027
  4.598   .028  4.603   .028  4.608   .028  4.613   .028  4.618   .028
  4.623   .028  4.628   .028  4.633   .028  4.638   .028  4.643   .029
  4.648   .029  4.653   .029  4.657   .029  4.662   .029  4.667   .030
  4.672   .030  4.677   .030  4.682   .030  4.687   .030  4.692   .031
  4.697   .031  4.702   .031  4.707   .031  4.712   .031  4.717   .031
  4.722   .031  4.727   .031  4.732   .031  4.736   .031  4.741   .031
  4.748 -8.162  4.753 -7.422  4.758 -7.038  4.762 -6.008  4.767 -4.597
  4.772 -3.195  4.776  -.911  4.781   .847  4.786  2.178  4.791  2.533
  4.796  2.385  4.801  2.267  4.806  2.326  4.810  2.533  4.815  2.740
  4.820  2.948  4.825  3.140  4.830  3.333  4.835  3.466  4.840  3.599
  4.845  3.702  4.850  3.583  4.855  3.214  4.860  2.918  4.865  3.154
  4.870  3.509  4.875  3.746  4.879  4.130  4.884  4.692  4.889  5.269
  4.894  6.709  4.899  6.149  4.904  4.469  4.909  3.479  4.914  3.124
  4.919  2.873  4.924  2.340  4.930  1.704  4.935  1.334  4.940  1.112
  4.945   .728  4.950   .033  4.955 -1.062  4.960 -1.639  4.965 -2.956
  4.970 -4.587  4.975 -3.918  4.980 -1.014  4.984   .151  4.989   .462
  4.994   .699  4.999   .773  5.004   .906  5.009   .595  5.014  -.248
  5.019 -1.224  5.024 -1.520  5.029 -1.712  5.034 -1.698  5.039 -1.919
  5.044 -2.555  5.049 -3.398  5.055 -4.079  5.060 -4.419  5.065 -4.567
  5.069 -4.537  5.075 -4.389  5.079 -3.767  5.084 -3.235  5.089 -2.821
  5.094 -2.140  5.099  -.868  5.103   .522  5.108  1.410  5.113  1.691
  5.118  1.514  5.123  1.262  5.128  1.144  5.133  1.040  5.138   .921
  5.143   .714  5.148   .581  5.153   .581  5.158   .685  5.163   .833
  5.168  1.040  5.173  1.350  5.177  1.676  5.182  2.001  5.187  2.149
  5.192  2.222  5.197  2.149  5.202  1.912  5.207  1.542  5.212  1.128
  5.217   .713  5.222   .343  5.227   .018  5.232  -.234  5.237  -.530
  5.242  -.914  5.247 -1.388  5.252 -1.861  5.257 -2.305  5.262 -2.793
  5.267 -3.133  5.272 -3.385  5.278 -3.630  5.282 -3.899  5.287 -4.264
  5.292 -4.543  5.298 -4.850  5.302 -4.850  5.307 -4.436  5.312 -4.081
  5.317 -3.401  5.322 -2.587  5.327 -1.936  5.332 -1.225  5.336  -.930
  5.341  -.900  5.346  -.959  5.351  -.841  5.356  -.575  5.361  -.353
  5.366  -.279  5.371  -.161  5.376   .150  5.381   .549  5.385   .949
  5.390  1.304  5.395  1.659  5.400  2.014  5.405  2.265  5.410  2.488
  5.415  2.591  5.420  2.621  5.425  2.665  5.430  2.724  5.435  2.783
  5.440  2.812  5.444  2.842  5.450  2.872  5.454  2.872  5.459  2.783
  5.464  2.635  5.469  2.309  5.474  2.043  5.479  1.806  5.484  1.643
  5.489  1.495  5.494  1.392  5.499  1.362  5.504  1.362  5.509  1.362
  5.514  1.303  5.519  1.199  5.524   .977  5.529   .637  5.534   .296
  5.539  -.147  5.544  -.518  5.549  -.695  5.554  -.814  5.559  -.947
  5.564  -.992  5.569  -.622  5.574  -.400  5.579 -1.379  5.584 -2.486
  5.589 -2.767  5.594 -2.797  5.599 -2.664  5.604 -2.368  5.609 -1.822
  5.614  -.800  5.618   .232  5.623  1.093  5.628  1.743  5.633  2.246
  5.638  2.631  5.642  3.015  5.647  3.266  5.652  3.473  5.657  3.695
  5.662  3.917  5.667  4.035  5.672  4.035  5.677  3.857  5.682  3.443
  5.687  3.044  5.692  2.615  5.697  2.185  5.702  1.697  5.707  1.105
  5.712   .499  5.717  -.152  5.722  -.892  5.727 -1.750  5.733 -2.446
  5.738 -2.949  5.743 -3.346  5.748 -3.810  5.753 -4.275  5.758 -4.485
  5.763 -4.715  5.768 -4.989  5.773 -5.256  5.778 -5.196  5.782 -4.871
  5.787 -4.427  5.792 -3.939  5.797 -2.740  5.802 -1.646  5.806  -.669
  5.811   .381  5.816  1.032  5.821  2.467  5.826  2.940  5.830  3.134
  5.835  3.282  5.840  3.385  5.845  3.489  5.850  3.489  5.855  3.385
  5.860  3.134  5.865  2.794  5.870  2.321  5.875  1.877  5.880  1.374
  5.885   .931  5.890   .605  5.895   .339  5.900   .176  5.905   .043
  5.910  -.075  5.915  -.356  5.920  -.859  5.925 -1.598  5.930 -2.190
  5.935 -2.663  5.940 -2.989  5.945 -3.211  5.950 -3.403  5.955 -3.566
  5.960 -3.788  5.965 -4.202  5.970 -4.306  5.975 -4.395  5.980 -4.262
  5.985 -4.055  5.990 -3.522  5.995 -3.463  6.000 -3.552  6.005 -3.611
  6.010 -3.478  6.015 -3.197  6.019 -2.843  6.024 -2.369  6.029 -1.881
  6.034 -1.275  6.039  -.580  6.044  -.092  6.049   .233  6.053   .573
  6.058  1.032  6.063  1.446  6.068  1.786  6.073  2.215  6.078  2.614
  6.083  3.072  6.087  3.502  6.092  3.664  6.097  3.531  6.102  3.087
  6.108  2.377  6.113  1.889  6.117  1.741  6.122  1.829  6.127  2.021
  6.132  2.228  6.137  2.465  6.142  2.687  6.147  2.983  6.152  3.234
  6.157  3.382  6.162  3.323  6.167  3.116  6.172  2.732  6.177  2.406
  6.182  2.037  6.187  1.608  6.192  1.075  6.197   .557  6.202   .173
  6.207  -.182  6.212  -.478  6.217  -.789  6.222 -1.025  6.227 -1.233
