UNCORRECTED ACCELEROGRAM DATA              PROCESSED: 03/20/95, CDMG QN94A207   
NORTHRIDGE EARTHQUAKE                                                           
JANUARY 17, 1994 04:31 PST              (ORIGIN(CIT): 01/17/94, 12:30:55.4 GMT) 
24207-C0140-94019.02                                                            
STATION NO. 24207   34.334N, 118.396W     CRA-1  S/N 0140 ( 6 CHNS OF 17 AT STA)
PACOIMA RESERVOIR - PACOIMA DAM                                                 
CHAN  2: UP       (STA CHN: 13)     LOCATION: RIGHT (NORTH) ABUTMENT            
NORTHRIDGE EARTHQUAKE     JANUARY 17, 1994 04:31 PST                            
HYPOCENTER(CIT): 34.215N, 118.538W, H=18KM. ML=6.6, MW=6.7(CIT); MS=6.7(NEIC)   
INSTR PERIOD =  .0207 SEC,  DAMPING =  .661,  SENSITIVITY = 1.83 CM/G.          
NO. OF POINTS =   2223  RECORD LENGTH = 11.000 SEC                              
UNITS OF UNCOR ACCEL ARE SEC AND G/10.     MAX  =  -.739 G, AT   7.834 SEC.     
RMS ACCEL OF COMPLETE RECORD =  .066 G.                                         
    2    1   13    6   17    0    1    1    1 2048    0    0    0    0    0    0
    0    0    0    0    0    0    0    0    0    0  500 2223   21   31   52    0
    0    0    0    0    0    0    0    0    0    0    0    0    0    0    0    0
    0    0    0    0    0    0    0    0    0    0    0    0    0    0    0    0
    0    0    0    0    0    0    0    0    0    0    0    0    0    0    0    0
    0    0    0    0    0    0    0    0    0    0    0    0    0    0    0    0
    0    0    0    0
      .021      .661    11.000      .066     1.000     1.830     -.739     7.834
    48.400    50.000     2.732    50.000     4.948      .176     2.475     8.120
      .000      .000      .000      .000      .000      .000      .000      .000
      .000      .000      .000      .000      .000      .000      .000      .000
      .000      .000      .000      .000      .000      .000      .000      .000
      .000      .000      .000      .000      .000      .000      .000      .000
      .000      .000
   .000  -.162   .005  -.160   .010  -.145   .015  -.129   .020  -.249
   .025  -.248   .030  -.068   .035  -.080   .040  -.078   .045  -.089
   .049  -.060   .054  -.059   .059  -.071   .064  -.096   .069  -.095
   .074  -.107   .079  -.147   .084  -.159   .089  -.172   .094  -.184
   .099  -.196   .104  -.223   .109  -.223   .114  -.222   .119  -.194
   .124  -.166   .129  -.152   .134  -.138   .139  -.138   .144  -.179
   .149  -.219   .154  -.260   .159  -.329   .164  -.370   .169  -.424
   .174  -.466   .178  -.493   .184  -.480   .189  -.425   .193  -.330
   .198  -.235   .203  -.098   .208   .052   .213   .215   .218   .378
   .223   .556   .228   .719   .233   .869   .238   .978   .243  1.087
   .247  1.059   .252   .950   .257   .827   .262   .677   .268   .553
   .273   .499   .278   .457   .282   .402   .287   .321   .292   .224
   .298   .115   .303   .019   .308  -.035   .312  -.089   .317  -.144
   .322  -.199   .327  -.226   .332  -.239   .337  -.225   .342  -.225
   .347  -.266   .352  -.320   .357  -.416   .362  -.552   .367  -.730
   .372  -.948   .377 -1.194   .382 -1.398   .388 -1.603   .393 -1.726
   .398 -1.794   .403 -1.712   .407 -1.561   .412 -1.316   .417 -1.000
   .422  -.604   .427  -.167   .432   .271   .437   .722   .441  1.022
   .446  1.241   .451  1.364   .456  1.405   .461  1.351   .466  1.310
   .471  1.242   .476  1.201   .481  1.201   .486  1.201   .491  1.147
   .496   .996   .501   .846   .506   .600   .511   .341   .516   .095
   .521  -.110   .526  -.260   .531  -.328   .536  -.273   .541  -.178
   .546  -.110   .551  -.013   .556   .069   .561   .178   .566   .274
   .571   .369   .576   .465   .581   .397   .586   .274   .591   .083
   .596  -.149   .601  -.382   .606  -.559   .611  -.668   .616  -.736
   .621  -.750   .626  -.818   .631  -.954   .636 -1.050   .641 -1.159
   .646 -1.173   .651 -1.105   .656  -.995   .661  -.818   .665  -.544
   .670  -.257   .675   .002   .680   .207   .685   .386   .690   .508
   .695   .604   .700   .631   .705   .536   .710   .386   .715   .140
   .720  -.175   .725  -.516   .730  -.749   .735  -.913   .740  -.912
   .745  -.789   .750  -.612   .755  -.311   .760   .058   .765   .427
   .769   .700   .774   .904   .779   .959   .784   .877   .789   .713
   .794   .467   .799   .222   .804  -.011   .809  -.175   .814  -.298
   .819  -.325   .824  -.243   .829  -.148   .834  -.066   .839   .002
   .844   .002   .849  -.052   .854  -.135   .859  -.189   .864  -.258
   .869  -.299   .874  -.258   .879  -.217   .884  -.149   .889  -.067
   .894   .015   .899   .098   .904   .139   .909   .098   .914   .002
   .919  -.067   .924  -.149   .929  -.204   .934  -.176   .939  -.163
   .944  -.149   .949  -.135   .953  -.121   .958  -.107   .963  -.121
   .968  -.176   .973  -.230   .978  -.271   .983  -.271   .988  -.244
   .993  -.149   .998   .002  1.003   .193  1.008   .412  1.013   .603
  1.018   .726  1.023   .808  1.028   .835  1.033   .767  1.038   .658
  1.043   .521  1.048   .316  1.053   .098  1.058  -.107  1.063  -.284
  1.068  -.407  1.073  -.489  1.078  -.530  1.083  -.462  1.088  -.353
  1.093  -.202  1.097  -.025  1.102   .084  1.107   .207  1.112   .249
  1.117   .304  1.122   .317  1.127   .303  1.132   .221  1.137   .098
  1.142  -.039  1.147  -.216  1.152  -.380  1.157  -.544  1.162  -.722
  1.167  -.844  1.172  -.899  1.177  -.926  1.182  -.858  1.187  -.776
  1.192  -.694  1.197  -.571  1.202  -.421  1.207  -.230  1.212  -.011
  1.217   .194  1.222   .386  1.227   .522  1.232   .631  1.236   .604
  1.241   .508  1.246   .386  1.251   .276  1.256   .222  1.261   .276
  1.266   .317  1.271   .372  1.276   .331  1.281   .304  1.286   .236
  1.291   .182  1.296   .113  1.301   .031  1.306  -.051  1.311  -.119
  1.316  -.160  1.321  -.146  1.326  -.064  1.331   .033  1.336   .155
  1.341   .306  1.346   .442  1.351   .552  1.355   .634  1.360   .675
  1.365   .689  1.370   .593  1.375   .402  1.380   .102  1.386  -.130
  1.391  -.321  1.396  -.458  1.401  -.567  1.406  -.635  1.411  -.580
  1.416  -.525  1.420  -.443  1.425  -.389  1.430  -.320  1.435  -.170
  1.440  -.047  1.445   .076  1.450   .022  1.455  -.183  1.460  -.498
  1.465  -.784  1.470  -.962  1.475 -1.030  1.480  -.894  1.485  -.647
  1.490  -.265  1.495   .145  1.499   .555  1.504   .787  1.509   .951
  1.514   .937  1.519   .855  1.524   .705  1.529   .487  1.534   .145
  1.539  -.319  1.545  -.729  1.550 -1.125  1.555 -1.303  1.560 -1.399
  1.565 -1.235  1.569  -.989  1.574  -.538  1.579  -.087  1.584   .227
  1.589   .418  1.594   .528  1.599   .583  1.604   .514  1.609   .433
  1.614   .323  1.619   .214  1.624   .173  1.629   .186  1.634   .172
  1.639   .131  1.644   .050  1.648  -.046  1.654  -.210  1.659  -.387
  1.664  -.592  1.669  -.797  1.674  -.975  1.679 -1.084  1.684 -1.084
  1.689  -.907  1.693  -.552  1.698  -.033  1.703   .350  1.708   .610
  1.713   .719  1.718   .733  1.723   .691  1.728   .636  1.733   .527
  1.738   .390  1.743   .213  1.748   .076  1.753  -.033  1.758  -.006
  1.763   .049  1.768   .131  1.773   .104  1.778   .021  1.783  -.102
  1.788  -.198  1.793  -.279  1.798  -.361  1.803  -.307  1.807  -.224
  1.812  -.088  1.817   .076  1.822   .240  1.827   .349  1.832   .336
  1.837   .295  1.842   .213  1.847   .241  1.852   .295  1.857   .350
  1.862   .433  1.867   .474  1.872   .556  1.877   .501  1.882   .338
  1.887   .147  1.892  -.044  1.897  -.194  1.902  -.290  1.907  -.221
  1.912  -.111  1.916   .012  1.921   .176  1.926   .272  1.931   .382
  1.936   .450  1.941   .423  1.946   .314  1.951   .218  1.956   .095
  1.961   .041  1.966   .042  1.971  -.026  1.976  -.176  1.981  -.313
  1.986  -.436  1.991  -.518  1.996  -.545  2.001  -.449  2.006  -.394
  2.011  -.312  2.016  -.258  2.021  -.271  2.026  -.325  2.031  -.353
  2.036  -.407  2.041  -.503  2.046  -.626  2.051  -.749  2.056  -.872
  2.061  -.954  2.066 -1.036  2.071 -1.063  2.076 -1.008  2.081  -.872
  2.085  -.626  2.090  -.271  2.095   .084  2.100   .440  2.105   .631
  2.110   .767  2.115   .836  2.120   .754  2.125   .672  2.130   .576
  2.135   .467  2.140   .453  2.145   .426  2.150   .494  2.155   .535
  2.159   .549  2.164   .563  2.169   .563  2.174   .563  2.179   .549
  2.184   .454  2.189   .358  2.194   .222  2.199   .126  2.204  -.011
  2.209  -.161  2.214  -.325  2.219  -.461  2.224  -.557  2.229  -.530
  2.234  -.461  2.239  -.393  2.244  -.298  2.249  -.339  2.254  -.420
  2.259  -.475  2.264  -.557  2.269  -.516  2.274  -.461  2.279  -.312
  2.284  -.134  2.289   .030  2.294   .167  2.298   .222  2.303   .139
  2.309   .030  2.313  -.093  2.319  -.175  2.323  -.093  2.328   .002
  2.333   .152  2.338   .344  2.343   .522  2.348   .630  2.353   .712
  2.358   .644  2.363   .562  2.368   .521  2.373   .507  2.378   .534
  2.383   .561  2.388   .548  2.393   .453  2.398   .330  2.403   .139
  2.408  -.066  2.413  -.203  2.418  -.285  2.423  -.312  2.428  -.258
  2.432  -.203  2.437  -.217  2.442  -.326  2.447  -.448  2.452  -.585
  2.457  -.694  2.462  -.790  2.467  -.844  2.472  -.844  2.477  -.762
  2.482  -.666  2.487  -.557  2.492  -.447  2.497  -.365  2.502  -.296
  2.507  -.255  2.512  -.228  2.517  -.227  2.522  -.213  2.527  -.186
  2.532  -.063  2.536   .074  2.541   .238  2.546   .361  2.551   .430
  2.556   .348  2.561   .239  2.566   .103  2.571  -.047  2.576  -.184
  2.581  -.334  2.586  -.457  2.591  -.593  2.596  -.702  2.601  -.757
  2.606  -.661  2.611  -.442  2.616  -.128  2.621   .214  2.625   .583
  2.630   .870  2.635  1.088  2.640  1.198  2.645  1.088  2.650   .911
  2.655   .665  2.660   .365  2.665   .050  2.670  -.223  2.675  -.401
  2.680  -.565  2.685  -.551  2.690  -.496  2.695  -.401  2.700  -.333
  2.705  -.292  2.710  -.169  2.715  -.046  2.720   .050  2.725   .146
  2.730   .173  2.735   .132  2.740   .064  2.744   .023  2.750   .008
  2.754  -.005  2.759  -.005  2.764  -.033  2.769  -.032  2.774   .009
  2.779   .064  2.784   .009  2.789  -.114  2.794  -.292  2.799  -.538
  2.804  -.688  2.809  -.784  2.814  -.716  2.819  -.565  2.824  -.305
  2.829  -.087  2.833   .146  2.838   .310  2.843   .432  2.848   .391
  2.853   .268  2.858   .077  2.863  -.142  2.868  -.278  2.873  -.360
  2.878  -.360  2.883  -.319  2.888  -.237  2.893  -.169  2.898  -.101
  2.903  -.088  2.908  -.129  2.913  -.142  2.918  -.142  2.922  -.061
  2.928   .063  2.932   .158  2.937   .267  2.942   .281  2.947   .281
  2.952   .267  2.957   .240  2.962   .184  2.967   .102  2.972  -.007
  2.977  -.157  2.982  -.252  2.987  -.348  2.992  -.430  2.997  -.444
  3.002  -.403  3.007  -.321  3.012  -.171  3.016   .047  3.021   .307
  3.026   .566  3.031   .717  3.036   .840  3.041   .731  3.046   .635
  3.051   .525  3.056   .443  3.061   .471  3.066   .553  3.071   .648
  3.076   .730  3.081   .758  3.086   .663  3.091   .540  3.095   .376
  3.100   .240  3.105   .171  3.110   .171  3.115   .226  3.120   .308
  3.125   .431  3.130   .608  3.135   .772  3.140   .910  3.145   .992
  3.150  1.006  3.155   .965  3.160   .924  3.164   .883  3.170   .788
  3.174   .678  3.180   .555  3.184   .446  3.189   .378  3.194   .434
  3.199   .516  3.204   .598  3.209   .557  3.214   .475  3.219   .380
  3.224   .257  3.229   .161  3.234   .066  3.239   .011  3.244  -.015
  3.249  -.015  3.254   .026  3.259   .081  3.264   .177  3.268   .300
  3.273   .382  3.278   .464  3.283   .450  3.288   .410  3.293   .369
  3.298   .355  3.303   .369  3.308   .396  3.313   .437  3.318   .478
  3.323   .533  3.328   .574  3.332   .492  3.337   .451  3.342   .383
  3.347   .355  3.352   .411  3.357   .452  3.362   .424  3.367   .315
  3.372   .137  3.377  -.122  3.382  -.314  3.387  -.478  3.392  -.587
  3.397  -.670  3.402  -.724  3.407  -.778  3.412  -.806  3.417  -.861
  3.422  -.848  3.427  -.779  3.432  -.712  3.436  -.643  3.441  -.603
  3.446  -.576  3.451  -.604  3.456  -.672  3.461  -.754  3.466  -.823
  3.471  -.919  3.476  -.960  3.481  -.988  3.486  -.961  3.491  -.893
  3.496  -.825  3.501  -.730  3.505  -.635  3.510  -.539  3.515  -.485
  3.520  -.471  3.525  -.472  3.530  -.500  3.535  -.541  3.540  -.569
  3.545  -.637  3.550  -.624  3.555  -.638  3.560  -.584  3.565  -.516
  3.570  -.461  3.575  -.420  3.579  -.393  3.584  -.352  3.589  -.339
  3.594  -.325  3.599  -.312  3.604  -.312  3.609  -.285  3.614  -.258
  3.619  -.217  3.624  -.217  3.629  -.244  3.634  -.271  3.638  -.285
  3.643  -.326  3.648  -.381  3.653  -.435  3.658  -.476  3.663  -.490
  3.668  -.585  3.673  -.735  3.678  -.994  3.683 -1.281  3.688 -1.486
  3.693 -1.622  3.698 -1.636  3.703 -1.512  3.708 -1.266  3.713  -.952
  3.717  -.364  3.722   .402  3.727  1.495  3.731  2.438  3.736  2.807
  3.741  3.067  3.746  2.930  3.751  2.767  3.756  2.343  3.761  1.634
  3.767   .678  3.772   .227  3.777   .146  3.782   .624  3.786  1.076
  3.791  1.431  3.796  1.431  3.801  1.363  3.806  1.268  3.811  1.008
  3.816   .900  3.821   .654  3.826   .736  3.831   .914  3.836  1.147
  3.841  1.202  3.846  1.161  3.851  1.080  3.856  1.011  3.861   .793
  3.866  -.026  3.871  -.955  3.876 -1.475  3.881 -1.707  3.886 -2.178
  3.891 -2.645  3.897 -2.793  3.901 -2.289  3.906 -1.666  3.911 -1.214
  3.916 -1.724  3.921 -3.153  3.926 -3.304  3.931 -2.905  3.936 -1.842
  3.941 -1.213  3.945  -.720  3.950  -.297  3.955   .769  3.959  2.364
  3.964  2.871  3.969  3.199  3.974  3.322  3.979  3.404  3.984  3.254
  3.989  2.967  3.994  2.651  3.999  2.406  4.004  2.433  4.009  2.188
  4.014  1.748  4.019  1.765  4.024  1.958  4.028  2.581  4.033  3.086
  4.038  3.622  4.043  3.787  4.048  3.561  4.053  3.036  4.058  2.287
  4.063  1.606  4.069   .976  4.074   .333  4.079  -.225  4.084  -.610
  4.089  -.991  4.094 -1.296  4.099 -1.781  4.104 -2.206  4.109 -2.631
  4.115 -3.057  4.120 -3.482  4.125 -4.426  4.128   .008  4.133   .008
  4.138   .008  4.143   .008  4.148   .008  4.153   .008  4.158   .008
  4.163   .008  4.168   .008  4.173   .008  4.178   .008  4.183   .008
  4.188   .008  4.193   .008  4.198   .008  4.202   .008  4.207   .008
  4.212   .008  4.217   .008  4.222   .008  4.227   .008  4.232   .008
  4.237   .008  4.242   .008  4.247   .008  4.252   .008  4.257   .008
  4.262   .008  4.267   .008  4.272   .008  4.277   .008  4.282   .008
  4.287   .008  4.292   .008  4.297   .008  4.302   .009  4.307   .009
  4.312   .008  4.317   .008  4.322   .008  4.327   .008  4.332   .008
  4.337   .008  4.342   .008  4.347   .008  4.352   .008  4.357   .008
  4.362   .008  4.367   .008  4.372   .008  4.377   .008  4.382   .008
  4.387   .008  4.391   .008  4.397   .007  4.402   .007  4.406   .007
  4.411   .008  4.416   .007  4.421   .007  4.426   .007  4.431   .007
  4.436   .007  4.441   .012  4.446   .012  4.451   .012  4.456   .012
  4.461   .012  4.466   .012  4.471   .012  4.476   .012  4.481   .012
  4.486   .012  4.491   .012  4.496   .012  4.501   .012  4.506   .012
  4.511   .642  4.516   .793  4.521   .970  4.525  1.094  4.530  1.449
  4.535  1.777  4.540  2.174  4.545  2.311  4.550  2.147  4.555  1.765
  4.560  1.342  4.565   .563  4.571  -.065  4.576  -.747  4.581 -1.347
  4.586 -1.757  4.591 -2.492  4.596 -2.242  4.601 -1.913  4.606 -1.140
  4.611  -.798  4.615  -.209  4.620   .256  4.625   .502  4.630   .531
  4.635   .587  4.640   .509  4.645   .466  4.650   .849  4.655  1.186
  4.660  1.751  4.665  1.752  4.669  1.671  4.675  1.549  4.680  1.386
  4.685  1.059  4.690   .677  4.695   .254  4.700  -.018  4.705  -.031
  4.710  -.058  4.715  -.153  4.720  -.179  4.725   .081  4.729   .532
  4.734   .970  4.739  1.326  4.744  1.531  4.749  1.805  4.754  1.969
  4.759  2.024  4.764  1.888  4.769  1.724  4.774  1.506  4.779  1.260
  4.784   .987  4.789   .714  4.794   .373  4.799   .045  4.804  -.283
  4.809  -.611  4.814  -.939  4.819 -1.212  4.824 -1.430  4.829 -1.471
  4.834 -1.362  4.839 -1.184  4.844  -.775  4.849  -.406  4.853  -.023
  4.858   .168  4.863   .223  4.868   .113  4.873  -.024  4.878  -.147
  4.883  -.284  4.888  -.420  4.893  -.543  4.898  -.625  4.903  -.625
  4.908  -.571  4.913  -.448  4.918  -.311  4.923  -.175  4.928  -.230
  4.933  -.394  4.938  -.544  4.943  -.694  4.948  -.763  4.952  -.735
  4.957  -.653  4.962  -.599  4.967  -.544  4.972  -.504  4.977  -.531
  4.982  -.572  4.987  -.613  4.992  -.586  4.997  -.490  5.002  -.340
  5.007  -.203  5.011  -.026  5.016   .193  5.021   .329  5.026   .424
  5.031   .493  5.036   .575  5.041   .615  5.046   .656  5.051   .547
  5.056   .383  5.061   .151  5.066  -.164  5.071  -.437  5.076  -.642
  5.081  -.807  5.086  -.793  5.091  -.602  5.096  -.398  5.101  -.206
  5.106  -.043  5.110  -.056  5.115  -.193  5.120  -.302  5.126  -.439
  5.130  -.535  5.135  -.549  5.140  -.535  5.145  -.481  5.150  -.413
  5.155  -.399  5.160  -.399  5.165  -.412  5.170  -.481  5.175  -.549
  5.180  -.508  5.185  -.372  5.190  -.235  5.195  -.153  5.199  -.112
  5.205  -.125  5.209  -.125  5.214  -.139  5.219  -.179  5.224  -.261
  5.229  -.316  5.234  -.398  5.239  -.439  5.244  -.466  5.249  -.425
  5.254  -.370  5.259  -.342  5.263  -.329  5.268  -.342  5.273  -.369
  5.278  -.396  5.283  -.409  5.288  -.341  5.293  -.218  5.298  -.040
  5.303   .111  5.307   .206  5.312   .288  5.317   .343  5.322   .385
  5.327   .453  5.332   .604  5.337   .741  5.341   .864  5.346   .864
  5.351   .782  5.356   .754  5.361   .768  5.366   .741  5.371   .686
  5.376   .618  5.381   .564  5.386   .591  5.391   .564  5.396   .522
  5.400   .522  5.405   .508  5.410   .563  5.415   .645  5.420   .740
  5.425   .849  5.430   .891  5.435   .863  5.440   .781  5.445   .590
  5.450   .384  5.455   .084  5.460  -.231  5.465  -.381  5.470  -.518
  5.475  -.518  5.479  -.477  5.484  -.450  5.489  -.450  5.494  -.491
  5.499  -.492  5.504  -.492  5.509  -.451  5.514  -.465  5.519  -.451
  5.524  -.411  5.529  -.438  5.533  -.383  5.538  -.315  5.543  -.247
  5.548  -.124  5.553  -.014  5.558   .108  5.563   .122  5.568   .067
  5.573   .026  5.577  -.070  5.582  -.152  5.587  -.206  5.592  -.288
  5.597  -.384  5.602  -.452  5.607  -.534  5.612  -.602  5.617  -.657
  5.622  -.657  5.627  -.657  5.632  -.630  5.636  -.575  5.641  -.506
  5.646  -.506  5.651  -.411  5.656  -.383  5.661  -.370  5.666  -.397
  5.671  -.397  5.676  -.329  5.681  -.192  5.685  -.028  5.690   .122
  5.695   .164  5.700   .177  5.705   .218  5.710   .259  5.715   .300
  5.720   .287  5.725   .300  5.729   .259  5.734   .232  5.739   .218
  5.744   .164  5.749   .069  5.754  -.109  5.759  -.232  5.764  -.355
  5.769  -.355  5.774  -.369  5.779  -.314  5.784  -.095  5.788   .083
  5.793   .383  5.798   .602  5.803   .780  5.808   .889  5.813   .985
  5.818   .999  5.823   .862  5.827   .616  5.832   .329  5.838  -.026
  5.843  -.217  5.847  -.394  5.852  -.462  5.857  -.421  5.862  -.394
  5.867  -.339  5.872  -.325  5.877  -.339  5.882  -.298  5.887  -.243
  5.892  -.229  5.897  -.215  5.901  -.201  5.906  -.173  5.911  -.214
  5.916  -.269  5.921  -.337  5.926  -.365  5.931  -.433  5.936  -.446
  5.941  -.364  5.946  -.241  5.951  -.132  5.955  -.049  5.960   .074
  5.965   .251  5.970   .374  5.975   .483  5.980   .388  5.985   .278
  5.990   .101  5.995  -.008  5.999  -.023  6.004   .059  6.009   .142
  6.014   .237  6.019   .264  6.024   .128  6.029  -.009  6.034  -.214
  6.039  -.296  6.044  -.283  6.049  -.092  6.054   .031  6.058   .208
  6.063   .318  6.068   .345  6.073   .235  6.078   .125  6.083   .002
  6.088  -.107  6.093  -.176  6.098  -.163  6.103  -.149  6.108  -.081
  6.112  -.026  6.117   .001  6.122   .001  6.127  -.067  6.132  -.095
  6.137  -.095  6.142  -.082  6.147  -.068  6.152  -.054  6.156  -.069
  6.161  -.123  6.167  -.123  6.171  -.136  6.176  -.095  6.181   .000
  6.186   .082  6.191   .123  6.196   .151  6.201   .137  6.206   .055
  6.210   .028  6.215   .069  6.220   .110  6.225   .165  6.230   .179
