UNCORRECTED ACCELEROGRAM DATA              PROCESSED: 03/20/95, CDMG QN94A207   
NORTHRIDGE EARTHQUAKE                                                           
JANUARY 17, 1994 04:31 PST              (ORIGIN(CIT): 01/17/94, 12:30:55.4 GMT) 
24207-C0140-94019.02                                                            
STATION NO. 24207   34.334N, 118.396W     CRA-1  S/N 0140 ( 6 CHNS OF 17 AT STA)
PACOIMA RESERVOIR - PACOIMA DAM                                                 
CHAN  4: 270 DEG  (STA CHN: 15)     LOCATION: LEFT (SOUTH) ABUTMENT             
NORTHRIDGE EARTHQUAKE     JANUARY 17, 1994 04:31 PST                            
HYPOCENTER(CIT): 34.215N, 118.538W, H=18KM. ML=6.6, MW=6.7(CIT); MS=6.7(NEIC)   
INSTR PERIOD =  .0207 SEC,  DAMPING =  .688,  SENSITIVITY = 1.83 CM/G.          
NO. OF POINTS =   2223  RECORD LENGTH = 11.000 SEC                              
UNITS OF UNCOR ACCEL ARE SEC AND G/10.     MAX  =   .444 G, AT   7.364 SEC.     
RMS ACCEL OF COMPLETE RECORD =  .094 G.                                         
    4    1   15    6   17    0    1    1    1 2048    0    0    0    0    0    0
    0    0    0    0    0    0    0    0    0    0  270 2223   21   31   52    0
    0    0    0    0    0    0    0    0    0    0    0    0    0    0    0    0
    0    0    0    0    0    0    0    0    0    0    0    0    0    0    0    0
    0    0    0    0    0    0    0    0    0    0    0    0    0    0    0    0
    0    0    0    0    0    0    0    0    0    0    0    0    0    0    0    0
    0    0    0    0
      .021      .688    11.000      .094     1.000     1.830      .444     7.364
    48.200    50.000     2.732    50.000     4.948      .133     4.257     5.340
      .000      .000      .000      .000      .000      .000      .000      .000
      .000      .000      .000      .000      .000      .000      .000      .000
      .000      .000      .000      .000      .000      .000      .000      .000
      .000      .000      .000      .000      .000      .000      .000      .000
      .000      .000
   .000  -.012   .005  -.024   .010  -.022   .015   .007   .020  -.018
   .025   .011   .030  -.028   .035   .001   .040   .018   .045   .019
   .050   .048   .054   .064   .060   .052   .064   .066   .069   .082
   .074   .083   .079   .084   .084   .099   .089   .113   .094   .115
   .099   .130   .104   .117   .109   .104   .114   .077   .119   .078
   .124   .105   .129   .119   .134   .161   .139   .161   .144   .134
   .149   .093   .154   .066   .159   .052   .164   .052   .169   .066
   .174   .052   .178   .011   .183  -.017   .188  -.017   .193   .023
   .198   .064   .203   .119   .208   .173   .213   .186   .218   .158
   .223   .131   .228   .103   .233   .075   .238   .034   .243  -.076
   .248  -.186   .253  -.281   .258  -.377   .263  -.390   .268  -.350
   .273  -.254   .278  -.159   .283  -.077   .288  -.009   .293  -.037
   .298  -.064   .303  -.105   .308  -.050   .313   .032   .317   .100
   .322   .182   .327   .210   .332   .169   .337   .142   .342   .142
   .347   .183   .352   .252   .357   .334   .362   .402   .367   .402
   .372   .362   .377   .321   .382   .322   .387   .363   .392   .417
   .397   .472   .402   .527   .407   .513   .412   .459   .417   .405
   .422   .351   .427   .255   .432   .160   .437   .023   .442  -.072
   .447  -.168   .452  -.195   .457  -.168   .462  -.154   .467  -.154
   .472  -.194   .477  -.304   .482  -.453   .487  -.658   .492  -.836
   .497  -.972   .502 -1.041   .507  -.986   .512  -.822   .516  -.617
   .521  -.330   .526  -.016   .531   .230   .536   .422   .541   .531
   .546   .599   .551   .477   .556   .313   .561   .122   .566  -.070
   .571  -.165   .576  -.083   .581   .108   .586   .382   .591   .628
   .595   .819   .600   .928   .605   .969   .610   .956   .615   .901
   .620   .819   .625   .683   .630   .478   .635   .164   .641  -.287
   .646  -.696   .651  -.915   .656  -.724   .660  -.382   .665   .151
   .670   .479   .675   .670   .680   .588   .685   .370   .690  -.053
   .695  -.408   .700  -.627   .705  -.736   .710  -.668   .715  -.559
   .720  -.463   .725  -.340   .730  -.272   .735  -.135   .740   .070
   .745   .261   .750   .398   .755   .438   .760   .370   .765   .302
   .770   .247   .775   .206   .780   .178   .785   .137   .790   .083
   .794   .042   .799   .042   .804   .083   .809   .124   .814   .151
   .819   .028   .824  -.163   .830  -.492   .835  -.778   .840  -.970
   .845  -.901   .849  -.669   .854  -.300   .859   .041   .864   .355
   .869   .519   .874   .642   .879   .601   .884   .478   .889   .314
   .894   .136   .899   .014   .904  -.095   .909  -.123   .914  -.136
   .919   .013   .924   .259   .928   .669   .933  1.011   .938  1.243
   .943  1.311   .948  1.189   .953   .929   .958   .547   .964   .055
   .969  -.369   .974  -.724   .979  -.901   .984  -.847   .988  -.601
   .993  -.233   .998   .055  1.003   .232  1.008   .273  1.013   .192
  1.018   .014  1.023  -.191  1.028  -.328  1.033  -.423  1.038  -.464
  1.043  -.451  1.048  -.437  1.053  -.437  1.058  -.423  1.063  -.382
  1.068  -.286  1.073  -.149  1.078   .028  1.083   .165  1.088   .288
  1.093   .329  1.097   .329  1.102   .329  1.107   .301  1.112   .275
  1.117   .234  1.122   .206  1.127   .192  1.132   .206  1.137   .233
  1.142   .219  1.147   .151  1.152   .069  1.157   .014  1.162  -.040
  1.167  -.067  1.172  -.012  1.177   .070  1.182   .137  1.187   .192
  1.192   .192  1.197   .219  1.202   .260  1.207   .315  1.212   .370
  1.217   .438  1.222   .466  1.227   .438  1.232   .302  1.237   .097
  1.242  -.176  1.247  -.381  1.252  -.518  1.257  -.531  1.262  -.477
  1.267  -.381  1.272  -.258  1.276  -.148  1.281  -.066  1.286  -.080
  1.291  -.121  1.296  -.134  1.301  -.093  1.306  -.039  1.311   .043
  1.316   .125  1.321   .194  1.326   .140  1.331   .058  1.336  -.024
  1.341  -.106  1.346  -.051  1.351   .045  1.356   .195  1.361   .332
  1.366   .441  1.371   .359  1.376   .291  1.380   .196  1.386   .155
  1.390   .237  1.395   .333  1.400   .415  1.405   .483  1.410   .416
  1.415   .238  1.420   .006  1.425  -.336  1.431  -.513  1.435  -.568
  1.440  -.431  1.445  -.226  1.450   .047  1.455   .225  1.460   .361
  1.465   .279  1.470   .116  1.475  -.035  1.480  -.171  1.485  -.212
  1.490  -.171  1.495  -.116  1.500  -.062  1.505  -.102  1.510  -.143
  1.515  -.198  1.520  -.225  1.525  -.171  1.530  -.034  1.535   .130
  1.539   .322  1.544   .390  1.549   .239  1.554   .020  1.559  -.280
  1.564  -.553  1.569  -.758  1.574  -.827  1.579  -.690  1.584  -.471
  1.589  -.116  1.594   .199  1.599   .472  1.604   .663  1.609   .772
  1.614   .868  1.619   .827  1.624   .718  1.629   .608  1.633   .458
  1.639   .225  1.644  -.061  1.649  -.443  1.654  -.799  1.659 -1.086
  1.664 -1.045  1.669  -.676  1.673  -.007  1.678   .594  1.683  1.113
  1.688  1.469  1.693  1.660  1.698  1.673  1.703  1.428  1.708  1.018
  1.713   .362  1.718  -.130  1.723  -.800  1.728 -1.237  1.734 -1.619
  1.739 -1.688  1.743 -1.428  1.748  -.841  1.753   .061  1.758   .580
  1.763   .963  1.767  1.154  1.772   .908  1.778   .511  1.783  -.172
  1.788  -.691  1.793 -1.046  1.798 -1.087  1.803  -.910  1.808  -.636
  1.813  -.376  1.817  -.117  1.822   .020  1.827   .116  1.832   .143
  1.837   .198  1.842   .253  1.847   .266  1.852   .157  1.857   .062
  1.862  -.060  1.867  -.047  1.872  -.033  1.877  -.006  1.882   .063
  1.887   .104  1.892   .091  1.897   .118  1.902   .173  1.907   .201
  1.912   .229  1.916   .188  1.922   .134  1.926   .052  1.931  -.030
  1.936  -.071  1.941  -.057  1.946   .053  1.951   .244  1.956   .449
  1.961   .627  1.966   .669  1.971   .532  1.976   .287  1.981  -.014
  1.986  -.233  1.991  -.328  1.996  -.342  2.001  -.300  2.006  -.232
  2.011  -.150  2.016  -.082  2.021  -.027  2.026   .014  2.031   .042
  2.036   .069  2.041   .069  2.046   .069  2.051   .069  2.056   .096
  2.060   .096  2.066   .069  2.070  -.027  2.076  -.149  2.080  -.272
  2.086  -.341  2.090  -.149  2.095   .096  2.100   .424  2.105   .602
  2.110   .629  2.115   .534  2.120   .370  2.125   .165  2.130   .001
  2.135  -.122  2.140  -.204  2.145  -.204  2.150  -.259  2.155  -.382
  2.160  -.518  2.165  -.641  2.170  -.723  2.175  -.628  2.180  -.463
  2.185  -.190  2.190   .070  2.194   .398  2.199   .616  2.204   .725
  2.209   .602  2.214   .343  2.219  -.040  2.224  -.354  2.229  -.505
  2.234  -.518  2.239  -.368  2.244  -.135  2.249   .124  2.254   .343
  2.259   .493  2.264   .671  2.269   .821  2.274  1.026  2.278  1.203
  2.283  1.312  2.288  1.190  2.293   .930  2.299   .411  2.304  -.068
  2.309  -.600  2.314  -.887  2.319  -.996  2.324  -.710  2.329  -.314
  2.333   .151  2.338   .411  2.343   .520  2.348   .301  2.353  -.054
  2.358  -.615  2.363  -.929  2.368 -1.134  2.373 -1.093  2.378  -.875
  2.383  -.601  2.388  -.383  2.393  -.246  2.398  -.259  2.403  -.328
  2.408  -.410  2.413  -.382  2.418  -.287  2.423  -.164  2.428  -.013
  2.432   .123  2.437   .232  2.442   .355  2.447   .424  2.452   .424
  2.457   .424  2.462   .479  2.467   .616  2.472   .766  2.477   .903
  2.482   .945  2.487   .890  2.492   .767  2.497   .562  2.502   .290
  2.507   .112  2.512  -.024  2.517  -.078  2.522  -.051  2.527  -.024
  2.532  -.010  2.537   .018  2.542   .045  2.546   .059  2.551   .019
  2.556  -.104  2.561  -.241  2.566  -.404  2.571  -.527  2.576  -.500
  2.581  -.349  2.586  -.158  2.591   .034  2.596   .157  2.601   .102
  2.606  -.062  2.611  -.294  2.616  -.457  2.621  -.525  2.626  -.402
  2.631  -.266  2.636  -.143  2.641  -.061  2.646  -.102  2.651  -.129
  2.655  -.061  2.661   .035  2.665   .199  2.670   .335  2.675   .431
  2.680   .335  2.685   .199  2.690  -.047  2.695  -.239  2.700  -.375
  2.705  -.307  2.710  -.157  2.715   .103  2.720   .335  2.725   .567
  2.730   .718  2.734   .786  2.740   .663  2.744   .417  2.750   .089
  2.755  -.198  2.760  -.376  2.765  -.457  2.770  -.443  2.774  -.348
  2.779  -.252  2.784  -.116  2.789   .035  2.794   .198  2.799   .348
  2.804   .485  2.809   .581  2.814   .622  2.819   .663  2.823   .595
  2.829   .445  2.833   .226  2.839  -.129  2.844  -.485  2.849  -.813
  2.854  -.963  2.859  -.772  2.863  -.348  2.868   .157  2.873   .594
  2.878   .867  2.883  1.018  2.888   .963  2.893   .799  2.898   .498
  2.903   .184  2.908  -.089  2.913  -.253  2.918  -.376  2.923  -.349
  2.928  -.240  2.932  -.035  2.937   .211  2.942   .416  2.947   .498
  2.952   .484  2.957   .375  2.962   .183  2.967  -.049  2.972  -.268
  2.977  -.445  2.982  -.527  2.987  -.555  2.992  -.487  2.997  -.377
  3.002  -.145  3.007   .128  3.011   .401  3.016   .578  3.021   .674
  3.026   .619  3.031   .374  3.036   .155  3.041  -.186  3.046  -.392
  3.051  -.528  3.056  -.569  3.061  -.487  3.066  -.337  3.071  -.146
  3.076   .018  3.081   .100  3.086   .169  3.091   .128  3.096   .073
  3.101   .006  3.106   .019  3.111   .101  3.115   .170  3.120   .224
  3.125   .129  3.130  -.063  3.135  -.254  3.140  -.430  3.145  -.471
  3.150  -.348  3.155  -.212  3.160  -.048  3.165   .007  3.170  -.034
  3.175  -.129  3.180  -.225  3.185  -.293  3.190  -.279  3.195  -.224
  3.200  -.155  3.204  -.114  3.210  -.155  3.214  -.264  3.220  -.415
  3.224  -.564  3.229  -.687  3.234  -.715  3.239  -.482  3.244  -.276
  3.249  -.030  3.254   .134  3.259   .202  3.264   .093  3.269  -.057
  3.274  -.194  3.279  -.289  3.283  -.207  3.288  -.139  3.293  -.043
  3.298   .026  3.303   .053  3.308   .108  3.313   .163  3.318   .190
  3.323   .176  3.328   .040  3.333  -.152  3.338  -.411  3.343  -.630
  3.348  -.794  3.353  -.834  3.358  -.752  3.362  -.616  3.367  -.465
  3.372  -.342  3.377  -.247  3.382  -.193  3.387  -.138  3.392  -.070
  3.397   .039  3.402   .148  3.407   .258  3.411   .326  3.417   .340
  3.421   .339  3.426   .421  3.431   .530  3.436   .680  3.441   .884
  3.446  1.116  3.451  1.321  3.455  1.485  3.460  1.594  3.465  1.689
  3.470  1.716  3.475  1.675  3.480  1.647  3.485  1.606  3.490  1.578
  3.495  1.577  3.500  1.577  3.505  1.563  3.510  1.549  3.515  1.494
  3.520  1.467  3.525  1.466  3.530  1.520  3.534  1.561  3.539  1.561
  3.544  1.533  3.549  1.573  3.554  1.628  3.559  1.641  3.564  1.628
  3.569  1.614  3.574  1.600  3.579  1.518  3.584  1.408  3.589  1.285
  3.594  1.135  3.599  1.025  3.604   .957  3.609  1.011  3.613  1.106
  3.618  1.257  3.623  1.353  3.628  1.407  3.633  1.366  3.638  1.284
  3.643  1.175  3.648  1.052  3.653   .916  3.658   .724  3.663   .478
  3.668   .165  3.673  -.186  3.678  -.641  3.683 -1.078  3.688 -1.446
  3.693 -1.842  3.698 -2.198  3.704 -2.648  3.709 -3.276  3.714 -3.822
  3.719 -4.313  3.724 -4.381  3.728 -2.888  3.733  -.753  3.737  -.419
  3.743  -.883  3.747   .014  3.752   .018  3.757   .019  3.762   .019
  3.767   .020  3.772   .020  3.777   .020  3.782   .020  3.787   .021
  3.792   .021  3.797   .022  3.802   .022  3.807   .022  3.812   .023
  3.816   .023  3.821   .023  3.826   .024  3.831   .024  3.836   .024
  3.841   .024  3.846   .024  3.851   .025  3.856   .025  3.861   .025
  3.866   .026  3.871   .026  3.876   .026  3.881   .026  3.886   .026
  3.891   .026  3.896   .026  3.901   .026  3.906   .026  3.911   .026
  3.915   .027  3.920   .027  3.925   .027  3.930   .027  3.935   .027
  3.940   .027  3.945   .027  3.950   .027  3.955   .027  3.960   .027
  3.965   .027  3.970   .028  3.975   .028  3.980   .028  3.985   .028
  3.990   .027  3.995   .027  4.000   .027  4.005   .027  4.010   .027
  4.015   .027  4.019   .027  4.024   .027  4.029   .027  4.034   .027
  4.039   .027  4.044   .027  4.049   .027  4.054   .027  4.059   .027
  4.064   .026  4.069   .026  4.074   .025  4.079   .025  4.084   .025
  4.089   .025  4.094   .025  4.099   .025  4.104   .025  4.109   .025
  4.114   .025  4.118   .025  4.123   .025  4.128   .025  4.133   .025
  4.138   .025  4.143   .025  4.148   .025  4.153   .025  4.158   .025
  4.163   .025  4.168   .025  4.173   .025  4.178   .025  4.183   .025
  4.188   .025  4.193   .025  4.198   .025  4.203   .025  4.208   .025
  4.213   .025  4.218   .025  4.222   .025  4.227   .025  4.232   .025
  4.237   .025  4.242   .025  4.247   .025  4.252   .025  4.257   .025
  4.262   .025  4.267   .025  4.272   .025  4.277   .025  4.282   .025
  4.287   .025  4.292   .025  4.297   .025  4.302   .025  4.307   .025
  4.312   .025  4.317   .025  4.322   .025  4.327   .025  4.332   .025
  4.337   .025  4.342   .025  4.347   .025  4.352   .025  4.357   .025
  4.362   .025  4.367   .025  4.372   .025  4.377   .025  4.382   .025
  4.387   .025  4.392   .025  4.397   .019  4.402   .019  4.407   .019
  4.411   .019  4.417   .019  4.422   .019  4.426   .019  4.431   .018
  4.436   .018  4.441   .018  4.446   .018  4.451   .018  4.456   .018
  4.461   .018  4.466   .018  4.471   .018  4.476   .018  4.481   .018
  4.486   .018  4.491   .018  4.496   .018  4.501   .018  4.506   .018
  4.511   .018  4.516   .018  4.521   .018  4.526   .018  4.531   .019
  4.536   .019  4.541   .019  4.546   .019  4.551   .019  4.556   .020
  4.561   .020  4.566   .021  4.571   .022  4.576   .022  4.581   .023
  4.586   .023  4.591   .024  4.596   .024  4.601   .025  4.606   .025
  4.611   .026  4.615   .027  4.621   .028  4.626   .029  4.630   .029
  4.635   .030  4.640   .031  4.645   .032  4.650   .032  4.655   .033
  4.660   .034  4.665   .035  4.670   .036  4.675   .037  4.680   .037
  4.685  1.358  4.690   .621  4.695  -.034  4.700  -.743  4.706 -1.344
  4.711 -2.068  4.716 -2.600  4.721 -3.118  4.726 -3.432  4.731 -3.377
  4.736 -3.267  4.741 -3.225  4.746 -3.198  4.751 -3.142  4.756 -3.155
  4.761 -3.237  4.766 -3.196  4.771 -3.606  4.776 -4.074  4.780 -3.905
  4.786 -3.736  4.790 -3.568  4.795 -2.367  4.799  -.585  4.804   .098
  4.809   .453  4.814   .631  4.819   .617  4.824   .576  4.828   .563
  4.833   .549  4.839   .467  4.843   .385  4.848   .385  4.853   .453
  4.858   .631  4.863   .822  4.868   .999  4.873  1.204  4.878  1.013
  4.883   .794  4.888   .029  4.893  -.327  4.898  -.394  4.903  -.313
  4.908  -.477  4.913  -.682  4.918  -.805  4.923  -.723  4.928  -.669
  4.933  -.614  4.938  -.600  4.943  -.532  4.948  -.505  4.952  -.614
  4.957  -.559  4.962  -.300  4.967  -.013  4.972   .314  4.977   .615
  4.982   .943  4.986  1.353  4.991  1.776  4.996  2.404  5.001  2.650
  5.006  2.937  5.011  3.073  5.016  3.101  5.021  3.101  5.025  3.073
  5.030  2.799  5.036  2.101  5.041   .832  5.046  -.124  5.051  -.643
  5.056 -1.026  5.062 -1.340  5.066 -1.190  5.071 -1.054  5.076 -1.286
  5.081 -1.492  5.086 -1.710  5.091 -1.765  5.096 -1.697  5.101 -1.806
  5.106 -1.957  5.111 -1.820  5.116 -1.711  5.121 -1.479  5.126 -1.260
  5.131 -1.111  5.136  -.988  5.141  -.796  5.145  -.537  5.150  -.237
  5.155  -.059  5.160  -.046  5.165  -.277  5.170  -.619  5.175  -.442
  5.180  -.237  5.185  -.537  5.190 -1.057  5.195 -1.507  5.200 -1.193
  5.205  -.633  5.209  -.113  5.214   .132  5.219   .256  5.224   .461
  5.229   .447  5.234   .489  5.239   .543  5.244   .543  5.248   .530
  5.253   .421  5.258   .325  5.264  -.180  5.269  -.712  5.273  -.944
  5.279 -1.053  5.283 -1.162  5.288 -1.340  5.293 -1.545  5.298 -1.640
  5.303 -1.462  5.308 -1.243  5.313  -.875  5.318  -.587  5.322  -.272
  5.327   .028  5.332   .219  5.337   .357  5.342   .234  5.347   .138
  5.352   .234  5.357   .048  5.361   .048  5.366   .048  5.371   .070
  5.376   .302  5.381   .248  5.386   .166  5.391   .275  5.396   .220
  5.401   .165  5.406   .206  5.410   .548  5.415   .643  5.420   .657
  5.425   .602  5.430   .753  5.435  1.135  5.440  1.312  5.445  1.299
  5.450  1.175  5.455   .902  5.459   .778  5.464   .833  5.469   .710
  5.474   .259  5.479   .000  5.484   .368  5.489   .792  5.494   .587
  5.499   .613  5.503  1.351  5.508  1.719  5.513  1.555  5.518  1.296
  5.523  1.077  5.528   .804  5.533   .722  5.538   .708  5.543  1.077
  5.548  1.295  5.552  1.569  5.557  1.418  5.563   .981  5.568   .721
  5.572   .502  5.577   .352  5.582   .175  5.587  -.153  5.592  -.222
  5.597  -.263  5.602  -.235  5.607  -.358  5.612  -.413  5.617  -.235
  5.622   .134  5.626   .680  5.631   .858  5.636   .584  5.641   .517
  5.646   .435  5.651   .517  5.656   .749  5.661   .845  5.666   .967
  5.670   .926  5.675   .913  5.680   .763  5.685   .530  5.690   .340
  5.695   .148  5.700  -.057  5.705  -.098  5.710  -.180  5.715  -.275
  5.720  -.262  5.725  -.316  5.730  -.671  5.735 -1.136  5.740 -1.136
  5.745  -.930  5.750 -1.572  5.755 -2.215  5.760 -2.296  5.765 -1.668
  5.769 -1.736  5.774 -1.313  5.779 -1.026  5.784  -.875  5.789  -.780
  5.793  -.165  5.798  -.123  5.803  -.110  5.808   .560  5.813  1.298
  5.818  1.325  5.823  1.298  5.827  1.311  5.832  1.325  5.837  1.311
  5.842  1.284  5.847  1.161  5.852   .998  5.857   .752  5.862   .493
  5.867   .233  5.872  -.067  5.877  -.258  5.882  -.463  5.887  -.654
  5.892  -.982  5.897 -1.200  5.902 -1.378  5.907 -1.459  5.912 -1.487
  5.917 -1.391  5.921 -1.213  5.926  -.872  5.931  -.434  5.936   .058
  5.941   .331  5.945   .508  5.950   .631  5.955   .605  5.960   .509
  5.965   .290  5.970   .058  5.975  -.133  5.980  -.557  5.985  -.830
  5.990 -1.103  5.995 -1.281  6.000 -1.363  6.005 -1.349  6.010 -1.253
  6.015 -1.171  6.020 -1.063  6.024 -1.008  6.029 -1.049  6.034  -.913
  6.039  -.749  6.044  -.708  6.049  -.504  6.054  -.299  6.058  -.040
  6.063   .125  6.068   .179  6.073   .097  6.078   .014  6.083  -.108
  6.088  -.150  6.093  -.123  6.098  -.096  6.103  -.069  6.108  -.082
  6.113  -.110  6.117  -.178  6.122  -.247  6.127  -.315  6.132  -.370
  6.137  -.275  6.142  -.070  6.147   .135  6.152   .463  6.156   .695
  6.161   .859  6.166   .941  6.171   .996  6.176  1.023  6.181  1.119
  6.186  1.214  6.191  1.324  6.195  1.406  6.200  1.337  6.205  1.146
  6.210   .914  6.215   .586  6.220   .245  6.225  -.028  6.230  -.260
