Response and Fourier amplitude spectra (68 periods,  .04 -  3.4 sec)   for      
Corrected accelerogram   24207-M0150-20021.15       Chan  3:  Up         from   
Uncorrected Accelerogram Data             Processed: 01/24/20, CGS  ce24207o    
Rcrd of Tue Jan 21, 2020 23:40:50.0 PST               (Avol1 v2.0, 4/18 CSMIP)  
CSMIP Preliminary Processing            (Origin:  To be determined)             
24207-M0150-20021.15                 Start time:  1/22/20, 07:40:50.0 UTC (GPS) 
Station No. 24207   34.335N, 118.397W    MtWtny  s/n  150 (17 Chns of 17 at Sta)
Sylmar - Pacoima Dam                      CGS   Data: Acceleration              
Chan  3:  Up                        Location: Crest: Center                     
Rcrd of Tue Jan 21, 2020 23:40:50.0 PST    Tue Jan 21, 2020 23:40:50.0 PST      
Hypocenter:  To be determined.               ML:  To be determined.
Instr Period =  .0101 sec,  Damping =  .650,  Sensitivity =  .63 v/g
                        Record Length = 58.000 sec.
                                     Uncor Max  =  -.015 g, at   25.590 sec.
RMS accel of (uncor) record  =        .   Chn. metadata effective date: 09/02/99
Accelerogram bandpass filtered with 3 dB pts at   .30 and 40.00 cyc/sec
                 instrument- and base-line correcte





Rcrd of Tue Jan 21, 2020 23:40:50.0 PST    Tue Jan 21, 2020 23:40:50.0 PST

24207-M0150-20021.15      Sylmar - Pacoima Dam    Chan  3:  Up

24207-M0150-20021.15      Sylmar - Pacoima Dam    Chan  3:  Up

Units for spectra are inches and sec, except Sa is in fraction of g.

    3  100    3   18   17  200    1    3    1   24   13  150    024207    5    0
    7   40   50    0   22    1   22 2020   10    3  50011600   39   20   74   -1
11600    0  100    3  150    1   15  580    2 -999 -999 -999 -999 -999 -999 -999
 -999 -999    3 -99911600    1  222    1   18    4 -999 -999    3    1 -99911600
    311600    4   68    5   17    5    0    0 -999    0    0    1    3    1    2
    2    2    4    0   68   67    0   10 -999    1    0    1    0    0   64  222
    1    0    4    0
      .010      .650    58.000      .001     1.000   627.000     -.015    25.590
    99.300      .298      .475  -999.000     5.000  -999.000     4.000  -999.000
     2.500    63.114     2.500  2016.000    25.000    30.000  -999.000      .000
      .000      .000     2.000    15.000    34.335  -118.397      .011      .014
     1.331     -.002      .002   594.000    25.700    27.200    12.600   103.640
     1.000    10.003    -8.000  -999.000  -999.000  -999.000  -999.000  -999.000
     6.900     2.000     6.800   980.665      .005    58.000    15.804      .000
  -999.000    40.000  -999.000    58.000      .005      .303  -999.000  -999.000
    25.590   -14.208    25.835     -.350    25.780      .011      .000      .303
    40.000      .005      .005      .000      .005      .003  -999.000  -999.000
      .053      .180      .047      .010      .001      .000  -999.000  -999.000
  -999.000  -999.000  -999.000  -999.000  -999.000  -999.000  -999.000  -999.000
  -999.000  -999.000  -999.000  -999.000
      .000      .020      .050      .100      .200
      .040      .042      .044      .046      .048      .050      .055      .060
      .065      .070      .075      .080      .085      .090      .095      .100
      .110      .120      .130      .140      .150      .160      .170      .180
      .190      .200      .220      .240      .260      .280      .300      .320
      .340      .360      .380      .400      .420      .440      .460      .480
      .500      .550      .600      .650      .700      .750      .800      .850
      .900      .950     1.000     1.100     1.200     1.300     1.400     1.500
     1.600     1.700     1.800     1.900     2.000     2.200     2.400     2.600
     2.800     3.000     3.200     3.400      .000      .000      .000      .000
      .000      .000      .000      .000      .000      .000      .000      .000
      .000      .000      .000      .000      .000      .000      .000      .000
      .000      .000      .000      .000      .000      .000      .000      .000
      .000      .000      .000      .000
Fourier amplitude spectra in in/sec.
  .124E+00  .706E-01  .610E-01  .391E-01  .736E-01  .141E+00  .110E+00  .196E-01
  .781E-01  .969E-01  .100E+00  .673E-01  .117E+00  .779E-01  .253E+00  .230E+00
  .192E+00  .477E+00  .440E+00  .296E+00  .308E+00  .576E+00  .646E+00  .634E+00
  .931E+00  .969E+00  .141E+01  .498E+00  .352E+00  .122E+00  .502E-01  .700E-01
  .951E-01  .410E-01  .794E-01  .672E-01  .452E-01  .635E-01  .749E-01  .729E-01
  .417E-01  .693E-01  .394E-01  .308E-01  .270E-01  .474E-02  .214E-01  .204E-01
  .207E-01  .138E-01  .121E-01  .626E-02  .548E-02  .274E-02  .348E-02  .373E-02
  .663E-03  .196E-02  .377E-02  .894E-02  .173E-02  .341E-02  .372E-02  .146E-02
  .209E-02  .393E-02  .210E-02  .356E-02  .000E+00  .000E+00  .000E+00  .000E+00
  .000E+00  .000E+00  .000E+00  .000E+00  .000E+00  .000E+00  .000E+00  .000E+00
  .000E+00  .000E+00  .000E+00  .000E+00  .000E+00  .000E+00  .000E+00  .000E+00
  .000E+00  .000E+00  .000E+00  .000E+00  .000E+00  .000E+00  .000E+00  .000E+00
  .000E+00  .000E+00  .000E+00  .000E+00
Damping =  .00. Data of Sd,Sv,Sa,Pssv,ttSd,ttSv,ttSa :
  .892E-03  .738E-03  .682E-03  .701E-03  .966E-03  .136E-02  .137E-02  .689E-03
  .124E-02  .174E-02  .182E-02  .179E-02  .204E-02  .217E-02  .451E-02  .410E-02
  .681E-02  .103E-01  .104E-01  .104E-01  .126E-01  .174E-01  .218E-01  .259E-01
  .315E-01  .321E-01  .504E-01  .303E-01  .152E-01  .114E-01  .899E-02  .823E-02
  .779E-02  .788E-02  .860E-02  .827E-02  .775E-02  .722E-02  .821E-02  .916E-02
  .910E-02  .727E-02  .693E-02  .628E-02  .626E-02  .680E-02  .669E-02  .692E-02
  .688E-02  .635E-02  .575E-02  .559E-02  .534E-02  .486E-02  .482E-02  .435E-02
  .464E-02  .516E-02  .433E-02  .484E-02  .450E-02  .470E-02  .444E-02  .456E-02
  .434E-02  .438E-02  .620E-02  .445E-02  .000E+00  .000E+00  .000E+00  .000E+00
  .000E+00  .000E+00  .000E+00  .000E+00  .000E+00  .000E+00  .000E+00  .000E+00
  .000E+00  .000E+00  .000E+00  .000E+00  .000E+00  .000E+00  .000E+00  .000E+00
  .000E+00  .000E+00  .000E+00  .000E+00  .000E+00  .000E+00  .000E+00  .000E+00
  .000E+00  .000E+00  .000E+00  .000E+00
  .123E+00  .864E-01  .734E-01  .731E-01  .996E-01  .152E+00  .138E+00  .717E-01
  .105E+00  .139E+00  .131E+00  .996E-01  .128E+00  .118E+00  .289E+00  .253E+00
  .362E+00  .531E+00  .481E+00  .448E+00  .496E+00  .684E+00  .774E+00  .881E+00
  .103E+01  .101E+01  .144E+01  .813E+00  .403E+00  .331E+00  .282E+00  .264E+00
  .241E+00  .230E+00  .213E+00  .192E+00  .182E+00  .178E+00  .175E+00  .186E+00
  .197E+00  .185E+00  .182E+00  .183E+00  .176E+00  .169E+00  .163E+00  .156E+00
  .151E+00  .145E+00  .143E+00  .141E+00  .138E+00  .139E+00  .138E+00  .138E+00
  .136E+00  .137E+00  .139E+00  .135E+00  .138E+00  .138E+00  .141E+00  .138E+00
  .137E+00  .140E+00  .138E+00  .135E+00  .000E+00  .000E+00  .000E+00  .000E+00
  .000E+00  .000E+00  .000E+00  .000E+00  .000E+00  .000E+00  .000E+00  .000E+00
  .000E+00  .000E+00  .000E+00  .000E+00  .000E+00  .000E+00  .000E+00  .000E+00
  .000E+00  .000E+00  .000E+00  .000E+00  .000E+00  .000E+00  .000E+00  .000E+00
  .000E+00  .000E+00  .000E+00  .000E+00
  .570E-01  .428E-01  .360E-01  .339E-01  .429E-01  .557E-01  .464E-01  .196E-01
  .300E-01  .362E-01  .330E-01  .286E-01  .289E-01  .274E-01  .511E-01  .420E-01
  .575E-01  .732E-01  .631E-01  .545E-01  .574E-01  .696E-01  .770E-01  .819E-01
  .893E-01  .820E-01  .106E+00  .539E-01  .230E-01  .148E-01  .102E-01  .822E-02
  .689E-02  .622E-02  .609E-02  .529E-02  .450E-02  .382E-02  .397E-02  .407E-02
  .372E-02  .246E-02  .197E-02  .152E-02  .131E-02  .124E-02  .107E-02  .979E-03
  .869E-03  .720E-03  .588E-03  .473E-03  .379E-03  .294E-03  .251E-03  .198E-03
  .185E-03  .182E-03  .137E-03  .137E-03  .115E-03  .992E-04  .788E-04  .690E-04
  .566E-04  .498E-04  .619E-04  .393E-04  .000E+00  .000E+00  .000E+00  .000E+00
  .000E+00  .000E+00  .000E+00  .000E+00  .000E+00  .000E+00  .000E+00  .000E+00
  .000E+00  .000E+00  .000E+00  .000E+00  .000E+00  .000E+00  .000E+00  .000E+00
  .000E+00  .000E+00  .000E+00  .000E+00  .000E+00  .000E+00  .000E+00  .000E+00
  .000E+00  .000E+00  .000E+00  .000E+00
  .140E+00  .110E+00  .974E-01  .958E-01  .126E+00  .171E+00  .157E+00  .721E-01
  .120E+00  .156E+00  .152E+00  .140E+00  .151E+00  .152E+00  .298E+00  .258E+00
  .389E+00  .540E+00  .504E+00  .469E+00  .529E+00  .684E+00  .804E+00  .906E+00
  .104E+01  .101E+01  .144E+01  .794E+00  .367E+00  .255E+00  .188E+00  .162E+00
  .144E+00  .137E+00  .142E+00  .130E+00  .116E+00  .103E+00  .112E+00  .120E+00
  .114E+00  .831E-01  .726E-01  .607E-01  .562E-01  .570E-01  .525E-01  .511E-01
  .481E-01  .420E-01  .361E-01  .319E-01  .280E-01  .235E-01  .216E-01  .182E-01
  .182E-01  .191E-01  .151E-01  .160E-01  .141E-01  .134E-01  .116E-01  .110E-01
  .974E-02  .918E-02  .122E-01  .822E-02  .000E+00  .000E+00  .000E+00  .000E+00
  .000E+00  .000E+00  .000E+00  .000E+00  .000E+00  .000E+00  .000E+00  .000E+00
  .000E+00  .000E+00  .000E+00  .000E+00  .000E+00  .000E+00  .000E+00  .000E+00
  .000E+00  .000E+00  .000E+00  .000E+00  .000E+00  .000E+00  .000E+00  .000E+00
  .000E+00  .000E+00  .000E+00  .000E+00
  .259E+02  .259E+02  .257E+02  .256E+02  .259E+02  .259E+02  .256E+02  .235E+02
  .261E+02  .256E+02  .256E+02  .256E+02  .257E+02  .258E+02  .263E+02  .259E+02
  .259E+02  .272E+02  .257E+02  .258E+02  .258E+02  .271E+02  .260E+02  .260E+02
  .260E+02  .362E+02  .333E+02  .264E+02  .316E+02  .257E+02  .257E+02  .257E+02
  .256E+02  .256E+02  .260E+02  .259E+02  .259E+02  .259E+02  .259E+02  .259E+02
  .259E+02  .259E+02  .259E+02  .259E+02  .258E+02  .258E+02  .258E+02  .258E+02
  .258E+02  .258E+02  .258E+02  .258E+02  .258E+02  .258E+02  .258E+02  .257E+02
  .258E+02  .258E+02  .258E+02  .255E+02  .258E+02  .259E+02  .258E+02  .258E+02
  .258E+02  .259E+02  .258E+02  .258E+02  .000E+00  .000E+00  .000E+00  .000E+00
  .000E+00  .000E+00  .000E+00  .000E+00  .000E+00  .000E+00  .000E+00  .000E+00
  .000E+00  .000E+00  .000E+00  .000E+00  .000E+00  .000E+00  .000E+00  .000E+00
  .000E+00  .000E+00  .000E+00  .000E+00  .000E+00  .000E+00  .000E+00  .000E+00
  .000E+00  .000E+00  .000E+00  .000E+00
  .507E+02  .259E+02  .257E+02  .255E+02  .259E+02  .270E+02  .251E+02  .235E+02
  .261E+02  .256E+02  .256E+02  .256E+02  .269E+02  .258E+02  .264E+02  .298E+02
  .259E+02  .273E+02  .257E+02  .257E+02  .257E+02  .270E+02  .259E+02  .260E+02
  .263E+02  .363E+02  .333E+02  .264E+02  .258E+02  .258E+02  .256E+02  .256E+02
  .256E+02  .256E+02  .256E+02  .259E+02  .258E+02  .256E+02  .256E+02  .258E+02
  .258E+02  .258E+02  .258E+02  .258E+02  .258E+02  .258E+02  .258E+02  .258E+02
  .258E+02  .258E+02  .258E+02  .258E+02  .258E+02  .258E+02  .258E+02  .258E+02
  .258E+02  .258E+02  .258E+02  .258E+02  .258E+02  .258E+02  .258E+02  .258E+02
  .258E+02  .258E+02  .258E+02  .258E+02  .000E+00  .000E+00  .000E+00  .000E+00
  .000E+00  .000E+00  .000E+00  .000E+00  .000E+00  .000E+00  .000E+00  .000E+00
  .000E+00  .000E+00  .000E+00  .000E+00  .000E+00  .000E+00  .000E+00  .000E+00
  .000E+00  .000E+00  .000E+00  .000E+00  .000E+00  .000E+00  .000E+00  .000E+00
  .000E+00  .000E+00  .000E+00  .000E+00
  .259E+02  .259E+02  .257E+02  .256E+02  .259E+02  .259E+02  .256E+02  .235E+02
  .261E+02  .256E+02  .256E+02  .256E+02  .257E+02  .258E+02  .263E+02  .259E+02
  .259E+02  .272E+02  .257E+02  .258E+02  .258E+02  .271E+02  .260E+02  .260E+02
  .260E+02  .362E+02  .333E+02  .264E+02  .316E+02  .257E+02  .257E+02  .257E+02
  .256E+02  .256E+02  .260E+02  .259E+02  .259E+02  .259E+02  .259E+02  .259E+02
  .259E+02  .259E+02  .259E+02  .259E+02  .258E+02  .258E+02  .258E+02  .258E+02
  .258E+02  .258E+02  .258E+02  .258E+02  .258E+02  .258E+02  .258E+02  .257E+02
  .258E+02  .258E+02  .258E+02  .255E+02  .258E+02  .259E+02  .258E+02  .258E+02
  .258E+02  .259E+02  .258E+02  .258E+02  .000E+00  .000E+00  .000E+00  .000E+00
  .000E+00  .000E+00  .000E+00  .000E+00  .000E+00  .000E+00  .000E+00  .000E+00
  .000E+00  .000E+00  .000E+00  .000E+00  .000E+00  .000E+00  .000E+00  .000E+00
  .000E+00  .000E+00  .000E+00  .000E+00  .000E+00  .000E+00  .000E+00  .000E+00
  .000E+00  .000E+00  .000E+00  .000E+00
Damping =  .02. Data of Sd,Sv,Sa,Pssv,ttSd,ttSv,ttSa :
  .310E-03  .310E-03  .369E-03  .439E-03  .505E-03  .517E-03  .476E-03  .614E-03
  .686E-03  .845E-03  .925E-03  .112E-02  .155E-02  .217E-02  .298E-02  .291E-02
  .456E-02  .585E-02  .776E-02  .918E-02  .113E-01  .141E-01  .175E-01  .211E-01
  .245E-01  .242E-01  .262E-01  .225E-01  .135E-01  .105E-01  .891E-02  .785E-02
  .761E-02  .766E-02  .771E-02  .758E-02  .751E-02  .737E-02  .795E-02  .849E-02
  .846E-02  .720E-02  .683E-02  .618E-02  .629E-02  .657E-02  .660E-02  .670E-02
  .660E-02  .618E-02  .574E-02  .551E-02  .527E-02  .492E-02  .479E-02  .450E-02
  .468E-02  .472E-02  .442E-02  .435E-02  .424E-02  .450E-02  .433E-02  .458E-02
  .435E-02  .437E-02  .549E-02  .457E-02  .000E+00  .000E+00  .000E+00  .000E+00
  .000E+00  .000E+00  .000E+00  .000E+00  .000E+00  .000E+00  .000E+00  .000E+00
  .000E+00  .000E+00  .000E+00  .000E+00  .000E+00  .000E+00  .000E+00  .000E+00
  .000E+00  .000E+00  .000E+00  .000E+00  .000E+00  .000E+00  .000E+00  .000E+00
  .000E+00  .000E+00  .000E+00  .000E+00
  .443E-01  .423E-01  .370E-01  .361E-01  .384E-01  .416E-01  .512E-01  .619E-01
  .609E-01  .754E-01  .650E-01  .537E-01  .831E-01  .111E+00  .158E+00  .142E+00
  .227E+00  .287E+00  .342E+00  .386E+00  .453E+00  .515E+00  .613E+00  .723E+00
  .792E+00  .740E+00  .764E+00  .620E+00  .390E+00  .310E+00  .277E+00  .256E+00
  .238E+00  .225E+00  .208E+00  .185E+00  .176E+00  .176E+00  .173E+00  .183E+00
  .190E+00  .184E+00  .180E+00  .180E+00  .174E+00  .168E+00  .162E+00  .157E+00
  .151E+00  .146E+00  .144E+00  .141E+00  .140E+00  .139E+00  .138E+00  .139E+00
  .138E+00  .138E+00  .138E+00  .137E+00  .138E+00  .138E+00  .140E+00  .138E+00
  .138E+00  .139E+00  .138E+00  .136E+00  .000E+00  .000E+00  .000E+00  .000E+00
  .000E+00  .000E+00  .000E+00  .000E+00  .000E+00  .000E+00  .000E+00  .000E+00
  .000E+00  .000E+00  .000E+00  .000E+00  .000E+00  .000E+00  .000E+00  .000E+00
  .000E+00  .000E+00  .000E+00  .000E+00  .000E+00  .000E+00  .000E+00  .000E+00
  .000E+00  .000E+00  .000E+00  .000E+00
  .198E-01  .180E-01  .195E-01  .212E-01  .224E-01  .213E-01  .161E-01  .175E-01
  .167E-01  .178E-01  .168E-01  .179E-01  .220E-01  .274E-01  .339E-01  .297E-01
  .387E-01  .415E-01  .469E-01  .479E-01  .515E-01  .564E-01  .621E-01  .669E-01
  .695E-01  .619E-01  .554E-01  .400E-01  .204E-01  .137E-01  .101E-01  .786E-02
  .676E-02  .606E-02  .547E-02  .486E-02  .436E-02  .390E-02  .384E-02  .378E-02
  .347E-02  .245E-02  .195E-02  .150E-02  .132E-02  .120E-02  .106E-02  .956E-03
  .841E-03  .708E-03  .595E-03  .473E-03  .382E-03  .305E-03  .257E-03  .211E-03
  .193E-03  .174E-03  .146E-03  .132E-03  .116E-03  .104E-03  .829E-04  .752E-04
  .626E-04  .554E-04  .606E-04  .461E-04  .000E+00  .000E+00  .000E+00  .000E+00
  .000E+00  .000E+00  .000E+00  .000E+00  .000E+00  .000E+00  .000E+00  .000E+00
  .000E+00  .000E+00  .000E+00  .000E+00  .000E+00  .000E+00  .000E+00  .000E+00
  .000E+00  .000E+00  .000E+00  .000E+00  .000E+00  .000E+00  .000E+00  .000E+00
  .000E+00  .000E+00  .000E+00  .000E+00
  .487E-01  .464E-01  .527E-01  .599E-01  .661E-01  .650E-01  .544E-01  .643E-01
  .663E-01  .759E-01  .775E-01  .877E-01  .115E+00  .152E+00  .197E+00  .183E+00
  .261E+00  .306E+00  .375E+00  .412E+00  .474E+00  .554E+00  .647E+00  .737E+00
  .810E+00  .761E+00  .749E+00  .589E+00  .325E+00  .236E+00  .187E+00  .154E+00
  .141E+00  .134E+00  .128E+00  .119E+00  .112E+00  .105E+00  .109E+00  .111E+00
  .106E+00  .823E-01  .716E-01  .598E-01  .565E-01  .551E-01  .519E-01  .495E-01
  .461E-01  .408E-01  .361E-01  .315E-01  .276E-01  .238E-01  .215E-01  .188E-01
  .184E-01  .174E-01  .154E-01  .144E-01  .133E-01  .129E-01  .113E-01  .111E-01
  .975E-02  .915E-02  .108E-01  .844E-02  .000E+00  .000E+00  .000E+00  .000E+00
  .000E+00  .000E+00  .000E+00  .000E+00  .000E+00  .000E+00  .000E+00  .000E+00
  .000E+00  .000E+00  .000E+00  .000E+00  .000E+00  .000E+00  .000E+00  .000E+00
  .000E+00  .000E+00  .000E+00  .000E+00  .000E+00  .000E+00  .000E+00  .000E+00
  .000E+00  .000E+00  .000E+00  .000E+00
  .235E+02  .257E+02  .257E+02  .259E+02  .259E+02  .259E+02  .235E+02  .235E+02
  .256E+02  .237E+02  .256E+02  .256E+02  .256E+02  .257E+02  .259E+02  .259E+02
  .259E+02  .262E+02  .257E+02  .257E+02  .258E+02  .258E+02  .259E+02  .260E+02
  .260E+02  .262E+02  .263E+02  .262E+02  .259E+02  .257E+02  .257E+02  .257E+02
  .256E+02  .256E+02  .256E+02  .259E+02  .259E+02  .259E+02  .259E+02  .259E+02
  .259E+02  .259E+02  .259E+02  .259E+02  .258E+02  .258E+02  .258E+02  .258E+02
  .258E+02  .258E+02  .258E+02  .258E+02  .258E+02  .258E+02  .258E+02  .258E+02
  .258E+02  .258E+02  .258E+02  .255E+02  .258E+02  .259E+02  .258E+02  .258E+02
  .258E+02  .258E+02  .258E+02  .258E+02  .000E+00  .000E+00  .000E+00  .000E+00
  .000E+00  .000E+00  .000E+00  .000E+00  .000E+00  .000E+00  .000E+00  .000E+00
  .000E+00  .000E+00  .000E+00  .000E+00  .000E+00  .000E+00  .000E+00  .000E+00
  .000E+00  .000E+00  .000E+00  .000E+00  .000E+00  .000E+00  .000E+00  .000E+00
  .000E+00  .000E+00  .000E+00  .000E+00
  .235E+02  .235E+02  .234E+02  .234E+02  .259E+02  .256E+02  .235E+02  .235E+02
  .235E+02  .237E+02  .237E+02  .256E+02  .256E+02  .258E+02  .262E+02  .259E+02
  .259E+02  .262E+02  .257E+02  .257E+02  .257E+02  .257E+02  .259E+02  .259E+02
  .260E+02  .262E+02  .262E+02  .261E+02  .258E+02  .258E+02  .256E+02  .256E+02
  .256E+02  .256E+02  .256E+02  .256E+02  .258E+02  .256E+02  .258E+02  .258E+02
  .258E+02  .258E+02  .258E+02  .258E+02  .258E+02  .258E+02  .258E+02  .258E+02
  .258E+02  .258E+02  .258E+02  .258E+02  .258E+02  .258E+02  .258E+02  .258E+02
  .258E+02  .258E+02  .258E+02  .258E+02  .258E+02  .258E+02  .258E+02  .258E+02
  .258E+02  .258E+02  .258E+02  .258E+02  .000E+00  .000E+00  .000E+00  .000E+00
  .000E+00  .000E+00  .000E+00  .000E+00  .000E+00  .000E+00  .000E+00  .000E+00
  .000E+00  .000E+00  .000E+00  .000E+00  .000E+00  .000E+00  .000E+00  .000E+00
  .000E+00  .000E+00  .000E+00  .000E+00  .000E+00  .000E+00  .000E+00  .000E+00
  .000E+00  .000E+00  .000E+00  .000E+00
  .235E+02  .257E+02  .257E+02  .259E+02  .259E+02  .259E+02  .235E+02  .235E+02
  .256E+02  .237E+02  .256E+02  .256E+02  .256E+02  .257E+02  .259E+02  .259E+02
  .259E+02  .262E+02  .257E+02  .257E+02  .258E+02  .258E+02  .259E+02  .260E+02
  .260E+02  .262E+02  .263E+02  .262E+02  .259E+02  .257E+02  .257E+02  .257E+02
  .256E+02  .256E+02  .256E+02  .259E+02  .259E+02  .259E+02  .259E+02  .259E+02
  .259E+02  .259E+02  .259E+02  .259E+02  .258E+02  .258E+02  .258E+02  .258E+02
  .258E+02  .258E+02  .258E+02  .258E+02  .258E+02  .258E+02  .258E+02  .258E+02
  .258E+02  .258E+02  .258E+02  .256E+02  .256E+02  .256E+02  .258E+02  .258E+02
  .258E+02  .258E+02  .258E+02  .258E+02  .000E+00  .000E+00  .000E+00  .000E+00
  .000E+00  .000E+00  .000E+00  .000E+00  .000E+00  .000E+00  .000E+00  .000E+00
  .000E+00  .000E+00  .000E+00  .000E+00  .000E+00  .000E+00  .000E+00  .000E+00
  .000E+00  .000E+00  .000E+00  .000E+00  .000E+00  .000E+00  .000E+00  .000E+00
  .000E+00  .000E+00  .000E+00  .000E+00
Damping =  .05. Data of Sd,Sv,Sa,Pssv,ttSd,ttSv,ttSa :
  .272E-03  .294E-03  .332E-03  .371E-03  .409E-03  .425E-03  .475E-03  .586E-03
  .663E-03  .785E-03  .862E-03  .106E-02  .142E-02  .184E-02  .229E-02  .261E-02
  .366E-02  .465E-02  .655E-02  .814E-02  .992E-02  .114E-01  .137E-01  .166E-01
  .185E-01  .188E-01  .192E-01  .167E-01  .124E-01  .964E-02  .850E-02  .751E-02
  .731E-02  .728E-02  .720E-02  .706E-02  .722E-02  .731E-02  .761E-02  .787E-02
