Response and Fourier amplitude spectra (68 periods,  .04 -  3.4 sec)   for      
Corrected accelerogram   24207-M0150-20021.15       Chan 10:  Up         from   
Uncorrected Accelerogram Data             Processed: 01/24/20, CGS  ce24207o    
Rcrd of Tue Jan 21, 2020 23:40:50.0 PST               (Avol1 v2.0, 4/18 CSMIP)  
CSMIP Preliminary Processing            (Origin:  To be determined)             
24207-M0150-20021.15                 Start time:  1/22/20, 07:40:50.0 UTC (GPS) 
Station No. 24207   34.335N, 118.397W    MtWtny  s/n  150 (17 Chns of 17 at Sta)
Sylmar - Pacoima Dam                      CGS   Data: Acceleration              
Chan 10:  Up                        Location: Dam Base                          
Rcrd of Tue Jan 21, 2020 23:40:50.0 PST    Tue Jan 21, 2020 23:40:50.0 PST      
Hypocenter:  To be determined.               ML:  To be determined.
Instr Period =  .0110 sec,  Damping =  .660,  Sensitivity =  .62 v/g
                        Record Length = 58.000 sec.
                                     Uncor Max  =   .004 g, at   25.470 sec.
RMS accel of (uncor) record  =        .   Chn. metadata effective date: 03/23/00
Accelerogram bandpass filtered with 3 dB pts at   .30 and 40.00 cyc/sec
                 instrument- and base-line correcte





Rcrd of Tue Jan 21, 2020 23:40:50.0 PST    Tue Jan 21, 2020 23:40:50.0 PST

24207-M0150-20021.15      Sylmar - Pacoima Dam    Chan 10:  Up

24207-M0150-20021.15      Sylmar - Pacoima Dam    Chan 10:  Up

Units for spectra are inches and sec, except Sa is in fraction of g.

   10  100   10   18   17  200    1    3    1   24   13  150    024207    5    0
    7   40   50    0   22    1   22 2020   10    3  50011600   39   20   74   -1
11600    1  100    3  150    1   15  580    2 -999 -999 -999 -999 -999 -999 -999
 -999 -999    3 -99911600    1  222    1   18    4 -999 -999    3    1 -99911600
    311600    4   68    5   17    5    0    0 -999    0    0    1    3    1    2
    2    2    4    0   68   67    0   10 -999    1    0    1    0    0   64  222
    1    0    4    0
      .011      .660    58.000      .000     1.000   624.000      .004    25.470
    90.600      .298      .478  -999.000     5.000  -999.000     4.000  -999.000
     2.500    55.474     2.500  2016.000    25.000    30.000  -999.000     -.006
     -.003      .003     2.000    15.000    34.335  -118.397      .013      .016
     1.200      .000      .005   594.000    25.700    27.200    12.600   103.640
     1.000    10.003    -8.000  -999.000  -999.000  -999.000  -999.000  -999.000
     6.900     2.000     6.800   980.665      .005    58.000    14.419      .000
  -999.000    40.000  -999.000    58.000      .005      .303  -999.000  -999.000
    25.465     3.663    25.430     -.130    25.480     -.006      .000      .303
    40.000      .005      .005      .000      .005      .001  -999.000  -999.000
      .010      .120      .007      .006      .000      .000  -999.000  -999.000
  -999.000  -999.000  -999.000  -999.000  -999.000  -999.000  -999.000  -999.000
  -999.000  -999.000  -999.000  -999.000
      .000      .020      .050      .100      .200
      .040      .042      .044      .046      .048      .050      .055      .060
      .065      .070      .075      .080      .085      .090      .095      .100
      .110      .120      .130      .140      .150      .160      .170      .180
      .190      .200      .220      .240      .260      .280      .300      .320
      .340      .360      .380      .400      .420      .440      .460      .480
      .500      .550      .600      .650      .700      .750      .800      .850
      .900      .950     1.000     1.100     1.200     1.300     1.400     1.500
     1.600     1.700     1.800     1.900     2.000     2.200     2.400     2.600
     2.800     3.000     3.200     3.400      .000      .000      .000      .000
      .000      .000      .000      .000      .000      .000      .000      .000
      .000      .000      .000      .000      .000      .000      .000      .000
      .000      .000      .000      .000      .000      .000      .000      .000
      .000      .000      .000      .000
Fourier amplitude spectra in in/sec.
  .165E-01  .108E-01  .155E-01  .197E-01  .235E-01  .296E-01  .146E-01  .100E-01
  .130E-01  .283E-01  .205E-01  .383E-01  .168E-01  .183E-01  .711E-01  .552E-01
  .415E-01  .133E+00  .867E-01  .135E+00  .894E-01  .839E-01  .220E-01  .834E-01
  .518E-01  .196E+00  .193E+00  .182E+00  .222E+00  .103E+00  .676E-01  .143E+00
  .134E+00  .663E-01  .917E-01  .552E-01  .503E-01  .673E-01  .837E-01  .868E-01
  .533E-01  .704E-01  .360E-01  .325E-01  .277E-01  .655E-02  .236E-01  .183E-01
  .230E-01  .132E-01  .193E-01  .583E-02  .490E-02  .416E-02  .220E-02  .370E-02
  .200E-02  .177E-02  .427E-02  .431E-02  .101E-02  .286E-02  .230E-02  .327E-02
  .142E-02  .173E-02  .117E-02  .697E-03  .000E+00  .000E+00  .000E+00  .000E+00
  .000E+00  .000E+00  .000E+00  .000E+00  .000E+00  .000E+00  .000E+00  .000E+00
  .000E+00  .000E+00  .000E+00  .000E+00  .000E+00  .000E+00  .000E+00  .000E+00
  .000E+00  .000E+00  .000E+00  .000E+00  .000E+00  .000E+00  .000E+00  .000E+00
  .000E+00  .000E+00  .000E+00  .000E+00
Damping =  .00. Data of Sd,Sv,Sa,Pssv,ttSd,ttSv,ttSa :
  .140E-03  .163E-03  .164E-03  .169E-03  .222E-03  .269E-03  .357E-03  .260E-03
  .305E-03  .411E-03  .389E-03  .598E-03  .498E-03  .567E-03  .111E-02  .123E-02
  .121E-02  .263E-02  .244E-02  .324E-02  .278E-02  .240E-02  .239E-02  .405E-02
  .249E-02  .655E-02  .758E-02  .896E-02  .973E-02  .703E-02  .647E-02  .773E-02
  .759E-02  .585E-02  .607E-02  .529E-02  .429E-02  .506E-02  .695E-02  .685E-02
  .673E-02  .693E-02  .430E-02  .384E-02  .354E-02  .335E-02  .353E-02  .349E-02
  .409E-02  .373E-02  .405E-02  .339E-02  .357E-02  .359E-02  .264E-02  .274E-02
  .309E-02  .384E-02  .330E-02  .351E-02  .274E-02  .302E-02  .190E-02  .290E-02
  .241E-02  .249E-02  .275E-02  .228E-02  .000E+00  .000E+00  .000E+00  .000E+00
  .000E+00  .000E+00  .000E+00  .000E+00  .000E+00  .000E+00  .000E+00  .000E+00
  .000E+00  .000E+00  .000E+00  .000E+00  .000E+00  .000E+00  .000E+00  .000E+00
  .000E+00  .000E+00  .000E+00  .000E+00  .000E+00  .000E+00  .000E+00  .000E+00
  .000E+00  .000E+00  .000E+00  .000E+00
  .174E-01  .164E-01  .194E-01  .206E-01  .259E-01  .311E-01  .303E-01  .173E-01
  .220E-01  .353E-01  .279E-01  .401E-01  .244E-01  .292E-01  .715E-01  .742E-01
  .552E-01  .138E+00  .114E+00  .144E+00  .113E+00  .899E-01  .824E-01  .135E+00
  .761E-01  .204E+00  .213E+00  .231E+00  .235E+00  .169E+00  .147E+00  .151E+00
  .141E+00  .109E+00  .113E+00  .953E-01  .749E-01  .733E-01  .961E-01  .951E-01
  .828E-01  .801E-01  .570E-01  .579E-01  .566E-01  .546E-01  .536E-01  .508E-01
  .524E-01  .517E-01  .542E-01  .547E-01  .548E-01  .571E-01  .528E-01  .539E-01
  .552E-01  .503E-01  .546E-01  .547E-01  .550E-01  .551E-01  .518E-01  .524E-01
  .525E-01  .517E-01  .524E-01  .521E-01  .000E+00  .000E+00  .000E+00  .000E+00
  .000E+00  .000E+00  .000E+00  .000E+00  .000E+00  .000E+00  .000E+00  .000E+00
  .000E+00  .000E+00  .000E+00  .000E+00  .000E+00  .000E+00  .000E+00  .000E+00
  .000E+00  .000E+00  .000E+00  .000E+00  .000E+00  .000E+00  .000E+00  .000E+00
  .000E+00  .000E+00  .000E+00  .000E+00
  .893E-02  .942E-02  .864E-02  .819E-02  .983E-02  .110E-01  .121E-01  .737E-02
  .738E-02  .858E-02  .708E-02  .956E-02  .705E-02  .716E-02  .126E-01  .126E-01
  .103E-01  .187E-01  .148E-01  .169E-01  .126E-01  .958E-02  .846E-02  .128E-01
  .705E-02  .167E-01  .160E-01  .159E-01  .147E-01  .918E-02  .735E-02  .772E-02
  .671E-02  .461E-02  .430E-02  .338E-02  .249E-02  .267E-02  .336E-02  .304E-02
  .275E-02  .234E-02  .122E-02  .929E-03  .740E-03  .608E-03  .564E-03  .494E-03
  .516E-03  .422E-03  .415E-03  .286E-03  .253E-03  .217E-03  .138E-03  .125E-03
  .123E-03  .136E-03  .104E-03  .994E-04  .701E-04  .638E-04  .338E-04  .439E-04
  .314E-04  .283E-04  .275E-04  .202E-04  .000E+00  .000E+00  .000E+00  .000E+00
  .000E+00  .000E+00  .000E+00  .000E+00  .000E+00  .000E+00  .000E+00  .000E+00
  .000E+00  .000E+00  .000E+00  .000E+00  .000E+00  .000E+00  .000E+00  .000E+00
  .000E+00  .000E+00  .000E+00  .000E+00  .000E+00  .000E+00  .000E+00  .000E+00
  .000E+00  .000E+00  .000E+00  .000E+00
  .220E-01  .243E-01  .234E-01  .231E-01  .290E-01  .338E-01  .408E-01  .272E-01
  .295E-01  .369E-01  .326E-01  .470E-01  .368E-01  .396E-01  .733E-01  .774E-01
  .693E-01  .138E+00  .118E+00  .145E+00  .116E+00  .942E-01  .884E-01  .141E+00
  .823E-01  .206E+00  .216E+00  .235E+00  .235E+00  .158E+00  .136E+00  .152E+00
  .140E+00  .102E+00  .100E+00  .832E-01  .642E-01  .722E-01  .950E-01  .897E-01
  .845E-01  .792E-01  .450E-01  .371E-01  .318E-01  .280E-01  .277E-01  .258E-01
  .285E-01  .246E-01  .255E-01  .193E-01  .187E-01  .173E-01  .119E-01  .115E-01
  .121E-01  .142E-01  .115E-01  .116E-01  .861E-02  .863E-02  .498E-02  .702E-02
  .541E-02  .522E-02  .540E-02  .422E-02  .000E+00  .000E+00  .000E+00  .000E+00
  .000E+00  .000E+00  .000E+00  .000E+00  .000E+00  .000E+00  .000E+00  .000E+00
  .000E+00  .000E+00  .000E+00  .000E+00  .000E+00  .000E+00  .000E+00  .000E+00
  .000E+00  .000E+00  .000E+00  .000E+00  .000E+00  .000E+00  .000E+00  .000E+00
  .000E+00  .000E+00  .000E+00  .000E+00
  .255E+02  .255E+02  .255E+02  .254E+02  .255E+02  .266E+02  .255E+02  .255E+02
  .257E+02  .266E+02  .258E+02  .255E+02  .255E+02  .255E+02  .267E+02  .262E+02
  .255E+02  .319E+02  .258E+02  .279E+02  .259E+02  .256E+02  .256E+02  .256E+02
  .256E+02  .278E+02  .263E+02  .265E+02  .305E+02  .258E+02  .257E+02  .281E+02
  .301E+02  .257E+02  .262E+02  .262E+02  .260E+02  .285E+02  .297E+02  .342E+02
  .266E+02  .308E+02  .280E+02  .259E+02  .256E+02  .255E+02  .255E+02  .255E+02
  .255E+02  .255E+02  .255E+02  .255E+02  .255E+02  .255E+02  .255E+02  .255E+02
  .255E+02  .255E+02  .255E+02  .255E+02  .255E+02  .255E+02  .255E+02  .255E+02
  .255E+02  .255E+02  .255E+02  .255E+02  .000E+00  .000E+00  .000E+00  .000E+00
  .000E+00  .000E+00  .000E+00  .000E+00  .000E+00  .000E+00  .000E+00  .000E+00
  .000E+00  .000E+00  .000E+00  .000E+00  .000E+00  .000E+00  .000E+00  .000E+00
  .000E+00  .000E+00  .000E+00  .000E+00  .000E+00  .000E+00  .000E+00  .000E+00
  .000E+00  .000E+00  .000E+00  .000E+00
  .316E+02  .254E+02  .243E+02  .366E+02  .330E+02  .266E+02  .254E+02  .254E+02
  .257E+02  .273E+02  .258E+02  .258E+02  .256E+02  .258E+02  .273E+02  .262E+02
  .255E+02  .319E+02  .259E+02  .280E+02  .260E+02  .325E+02  .256E+02  .256E+02
  .256E+02  .278E+02  .263E+02  .265E+02  .305E+02  .258E+02  .258E+02  .281E+02
  .302E+02  .257E+02  .257E+02  .257E+02  .257E+02  .257E+02  .299E+02  .267E+02
  .267E+02  .307E+02  .255E+02  .255E+02  .255E+02  .255E+02  .255E+02  .254E+02
  .254E+02  .254E+02  .254E+02  .254E+02  .254E+02  .254E+02  .254E+02  .254E+02
  .254E+02  .254E+02  .254E+02  .254E+02  .254E+02  .254E+02  .254E+02  .254E+02
  .254E+02  .254E+02  .254E+02  .254E+02  .000E+00  .000E+00  .000E+00  .000E+00
  .000E+00  .000E+00  .000E+00  .000E+00  .000E+00  .000E+00  .000E+00  .000E+00
  .000E+00  .000E+00  .000E+00  .000E+00  .000E+00  .000E+00  .000E+00  .000E+00
  .000E+00  .000E+00  .000E+00  .000E+00  .000E+00  .000E+00  .000E+00  .000E+00
  .000E+00  .000E+00  .000E+00  .000E+00
  .255E+02  .255E+02  .255E+02  .254E+02  .255E+02  .266E+02  .255E+02  .255E+02
  .257E+02  .266E+02  .258E+02  .255E+02  .255E+02  .255E+02  .267E+02  .262E+02
  .255E+02  .319E+02  .258E+02  .279E+02  .259E+02  .256E+02  .256E+02  .256E+02
  .256E+02  .278E+02  .263E+02  .265E+02  .305E+02  .258E+02  .257E+02  .281E+02
  .301E+02  .257E+02  .262E+02  .262E+02  .260E+02  .285E+02  .297E+02  .342E+02
  .266E+02  .308E+02  .280E+02  .259E+02  .256E+02  .255E+02  .255E+02  .255E+02
  .255E+02  .255E+02  .255E+02  .255E+02  .255E+02  .255E+02  .255E+02  .255E+02
  .255E+02  .255E+02  .255E+02  .255E+02  .255E+02  .255E+02  .255E+02  .255E+02
  .255E+02  .255E+02  .255E+02  .255E+02  .000E+00  .000E+00  .000E+00  .000E+00
  .000E+00  .000E+00  .000E+00  .000E+00  .000E+00  .000E+00  .000E+00  .000E+00
  .000E+00  .000E+00  .000E+00  .000E+00  .000E+00  .000E+00  .000E+00  .000E+00
  .000E+00  .000E+00  .000E+00  .000E+00  .000E+00  .000E+00  .000E+00  .000E+00
  .000E+00  .000E+00  .000E+00  .000E+00
Damping =  .02. Data of Sd,Sv,Sa,Pssv,ttSd,ttSv,ttSa :
  .609E-04  .725E-04  .761E-04  .808E-04  .916E-04  .121E-03  .146E-03  .195E-03
  .230E-03  .249E-03  .351E-03  .425E-03  .509E-03  .660E-03  .736E-03  .765E-03
  .106E-02  .167E-02  .202E-02  .214E-02  .205E-02  .223E-02  .242E-02  .300E-02
  .270E-02  .390E-02  .519E-02  .603E-02  .624E-02  .596E-02  .584E-02  .564E-02
  .558E-02  .538E-02  .508E-02  .459E-02  .398E-02  .409E-02  .460E-02  .491E-02
  .524E-02  .399E-02  .361E-02  .362E-02  .348E-02  .327E-02  .346E-02  .351E-02
  .369E-02  .355E-02  .367E-02  .340E-02  .338E-02  .337E-02  .295E-02  .300E-02
  .304E-02  .342E-02  .338E-02  .330E-02  .290E-02  .283E-02  .220E-02  .273E-02
  .248E-02  .252E-02  .264E-02  .241E-02  .000E+00  .000E+00  .000E+00  .000E+00
  .000E+00  .000E+00  .000E+00  .000E+00  .000E+00  .000E+00  .000E+00  .000E+00
  .000E+00  .000E+00  .000E+00  .000E+00  .000E+00  .000E+00  .000E+00  .000E+00
  .000E+00  .000E+00  .000E+00  .000E+00  .000E+00  .000E+00  .000E+00  .000E+00
  .000E+00  .000E+00  .000E+00  .000E+00
  .794E-02  .855E-02  .859E-02  .825E-02  .865E-02  .102E-01  .122E-01  .104E-01
  .157E-01  .185E-01  .245E-01  .201E-01  .237E-01  .332E-01  .373E-01  .364E-01
  .486E-01  .759E-01  .910E-01  .923E-01  .786E-01  .830E-01  .858E-01  .102E+00
  .855E-01  .120E+00  .149E+00  .161E+00  .156E+00  .149E+00  .134E+00  .113E+00
  .105E+00  .102E+00  .101E+00  .902E-01  .763E-01  .732E-01  .754E-01  .729E-01
  .725E-01  .613E-01  .575E-01  .571E-01  .565E-01  .543E-01  .526E-01  .508E-01
  .522E-01  .523E-01  .531E-01  .540E-01  .542E-01  .548E-01  .532E-01  .531E-01
  .531E-01  .517E-01  .538E-01  .542E-01  .543E-01  .542E-01  .522E-01  .522E-01
  .523E-01  .518E-01  .521E-01  .520E-01  .000E+00  .000E+00  .000E+00  .000E+00
  .000E+00  .000E+00  .000E+00  .000E+00  .000E+00  .000E+00  .000E+00  .000E+00
  .000E+00  .000E+00  .000E+00  .000E+00  .000E+00  .000E+00  .000E+00  .000E+00
  .000E+00  .000E+00  .000E+00  .000E+00  .000E+00  .000E+00  .000E+00  .000E+00
  .000E+00  .000E+00  .000E+00  .000E+00
  .389E-02  .421E-02  .402E-02  .391E-02  .407E-02  .496E-02  .493E-02  .554E-02
  .557E-02  .522E-02  .639E-02  .682E-02  .719E-02  .832E-02  .832E-02  .783E-02
  .900E-02  .118E-01  .122E-01  .112E-01  .935E-02  .893E-02  .854E-02  .947E-02
  .765E-02  .996E-02  .110E-01  .107E-01  .947E-02  .778E-02  .664E-02  .563E-02
  .494E-02  .426E-02  .361E-02  .294E-02  .231E-02  .216E-02  .223E-02  .218E-02
  .214E-02  .135E-02  .103E-02  .879E-03  .728E-03  .598E-03  .556E-03  .500E-03
  .469E-03  .405E-03  .379E-03  .291E-03  .243E-03  .207E-03  .157E-03  .139E-03
  .124E-03  .124E-03  .110E-03  .964E-04  .771E-04  .626E-04  .419E-04  .441E-04
  .353E-04  .316E-04  .293E-04  .242E-04  .000E+00  .000E+00  .000E+00  .000E+00
  .000E+00  .000E+00  .000E+00  .000E+00  .000E+00  .000E+00  .000E+00  .000E+00
  .000E+00  .000E+00  .000E+00  .000E+00  .000E+00  .000E+00  .000E+00  .000E+00
  .000E+00  .000E+00  .000E+00  .000E+00  .000E+00  .000E+00  .000E+00  .000E+00
  .000E+00  .000E+00  .000E+00  .000E+00
  .957E-02  .109E-01  .109E-01  .110E-01  .120E-01  .152E-01  .167E-01  .204E-01
  .222E-01  .224E-01  .294E-01  .334E-01  .376E-01  .461E-01  .487E-01  .481E-01
  .608E-01  .873E-01  .979E-01  .963E-01  .861E-01  .875E-01  .893E-01  .105E+00
  .894E-01  .122E+00  .148E+00  .158E+00  .151E+00  .134E+00  .122E+00  .111E+00
  .103E+00  .939E-01  .840E-01  .721E-01  .595E-01  .585E-01  .628E-01  .643E-01
  .658E-01  .456E-01  .378E-01  .350E-01  .312E-01  .274E-01  .272E-01  .260E-01
  .258E-01  .235E-01  .231E-01  .194E-01  .177E-01  .163E-01  .132E-01  .126E-01
  .119E-01  .126E-01  .118E-01  .109E-01  .913E-02  .808E-02  .575E-02  .659E-02
  .558E-02  .529E-02  .518E-02  .445E-02  .000E+00  .000E+00  .000E+00  .000E+00
  .000E+00  .000E+00  .000E+00  .000E+00  .000E+00  .000E+00  .000E+00  .000E+00
  .000E+00  .000E+00  .000E+00  .000E+00  .000E+00  .000E+00  .000E+00  .000E+00
  .000E+00  .000E+00  .000E+00  .000E+00  .000E+00  .000E+00  .000E+00  .000E+00
  .000E+00  .000E+00  .000E+00  .000E+00
  .255E+02  .255E+02  .255E+02  .255E+02  .254E+02  .254E+02  .255E+02  .255E+02
  .257E+02  .257E+02  .255E+02  .255E+02  .255E+02  .255E+02  .255E+02  .255E+02
  .255E+02  .255E+02  .258E+02  .258E+02  .255E+02  .255E+02  .256E+02  .256E+02
  .256E+02  .260E+02  .262E+02  .261E+02  .258E+02  .258E+02  .257E+02  .257E+02
  .257E+02  .257E+02  .258E+02  .256E+02  .256E+02  .260E+02  .261E+02  .266E+02
  .266E+02  .264E+02  .256E+02  .256E+02  .256E+02  .255E+02  .255E+02  .255E+02
  .255E+02  .255E+02  .255E+02  .255E+02  .255E+02  .255E+02  .255E+02  .255E+02
  .255E+02  .255E+02  .255E+02  .255E+02  .255E+02  .255E+02  .255E+02  .255E+02
  .255E+02  .255E+02  .255E+02  .255E+02  .000E+00  .000E+00  .000E+00  .000E+00
  .000E+00  .000E+00  .000E+00  .000E+00  .000E+00  .000E+00  .000E+00  .000E+00
  .000E+00  .000E+00  .000E+00  .000E+00  .000E+00  .000E+00  .000E+00  .000E+00
  .000E+00  .000E+00  .000E+00  .000E+00  .000E+00  .000E+00  .000E+00  .000E+00
  .000E+00  .000E+00  .000E+00  .000E+00
  .235E+02  .235E+02  .236E+02  .237E+02  .240E+02  .239E+02  .237E+02  .260E+02
  .257E+02  .258E+02  .258E+02  .256E+02  .255E+02  .255E+02  .255E+02  .255E+02
  .255E+02  .255E+02  .258E+02  .259E+02  .259E+02  .255E+02  .256E+02  .256E+02
  .256E+02  .260E+02  .263E+02  .262E+02  .259E+02  .258E+02  .258E+02  .258E+02
  .257E+02  .257E+02  .257E+02  .257E+02  .257E+02  .257E+02  .257E+02  .257E+02
  .255E+02  .255E+02  .255E+02  .255E+02  .255E+02  .255E+02  .255E+02  .254E+02
  .254E+02  .254E+02  .254E+02  .254E+02  .254E+02  .254E+02  .254E+02  .254E+02
  .254E+02  .254E+02  .254E+02  .254E+02  .254E+02  .254E+02  .254E+02  .254E+02
  .254E+02  .254E+02  .254E+02  .254E+02  .000E+00  .000E+00  .000E+00  .000E+00
  .000E+00  .000E+00  .000E+00  .000E+00  .000E+00  .000E+00  .000E+00  .000E+00
  .000E+00  .000E+00  .000E+00  .000E+00  .000E+00  .000E+00  .000E+00  .000E+00
  .000E+00  .000E+00  .000E+00  .000E+00  .000E+00  .000E+00  .000E+00  .000E+00
  .000E+00  .000E+00  .000E+00  .000E+00
  .255E+02  .255E+02  .255E+02  .255E+02  .254E+02  .254E+02  .255E+02  .255E+02
  .257E+02  .257E+02  .255E+02  .255E+02  .255E+02  .255E+02  .255E+02  .255E+02
  .255E+02  .255E+02  .258E+02  .258E+02  .255E+02  .255E+02  .256E+02  .256E+02
  .256E+02  .260E+02  .262E+02  .261E+02  .258E+02  .258E+02  .257E+02  .257E+02
  .257E+02  .257E+02  .258E+02  .256E+02  .256E+02  .260E+02  .261E+02  .266E+02
  .266E+02  .264E+02  .256E+02  .256E+02  .256E+02  .255E+02  .255E+02  .255E+02
  .255E+02  .255E+02  .255E+02  .255E+02  .255E+02  .255E+02  .255E+02  .255E+02
  .255E+02  .255E+02  .255E+02  .255E+02  .255E+02  .255E+02  .255E+02  .255E+02
  .255E+02  .255E+02  .255E+02  .255E+02  .000E+00  .000E+00  .000E+00  .000E+00
  .000E+00  .000E+00  .000E+00  .000E+00  .000E+00  .000E+00  .000E+00  .000E+00
  .000E+00  .000E+00  .000E+00  .000E+00  .000E+00  .000E+00  .000E+00  .000E+00
  .000E+00  .000E+00  .000E+00  .000E+00  .000E+00  .000E+00  .000E+00  .000E+00
  .000E+00  .000E+00  .000E+00  .000E+00
Damping =  .05. Data of Sd,Sv,Sa,Pssv,ttSd,ttSv,ttSa :
  .595E-04  .670E-04  .744E-04  .779E-04  .878E-04  .105E-03  .138E-03  .180E-03
  .205E-03  .243E-03  .330E-03  .404E-03  .494E-03  .607E-03  .679E-03  .737E-03
  .100E-02  .142E-02  .164E-02  .173E-02  .190E-02  .208E-02  .227E-02  .245E-02
  .249E-02  .278E-02  .377E-02  .437E-02  .500E-02  .494E-02  .509E-02  .502E-02
  .494E-02  .475E-02  .440E-02  .419E-02  .392E-02  .387E-02  .406E-02  .421E-02
