Response and Fourier amplitude spectra (68 periods,  .04 -  3.4 sec)   for      
Corrected accelerogram   24207-M0150-20021.15       Chan  5:  Radl       from   
Uncorrected Accelerogram Data             Processed: 01/24/20, CGS  ce24207o    
Rcrd of Tue Jan 21, 2020 23:40:50.0 PST               (Avol1 v2.0, 4/18 CSMIP)  
CSMIP Preliminary Processing            (Origin:  To be determined)             
24207-M0150-20021.15                 Start time:  1/22/20, 07:40:50.0 UTC (GPS) 
Station No. 24207   34.335N, 118.397W    MtWtny  s/n  150 (17 Chns of 17 at Sta)
Sylmar - Pacoima Dam                      CGS   Data: Acceleration              
Chan  5:  Radl                      Location: Crest: Left 1/4-length Point      
Rcrd of Tue Jan 21, 2020 23:40:50.0 PST    Tue Jan 21, 2020 23:40:50.0 PST      
Hypocenter:  To be determined.               ML:  To be determined.
Instr Period =  .0101 sec,  Damping =  .680,  Sensitivity =  .63 v/g
                        Record Length = 58.000 sec.
                                     Uncor Max  =  -.071 g, at   25.680 sec.
RMS accel of (uncor) record  =        .   Chn. metadata effective date: 09/02/99
Accelerogram bandpass filtered with 3 dB pts at   .30 and 40.00 cyc/sec
                 instrument- and base-line correcte





Rcrd of Tue Jan 21, 2020 23:40:50.0 PST    Tue Jan 21, 2020 23:40:50.0 PST

24207-M0150-20021.15      Sylmar - Pacoima Dam    Chan  5:  Radl

24207-M0150-20021.15      Sylmar - Pacoima Dam    Chan  5:  Radl

Units for spectra are inches and sec, except Sa is in fraction of g.

    5  100    5   18   17  200    1    3    1   24   13  150    024207    5    0
    7   40   50    0   22    1   22 2020   10    3  70011600   39   20   74   -1
11600    0  100    3  150    1   15  580    2 -999 -999 -999 -999 -999 -999 -999
 -999 -999    3 -99911600    1  222    1   18    4 -999 -999    3    1 -99911600
    311600    4   68    5   17    5    0    0 -999    0    0    1    3    1    2
    2    2    4    0   68   67    0   10 -999    1    0    1    0    0   64  222
    1    0    4    0
      .010      .680    58.000      .004     1.000   625.000     -.071    25.680
    98.700      .298      .477  -999.000     5.000  -999.000     4.000  -999.000
     2.500    -7.390     2.500  2016.000    25.000    30.000  -999.000     -.007
      .004      .011     2.000    15.000    34.335  -118.397      .008      .052
     6.895      .007      .015   594.000    25.700    27.200    12.600   103.640
     1.000    10.003    -8.000  -999.000  -999.000  -999.000  -999.000  -999.000
     6.900     2.000     6.800   980.665      .005    58.000    15.709      .000
  -999.000    40.000  -999.000    58.000      .005      .303  -999.000  -999.000
    25.675   -68.972    25.720    -2.121    25.670      .070      .000      .303
    40.000      .005      .005      .000      .345      .016  -999.000  -999.000
      .280      .220      .256      .095      .003      .001  -999.000  -999.000
  -999.000  -999.000  -999.000  -999.000  -999.000  -999.000  -999.000  -999.000
  -999.000  -999.000  -999.000  -999.000
      .000      .020      .050      .100      .200
      .040      .042      .044      .046      .048      .050      .055      .060
      .065      .070      .075      .080      .085      .090      .095      .100
      .110      .120      .130      .140      .150      .160      .170      .180
      .190      .200      .220      .240      .260      .280      .300      .320
      .340      .360      .380      .400      .420      .440      .460      .480
      .500      .550      .600      .650      .700      .750      .800      .850
      .900      .950     1.000     1.100     1.200     1.300     1.400     1.500
     1.600     1.700     1.800     1.900     2.000     2.200     2.400     2.600
     2.800     3.000     3.200     3.400      .000      .000      .000      .000
      .000      .000      .000      .000      .000      .000      .000      .000
      .000      .000      .000      .000      .000      .000      .000      .000
      .000      .000      .000      .000      .000      .000      .000      .000
      .000      .000      .000      .000
Fourier amplitude spectra in in/sec.
  .117E+00  .454E-01  .511E-01  .364E-01  .624E-01  .151E+00  .423E-01  .282E-01
  .218E+00  .312E+00  .647E+00  .707E+00  .896E-01  .625E+00  .111E+01  .109E+01
  .683E+00  .147E+01  .253E+00  .225E+01  .370E+01  .159E+01  .219E+01  .203E+01
  .191E+01  .411E+01  .892E+01  .428E+01  .478E+01  .192E+01  .495E+00  .137E+01
  .610E+00  .266E+00  .162E+00  .833E-01  .187E+00  .746E-01  .158E+00  .147E+00
  .153E+00  .449E-01  .279E-01  .516E-01  .283E-01  .395E-01  .220E-01  .953E-02
  .163E-01  .180E-01  .140E-01  .133E-01  .144E-01  .980E-02  .922E-02  .541E-02
  .113E-01  .689E-02  .505E-02  .109E-01  .421E-02  .810E-02  .835E-02  .260E-02
  .260E-02  .914E-03  .314E-02  .161E-02  .000E+00  .000E+00  .000E+00  .000E+00
  .000E+00  .000E+00  .000E+00  .000E+00  .000E+00  .000E+00  .000E+00  .000E+00
  .000E+00  .000E+00  .000E+00  .000E+00  .000E+00  .000E+00  .000E+00  .000E+00
  .000E+00  .000E+00  .000E+00  .000E+00  .000E+00  .000E+00  .000E+00  .000E+00
  .000E+00  .000E+00  .000E+00  .000E+00
Damping =  .00. Data of Sd,Sv,Sa,Pssv,ttSd,ttSv,ttSa :
  .147E-02  .145E-02  .166E-02  .190E-02  .206E-02  .250E-02  .298E-02  .318E-02
  .560E-02  .521E-02  .111E-01  .109E-01  .893E-02  .126E-01  .235E-01  .242E-01
  .163E-01  .328E-01  .305E-01  .540E-01  .931E-01  .703E-01  .926E-01  .995E-01
  .139E+00  .163E+00  .316E+00  .239E+00  .203E+00  .124E+00  .978E-01  .795E-01
  .688E-01  .604E-01  .549E-01  .510E-01  .479E-01  .446E-01  .419E-01  .396E-01
  .390E-01  .381E-01  .365E-01  .350E-01  .342E-01  .338E-01  .329E-01  .323E-01
  .318E-01  .315E-01  .310E-01  .306E-01  .302E-01  .300E-01  .297E-01  .289E-01
  .288E-01  .291E-01  .290E-01  .283E-01  .279E-01  .290E-01  .286E-01  .284E-01
  .283E-01  .284E-01  .281E-01  .278E-01  .000E+00  .000E+00  .000E+00  .000E+00
  .000E+00  .000E+00  .000E+00  .000E+00  .000E+00  .000E+00  .000E+00  .000E+00
  .000E+00  .000E+00  .000E+00  .000E+00  .000E+00  .000E+00  .000E+00  .000E+00
  .000E+00  .000E+00  .000E+00  .000E+00  .000E+00  .000E+00  .000E+00  .000E+00
  .000E+00  .000E+00  .000E+00  .000E+00
  .124E+00  .950E-01  .854E-01  .121E+00  .155E+00  .176E+00  .172E+00  .143E+00
  .344E+00  .361E+00  .773E+00  .784E+00  .484E+00  .762E+00  .136E+01  .135E+01
  .795E+00  .163E+01  .123E+01  .238E+01  .388E+01  .260E+01  .322E+01  .334E+01
  .447E+01  .510E+01  .904E+01  .639E+01  .491E+01  .319E+01  .240E+01  .181E+01
  .160E+01  .151E+01  .141E+01  .134E+01  .128E+01  .123E+01  .118E+01  .114E+01
  .111E+01  .105E+01  .993E+00  .961E+00  .939E+00  .920E+00  .905E+00  .894E+00
  .884E+00  .878E+00  .871E+00  .864E+00  .856E+00  .854E+00  .848E+00  .847E+00
  .841E+00  .842E+00  .844E+00  .834E+00  .839E+00  .838E+00  .838E+00  .835E+00
  .837E+00  .837E+00  .837E+00  .837E+00  .000E+00  .000E+00  .000E+00  .000E+00
  .000E+00  .000E+00  .000E+00  .000E+00  .000E+00  .000E+00  .000E+00  .000E+00
  .000E+00  .000E+00  .000E+00  .000E+00  .000E+00  .000E+00  .000E+00  .000E+00
  .000E+00  .000E+00  .000E+00  .000E+00  .000E+00  .000E+00  .000E+00  .000E+00
  .000E+00  .000E+00  .000E+00  .000E+00
  .939E-01  .843E-01  .877E-01  .916E-01  .916E-01  .102E+00  .101E+00  .902E-01
  .135E+00  .109E+00  .202E+00  .175E+00  .126E+00  .159E+00  .266E+00  .248E+00
  .137E+00  .233E+00  .185E+00  .282E+00  .423E+00  .281E+00  .328E+00  .314E+00
  .393E+00  .417E+00  .668E+00  .424E+00  .307E+00  .162E+00  .111E+00  .794E-01
  .609E-01  .477E-01  .389E-01  .326E-01  .278E-01  .236E-01  .203E-01  .176E-01
  .160E-01  .129E-01  .104E-01  .847E-02  .713E-02  .615E-02  .525E-02  .457E-02
  .402E-02  .357E-02  .317E-02  .258E-02  .214E-02  .182E-02  .155E-02  .131E-02
  .115E-02  .103E-02  .915E-03  .802E-03  .712E-03  .613E-03  .508E-03  .430E-03
  .369E-03  .322E-03  .281E-03  .246E-03  .000E+00  .000E+00  .000E+00  .000E+00
  .000E+00  .000E+00  .000E+00  .000E+00  .000E+00  .000E+00  .000E+00  .000E+00
  .000E+00  .000E+00  .000E+00  .000E+00  .000E+00  .000E+00  .000E+00  .000E+00
  .000E+00  .000E+00  .000E+00  .000E+00  .000E+00  .000E+00  .000E+00  .000E+00
  .000E+00  .000E+00  .000E+00  .000E+00
  .231E+00  .218E+00  .237E+00  .259E+00  .270E+00  .314E+00  .341E+00  .333E+00
  .541E+00  .468E+00  .930E+00  .859E+00  .660E+00  .880E+00  .155E+01  .152E+01
  .929E+00  .172E+01  .147E+01  .242E+01  .390E+01  .276E+01  .342E+01  .347E+01
  .458E+01  .512E+01  .903E+01  .625E+01  .490E+01  .279E+01  .205E+01  .156E+01
  .127E+01  .105E+01  .907E+00  .802E+00  .717E+00  .637E+00  .573E+00  .519E+00
  .490E+00  .435E+00  .382E+00  .338E+00  .307E+00  .284E+00  .258E+00  .239E+00
  .222E+00  .208E+00  .195E+00  .175E+00  .158E+00  .145E+00  .133E+00  .121E+00
  .113E+00  .108E+00  .101E+00  .936E-01  .875E-01  .829E-01  .750E-01  .686E-01
  .635E-01  .594E-01  .552E-01  .514E-01  .000E+00  .000E+00  .000E+00  .000E+00
  .000E+00  .000E+00  .000E+00  .000E+00  .000E+00  .000E+00  .000E+00  .000E+00
  .000E+00  .000E+00  .000E+00  .000E+00  .000E+00  .000E+00  .000E+00  .000E+00
  .000E+00  .000E+00  .000E+00  .000E+00  .000E+00  .000E+00  .000E+00  .000E+00
  .000E+00  .000E+00  .000E+00  .000E+00
  .259E+02  .259E+02  .257E+02  .257E+02  .261E+02  .257E+02  .257E+02  .257E+02
  .257E+02  .259E+02  .260E+02  .260E+02  .258E+02  .260E+02  .261E+02  .261E+02
  .256E+02  .264E+02  .257E+02  .288E+02  .303E+02  .258E+02  .259E+02  .259E+02
  .262E+02  .281E+02  .355E+02  .266E+02  .313E+02  .261E+02  .260E+02  .259E+02
  .259E+02  .258E+02  .258E+02  .258E+02  .258E+02  .258E+02  .258E+02  .257E+02
  .257E+02  .257E+02  .257E+02  .257E+02  .257E+02  .257E+02  .257E+02  .257E+02
  .257E+02  .257E+02  .257E+02  .257E+02  .257E+02  .257E+02  .257E+02  .257E+02
  .257E+02  .257E+02  .257E+02  .257E+02  .258E+02  .257E+02  .258E+02  .258E+02
  .258E+02  .258E+02  .258E+02  .258E+02  .000E+00  .000E+00  .000E+00  .000E+00
  .000E+00  .000E+00  .000E+00  .000E+00  .000E+00  .000E+00  .000E+00  .000E+00
  .000E+00  .000E+00  .000E+00  .000E+00  .000E+00  .000E+00  .000E+00  .000E+00
  .000E+00  .000E+00  .000E+00  .000E+00  .000E+00  .000E+00  .000E+00  .000E+00
  .000E+00  .000E+00  .000E+00  .000E+00
  .264E+02  .259E+02  .257E+02  .257E+02  .260E+02  .267E+02  .256E+02  .255E+02
  .257E+02  .267E+02  .261E+02  .261E+02  .257E+02  .261E+02  .266E+02  .261E+02
  .256E+02  .265E+02  .257E+02  .288E+02  .304E+02  .258E+02  .258E+02  .259E+02
  .263E+02  .281E+02  .355E+02  .265E+02  .312E+02  .261E+02  .261E+02  .258E+02
  .258E+02  .257E+02  .257E+02  .257E+02  .257E+02  .257E+02  .257E+02  .257E+02
  .257E+02  .257E+02  .257E+02  .257E+02  .257E+02  .257E+02  .257E+02  .257E+02
  .257E+02  .257E+02  .257E+02  .257E+02  .257E+02  .257E+02  .257E+02  .257E+02
  .257E+02  .257E+02  .257E+02  .257E+02  .257E+02  .257E+02  .257E+02  .257E+02
  .257E+02  .257E+02  .257E+02  .257E+02  .000E+00  .000E+00  .000E+00  .000E+00
  .000E+00  .000E+00  .000E+00  .000E+00  .000E+00  .000E+00  .000E+00  .000E+00
  .000E+00  .000E+00  .000E+00  .000E+00  .000E+00  .000E+00  .000E+00  .000E+00
  .000E+00  .000E+00  .000E+00  .000E+00  .000E+00  .000E+00  .000E+00  .000E+00
  .000E+00  .000E+00  .000E+00  .000E+00
  .259E+02  .259E+02  .257E+02  .257E+02  .261E+02  .257E+02  .257E+02  .257E+02
  .257E+02  .259E+02  .260E+02  .260E+02  .258E+02  .260E+02  .261E+02  .261E+02
  .256E+02  .264E+02  .257E+02  .288E+02  .303E+02  .258E+02  .259E+02  .259E+02
  .262E+02  .281E+02  .355E+02  .266E+02  .313E+02  .261E+02  .260E+02  .259E+02
  .259E+02  .258E+02  .258E+02  .258E+02  .258E+02  .258E+02  .258E+02  .257E+02
  .257E+02  .257E+02  .257E+02  .257E+02  .257E+02  .257E+02  .257E+02  .257E+02
  .257E+02  .257E+02  .257E+02  .257E+02  .257E+02  .257E+02  .257E+02  .257E+02
  .257E+02  .257E+02  .257E+02  .257E+02  .258E+02  .257E+02  .258E+02  .258E+02
  .258E+02  .258E+02  .258E+02  .258E+02  .000E+00  .000E+00  .000E+00  .000E+00
  .000E+00  .000E+00  .000E+00  .000E+00  .000E+00  .000E+00  .000E+00  .000E+00
  .000E+00  .000E+00  .000E+00  .000E+00  .000E+00  .000E+00  .000E+00  .000E+00
  .000E+00  .000E+00  .000E+00  .000E+00  .000E+00  .000E+00  .000E+00  .000E+00
  .000E+00  .000E+00  .000E+00  .000E+00
Damping =  .02. Data of Sd,Sv,Sa,Pssv,ttSd,ttSv,ttSa :
  .115E-02  .129E-02  .144E-02  .153E-02  .173E-02  .202E-02  .262E-02  .324E-02
  .441E-02  .478E-02  .713E-02  .736E-02  .819E-02  .107E-01  .173E-01  .186E-01
  .151E-01  .229E-01  .294E-01  .401E-01  .557E-01  .648E-01  .777E-01  .898E-01
  .107E+00  .126E+00  .179E+00  .176E+00  .139E+00  .111E+00  .896E-01  .753E-01
  .657E-01  .585E-01  .539E-01  .503E-01  .471E-01  .442E-01  .416E-01  .395E-01
  .385E-01  .375E-01  .361E-01  .349E-01  .340E-01  .335E-01  .328E-01  .322E-01
  .318E-01  .314E-01  .310E-01  .304E-01  .301E-01  .298E-01  .295E-01  .291E-01
  .289E-01  .288E-01  .288E-01  .284E-01  .277E-01  .283E-01  .281E-01  .282E-01
  .283E-01  .282E-01  .281E-01  .278E-01  .000E+00  .000E+00  .000E+00  .000E+00
  .000E+00  .000E+00  .000E+00  .000E+00  .000E+00  .000E+00  .000E+00  .000E+00
  .000E+00  .000E+00  .000E+00  .000E+00  .000E+00  .000E+00  .000E+00  .000E+00
  .000E+00  .000E+00  .000E+00  .000E+00  .000E+00  .000E+00  .000E+00  .000E+00
  .000E+00  .000E+00  .000E+00  .000E+00
  .570E-01  .748E-01  .901E-01  .939E-01  .900E-01  .924E-01  .903E-01  .122E+00
  .237E+00  .254E+00  .413E+00  .487E+00  .456E+00  .587E+00  .961E+00  .965E+00
  .738E+00  .104E+01  .115E+01  .150E+01  .207E+01  .231E+01  .269E+01  .292E+01
  .344E+01  .380E+01  .514E+01  .473E+01  .360E+01  .290E+01  .224E+01  .173E+01
  .155E+01  .147E+01  .139E+01  .132E+01  .127E+01  .122E+01  .118E+01  .114E+01
  .111E+01  .105E+01  .996E+00  .963E+00  .939E+00  .922E+00  .906E+00  .895E+00
  .886E+00  .879E+00  .873E+00  .864E+00  .858E+00  .854E+00  .849E+00  .847E+00
  .844E+00  .843E+00  .842E+00  .838E+00  .839E+00  .838E+00  .837E+00  .836E+00
  .837E+00  .837E+00  .837E+00  .837E+00  .000E+00  .000E+00  .000E+00  .000E+00
  .000E+00  .000E+00  .000E+00  .000E+00  .000E+00  .000E+00  .000E+00  .000E+00
  .000E+00  .000E+00  .000E+00  .000E+00  .000E+00  .000E+00  .000E+00  .000E+00
  .000E+00  .000E+00  .000E+00  .000E+00  .000E+00  .000E+00  .000E+00  .000E+00
  .000E+00  .000E+00  .000E+00  .000E+00
  .733E-01  .748E-01  .762E-01  .740E-01  .766E-01  .827E-01  .886E-01  .923E-01
  .107E+00  .999E-01  .130E+00  .117E+00  .116E+00  .136E+00  .196E+00  .190E+00
  .128E+00  .163E+00  .178E+00  .209E+00  .253E+00  .259E+00  .275E+00  .283E+00
  .302E+00  .321E+00  .379E+00  .313E+00  .211E+00  .144E+00  .102E+00  .755E-01
  .583E-01  .463E-01  .382E-01  .322E-01  .274E-01  .234E-01  .202E-01  .176E-01
  .158E-01  .127E-01  .103E-01  .849E-02  .715E-02  .614E-02  .530E-02  .462E-02
  .407E-02  .362E-02  .323E-02  .262E-02  .219E-02  .185E-02  .159E-02  .137E-02
  .121E-02  .107E-02  .961E-03  .855E-03  .758E-03  .647E-03  .541E-03  .469E-03
  .411E-03  .362E-03  .322E-03  .287E-03  .000E+00  .000E+00  .000E+00  .000E+00
  .000E+00  .000E+00  .000E+00  .000E+00  .000E+00  .000E+00  .000E+00  .000E+00
  .000E+00  .000E+00  .000E+00  .000E+00  .000E+00  .000E+00  .000E+00  .000E+00
  .000E+00  .000E+00  .000E+00  .000E+00  .000E+00  .000E+00  .000E+00  .000E+00
  .000E+00  .000E+00  .000E+00  .000E+00
  .180E+00  .193E+00  .206E+00  .209E+00  .226E+00  .254E+00  .299E+00  .340E+00
  .427E+00  .429E+00  .598E+00  .578E+00  .605E+00  .750E+00  .115E+01  .117E+01
  .861E+00  .120E+01  .142E+01  .180E+01  .233E+01  .255E+01  .287E+01  .313E+01
  .352E+01  .395E+01  .511E+01  .461E+01  .336E+01  .248E+01  .188E+01  .148E+01
  .121E+01  .102E+01  .891E+00  .789E+00  .705E+00  .631E+00  .569E+00  .518E+00
  .484E+00  .429E+00  .378E+00  .337E+00  .305E+00  .281E+00  .258E+00  .238E+00
  .222E+00  .208E+00  .195E+00  .174E+00  .157E+00  .144E+00  .133E+00  .122E+00
  .114E+00  .106E+00  .101E+00  .939E-01  .870E-01  .808E-01  .736E-01  .681E-01
  .635E-01  .592E-01  .551E-01  .514E-01  .000E+00  .000E+00  .000E+00  .000E+00
  .000E+00  .000E+00  .000E+00  .000E+00  .000E+00  .000E+00  .000E+00  .000E+00
  .000E+00  .000E+00  .000E+00  .000E+00  .000E+00  .000E+00  .000E+00  .000E+00
  .000E+00  .000E+00  .000E+00  .000E+00  .000E+00  .000E+00  .000E+00  .000E+00
  .000E+00  .000E+00  .000E+00  .000E+00
  .259E+02  .259E+02  .257E+02  .257E+02  .257E+02  .257E+02  .257E+02  .257E+02
  .257E+02  .257E+02  .260E+02  .260E+02  .258E+02  .258E+02  .261E+02  .261E+02
  .261E+02  .257E+02  .257E+02  .258E+02  .258E+02  .258E+02  .258E+02  .259E+02
  .259E+02  .262E+02  .265E+02  .264E+02  .261E+02  .261E+02  .260E+02  .259E+02
  .259E+02  .258E+02  .258E+02  .258E+02  .258E+02  .258E+02  .258E+02  .258E+02
  .257E+02  .257E+02  .257E+02  .257E+02  .257E+02  .257E+02  .257E+02  .257E+02
  .257E+02  .257E+02  .257E+02  .257E+02  .257E+02  .257E+02  .257E+02  .257E+02
  .257E+02  .257E+02  .257E+02  .257E+02  .257E+02  .257E+02  .258E+02  .258E+02
  .258E+02  .258E+02  .258E+02  .258E+02  .000E+00  .000E+00  .000E+00  .000E+00
  .000E+00  .000E+00  .000E+00  .000E+00  .000E+00  .000E+00  .000E+00  .000E+00
  .000E+00  .000E+00  .000E+00  .000E+00  .000E+00  .000E+00  .000E+00  .000E+00
  .000E+00  .000E+00  .000E+00  .000E+00  .000E+00  .000E+00  .000E+00  .000E+00
  .000E+00  .000E+00  .000E+00  .000E+00
  .258E+02  .259E+02  .259E+02  .259E+02  .259E+02  .260E+02  .257E+02  .255E+02
  .257E+02  .257E+02  .260E+02  .261E+02  .257E+02  .261E+02  .261E+02  .261E+02
  .262E+02  .264E+02  .257E+02  .257E+02  .263E+02  .258E+02  .258E+02  .259E+02
  .260E+02  .262E+02  .266E+02  .261E+02  .262E+02  .261E+02  .261E+02  .258E+02
  .257E+02  .257E+02  .257E+02  .257E+02  .257E+02  .257E+02  .257E+02  .257E+02
  .257E+02  .257E+02  .257E+02  .257E+02  .257E+02  .257E+02  .257E+02  .257E+02
  .257E+02  .257E+02  .257E+02  .257E+02  .257E+02  .257E+02  .257E+02  .257E+02
  .257E+02  .257E+02  .257E+02  .257E+02  .257E+02  .257E+02  .257E+02  .257E+02
  .257E+02  .257E+02  .257E+02  .257E+02  .000E+00  .000E+00  .000E+00  .000E+00
  .000E+00  .000E+00  .000E+00  .000E+00  .000E+00  .000E+00  .000E+00  .000E+00
  .000E+00  .000E+00  .000E+00  .000E+00  .000E+00  .000E+00  .000E+00  .000E+00
  .000E+00  .000E+00  .000E+00  .000E+00  .000E+00  .000E+00  .000E+00  .000E+00
  .000E+00  .000E+00  .000E+00  .000E+00
  .259E+02  .259E+02  .257E+02  .257E+02  .257E+02  .257E+02  .257E+02  .257E+02
  .257E+02  .257E+02  .260E+02  .260E+02  .258E+02  .258E+02  .261E+02  .261E+02
  .261E+02  .257E+02  .257E+02  .258E+02  .258E+02  .258E+02  .258E+02  .259E+02
  .259E+02  .262E+02  .265E+02  .264E+02  .261E+02  .261E+02  .260E+02  .259E+02
  .259E+02  .258E+02  .258E+02  .258E+02  .258E+02  .258E+02  .258E+02  .258E+02
  .257E+02  .257E+02  .257E+02  .257E+02  .257E+02  .257E+02  .257E+02  .257E+02
  .257E+02  .257E+02  .257E+02  .257E+02  .257E+02  .257E+02  .257E+02  .257E+02
  .257E+02  .257E+02  .257E+02  .257E+02  .257E+02  .257E+02  .258E+02  .258E+02
  .258E+02  .258E+02  .258E+02  .258E+02  .000E+00  .000E+00  .000E+00  .000E+00
  .000E+00  .000E+00  .000E+00  .000E+00  .000E+00  .000E+00  .000E+00  .000E+00
  .000E+00  .000E+00  .000E+00  .000E+00  .000E+00  .000E+00  .000E+00  .000E+00
  .000E+00  .000E+00  .000E+00  .000E+00  .000E+00  .000E+00  .000E+00  .000E+00
  .000E+00  .000E+00  .000E+00  .000E+00
Damping =  .05. Data of Sd,Sv,Sa,Pssv,ttSd,ttSv,ttSa :
  .112E-02  .127E-02  .142E-02  .156E-02  .174E-02  .195E-02  .252E-02  .319E-02
  .407E-02  .473E-02  .579E-02  .637E-02  .740E-02  .903E-02  .127E-01  .145E-01
  .144E-01  .200E-01  .264E-01  .353E-01  .471E-01  .567E-01  .663E-01  .739E-01
  .856E-01  .956E-01  .132E+00  .133E+00  .116E+00  .942E-01  .791E-01  .698E-01
  .617E-01  .560E-01  .521E-01  .490E-01  .462E-01  .436E-01  .413E-01  .394E-01
