Response and Fourier amplitude spectra (68 periods,  .04 -  3.4 sec)   for      
Corrected accelerogram   24207-M0150-20021.15       Chan  9:  Radl       from   
Uncorrected Accelerogram Data             Processed: 01/24/20, CGS  ce24207o    
Rcrd of Tue Jan 21, 2020 23:40:50.0 PST               (Avol1 v2.0, 4/18 CSMIP)  
CSMIP Preliminary Processing            (Origin:  To be determined)             
24207-M0150-20021.15                 Start time:  1/22/20, 07:40:50.0 UTC (GPS) 
Station No. 24207   34.335N, 118.397W    MtWtny  s/n  150 (17 Chns of 17 at Sta)
Sylmar - Pacoima Dam                      CGS   Data: Acceleration              
Chan  9:  Radl                      Location: Dam Base                          
Rcrd of Tue Jan 21, 2020 23:40:50.0 PST    Tue Jan 21, 2020 23:40:50.0 PST      
Hypocenter:  To be determined.               ML:  To be determined.
Instr Period =  .0105 sec,  Damping =  .640,  Sensitivity =  .63 v/g
                        Record Length = 58.000 sec.
                                     Uncor Max  =   .005 g, at   25.480 sec.
RMS accel of (uncor) record  =        .   Chn. metadata effective date: 09/02/99
Accelerogram bandpass filtered with 3 dB pts at   .30 and 40.00 cyc/sec
                 instrument- and base-line correcte





Rcrd of Tue Jan 21, 2020 23:40:50.0 PST    Tue Jan 21, 2020 23:40:50.0 PST

24207-M0150-20021.15      Sylmar - Pacoima Dam    Chan  9:  Radl

24207-M0150-20021.15      Sylmar - Pacoima Dam    Chan  9:  Radl

Units for spectra are inches and sec, except Sa is in fraction of g.

    9  100    9   18   17  200    1    3    1   24   13  150    024207    5    0
    7   40   50    0   22    1   22 2020   10    3  70011600   39   20   74   -1
11600    1  100    3  150    1   15  580    2 -999 -999 -999 -999 -999 -999 -999
 -999 -999    3 -99911600    1  222    1   18    4 -999 -999    3    1 -99911600
    311600    4   68    5   17    5    0    0 -999    0    0    1    3    1    2
    2    2    4    0   68   67    0   10 -999    1    0    1    0    0   64  222
    1    0    4    0
      .011      .640    58.000      .000     1.000   626.000      .005    25.480
    95.100      .298      .476  -999.000     5.000  -999.000     4.000  -999.000
     2.500   -28.814     2.500  2016.000    25.000    30.000  -999.000      .006
     -.004     -.010     2.000    15.000    34.335  -118.397      .027      .027
     1.027     -.014     -.006   594.000    25.700    27.200    12.600   103.640
     1.000    10.003    -8.000  -999.000  -999.000  -999.000  -999.000  -999.000
     6.900     2.000     6.800   980.665      .005    58.000    15.136      .000
  -999.000    40.000  -999.000    58.000      .005      .303  -999.000  -999.000
    25.475     4.576    25.525      .150    25.470     -.006      .000      .303
    40.000      .005      .005      .000      .005      .001  -999.000  -999.000
      .014      .190      .014      .006      .000      .000  -999.000  -999.000
  -999.000  -999.000  -999.000  -999.000  -999.000  -999.000  -999.000  -999.000
  -999.000  -999.000  -999.000  -999.000
      .000      .020      .050      .100      .200
      .040      .042      .044      .046      .048      .050      .055      .060
      .065      .070      .075      .080      .085      .090      .095      .100
      .110      .120      .130      .140      .150      .160      .170      .180
      .190      .200      .220      .240      .260      .280      .300      .320
      .340      .360      .380      .400      .420      .440      .460      .480
      .500      .550      .600      .650      .700      .750      .800      .850
      .900      .950     1.000     1.100     1.200     1.300     1.400     1.500
     1.600     1.700     1.800     1.900     2.000     2.200     2.400     2.600
     2.800     3.000     3.200     3.400      .000      .000      .000      .000
      .000      .000      .000      .000      .000      .000      .000      .000
      .000      .000      .000      .000      .000      .000      .000      .000
      .000      .000      .000      .000      .000      .000      .000      .000
      .000      .000      .000      .000
Fourier amplitude spectra in in/sec.
  .227E-02  .950E-02  .188E-02  .126E-01  .547E-02  .186E-01  .106E-01  .172E-01
  .155E-01  .718E-02  .217E-01  .218E-01  .248E-01  .303E-01  .516E-01  .627E-01
  .346E-01  .106E+00  .386E-01  .116E+00  .148E+00  .134E+00  .164E+00  .214E+00
  .230E+00  .210E+00  .261E+00  .960E-01  .217E+00  .226E+00  .576E-01  .216E+00
  .133E+00  .947E-01  .765E-01  .493E-01  .990E-01  .259E-01  .393E-01  .810E-01
  .110E+00  .474E-01  .790E-02  .233E-01  .896E-02  .244E-01  .191E-01  .117E-01
  .687E-02  .718E-02  .336E-02  .100E-01  .926E-02  .509E-02  .693E-02  .474E-02
  .618E-02  .270E-02  .920E-02  .100E-02  .485E-02  .163E-02  .260E-02  .322E-02
  .430E-02  .603E-03  .154E-02  .106E-02  .000E+00  .000E+00  .000E+00  .000E+00
  .000E+00  .000E+00  .000E+00  .000E+00  .000E+00  .000E+00  .000E+00  .000E+00
  .000E+00  .000E+00  .000E+00  .000E+00  .000E+00  .000E+00  .000E+00  .000E+00
  .000E+00  .000E+00  .000E+00  .000E+00  .000E+00  .000E+00  .000E+00  .000E+00
  .000E+00  .000E+00  .000E+00  .000E+00
Damping =  .00. Data of Sd,Sv,Sa,Pssv,ttSd,ttSv,ttSa :
  .905E-04  .965E-04  .145E-03  .167E-03  .158E-03  .271E-03  .226E-03  .257E-03
  .237E-03  .401E-03  .349E-03  .586E-03  .508E-03  .809E-03  .840E-03  .124E-02
  .139E-02  .213E-02  .232E-02  .276E-02  .365E-02  .450E-02  .621E-02  .699E-02
  .805E-02  .785E-02  .924E-02  .743E-02  .928E-02  .101E-01  .753E-02  .112E-01
  .951E-02  .751E-02  .573E-02  .511E-02  .670E-02  .400E-02  .437E-02  .660E-02
  .900E-02  .459E-02  .396E-02  .371E-02  .379E-02  .392E-02  .379E-02  .349E-02
  .380E-02  .373E-02  .367E-02  .385E-02  .307E-02  .253E-02  .322E-02  .277E-02
  .360E-02  .297E-02  .302E-02  .277E-02  .261E-02  .248E-02  .358E-02  .257E-02
  .247E-02  .234E-02  .281E-02  .303E-02  .000E+00  .000E+00  .000E+00  .000E+00
  .000E+00  .000E+00  .000E+00  .000E+00  .000E+00  .000E+00  .000E+00  .000E+00
  .000E+00  .000E+00  .000E+00  .000E+00  .000E+00  .000E+00  .000E+00  .000E+00
  .000E+00  .000E+00  .000E+00  .000E+00  .000E+00  .000E+00  .000E+00  .000E+00
  .000E+00  .000E+00  .000E+00  .000E+00
  .696E-02  .102E-01  .112E-01  .142E-01  .110E-01  .227E-01  .145E-01  .246E-01
  .178E-01  .247E-01  .236E-01  .348E-01  .322E-01  .457E-01  .528E-01  .751E-01
  .713E-01  .109E+00  .962E-01  .121E+00  .149E+00  .177E+00  .223E+00  .243E+00
  .267E+00  .241E+00  .264E+00  .199E+00  .224E+00  .227E+00  .159E+00  .219E+00
  .175E+00  .135E+00  .115E+00  .111E+00  .106E+00  .977E-01  .926E-01  .920E-01
  .114E+00  .804E-01  .726E-01  .695E-01  .694E-01  .697E-01  .696E-01  .662E-01
  .669E-01  .680E-01  .666E-01  .678E-01  .647E-01  .633E-01  .620E-01  .621E-01
  .631E-01  .617E-01  .650E-01  .609E-01  .619E-01  .607E-01  .610E-01  .601E-01
  .616E-01  .589E-01  .611E-01  .601E-01  .000E+00  .000E+00  .000E+00  .000E+00
  .000E+00  .000E+00  .000E+00  .000E+00  .000E+00  .000E+00  .000E+00  .000E+00
  .000E+00  .000E+00  .000E+00  .000E+00  .000E+00  .000E+00  .000E+00  .000E+00
  .000E+00  .000E+00  .000E+00  .000E+00  .000E+00  .000E+00  .000E+00  .000E+00
  .000E+00  .000E+00  .000E+00  .000E+00
  .579E-02  .560E-02  .765E-02  .806E-02  .703E-02  .111E-01  .764E-02  .730E-02
  .573E-02  .838E-02  .634E-02  .937E-02  .719E-02  .102E-01  .951E-02  .127E-01
  .117E-01  .152E-01  .140E-01  .144E-01  .166E-01  .180E-01  .220E-01  .221E-01
  .228E-01  .201E-01  .195E-01  .132E-01  .140E-01  .132E-01  .855E-02  .112E-01
  .841E-02  .593E-02  .406E-02  .327E-02  .389E-02  .211E-02  .211E-02  .293E-02
  .368E-02  .155E-02  .112E-02  .898E-03  .792E-03  .714E-03  .606E-03  .494E-03
  .480E-03  .422E-03  .375E-03  .325E-03  .218E-03  .153E-03  .168E-03  .126E-03
  .144E-03  .105E-03  .954E-04  .785E-04  .667E-04  .524E-04  .636E-04  .389E-04
  .322E-04  .266E-04  .280E-04  .268E-04  .000E+00  .000E+00  .000E+00  .000E+00
  .000E+00  .000E+00  .000E+00  .000E+00  .000E+00  .000E+00  .000E+00  .000E+00
  .000E+00  .000E+00  .000E+00  .000E+00  .000E+00  .000E+00  .000E+00  .000E+00
  .000E+00  .000E+00  .000E+00  .000E+00  .000E+00  .000E+00  .000E+00  .000E+00
  .000E+00  .000E+00  .000E+00  .000E+00
  .142E-01  .144E-01  .207E-01  .228E-01  .207E-01  .341E-01  .258E-01  .269E-01
  .229E-01  .360E-01  .292E-01  .461E-01  .375E-01  .565E-01  .555E-01  .780E-01
  .791E-01  .112E+00  .112E+00  .124E+00  .153E+00  .177E+00  .229E+00  .244E+00
  .266E+00  .246E+00  .264E+00  .194E+00  .224E+00  .227E+00  .158E+00  .220E+00
  .176E+00  .131E+00  .948E-01  .803E-01  .100E+00  .571E-01  .596E-01  .864E-01
  .113E+00  .525E-01  .415E-01  .358E-01  .340E-01  .329E-01  .298E-01  .258E-01
  .265E-01  .246E-01  .230E-01  .220E-01  .161E-01  .122E-01  .144E-01  .116E-01
  .141E-01  .110E-01  .106E-01  .916E-02  .820E-02  .708E-02  .937E-02  .621E-02
  .554E-02  .491E-02  .551E-02  .560E-02  .000E+00  .000E+00  .000E+00  .000E+00
  .000E+00  .000E+00  .000E+00  .000E+00  .000E+00  .000E+00  .000E+00  .000E+00
  .000E+00  .000E+00  .000E+00  .000E+00  .000E+00  .000E+00  .000E+00  .000E+00
  .000E+00  .000E+00  .000E+00  .000E+00  .000E+00  .000E+00  .000E+00  .000E+00
  .000E+00  .000E+00  .000E+00  .000E+00
  .255E+02  .255E+02  .255E+02  .255E+02  .255E+02  .255E+02  .255E+02  .265E+02
  .255E+02  .255E+02  .254E+02  .255E+02  .257E+02  .257E+02  .257E+02  .264E+02
  .256E+02  .268E+02  .256E+02  .256E+02  .266E+02  .259E+02  .266E+02  .284E+02
  .262E+02  .266E+02  .343E+02  .258E+02  .313E+02  .506E+02  .264E+02  .302E+02
  .279E+02  .269E+02  .261E+02  .261E+02  .459E+02  .256E+02  .269E+02  .296E+02
  .392E+02  .281E+02  .256E+02  .256E+02  .256E+02  .256E+02  .256E+02  .256E+02
  .256E+02  .256E+02  .256E+02  .256E+02  .256E+02  .256E+02  .256E+02  .256E+02
  .256E+02  .256E+02  .256E+02  .255E+02  .256E+02  .256E+02  .256E+02  .255E+02
  .256E+02  .255E+02  .256E+02  .255E+02  .000E+00  .000E+00  .000E+00  .000E+00
  .000E+00  .000E+00  .000E+00  .000E+00  .000E+00  .000E+00  .000E+00  .000E+00
  .000E+00  .000E+00  .000E+00  .000E+00  .000E+00  .000E+00  .000E+00  .000E+00
  .000E+00  .000E+00  .000E+00  .000E+00  .000E+00  .000E+00  .000E+00  .000E+00
  .000E+00  .000E+00  .000E+00  .000E+00
  .254E+02  .446E+02  .255E+02  .256E+02  .255E+02  .257E+02  .256E+02  .264E+02
  .260E+02  .254E+02  .254E+02  .256E+02  .271E+02  .257E+02  .339E+02  .265E+02
  .258E+02  .346E+02  .255E+02  .286E+02  .424E+02  .259E+02  .266E+02  .284E+02
  .261E+02  .266E+02  .344E+02  .257E+02  .313E+02  .505E+02  .265E+02  .303E+02
  .278E+02  .268E+02  .256E+02  .256E+02  .256E+02  .256E+02  .256E+02  .256E+02
  .346E+02  .256E+02  .255E+02  .255E+02  .255E+02  .255E+02  .255E+02  .255E+02
  .255E+02  .255E+02  .255E+02  .255E+02  .255E+02  .255E+02  .255E+02  .255E+02
  .255E+02  .255E+02  .255E+02  .255E+02  .255E+02  .255E+02  .255E+02  .255E+02
  .255E+02  .255E+02  .255E+02  .255E+02  .000E+00  .000E+00  .000E+00  .000E+00
  .000E+00  .000E+00  .000E+00  .000E+00  .000E+00  .000E+00  .000E+00  .000E+00
  .000E+00  .000E+00  .000E+00  .000E+00  .000E+00  .000E+00  .000E+00  .000E+00
  .000E+00  .000E+00  .000E+00  .000E+00  .000E+00  .000E+00  .000E+00  .000E+00
  .000E+00  .000E+00  .000E+00  .000E+00
  .255E+02  .255E+02  .255E+02  .255E+02  .255E+02  .255E+02  .255E+02  .265E+02
  .255E+02  .255E+02  .254E+02  .255E+02  .257E+02  .257E+02  .257E+02  .264E+02
  .256E+02  .268E+02  .256E+02  .256E+02  .266E+02  .259E+02  .266E+02  .284E+02
  .262E+02  .266E+02  .343E+02  .258E+02  .313E+02  .506E+02  .264E+02  .302E+02
  .279E+02  .269E+02  .261E+02  .261E+02  .459E+02  .256E+02  .269E+02  .296E+02
  .392E+02  .281E+02  .256E+02  .256E+02  .256E+02  .256E+02  .256E+02  .256E+02
  .256E+02  .256E+02  .256E+02  .256E+02  .256E+02  .256E+02  .256E+02  .256E+02
  .256E+02  .256E+02  .256E+02  .255E+02  .256E+02  .256E+02  .256E+02  .255E+02
  .256E+02  .255E+02  .256E+02  .255E+02  .000E+00  .000E+00  .000E+00  .000E+00
  .000E+00  .000E+00  .000E+00  .000E+00  .000E+00  .000E+00  .000E+00  .000E+00
  .000E+00  .000E+00  .000E+00  .000E+00  .000E+00  .000E+00  .000E+00  .000E+00
  .000E+00  .000E+00  .000E+00  .000E+00  .000E+00  .000E+00  .000E+00  .000E+00
  .000E+00  .000E+00  .000E+00  .000E+00
Damping =  .02. Data of Sd,Sv,Sa,Pssv,ttSd,ttSv,ttSa :
  .755E-04  .853E-04  .102E-03  .107E-03  .125E-03  .146E-03  .158E-03  .220E-03
  .271E-03  .307E-03  .371E-03  .453E-03  .489E-03  .649E-03  .727E-03  .843E-03
  .115E-02  .141E-02  .194E-02  .245E-02  .290E-02  .372E-02  .469E-02  .533E-02
  .615E-02  .622E-02  .685E-02  .667E-02  .630E-02  .617E-02  .590E-02  .574E-02
  .597E-02  .539E-02  .497E-02  .472E-02  .433E-02  .391E-02  .379E-02  .401E-02
  .556E-02  .408E-02  .387E-02  .373E-02  .376E-02  .373E-02  .368E-02  .355E-02
  .355E-02  .347E-02  .338E-02  .338E-02  .307E-02  .279E-02  .301E-02  .288E-02
  .320E-02  .300E-02  .286E-02  .248E-02  .248E-02  .248E-02  .305E-02  .236E-02
  .242E-02  .230E-02  .255E-02  .270E-02  .000E+00  .000E+00  .000E+00  .000E+00
  .000E+00  .000E+00  .000E+00  .000E+00  .000E+00  .000E+00  .000E+00  .000E+00
  .000E+00  .000E+00  .000E+00  .000E+00  .000E+00  .000E+00  .000E+00  .000E+00
  .000E+00  .000E+00  .000E+00  .000E+00  .000E+00  .000E+00  .000E+00  .000E+00
  .000E+00  .000E+00  .000E+00  .000E+00
  .439E-02  .424E-02  .535E-02  .571E-02  .618E-02  .632E-02  .973E-02  .143E-01
  .142E-01  .145E-01  .183E-01  .226E-01  .249E-01  .338E-01  .375E-01  .438E-01
  .576E-01  .619E-01  .777E-01  .868E-01  .101E+00  .138E+00  .170E+00  .187E+00
  .205E+00  .195E+00  .192E+00  .182E+00  .164E+00  .150E+00  .129E+00  .125E+00
  .122E+00  .116E+00  .112E+00  .109E+00  .103E+00  .966E-01  .925E-01  .908E-01
  .887E-01  .799E-01  .725E-01  .694E-01  .688E-01  .684E-01  .682E-01  .673E-01
  .668E-01  .668E-01  .660E-01  .659E-01  .642E-01  .634E-01  .622E-01  .620E-01
  .625E-01  .624E-01  .635E-01  .617E-01  .614E-01  .603E-01  .607E-01  .606E-01
  .609E-01  .597E-01  .605E-01  .601E-01  .000E+00  .000E+00  .000E+00  .000E+00
  .000E+00  .000E+00  .000E+00  .000E+00  .000E+00  .000E+00  .000E+00  .000E+00
  .000E+00  .000E+00  .000E+00  .000E+00  .000E+00  .000E+00  .000E+00  .000E+00
  .000E+00  .000E+00  .000E+00  .000E+00  .000E+00  .000E+00  .000E+00  .000E+00
  .000E+00  .000E+00  .000E+00  .000E+00
  .483E-02  .494E-02  .537E-02  .519E-02  .557E-02  .599E-02  .534E-02  .627E-02
  .656E-02  .640E-02  .674E-02  .725E-02  .693E-02  .820E-02  .823E-02  .863E-02
  .971E-02  .100E-01  .118E-01  .128E-01  .132E-01  .149E-01  .166E-01  .169E-01
  .174E-01  .159E-01  .145E-01  .119E-01  .955E-02  .805E-02  .672E-02  .575E-02
  .529E-02  .426E-02  .353E-02  .302E-02  .251E-02  .207E-02  .183E-02  .178E-02
  .228E-02  .138E-02  .110E-02  .908E-03  .789E-03  .682E-03  .592E-03  .506E-03
  .452E-03  .397E-03  .349E-03  .289E-03  .221E-03  .172E-03  .160E-03  .134E-03
  .131E-03  .109E-03  .932E-04  .732E-04  .666E-04  .555E-04  .573E-04  .387E-04
  .345E-04  .289E-04  .284E-04  .265E-04  .000E+00  .000E+00  .000E+00  .000E+00
  .000E+00  .000E+00  .000E+00  .000E+00  .000E+00  .000E+00  .000E+00  .000E+00
  .000E+00  .000E+00  .000E+00  .000E+00  .000E+00  .000E+00  .000E+00  .000E+00
  .000E+00  .000E+00  .000E+00  .000E+00  .000E+00  .000E+00  .000E+00  .000E+00
  .000E+00  .000E+00  .000E+00  .000E+00
  .119E-01  .128E-01  .145E-01  .147E-01  .164E-01  .183E-01  .180E-01  .231E-01
  .262E-01  .276E-01  .311E-01  .356E-01  .362E-01  .453E-01  .481E-01  .529E-01
  .656E-01  .739E-01  .939E-01  .110E+00  .121E+00  .146E+00  .173E+00  .186E+00
  .203E+00  .195E+00  .196E+00  .174E+00  .152E+00  .138E+00  .123E+00  .113E+00
  .110E+00  .941E-01  .822E-01  .741E-01  .647E-01  .559E-01  .517E-01  .525E-01
  .698E-01  .466E-01  .405E-01  .361E-01  .338E-01  .313E-01  .289E-01  .262E-01
  .248E-01  .229E-01  .212E-01  .193E-01  .161E-01  .135E-01  .135E-01  .121E-01
  .126E-01  .111E-01  .997E-02  .820E-02  .780E-02  .707E-02  .799E-02  .570E-02
  .542E-02  .482E-02  .500E-02  .500E-02  .000E+00  .000E+00  .000E+00  .000E+00
  .000E+00  .000E+00  .000E+00  .000E+00  .000E+00  .000E+00  .000E+00  .000E+00
  .000E+00  .000E+00  .000E+00  .000E+00  .000E+00  .000E+00  .000E+00  .000E+00
  .000E+00  .000E+00  .000E+00  .000E+00  .000E+00  .000E+00  .000E+00  .000E+00
  .000E+00  .000E+00  .000E+00  .000E+00
  .255E+02  .255E+02  .255E+02  .255E+02  .255E+02  .255E+02  .255E+02  .255E+02
  .255E+02  .255E+02  .255E+02  .255E+02  .255E+02  .257E+02  .257E+02  .257E+02
  .256E+02  .256E+02  .256E+02  .256E+02  .256E+02  .257E+02  .257E+02  .257E+02
  .257E+02  .257E+02  .257E+02  .258E+02  .258E+02  .257E+02  .257E+02  .257E+02
  .269E+02  .269E+02  .257E+02  .257E+02  .257E+02  .257E+02  .256E+02  .285E+02
  .285E+02  .256E+02  .256E+02  .256E+02  .256E+02  .256E+02  .256E+02  .256E+02
  .256E+02  .256E+02  .256E+02  .256E+02  .256E+02  .256E+02  .256E+02  .256E+02
  .256E+02  .256E+02  .256E+02  .255E+02  .256E+02  .256E+02  .256E+02  .256E+02
  .256E+02  .255E+02  .256E+02  .255E+02  .000E+00  .000E+00  .000E+00  .000E+00
  .000E+00  .000E+00  .000E+00  .000E+00  .000E+00  .000E+00  .000E+00  .000E+00
  .000E+00  .000E+00  .000E+00  .000E+00  .000E+00  .000E+00  .000E+00  .000E+00
  .000E+00  .000E+00  .000E+00  .000E+00  .000E+00  .000E+00  .000E+00  .000E+00
  .000E+00  .000E+00  .000E+00  .000E+00
  .256E+02  .256E+02  .256E+02  .256E+02  .256E+02  .257E+02  .256E+02  .260E+02
  .257E+02  .255E+02  .255E+02  .255E+02  .256E+02  .257E+02  .257E+02  .257E+02
  .255E+02  .255E+02  .255E+02  .255E+02  .258E+02  .258E+02  .257E+02  .258E+02
  .258E+02  .258E+02  .257E+02  .257E+02  .257E+02  .257E+02  .256E+02  .256E+02
  .256E+02  .256E+02  .256E+02  .256E+02  .256E+02  .256E+02  .256E+02  .256E+02
  .256E+02  .256E+02  .256E+02  .255E+02  .255E+02  .255E+02  .255E+02  .255E+02
  .255E+02  .255E+02  .255E+02  .255E+02  .255E+02  .255E+02  .255E+02  .255E+02
  .255E+02  .255E+02  .255E+02  .255E+02  .255E+02  .255E+02  .255E+02  .255E+02
  .255E+02  .255E+02  .255E+02  .255E+02  .000E+00  .000E+00  .000E+00  .000E+00
  .000E+00  .000E+00  .000E+00  .000E+00  .000E+00  .000E+00  .000E+00  .000E+00
  .000E+00  .000E+00  .000E+00  .000E+00  .000E+00  .000E+00  .000E+00  .000E+00
  .000E+00  .000E+00  .000E+00  .000E+00  .000E+00  .000E+00  .000E+00  .000E+00
  .000E+00  .000E+00  .000E+00  .000E+00
  .255E+02  .255E+02  .255E+02  .255E+02  .255E+02  .255E+02  .255E+02  .255E+02
  .255E+02  .255E+02  .255E+02  .255E+02  .255E+02  .257E+02  .257E+02  .257E+02
  .256E+02  .256E+02  .256E+02  .256E+02  .256E+02  .257E+02  .257E+02  .257E+02
  .257E+02  .257E+02  .257E+02  .258E+02  .258E+02  .257E+02  .257E+02  .257E+02
  .269E+02  .269E+02  .257E+02  .257E+02  .257E+02  .257E+02  .256E+02  .284E+02
  .285E+02  .256E+02  .256E+02  .256E+02  .256E+02  .256E+02  .256E+02  .256E+02
  .256E+02  .256E+02  .256E+02  .256E+02  .256E+02  .256E+02  .256E+02  .256E+02
  .256E+02  .256E+02  .256E+02  .255E+02  .256E+02  .256E+02  .256E+02  .256E+02
  .256E+02  .256E+02  .256E+02  .254E+02  .000E+00  .000E+00  .000E+00  .000E+00
  .000E+00  .000E+00  .000E+00  .000E+00  .000E+00  .000E+00  .000E+00  .000E+00
  .000E+00  .000E+00  .000E+00  .000E+00  .000E+00  .000E+00  .000E+00  .000E+00
  .000E+00  .000E+00  .000E+00  .000E+00  .000E+00  .000E+00  .000E+00  .000E+00
  .000E+00  .000E+00  .000E+00  .000E+00
Damping =  .05. Data of Sd,Sv,Sa,Pssv,ttSd,ttSv,ttSa :
  .762E-04  .860E-04  .976E-04  .108E-03  .122E-03  .135E-03  .159E-03  .210E-03
  .264E-03  .312E-03  .372E-03  .434E-03  .498E-03  .580E-03  .658E-03  .777E-03
  .102E-02  .130E-02  .172E-02  .217E-02  .263E-02  .316E-02  .392E-02  .455E-02
  .507E-02  .538E-02  .581E-02  .571E-02  .553E-02  .561E-02  .548E-02  .533E-02
  .515E-02  .489E-02  .466E-02  .440E-02  .409E-02  .379E-02  .374E-02  .377E-02
