Response and Fourier amplitude spectra (68 periods,  .04 -  3.4 sec)   for      
Corrected accelerogram   24207-M0150-20021.15       Chan  1:  Radl       from   
Uncorrected Accelerogram Data             Processed: 01/24/20, CGS  ce24207o    
Rcrd of Tue Jan 21, 2020 23:40:50.0 PST               (Avol1 v2.0, 4/18 CSMIP)  
CSMIP Preliminary Processing            (Origin:  To be determined)             
24207-M0150-20021.15                 Start time:  1/22/20, 07:40:50.0 UTC (GPS) 
Station No. 24207   34.335N, 118.397W    MtWtny  s/n  150 (17 Chns of 17 at Sta)
Sylmar - Pacoima Dam                      CGS   Data: Acceleration              
Chan  1:  Radl                      Location: Crest: Right 1/3-length Point     
Rcrd of Tue Jan 21, 2020 23:40:50.0 PST    Tue Jan 21, 2020 23:40:50.0 PST      
Hypocenter:  To be determined.               ML:  To be determined.
Instr Period =  .0102 sec,  Damping =  .660,  Sensitivity =  .62 v/g
                        Record Length = 58.000 sec.
                                     Uncor Max  =  -.035 g, at   25.665 sec.
RMS accel of (uncor) record  =        .   Chn. metadata effective date: 09/02/99
Accelerogram bandpass filtered with 3 dB pts at   .30 and 40.00 cyc/sec
                 instrument- and base-line correcte





Rcrd of Tue Jan 21, 2020 23:40:50.0 PST    Tue Jan 21, 2020 23:40:50.0 PST

24207-M0150-20021.15      Sylmar - Pacoima Dam    Chan  1:  Radl

24207-M0150-20021.15      Sylmar - Pacoima Dam    Chan  1:  Radl

Units for spectra are inches and sec, except Sa is in fraction of g.

    1  100    1   18   17  200    1    3    1   24   13  150    024207    5    0
    7   40   50    0   22    1   22 2020   10    3  70011600   39   20   74   -1
11600    0  100    3  150    1   15  580    2 -999 -999 -999 -999 -999 -999 -999
 -999 -999    3 -99911600    1  222    1   18    4 -999 -999    3    1 -99911600
    311600    4   68    5   17    5    0    0 -999    0    0    1    3    1    2
    2    2    4    0   68   67    0   10 -999    1    0    1    0    0   64  222
    1    0    4    0
      .010      .660    58.000      .002     1.000   621.000     -.035    25.665
    98.000      .298      .480  -999.000     5.000  -999.000     4.000  -999.000
     2.500    46.627     2.500  2016.000    25.000    30.000  -999.000     -.001
      .001      .002     2.000    15.000    34.335  -118.397      .010      .035
     3.512     -.001      .005   594.000    25.700    27.200    12.600   103.640
     1.000    10.003    -8.000  -999.000  -999.000  -999.000  -999.000  -999.000
     6.900     2.000     6.800   980.665      .005    58.000    15.597      .000
  -999.000    40.000  -999.000    58.000      .005      .303  -999.000  -999.000
    25.670   -34.273    25.710    -1.143    25.660      .039      .000      .303
    40.000      .005      .005      .000      .005      .008  -999.000  -999.000
      .136      .200      .129      .048      .002      .000  -999.000  -999.000
  -999.000  -999.000  -999.000  -999.000  -999.000  -999.000  -999.000  -999.000
  -999.000  -999.000  -999.000  -999.000
      .000      .020      .050      .100      .200
      .040      .042      .044      .046      .048      .050      .055      .060
      .065      .070      .075      .080      .085      .090      .095      .100
      .110      .120      .130      .140      .150      .160      .170      .180
      .190      .200      .220      .240      .260      .280      .300      .320
      .340      .360      .380      .400      .420      .440      .460      .480
      .500      .550      .600      .650      .700      .750      .800      .850
      .900      .950     1.000     1.100     1.200     1.300     1.400     1.500
     1.600     1.700     1.800     1.900     2.000     2.200     2.400     2.600
     2.800     3.000     3.200     3.400      .000      .000      .000      .000
      .000      .000      .000      .000      .000      .000      .000      .000
      .000      .000      .000      .000      .000      .000      .000      .000
      .000      .000      .000      .000      .000      .000      .000      .000
      .000      .000      .000      .000
Fourier amplitude spectra in in/sec.
  .410E-01  .187E-01  .206E-01  .786E-01  .288E-01  .469E-01  .633E-01  .215E+00
  .113E+00  .187E+00  .208E+00  .121E+00  .246E+00  .235E+00  .280E+00  .253E+00
  .317E+00  .540E+00  .871E+00  .171E+01  .286E+01  .804E+00  .787E+00  .142E+01
  .468E+01  .314E+01  .330E+01  .240E+01  .138E+01  .103E+01  .729E+00  .794E+00
  .376E+00  .300E+00  .219E+00  .188E+00  .314E+00  .617E-01  .155E+00  .263E+00
  .295E+00  .136E+00  .641E-01  .183E-01  .357E-01  .533E-01  .368E-01  .316E-01
  .277E-01  .150E-01  .722E-02  .774E-02  .120E-01  .572E-02  .423E-02  .215E-02
  .367E-02  .398E-02  .272E-02  .240E-02  .421E-02  .359E-02  .635E-02  .495E-02
  .228E-02  .628E-02  .406E-02  .891E-03  .000E+00  .000E+00  .000E+00  .000E+00
  .000E+00  .000E+00  .000E+00  .000E+00  .000E+00  .000E+00  .000E+00  .000E+00
  .000E+00  .000E+00  .000E+00  .000E+00  .000E+00  .000E+00  .000E+00  .000E+00
  .000E+00  .000E+00  .000E+00  .000E+00  .000E+00  .000E+00  .000E+00  .000E+00
  .000E+00  .000E+00  .000E+00  .000E+00
Damping =  .00. Data of Sd,Sv,Sa,Pssv,ttSd,ttSv,ttSa :
  .650E-03  .713E-03  .793E-03  .114E-02  .832E-03  .151E-02  .215E-02  .279E-02
  .250E-02  .367E-02  .515E-02  .470E-02  .512E-02  .625E-02  .590E-02  .722E-02
  .131E-01  .147E-01  .270E-01  .412E-01  .718E-01  .353E-01  .401E-01  .620E-01
  .143E+00  .103E+00  .120E+00  .994E-01  .682E-01  .563E-01  .475E-01  .438E-01
  .400E-01  .344E-01  .327E-01  .320E-01  .306E-01  .289E-01  .278E-01  .272E-01
  .264E-01  .235E-01  .216E-01  .201E-01  .187E-01  .181E-01  .181E-01  .179E-01
  .175E-01  .176E-01  .176E-01  .173E-01  .170E-01  .169E-01  .166E-01  .163E-01
  .162E-01  .166E-01  .165E-01  .162E-01  .164E-01  .164E-01  .156E-01  .166E-01
  .151E-01  .157E-01  .152E-01  .156E-01  .000E+00  .000E+00  .000E+00  .000E+00
  .000E+00  .000E+00  .000E+00  .000E+00  .000E+00  .000E+00  .000E+00  .000E+00
  .000E+00  .000E+00  .000E+00  .000E+00  .000E+00  .000E+00  .000E+00  .000E+00
  .000E+00  .000E+00  .000E+00  .000E+00  .000E+00  .000E+00  .000E+00  .000E+00
  .000E+00  .000E+00  .000E+00  .000E+00
  .539E-01  .405E-01  .384E-01  .971E-01  .511E-01  .990E-01  .144E+00  .249E+00
  .187E+00  .263E+00  .341E+00  .281E+00  .346E+00  .390E+00  .350E+00  .332E+00
  .670E+00  .601E+00  .113E+01  .184E+01  .300E+01  .125E+01  .140E+01  .217E+01
  .471E+01  .323E+01  .345E+01  .262E+01  .174E+01  .137E+01  .113E+01  .102E+01
  .966E+00  .859E+00  .783E+00  .724E+00  .699E+00  .673E+00  .651E+00  .640E+00
  .631E+00  .598E+00  .571E+00  .551E+00  .535E+00  .522E+00  .513E+00  .504E+00
  .496E+00  .491E+00  .485E+00  .478E+00  .472E+00  .469E+00  .465E+00  .461E+00
  .461E+00  .459E+00  .457E+00  .457E+00  .455E+00  .456E+00  .451E+00  .452E+00
  .453E+00  .451E+00  .452E+00  .451E+00  .000E+00  .000E+00  .000E+00  .000E+00
  .000E+00  .000E+00  .000E+00  .000E+00  .000E+00  .000E+00  .000E+00  .000E+00
  .000E+00  .000E+00  .000E+00  .000E+00  .000E+00  .000E+00  .000E+00  .000E+00
  .000E+00  .000E+00  .000E+00  .000E+00  .000E+00  .000E+00  .000E+00  .000E+00
  .000E+00  .000E+00  .000E+00  .000E+00
  .416E-01  .414E-01  .419E-01  .551E-01  .369E-01  .618E-01  .728E-01  .791E-01
  .606E-01  .765E-01  .936E-01  .751E-01  .725E-01  .790E-01  .669E-01  .738E-01
  .111E+00  .105E+00  .163E+00  .215E+00  .326E+00  .141E+00  .142E+00  .196E+00
  .404E+00  .262E+00  .255E+00  .176E+00  .103E+00  .735E-01  .540E-01  .437E-01
  .354E-01  .272E-01  .232E-01  .205E-01  .177E-01  .153E-01  .135E-01  .121E-01
  .108E-01  .793E-02  .614E-02  .486E-02  .391E-02  .330E-02  .289E-02  .253E-02
  .221E-02  .200E-02  .180E-02  .147E-02  .121E-02  .102E-02  .868E-03  .739E-03
  .648E-03  .586E-03  .520E-03  .460E-03  .418E-03  .346E-03  .276E-03  .251E-03
  .198E-03  .178E-03  .152E-03  .138E-03  .000E+00  .000E+00  .000E+00  .000E+00
  .000E+00  .000E+00  .000E+00  .000E+00  .000E+00  .000E+00  .000E+00  .000E+00
  .000E+00  .000E+00  .000E+00  .000E+00  .000E+00  .000E+00  .000E+00  .000E+00
  .000E+00  .000E+00  .000E+00  .000E+00  .000E+00  .000E+00  .000E+00  .000E+00
  .000E+00  .000E+00  .000E+00  .000E+00
  .102E+00  .107E+00  .113E+00  .156E+00  .109E+00  .190E+00  .246E+00  .292E+00
  .242E+00  .329E+00  .431E+00  .369E+00  .379E+00  .437E+00  .390E+00  .454E+00
  .750E+00  .772E+00  .130E+01  .185E+01  .301E+01  .139E+01  .148E+01  .216E+01
  .472E+01  .322E+01  .344E+01  .260E+01  .165E+01  .126E+01  .996E+00  .860E+00
  .739E+00  .601E+00  .541E+00  .503E+00  .458E+00  .413E+00  .380E+00  .356E+00
  .332E+00  .268E+00  .226E+00  .194E+00  .168E+00  .152E+00  .142E+00  .132E+00
  .122E+00  .117E+00  .111E+00  .990E-01  .889E-01  .815E-01  .747E-01  .681E-01
  .637E-01  .612E-01  .575E-01  .537E-01  .514E-01  .468E-01  .407E-01  .400E-01
  .340E-01  .329E-01  .298E-01  .288E-01  .000E+00  .000E+00  .000E+00  .000E+00
  .000E+00  .000E+00  .000E+00  .000E+00  .000E+00  .000E+00  .000E+00  .000E+00
  .000E+00  .000E+00  .000E+00  .000E+00  .000E+00  .000E+00  .000E+00  .000E+00
  .000E+00  .000E+00  .000E+00  .000E+00  .000E+00  .000E+00  .000E+00  .000E+00
  .000E+00  .000E+00  .000E+00  .000E+00
  .257E+02  .257E+02  .257E+02  .257E+02  .258E+02  .257E+02  .257E+02  .261E+02
  .257E+02  .257E+02  .257E+02  .257E+02  .266E+02  .269E+02  .257E+02  .257E+02
  .262E+02  .258E+02  .258E+02  .286E+02  .300E+02  .259E+02  .259E+02  .266E+02
  .349E+02  .358E+02  .329E+02  .298E+02  .261E+02  .260E+02  .259E+02  .259E+02
  .259E+02  .258E+02  .258E+02  .258E+02  .258E+02  .258E+02  .258E+02  .258E+02
  .258E+02  .258E+02  .258E+02  .258E+02  .258E+02  .256E+02  .256E+02  .256E+02
  .256E+02  .256E+02  .257E+02  .257E+02  .257E+02  .257E+02  .257E+02  .257E+02
  .257E+02  .257E+02  .257E+02  .257E+02  .257E+02  .257E+02  .258E+02  .257E+02
  .257E+02  .257E+02  .257E+02  .257E+02  .000E+00  .000E+00  .000E+00  .000E+00
  .000E+00  .000E+00  .000E+00  .000E+00  .000E+00  .000E+00  .000E+00  .000E+00
  .000E+00  .000E+00  .000E+00  .000E+00  .000E+00  .000E+00  .000E+00  .000E+00
  .000E+00  .000E+00  .000E+00  .000E+00  .000E+00  .000E+00  .000E+00  .000E+00
  .000E+00  .000E+00  .000E+00  .000E+00
  .258E+02  .258E+02  .257E+02  .261E+02  .256E+02  .257E+02  .257E+02  .269E+02
  .257E+02  .255E+02  .259E+02  .261E+02  .266E+02  .269E+02  .275E+02  .260E+02
  .262E+02  .257E+02  .258E+02  .290E+02  .300E+02  .259E+02  .259E+02  .267E+02
  .349E+02  .359E+02  .329E+02  .298E+02  .261E+02  .260E+02  .259E+02  .258E+02
  .258E+02  .258E+02  .258E+02  .258E+02  .257E+02  .257E+02  .257E+02  .257E+02
  .257E+02  .257E+02  .257E+02  .257E+02  .257E+02  .257E+02  .257E+02  .257E+02
  .257E+02  .257E+02  .257E+02  .257E+02  .257E+02  .257E+02  .257E+02  .257E+02
  .257E+02  .257E+02  .257E+02  .257E+02  .257E+02  .257E+02  .257E+02  .257E+02
  .257E+02  .257E+02  .257E+02  .257E+02  .000E+00  .000E+00  .000E+00  .000E+00
  .000E+00  .000E+00  .000E+00  .000E+00  .000E+00  .000E+00  .000E+00  .000E+00
  .000E+00  .000E+00  .000E+00  .000E+00  .000E+00  .000E+00  .000E+00  .000E+00
  .000E+00  .000E+00  .000E+00  .000E+00  .000E+00  .000E+00  .000E+00  .000E+00
  .000E+00  .000E+00  .000E+00  .000E+00
  .257E+02  .257E+02  .257E+02  .257E+02  .258E+02  .257E+02  .257E+02  .261E+02
  .257E+02  .257E+02  .257E+02  .257E+02  .266E+02  .269E+02  .257E+02  .257E+02
  .262E+02  .258E+02  .258E+02  .286E+02  .300E+02  .259E+02  .259E+02  .266E+02
  .349E+02  .358E+02  .329E+02  .298E+02  .261E+02  .260E+02  .259E+02  .259E+02
  .259E+02  .258E+02  .258E+02  .258E+02  .258E+02  .258E+02  .258E+02  .258E+02
  .258E+02  .258E+02  .258E+02  .258E+02  .258E+02  .256E+02  .256E+02  .256E+02
  .256E+02  .256E+02  .257E+02  .257E+02  .257E+02  .257E+02  .257E+02  .257E+02
  .257E+02  .257E+02  .257E+02  .257E+02  .257E+02  .257E+02  .258E+02  .257E+02
  .257E+02  .257E+02  .257E+02  .257E+02  .000E+00  .000E+00  .000E+00  .000E+00
  .000E+00  .000E+00  .000E+00  .000E+00  .000E+00  .000E+00  .000E+00  .000E+00
  .000E+00  .000E+00  .000E+00  .000E+00  .000E+00  .000E+00  .000E+00  .000E+00
  .000E+00  .000E+00  .000E+00  .000E+00  .000E+00  .000E+00  .000E+00  .000E+00
  .000E+00  .000E+00  .000E+00  .000E+00
Damping =  .02. Data of Sd,Sv,Sa,Pssv,ttSd,ttSv,ttSa :
  .567E-03  .669E-03  .768E-03  .867E-03  .936E-03  .110E-02  .148E-02  .194E-02
  .180E-02  .266E-02  .312E-02  .333E-02  .409E-02  .452E-02  .606E-02  .716E-02
  .959E-02  .130E-01  .194E-01  .235E-01  .316E-01  .303E-01  .369E-01  .456E-01
  .668E-01  .715E-01  .754E-01  .725E-01  .595E-01  .508E-01  .448E-01  .414E-01
  .375E-01  .333E-01  .319E-01  .311E-01  .299E-01  .284E-01  .274E-01  .267E-01
  .259E-01  .233E-01  .215E-01  .201E-01  .188E-01  .179E-01  .177E-01  .177E-01
  .175E-01  .174E-01  .174E-01  .171E-01  .168E-01  .167E-01  .166E-01  .164E-01
  .163E-01  .164E-01  .164E-01  .162E-01  .162E-01  .162E-01  .151E-01  .160E-01
  .154E-01  .156E-01  .153E-01  .155E-01  .000E+00  .000E+00  .000E+00  .000E+00
  .000E+00  .000E+00  .000E+00  .000E+00  .000E+00  .000E+00  .000E+00  .000E+00
  .000E+00  .000E+00  .000E+00  .000E+00  .000E+00  .000E+00  .000E+00  .000E+00
  .000E+00  .000E+00  .000E+00  .000E+00  .000E+00  .000E+00  .000E+00  .000E+00
  .000E+00  .000E+00  .000E+00  .000E+00
  .300E-01  .310E-01  .328E-01  .402E-01  .442E-01  .449E-01  .779E-01  .139E+00
  .136E+00  .184E+00  .182E+00  .185E+00  .231E+00  .214E+00  .284E+00  .296E+00
  .447E+00  .529E+00  .754E+00  .104E+01  .130E+01  .104E+01  .126E+01  .154E+01
  .225E+01  .228E+01  .227E+01  .205E+01  .154E+01  .127E+01  .107E+01  .986E+00
  .922E+00  .838E+00  .767E+00  .711E+00  .684E+00  .663E+00  .645E+00  .634E+00
  .624E+00  .594E+00  .568E+00  .549E+00  .533E+00  .521E+00  .511E+00  .503E+00
  .496E+00  .490E+00  .485E+00  .477E+00  .472E+00  .469E+00  .465E+00  .462E+00
  .461E+00  .459E+00  .458E+00  .457E+00  .456E+00  .455E+00  .452E+00  .453E+00
  .452E+00  .451E+00  .452E+00  .451E+00  .000E+00  .000E+00  .000E+00  .000E+00
  .000E+00  .000E+00  .000E+00  .000E+00  .000E+00  .000E+00  .000E+00  .000E+00
  .000E+00  .000E+00  .000E+00  .000E+00  .000E+00  .000E+00  .000E+00  .000E+00
  .000E+00  .000E+00  .000E+00  .000E+00  .000E+00  .000E+00  .000E+00  .000E+00
  .000E+00  .000E+00  .000E+00  .000E+00
  .363E-01  .388E-01  .406E-01  .419E-01  .416E-01  .449E-01  .499E-01  .554E-01
  .437E-01  .554E-01  .569E-01  .533E-01  .581E-01  .570E-01  .685E-01  .734E-01
  .810E-01  .920E-01  .117E+00  .123E+00  .143E+00  .121E+00  .131E+00  .144E+00
  .189E+00  .183E+00  .159E+00  .129E+00  .900E-01  .663E-01  .510E-01  .413E-01
  .332E-01  .263E-01  .227E-01  .199E-01  .173E-01  .151E-01  .133E-01  .119E-01
  .106E-01  .791E-02  .612E-02  .488E-02  .395E-02  .328E-02  .286E-02  .254E-02
  .224E-02  .200E-02  .181E-02  .147E-02  .122E-02  .104E-02  .893E-03  .769E-03
  .676E-03  .606E-03  .539E-03  .483E-03  .438E-03  .366E-03  .291E-03  .264E-03
  .222E-03  .198E-03  .174E-03  .158E-03  .000E+00  .000E+00  .000E+00  .000E+00
  .000E+00  .000E+00  .000E+00  .000E+00  .000E+00  .000E+00  .000E+00  .000E+00
  .000E+00  .000E+00  .000E+00  .000E+00  .000E+00  .000E+00  .000E+00  .000E+00
  .000E+00  .000E+00  .000E+00  .000E+00  .000E+00  .000E+00  .000E+00  .000E+00
  .000E+00  .000E+00  .000E+00  .000E+00
  .891E-01  .100E+00  .110E+00  .118E+00  .122E+00  .138E+00  .169E+00  .203E+00
  .174E+00  .239E+00  .261E+00  .261E+00  .302E+00  .315E+00  .401E+00  .450E+00
  .548E+00  .678E+00  .935E+00  .106E+01  .132E+01  .119E+01  .136E+01  .159E+01
  .221E+01  .224E+01  .215E+01  .190E+01  .144E+01  .114E+01  .938E+00  .812E+00
  .694E+00  .582E+00  .528E+00  .488E+00  .447E+00  .406E+00  .374E+00  .349E+00
  .325E+00  .267E+00  .225E+00  .194E+00  .169E+00  .150E+00  .139E+00  .131E+00
  .122E+00  .115E+00  .109E+00  .976E-01  .882E-01  .807E-01  .746E-01  .686E-01
  .641E-01  .608E-01  .571E-01  .537E-01  .510E-01  .464E-01  .396E-01  .386E-01
  .345E-01  .326E-01  .301E-01  .286E-01  .000E+00  .000E+00  .000E+00  .000E+00
  .000E+00  .000E+00  .000E+00  .000E+00  .000E+00  .000E+00  .000E+00  .000E+00
  .000E+00  .000E+00  .000E+00  .000E+00  .000E+00  .000E+00  .000E+00  .000E+00
  .000E+00  .000E+00  .000E+00  .000E+00  .000E+00  .000E+00  .000E+00  .000E+00
  .000E+00  .000E+00  .000E+00  .000E+00
  .257E+02  .257E+02  .257E+02  .257E+02  .257E+02  .257E+02  .257E+02  .261E+02
  .257E+02  .262E+02  .257E+02  .257E+02  .262E+02  .256E+02  .257E+02  .257E+02
  .257E+02  .258E+02  .258E+02  .269E+02  .270E+02  .259E+02  .259E+02  .260E+02
  .263E+02  .263E+02  .263E+02  .262E+02  .261E+02  .260E+02  .259E+02  .259E+02
  .259E+02  .258E+02  .258E+02  .258E+02  .258E+02  .258E+02  .258E+02  .258E+02
  .258E+02  .258E+02  .258E+02  .258E+02  .258E+02  .258E+02  .256E+02  .256E+02
  .256E+02  .256E+02  .256E+02  .257E+02  .257E+02  .257E+02  .257E+02  .257E+02
  .257E+02  .257E+02  .257E+02  .257E+02  .257E+02  .257E+02  .257E+02  .257E+02
  .257E+02  .257E+02  .257E+02  .257E+02  .000E+00  .000E+00  .000E+00  .000E+00
  .000E+00  .000E+00  .000E+00  .000E+00  .000E+00  .000E+00  .000E+00  .000E+00
  .000E+00  .000E+00  .000E+00  .000E+00  .000E+00  .000E+00  .000E+00  .000E+00
  .000E+00  .000E+00  .000E+00  .000E+00  .000E+00  .000E+00  .000E+00  .000E+00
  .000E+00  .000E+00  .000E+00  .000E+00
  .257E+02  .257E+02  .261E+02  .259E+02  .259E+02  .257E+02  .257E+02  .261E+02
  .257E+02  .261E+02  .257E+02  .256E+02  .262E+02  .256E+02  .256E+02  .256E+02
  .262E+02  .257E+02  .257E+02  .264E+02  .270E+02  .259E+02  .259E+02  .259E+02
  .263E+02  .263E+02  .262E+02  .261E+02  .260E+02  .259E+02  .259E+02  .258E+02
  .258E+02  .258E+02  .258E+02  .258E+02  .257E+02  .257E+02  .257E+02  .257E+02
  .257E+02  .257E+02  .257E+02  .257E+02  .257E+02  .257E+02  .257E+02  .257E+02
  .257E+02  .257E+02  .257E+02  .257E+02  .257E+02  .257E+02  .257E+02  .257E+02
  .257E+02  .257E+02  .257E+02  .257E+02  .257E+02  .257E+02  .257E+02  .257E+02
  .257E+02  .257E+02  .257E+02  .257E+02  .000E+00  .000E+00  .000E+00  .000E+00
  .000E+00  .000E+00  .000E+00  .000E+00  .000E+00  .000E+00  .000E+00  .000E+00
  .000E+00  .000E+00  .000E+00  .000E+00  .000E+00  .000E+00  .000E+00  .000E+00
  .000E+00  .000E+00  .000E+00  .000E+00  .000E+00  .000E+00  .000E+00  .000E+00
  .000E+00  .000E+00  .000E+00  .000E+00
  .257E+02  .257E+02  .257E+02  .257E+02  .257E+02  .257E+02  .257E+02  .261E+02
  .257E+02  .262E+02  .257E+02  .257E+02  .262E+02  .256E+02  .257E+02  .257E+02
  .257E+02  .258E+02  .258E+02  .269E+02  .270E+02  .259E+02  .259E+02  .260E+02
  .263E+02  .263E+02  .263E+02  .262E+02  .261E+02  .260E+02  .259E+02  .259E+02
  .259E+02  .257E+02  .258E+02  .258E+02  .258E+02  .258E+02  .258E+02  .258E+02
  .258E+02  .258E+02  .258E+02  .258E+02  .258E+02  .258E+02  .256E+02  .256E+02
  .256E+02  .256E+02  .256E+02  .256E+02  .256E+02  .256E+02  .256E+02  .256E+02
  .256E+02  .256E+02  .256E+02  .256E+02  .256E+02  .256E+02  .256E+02  .256E+02
  .256E+02  .256E+02  .256E+02  .256E+02  .000E+00  .000E+00  .000E+00  .000E+00
  .000E+00  .000E+00  .000E+00  .000E+00  .000E+00  .000E+00  .000E+00  .000E+00
  .000E+00  .000E+00  .000E+00  .000E+00  .000E+00  .000E+00  .000E+00  .000E+00
  .000E+00  .000E+00  .000E+00  .000E+00  .000E+00  .000E+00  .000E+00  .000E+00
  .000E+00  .000E+00  .000E+00  .000E+00
Damping =  .05. Data of Sd,Sv,Sa,Pssv,ttSd,ttSv,ttSa :
  .570E-03  .656E-03  .749E-03  .840E-03  .936E-03  .105E-02  .137E-02  .166E-02
  .171E-02  .211E-02  .255E-02  .293E-02  .348E-02  .428E-02  .538E-02  .639E-02
  .838E-02  .115E-01  .155E-01  .176E-01  .214E-01  .259E-01  .319E-01  .385E-01
  .448E-01  .529E-01  .586E-01  .554E-01  .490E-01  .439E-01  .411E-01  .380E-01
  .346E-01  .316E-01  .306E-01  .297E-01  .287E-01  .277E-01  .268E-01  .260E-01
