Response and Fourier amplitude spectra (68 periods,  .04 -  3.4 sec)   for      
Corrected accelerogram   24207-M0150-20021.15       Chan 12: 270 Deg     from   
Uncorrected Accelerogram Data             Processed: 01/24/20, CGS  ce24207o    
Rcrd of Tue Jan 21, 2020 23:40:50.0 PST               (Avol1 v2.0, 4/18 CSMIP)  
CSMIP Preliminary Processing            (Origin:  To be determined)             
24207-M0150-20021.15                 Start time:  1/22/20, 07:40:50.0 UTC (GPS) 
Station No. 24207   34.335N, 118.397W    MtWtny  s/n  150 (17 Chns of 17 at Sta)
Sylmar - Pacoima Dam                      CGS   Data: Acceleration              
Chan 12: 270 DegR                   Location: Right (North) Abutment            
Rcrd of Tue Jan 21, 2020 23:40:50.0 PST    Tue Jan 21, 2020 23:40:50.0 PST      
Hypocenter:  To be determined.               ML:  To be determined.
Instr Period =  .0103 sec,  Damping =  .660,  Sensitivity =  .63 v/g
                        Record Length = 58.000 sec.
                                     Uncor Max  =   .010 g, at   25.515 sec.
RMS accel of (uncor) record  =        .   Chn. metadata effective date: 09/02/99
Accelerogram bandpass filtered with 3 dB pts at   .30 and 40.00 cyc/sec
                 instrument- and base-line correcte





Rcrd of Tue Jan 21, 2020 23:40:50.0 PST    Tue Jan 21, 2020 23:40:50.0 PST

24207-M0150-20021.15      Sylmar - Pacoima Dam    Chan 12: 270 Deg

24207-M0150-20021.15      Sylmar - Pacoima Dam    Chan 12: 270 Deg

Units for spectra are inches and sec, except Sa is in fraction of g.

   12  100   12   18   17  200    1    3    1   24   13  150    024207    5    0
    7   40   50    0   22    1   22 2020   10    3  27011600   39   20   74   -1
11600    0  100    3  150    1   15  580    2 -999 -999 -999 -999 -999 -999 -999
 -999 -999    3 -99911600    1  222    1   18    4 -999 -999    3    1 -99911600
    311600    4   68    5   17    5    0    0 -999    0    0    1    3    1    2
    2    2    4    0   68   67    0   10 -999    1    0    1    0    0   64  222
    1    0    4    0
      .010      .660    58.000      .000     1.000   625.000      .010    25.515
    97.100      .298      .477  -999.000     5.000  -999.000     4.000  -999.000
     2.500   -12.281     2.500  2016.000    25.000    30.000  -999.000      .003
     -.002     -.005     2.000    15.000    34.335  -118.397      .028      .028
      .994     -.009     -.001   594.000    25.700    27.200    12.600   103.640
     1.000    10.003    -8.000  -999.000  -999.000  -999.000  -999.000  -999.000
     6.900     2.000     6.800   980.665      .005    58.000    15.454      .000
  -999.000    40.000  -999.000    58.000      .005      .303  -999.000  -999.000
    25.510    10.225    25.550      .326    25.505     -.011      .000      .303
    40.000      .005      .005      .000      .005      .002  -999.000  -999.000
      .027      .170      .024      .015      .001      .000  -999.000  -999.000
  -999.000  -999.000  -999.000  -999.000  -999.000  -999.000  -999.000  -999.000
  -999.000  -999.000  -999.000  -999.000
      .000      .020      .050      .100      .200
      .040      .042      .044      .046      .048      .050      .055      .060
      .065      .070      .075      .080      .085      .090      .095      .100
      .110      .120      .130      .140      .150      .160      .170      .180
      .190      .200      .220      .240      .260      .280      .300      .320
      .340      .360      .380      .400      .420      .440      .460      .480
      .500      .550      .600      .650      .700      .750      .800      .850
      .900      .950     1.000     1.100     1.200     1.300     1.400     1.500
     1.600     1.700     1.800     1.900     2.000     2.200     2.400     2.600
     2.800     3.000     3.200     3.400      .000      .000      .000      .000
      .000      .000      .000      .000      .000      .000      .000      .000
      .000      .000      .000      .000      .000      .000      .000      .000
      .000      .000      .000      .000      .000      .000      .000      .000
      .000      .000      .000      .000
Fourier amplitude spectra in in/sec.
  .135E-01  .263E-01  .322E-01  .889E-01  .759E-01  .106E+00  .145E+00  .519E-01
  .524E-01  .846E-01  .185E+00  .128E+00  .163E+00  .863E-01  .986E-01  .117E+00
  .628E-01  .253E+00  .128E+00  .271E+00  .375E+00  .320E+00  .284E+00  .233E+00
  .142E+00  .301E+00  .734E+00  .588E+00  .452E+00  .390E+00  .418E+00  .339E+00
  .227E+00  .159E+00  .109E+00  .154E+00  .209E+00  .376E-01  .982E-01  .168E+00
  .207E+00  .615E-01  .320E-01  .159E-01  .240E-01  .375E-01  .264E-01  .260E-01
  .102E-01  .119E-01  .102E-01  .157E-01  .168E-01  .393E-02  .565E-02  .335E-02
  .102E-01  .382E-02  .491E-02  .975E-03  .826E-03  .341E-02  .315E-02  .174E-02
  .220E-02  .461E-02  .114E-02  .209E-02  .000E+00  .000E+00  .000E+00  .000E+00
  .000E+00  .000E+00  .000E+00  .000E+00  .000E+00  .000E+00  .000E+00  .000E+00
  .000E+00  .000E+00  .000E+00  .000E+00  .000E+00  .000E+00  .000E+00  .000E+00
  .000E+00  .000E+00  .000E+00  .000E+00  .000E+00  .000E+00  .000E+00  .000E+00
  .000E+00  .000E+00  .000E+00  .000E+00
Damping =  .00. Data of Sd,Sv,Sa,Pssv,ttSd,ttSv,ttSa :
  .263E-03  .323E-03  .387E-03  .914E-03  .773E-03  .101E-02  .156E-02  .760E-03
  .881E-03  .141E-02  .233E-02  .186E-02  .257E-02  .181E-02  .181E-02  .262E-02
  .369E-02  .523E-02  .577E-02  .731E-02  .893E-02  .971E-02  .929E-02  .105E-01
  .108E-01  .128E-01  .261E-01  .249E-01  .207E-01  .190E-01  .204E-01  .184E-01
  .156E-01  .131E-01  .118E-01  .116E-01  .141E-01  .979E-02  .908E-02  .132E-01
  .165E-01  .827E-02  .711E-02  .685E-02  .671E-02  .686E-02  .678E-02  .673E-02
  .632E-02  .596E-02  .651E-02  .589E-02  .570E-02  .519E-02  .563E-02  .494E-02
  .486E-02  .549E-02  .516E-02  .509E-02  .490E-02  .474E-02  .449E-02  .503E-02
  .486E-02  .557E-02  .518E-02  .478E-02  .000E+00  .000E+00  .000E+00  .000E+00
  .000E+00  .000E+00  .000E+00  .000E+00  .000E+00  .000E+00  .000E+00  .000E+00
  .000E+00  .000E+00  .000E+00  .000E+00  .000E+00  .000E+00  .000E+00  .000E+00
  .000E+00  .000E+00  .000E+00  .000E+00  .000E+00  .000E+00  .000E+00  .000E+00
  .000E+00  .000E+00  .000E+00  .000E+00
  .227E-01  .348E-01  .491E-01  .994E-01  .929E-01  .127E+00  .176E+00  .638E-01
  .786E-01  .117E+00  .195E+00  .145E+00  .186E+00  .118E+00  .116E+00  .157E+00
  .173E+00  .271E+00  .266E+00  .321E+00  .374E+00  .382E+00  .327E+00  .353E+00
  .347E+00  .387E+00  .746E+00  .651E+00  .524E+00  .423E+00  .428E+00  .360E+00
  .305E+00  .269E+00  .243E+00  .220E+00  .211E+00  .177E+00  .170E+00  .175E+00
  .208E+00  .159E+00  .156E+00  .152E+00  .151E+00  .148E+00  .147E+00  .143E+00
  .145E+00  .141E+00  .142E+00  .139E+00  .140E+00  .135E+00  .135E+00  .134E+00
  .136E+00  .131E+00  .130E+00  .135E+00  .130E+00  .132E+00  .129E+00  .132E+00
  .129E+00  .132E+00  .131E+00  .130E+00  .000E+00  .000E+00  .000E+00  .000E+00
  .000E+00  .000E+00  .000E+00  .000E+00  .000E+00  .000E+00  .000E+00  .000E+00
  .000E+00  .000E+00  .000E+00  .000E+00  .000E+00  .000E+00  .000E+00  .000E+00
  .000E+00  .000E+00  .000E+00  .000E+00  .000E+00  .000E+00  .000E+00  .000E+00
  .000E+00  .000E+00  .000E+00  .000E+00
  .168E-01  .187E-01  .205E-01  .442E-01  .343E-01  .412E-01  .527E-01  .216E-01
  .213E-01  .295E-01  .425E-01  .298E-01  .364E-01  .229E-01  .205E-01  .268E-01
  .312E-01  .371E-01  .349E-01  .381E-01  .406E-01  .388E-01  .329E-01  .330E-01
  .306E-01  .326E-01  .552E-01  .442E-01  .313E-01  .248E-01  .232E-01  .184E-01
  .138E-01  .104E-01  .837E-02  .744E-02  .819E-02  .517E-02  .439E-02  .584E-02
  .675E-02  .280E-02  .202E-02  .166E-02  .140E-02  .125E-02  .108E-02  .953E-03
  .799E-03  .675E-03  .666E-03  .498E-03  .404E-03  .314E-03  .294E-03  .224E-03
  .194E-03  .194E-03  .163E-03  .144E-03  .125E-03  .100E-03  .798E-04  .761E-04
  .634E-04  .633E-04  .518E-04  .423E-04  .000E+00  .000E+00  .000E+00  .000E+00
  .000E+00  .000E+00  .000E+00  .000E+00  .000E+00  .000E+00  .000E+00  .000E+00
  .000E+00  .000E+00  .000E+00  .000E+00  .000E+00  .000E+00  .000E+00  .000E+00
  .000E+00  .000E+00  .000E+00  .000E+00  .000E+00  .000E+00  .000E+00  .000E+00
  .000E+00  .000E+00  .000E+00  .000E+00
  .413E-01  .483E-01  .553E-01  .125E+00  .101E+00  .127E+00  .178E+00  .796E-01
  .852E-01  .127E+00  .196E+00  .146E+00  .190E+00  .127E+00  .120E+00  .165E+00
  .211E+00  .274E+00  .279E+00  .328E+00  .374E+00  .381E+00  .343E+00  .365E+00
  .357E+00  .401E+00  .746E+00  .652E+00  .499E+00  .427E+00  .427E+00  .361E+00
  .288E+00  .229E+00  .195E+00  .183E+00  .211E+00  .140E+00  .124E+00  .172E+00
  .207E+00  .945E-01  .745E-01  .662E-01  .603E-01  .575E-01  .532E-01  .498E-01
  .442E-01  .394E-01  .409E-01  .336E-01  .298E-01  .251E-01  .253E-01  .207E-01
  .191E-01  .203E-01  .180E-01  .168E-01  .154E-01  .135E-01  .118E-01  .122E-01
  .109E-01  .117E-01  .102E-01  .884E-02  .000E+00  .000E+00  .000E+00  .000E+00
  .000E+00  .000E+00  .000E+00  .000E+00  .000E+00  .000E+00  .000E+00  .000E+00
  .000E+00  .000E+00  .000E+00  .000E+00  .000E+00  .000E+00  .000E+00  .000E+00
  .000E+00  .000E+00  .000E+00  .000E+00  .000E+00  .000E+00  .000E+00  .000E+00
  .000E+00  .000E+00  .000E+00  .000E+00
  .255E+02  .255E+02  .255E+02  .255E+02  .259E+02  .271E+02  .264E+02  .258E+02
  .260E+02  .260E+02  .339E+02  .261E+02  .276E+02  .258E+02  .265E+02  .262E+02
  .256E+02  .276E+02  .259E+02  .264E+02  .571E+02  .261E+02  .256E+02  .257E+02
  .258E+02  .258E+02  .333E+02  .295E+02  .262E+02  .260E+02  .401E+02  .302E+02
  .281E+02  .259E+02  .259E+02  .258E+02  .495E+02  .258E+02  .258E+02  .296E+02
  .565E+02  .276E+02  .256E+02  .256E+02  .256E+02  .256E+02  .256E+02  .256E+02
  .256E+02  .256E+02  .256E+02  .256E+02  .256E+02  .256E+02  .256E+02  .256E+02
  .256E+02  .256E+02  .256E+02  .256E+02  .256E+02  .256E+02  .256E+02  .256E+02
  .256E+02  .256E+02  .255E+02  .255E+02  .000E+00  .000E+00  .000E+00  .000E+00
  .000E+00  .000E+00  .000E+00  .000E+00  .000E+00  .000E+00  .000E+00  .000E+00
  .000E+00  .000E+00  .000E+00  .000E+00  .000E+00  .000E+00  .000E+00  .000E+00
  .000E+00  .000E+00  .000E+00  .000E+00  .000E+00  .000E+00  .000E+00  .000E+00
  .000E+00  .000E+00  .000E+00  .000E+00
  .255E+02  .244E+02  .244E+02  .255E+02  .259E+02  .270E+02  .265E+02  .258E+02
  .260E+02  .260E+02  .339E+02  .261E+02  .276E+02  .258E+02  .265E+02  .262E+02
  .256E+02  .279E+02  .258E+02  .264E+02  .571E+02  .261E+02  .257E+02  .257E+02
  .257E+02  .257E+02  .332E+02  .297E+02  .260E+02  .260E+02  .400E+02  .301E+02
  .258E+02  .258E+02  .258E+02  .258E+02  .493E+02  .255E+02  .255E+02  .298E+02
  .384E+02  .255E+02  .255E+02  .255E+02  .255E+02  .255E+02  .255E+02  .255E+02
  .255E+02  .255E+02  .255E+02  .255E+02  .255E+02  .255E+02  .255E+02  .255E+02
  .255E+02  .255E+02  .255E+02  .255E+02  .255E+02  .255E+02  .255E+02  .255E+02
  .255E+02  .255E+02  .255E+02  .255E+02  .000E+00  .000E+00  .000E+00  .000E+00
  .000E+00  .000E+00  .000E+00  .000E+00  .000E+00  .000E+00  .000E+00  .000E+00
  .000E+00  .000E+00  .000E+00  .000E+00  .000E+00  .000E+00  .000E+00  .000E+00
  .000E+00  .000E+00  .000E+00  .000E+00  .000E+00  .000E+00  .000E+00  .000E+00
  .000E+00  .000E+00  .000E+00  .000E+00
  .255E+02  .255E+02  .255E+02  .255E+02  .259E+02  .271E+02  .264E+02  .258E+02
  .260E+02  .260E+02  .339E+02  .261E+02  .276E+02  .258E+02  .265E+02  .262E+02
  .256E+02  .276E+02  .259E+02  .264E+02  .571E+02  .261E+02  .256E+02  .257E+02
  .258E+02  .258E+02  .333E+02  .295E+02  .262E+02  .260E+02  .401E+02  .302E+02
  .281E+02  .259E+02  .259E+02  .258E+02  .495E+02  .258E+02  .258E+02  .296E+02
  .565E+02  .276E+02  .256E+02  .256E+02  .256E+02  .256E+02  .256E+02  .256E+02
  .256E+02  .256E+02  .256E+02  .256E+02  .256E+02  .256E+02  .256E+02  .256E+02
  .256E+02  .256E+02  .256E+02  .256E+02  .256E+02  .256E+02  .256E+02  .256E+02
  .256E+02  .256E+02  .255E+02  .255E+02  .000E+00  .000E+00  .000E+00  .000E+00
  .000E+00  .000E+00  .000E+00  .000E+00  .000E+00  .000E+00  .000E+00  .000E+00
  .000E+00  .000E+00  .000E+00  .000E+00  .000E+00  .000E+00  .000E+00  .000E+00
  .000E+00  .000E+00  .000E+00  .000E+00  .000E+00  .000E+00  .000E+00  .000E+00
  .000E+00  .000E+00  .000E+00  .000E+00
Damping =  .02. Data of Sd,Sv,Sa,Pssv,ttSd,ttSv,ttSa :
  .188E-03  .185E-03  .220E-03  .328E-03  .363E-03  .389E-03  .498E-03  .555E-03
  .632E-03  .717E-03  .999E-03  .994E-03  .150E-02  .154E-02  .153E-02  .174E-02
  .276E-02  .344E-02  .468E-02  .523E-02  .620E-02  .766E-02  .850E-02  .933E-02
  .968E-02  .110E-01  .144E-01  .177E-01  .170E-01  .166E-01  .152E-01  .146E-01
  .137E-01  .122E-01  .109E-01  .108E-01  .103E-01  .950E-02  .884E-02  .845E-02
  .943E-02  .744E-02  .710E-02  .688E-02  .669E-02  .662E-02  .659E-02  .650E-02
  .631E-02  .613E-02  .623E-02  .597E-02  .566E-02  .518E-02  .538E-02  .512E-02
  .493E-02  .511E-02  .523E-02  .510E-02  .494E-02  .479E-02  .469E-02  .495E-02
  .491E-02  .521E-02  .485E-02  .480E-02  .000E+00  .000E+00  .000E+00  .000E+00
  .000E+00  .000E+00  .000E+00  .000E+00  .000E+00  .000E+00  .000E+00  .000E+00
  .000E+00  .000E+00  .000E+00  .000E+00  .000E+00  .000E+00  .000E+00  .000E+00
  .000E+00  .000E+00  .000E+00  .000E+00  .000E+00  .000E+00  .000E+00  .000E+00
  .000E+00  .000E+00  .000E+00  .000E+00
  .156E-01  .206E-01  .247E-01  .368E-01  .420E-01  .409E-01  .561E-01  .457E-01
  .508E-01  .563E-01  .758E-01  .645E-01  .863E-01  .101E+00  .963E-01  .968E-01
  .124E+00  .152E+00  .201E+00  .207E+00  .247E+00  .267E+00  .290E+00  .313E+00
  .318E+00  .343E+00  .424E+00  .471E+00  .447E+00  .379E+00  .341E+00  .307E+00
  .284E+00  .256E+00  .233E+00  .209E+00  .186E+00  .172E+00  .167E+00  .162E+00
  .159E+00  .158E+00  .154E+00  .151E+00  .149E+00  .146E+00  .145E+00  .144E+00
  .143E+00  .141E+00  .141E+00  .140E+00  .139E+00  .136E+00  .135E+00  .134E+00
  .134E+00  .132E+00  .132E+00  .133E+00  .131E+00  .132E+00  .130E+00  .131E+00
  .130E+00  .131E+00  .131E+00  .130E+00  .000E+00  .000E+00  .000E+00  .000E+00
  .000E+00  .000E+00  .000E+00  .000E+00  .000E+00  .000E+00  .000E+00  .000E+00
  .000E+00  .000E+00  .000E+00  .000E+00  .000E+00  .000E+00  .000E+00  .000E+00
  .000E+00  .000E+00  .000E+00  .000E+00  .000E+00  .000E+00  .000E+00  .000E+00
  .000E+00  .000E+00  .000E+00  .000E+00
  .120E-01  .107E-01  .116E-01  .159E-01  .161E-01  .158E-01  .170E-01  .159E-01
  .153E-01  .150E-01  .181E-01  .159E-01  .212E-01  .194E-01  .174E-01  .178E-01
  .233E-01  .245E-01  .284E-01  .273E-01  .283E-01  .306E-01  .301E-01  .295E-01
  .274E-01  .282E-01  .304E-01  .315E-01  .258E-01  .218E-01  .173E-01  .146E-01
  .121E-01  .963E-02  .776E-02  .693E-02  .597E-02  .502E-02  .428E-02  .375E-02
  .386E-02  .252E-02  .202E-02  .167E-02  .140E-02  .121E-02  .106E-02  .925E-03
  .800E-03  .699E-03  .641E-03  .509E-03  .406E-03  .318E-03  .285E-03  .237E-03
  .201E-03  .185E-03  .169E-03  .149E-03  .131E-03  .106E-03  .875E-04  .792E-04
  .685E-04  .637E-04  .540E-04  .480E-04  .000E+00  .000E+00  .000E+00  .000E+00
  .000E+00  .000E+00  .000E+00  .000E+00  .000E+00  .000E+00  .000E+00  .000E+00
  .000E+00  .000E+00  .000E+00  .000E+00  .000E+00  .000E+00  .000E+00  .000E+00
  .000E+00  .000E+00  .000E+00  .000E+00  .000E+00  .000E+00  .000E+00  .000E+00
  .000E+00  .000E+00  .000E+00  .000E+00
  .296E-01  .277E-01  .314E-01  .449E-01  .475E-01  .489E-01  .569E-01  .581E-01
  .611E-01  .643E-01  .837E-01  .781E-01  .111E+00  .107E+00  .101E+00  .109E+00
  .158E+00  .180E+00  .226E+00  .235E+00  .260E+00  .301E+00  .314E+00  .326E+00
  .320E+00  .346E+00  .411E+00  .464E+00  .411E+00  .374E+00  .318E+00  .287E+00
  .253E+00  .213E+00  .181E+00  .170E+00  .154E+00  .136E+00  .121E+00  .111E+00
  .118E+00  .850E-01  .743E-01  .665E-01  .601E-01  .554E-01  .518E-01  .480E-01
  .440E-01  .405E-01  .392E-01  .341E-01  .297E-01  .250E-01  .241E-01  .215E-01
  .194E-01  .189E-01  .183E-01  .169E-01  .155E-01  .137E-01  .123E-01  .120E-01
  .110E-01  .109E-01  .952E-02  .888E-02  .000E+00  .000E+00  .000E+00  .000E+00
  .000E+00  .000E+00  .000E+00  .000E+00  .000E+00  .000E+00  .000E+00  .000E+00
  .000E+00  .000E+00  .000E+00  .000E+00  .000E+00  .000E+00  .000E+00  .000E+00
  .000E+00  .000E+00  .000E+00  .000E+00  .000E+00  .000E+00  .000E+00  .000E+00
  .000E+00  .000E+00  .000E+00  .000E+00
  .255E+02  .255E+02  .255E+02  .255E+02  .259E+02  .259E+02  .244E+02  .260E+02
  .260E+02  .260E+02  .260E+02  .255E+02  .255E+02  .258E+02  .260E+02  .256E+02
  .256E+02  .256E+02  .256E+02  .256E+02  .256E+02  .256E+02  .256E+02  .256E+02
  .256E+02  .258E+02  .260E+02  .260E+02  .259E+02  .260E+02  .260E+02  .259E+02
  .259E+02  .259E+02  .257E+02  .258E+02  .258E+02  .258E+02  .258E+02  .258E+02
  .285E+02  .256E+02  .256E+02  .256E+02  .256E+02  .256E+02  .256E+02  .256E+02
  .256E+02  .256E+02  .256E+02  .256E+02  .256E+02  .256E+02  .256E+02  .256E+02
  .256E+02  .256E+02  .256E+02  .256E+02  .256E+02  .256E+02  .256E+02  .256E+02
  .256E+02  .256E+02  .255E+02  .255E+02  .000E+00  .000E+00  .000E+00  .000E+00
  .000E+00  .000E+00  .000E+00  .000E+00  .000E+00  .000E+00  .000E+00  .000E+00
  .000E+00  .000E+00  .000E+00  .000E+00  .000E+00  .000E+00  .000E+00  .000E+00
  .000E+00  .000E+00  .000E+00  .000E+00  .000E+00  .000E+00  .000E+00  .000E+00
  .000E+00  .000E+00  .000E+00  .000E+00
  .236E+02  .236E+02  .237E+02  .244E+02  .241E+02  .239E+02  .244E+02  .260E+02
  .260E+02  .260E+02  .264E+02  .261E+02  .255E+02  .258E+02  .261E+02  .261E+02
  .256E+02  .263E+02  .258E+02  .259E+02  .261E+02  .257E+02  .257E+02  .257E+02
  .257E+02  .257E+02  .261E+02  .260E+02  .260E+02  .259E+02  .259E+02  .259E+02
  .258E+02  .258E+02  .258E+02  .258E+02  .257E+02  .257E+02  .255E+02  .255E+02
  .255E+02  .255E+02  .255E+02  .255E+02  .255E+02  .255E+02  .255E+02  .255E+02
  .255E+02  .255E+02  .255E+02  .255E+02  .255E+02  .255E+02  .255E+02  .255E+02
  .255E+02  .255E+02  .255E+02  .255E+02  .255E+02  .255E+02  .255E+02  .255E+02
  .255E+02  .255E+02  .255E+02  .255E+02  .000E+00  .000E+00  .000E+00  .000E+00
  .000E+00  .000E+00  .000E+00  .000E+00  .000E+00  .000E+00  .000E+00  .000E+00
  .000E+00  .000E+00  .000E+00  .000E+00  .000E+00  .000E+00  .000E+00  .000E+00
  .000E+00  .000E+00  .000E+00  .000E+00  .000E+00  .000E+00  .000E+00  .000E+00
  .000E+00  .000E+00  .000E+00  .000E+00
  .255E+02  .255E+02  .255E+02  .255E+02  .259E+02  .259E+02  .244E+02  .260E+02
  .260E+02  .260E+02  .260E+02  .255E+02  .255E+02  .258E+02  .260E+02  .256E+02
  .256E+02  .256E+02  .256E+02  .256E+02  .256E+02  .256E+02  .256E+02  .256E+02
  .256E+02  .258E+02  .260E+02  .260E+02  .259E+02  .260E+02  .260E+02  .259E+02
  .259E+02  .259E+02  .257E+02  .257E+02  .258E+02  .258E+02  .258E+02  .258E+02
  .285E+02  .256E+02  .256E+02  .256E+02  .256E+02  .256E+02  .256E+02  .256E+02
  .256E+02  .256E+02  .256E+02  .256E+02  .256E+02  .256E+02  .256E+02  .256E+02
  .256E+02  .256E+02  .256E+02  .256E+02  .256E+02  .256E+02  .256E+02  .256E+02
  .256E+02  .256E+02  .255E+02  .255E+02  .000E+00  .000E+00  .000E+00  .000E+00
  .000E+00  .000E+00  .000E+00  .000E+00  .000E+00  .000E+00  .000E+00  .000E+00
  .000E+00  .000E+00  .000E+00  .000E+00  .000E+00  .000E+00  .000E+00  .000E+00
  .000E+00  .000E+00  .000E+00  .000E+00  .000E+00  .000E+00  .000E+00  .000E+00
  .000E+00  .000E+00  .000E+00  .000E+00
Damping =  .05. Data of Sd,Sv,Sa,Pssv,ttSd,ttSv,ttSa :
  .182E-03  .198E-03  .230E-03  .278E-03  .311E-03  .323E-03  .377E-03  .483E-03
  .549E-03  .600E-03  .733E-03  .969E-03  .125E-02  .130E-02  .141E-02  .166E-02
  .241E-02  .323E-02  .414E-02  .475E-02  .564E-02  .668E-02  .750E-02  .824E-02
  .877E-02  .955E-02  .110E-01  .132E-01  .138E-01  .137E-01  .131E-01  .127E-01
  .120E-01  .109E-01  .101E-01  .992E-02  .950E-02  .897E-02  .847E-02  .809E-02
