Response and Fourier amplitude spectra (68 periods,  .04 -  3.4 sec)   for      
Corrected accelerogram   24207-M0150-20021.15       Chan  7:  Radl       from   
Uncorrected Accelerogram Data             Processed: 01/24/20, CGS  ce24207o    
Rcrd of Tue Jan 21, 2020 23:40:50.0 PST               (Avol1 v2.0, 4/18 CSMIP)  
CSMIP Preliminary Processing            (Origin:  To be determined)             
24207-M0150-20021.15                 Start time:  1/22/20, 07:40:50.0 UTC (GPS) 
Station No. 24207   34.335N, 118.397W    MtWtny  s/n  150 (17 Chns of 17 at Sta)
Sylmar - Pacoima Dam                      CGS   Data: Acceleration              
Chan  7:  Radl                      Location: 80% Height: Center                
Rcrd of Tue Jan 21, 2020 23:40:50.0 PST    Tue Jan 21, 2020 23:40:50.0 PST      
Hypocenter:  To be determined.               ML:  To be determined.
Instr Period =  .0102 sec,  Damping =  .670,  Sensitivity =  .62 v/g
                        Record Length = 58.000 sec.
                                     Uncor Max  =   .017 g, at   25.770 sec.
RMS accel of (uncor) record  =        .   Chn. metadata effective date: 09/02/99
Accelerogram bandpass filtered with 3 dB pts at   .30 and 40.00 cyc/sec
                 instrument- and base-line correcte





Rcrd of Tue Jan 21, 2020 23:40:50.0 PST    Tue Jan 21, 2020 23:40:50.0 PST

24207-M0150-20021.15      Sylmar - Pacoima Dam    Chan  7:  Radl

24207-M0150-20021.15      Sylmar - Pacoima Dam    Chan  7:  Radl

Units for spectra are inches and sec, except Sa is in fraction of g.

    7  100    7   18   17  200    1    3    1   24   13  150    024207    5    0
    7   40   50    0   22    1   22 2020   10    3  70011600   39   20   74   -1
11600    0  100    3  150    1   15  580    2 -999 -999 -999 -999 -999 -999 -999
 -999 -999    3 -99911600    1  222    1   18    4 -999 -999    3    1 -99911600
    311600    4   68    5   17    5    0    0 -999    0    0    1    3    1    2
    2    2    4    0   68   67    0   10 -999    1    0    1    0    0   64  222
    1    0    4    0
      .010      .670    58.000      .001     1.000   624.000      .017    25.770
    97.600      .298      .478  -999.000     5.000  -999.000     4.000  -999.000
     2.500   -34.470     2.500  2016.000    25.000    30.000  -999.000      .001
      .002      .000     2.000    15.000    34.335  -118.397      .009      .017
     2.012     -.001      .002   594.000    25.700    27.200    12.600   103.640
     1.000    10.003    -8.000  -999.000  -999.000  -999.000  -999.000  -999.000
     6.900     2.000     6.800   980.665      .005    58.000    15.534      .000
  -999.000    40.000  -999.000    58.000      .005      .303  -999.000  -999.000
    25.770    16.960    25.710     -.653    25.645      .026      .000      .303
    40.000      .005      .005      .000      .005      .005  -999.000  -999.000
      .084      .220      .073      .040      .001      .000  -999.000  -999.000
  -999.000  -999.000  -999.000  -999.000  -999.000  -999.000  -999.000  -999.000
  -999.000  -999.000  -999.000  -999.000
      .000      .020      .050      .100      .200
      .040      .042      .044      .046      .048      .050      .055      .060
      .065      .070      .075      .080      .085      .090      .095      .100
      .110      .120      .130      .140      .150      .160      .170      .180
      .190      .200      .220      .240      .260      .280      .300      .320
      .340      .360      .380      .400      .420      .440      .460      .480
      .500      .550      .600      .650      .700      .750      .800      .850
      .900      .950     1.000     1.100     1.200     1.300     1.400     1.500
     1.600     1.700     1.800     1.900     2.000     2.200     2.400     2.600
     2.800     3.000     3.200     3.400      .000      .000      .000      .000
      .000      .000      .000      .000      .000      .000      .000      .000
      .000      .000      .000      .000      .000      .000      .000      .000
      .000      .000      .000      .000      .000      .000      .000      .000
      .000      .000      .000      .000
Fourier amplitude spectra in in/sec.
  .120E-01  .255E-02  .637E-02  .659E-02  .182E-01  .376E-01  .399E-01  .273E-01
  .347E-01  .363E-01  .892E-01  .251E-01  .538E-01  .469E-01  .651E-01  .642E-01
  .102E+00  .467E+00  .430E-01  .464E+00  .544E+00  .240E+00  .271E+00  .203E+00
  .119E+01  .919E+00  .280E+01  .164E+01  .177E+01  .105E+01  .363E+00  .841E+00
  .367E+00  .233E+00  .179E+00  .998E-01  .217E+00  .637E-01  .156E+00  .222E+00
  .234E+00  .105E+00  .375E-01  .455E-01  .308E-01  .521E-01  .307E-01  .210E-01
  .135E-01  .132E-01  .146E-01  .115E-01  .132E-01  .116E-01  .769E-02  .318E-02
  .425E-02  .217E-02  .542E-02  .303E-02  .629E-02  .131E-02  .265E-02  .620E-02
  .364E-02  .487E-02  .201E-02  .151E-02  .000E+00  .000E+00  .000E+00  .000E+00
  .000E+00  .000E+00  .000E+00  .000E+00  .000E+00  .000E+00  .000E+00  .000E+00
  .000E+00  .000E+00  .000E+00  .000E+00  .000E+00  .000E+00  .000E+00  .000E+00
  .000E+00  .000E+00  .000E+00  .000E+00  .000E+00  .000E+00  .000E+00  .000E+00
  .000E+00  .000E+00  .000E+00  .000E+00
Damping =  .00. Data of Sd,Sv,Sa,Pssv,ttSd,ttSv,ttSa :
  .329E-03  .330E-03  .358E-03  .387E-03  .537E-03  .742E-03  .765E-03  .858E-03
  .113E-02  .165E-02  .230E-02  .132E-02  .193E-02  .224E-02  .249E-02  .286E-02
  .577E-02  .994E-02  .758E-02  .108E-01  .142E-01  .125E-01  .177E-01  .224E-01
  .381E-01  .344E-01  .101E+00  .864E-01  .759E-01  .506E-01  .428E-01  .447E-01
  .339E-01  .284E-01  .253E-01  .244E-01  .232E-01  .217E-01  .206E-01  .199E-01
  .194E-01  .163E-01  .144E-01  .140E-01  .138E-01  .135E-01  .132E-01  .133E-01
  .127E-01  .123E-01  .125E-01  .122E-01  .117E-01  .120E-01  .123E-01  .116E-01
  .111E-01  .113E-01  .104E-01  .118E-01  .110E-01  .105E-01  .108E-01  .111E-01
  .989E-02  .107E-01  .108E-01  .101E-01  .000E+00  .000E+00  .000E+00  .000E+00
  .000E+00  .000E+00  .000E+00  .000E+00  .000E+00  .000E+00  .000E+00  .000E+00
  .000E+00  .000E+00  .000E+00  .000E+00  .000E+00  .000E+00  .000E+00  .000E+00
  .000E+00  .000E+00  .000E+00  .000E+00  .000E+00  .000E+00  .000E+00  .000E+00
  .000E+00  .000E+00  .000E+00  .000E+00
  .162E-01  .151E-01  .190E-01  .157E-01  .326E-01  .534E-01  .517E-01  .490E-01
  .661E-01  .829E-01  .126E+00  .528E-01  .819E-01  .888E-01  .952E-01  .101E+00
  .271E+00  .499E+00  .281E+00  .479E+00  .585E+00  .408E+00  .542E+00  .696E+00
  .121E+01  .104E+01  .287E+01  .228E+01  .183E+01  .122E+01  .102E+01  .881E+00
  .745E+00  .651E+00  .573E+00  .521E+00  .469E+00  .443E+00  .426E+00  .416E+00
  .407E+00  .377E+00  .351E+00  .334E+00  .323E+00  .312E+00  .302E+00  .296E+00
  .288E+00  .283E+00  .281E+00  .275E+00  .274E+00  .267E+00  .266E+00  .265E+00
  .262E+00  .260E+00  .264E+00  .261E+00  .260E+00  .262E+00  .259E+00  .257E+00
  .258E+00  .259E+00  .257E+00  .257E+00  .000E+00  .000E+00  .000E+00  .000E+00
  .000E+00  .000E+00  .000E+00  .000E+00  .000E+00  .000E+00  .000E+00  .000E+00
  .000E+00  .000E+00  .000E+00  .000E+00  .000E+00  .000E+00  .000E+00  .000E+00
  .000E+00  .000E+00  .000E+00  .000E+00  .000E+00  .000E+00  .000E+00  .000E+00
  .000E+00  .000E+00  .000E+00  .000E+00
  .210E-01  .191E-01  .189E-01  .187E-01  .239E-01  .304E-01  .259E-01  .244E-01
  .275E-01  .344E-01  .418E-01  .211E-01  .273E-01  .283E-01  .282E-01  .292E-01
  .488E-01  .706E-01  .459E-01  .564E-01  .646E-01  .500E-01  .626E-01  .706E-01
  .108E+00  .880E-01  .213E+00  .153E+00  .115E+00  .661E-01  .486E-01  .446E-01
  .300E-01  .224E-01  .179E-01  .156E-01  .135E-01  .115E-01  .997E-02  .884E-02
  .794E-02  .551E-02  .410E-02  .338E-02  .289E-02  .246E-02  .211E-02  .188E-02
  .161E-02  .140E-02  .128E-02  .104E-02  .833E-03  .729E-03  .641E-03  .528E-03
  .443E-03  .398E-03  .327E-03  .335E-03  .281E-03  .221E-03  .191E-03  .168E-03
  .129E-03  .122E-03  .108E-03  .892E-04  .000E+00  .000E+00  .000E+00  .000E+00
  .000E+00  .000E+00  .000E+00  .000E+00  .000E+00  .000E+00  .000E+00  .000E+00
  .000E+00  .000E+00  .000E+00  .000E+00  .000E+00  .000E+00  .000E+00  .000E+00
  .000E+00  .000E+00  .000E+00  .000E+00  .000E+00  .000E+00  .000E+00  .000E+00
  .000E+00  .000E+00  .000E+00  .000E+00
  .517E-01  .494E-01  .511E-01  .529E-01  .704E-01  .933E-01  .873E-01  .898E-01
  .110E+00  .148E+00  .193E+00  .104E+00  .143E+00  .156E+00  .165E+00  .179E+00
  .330E+00  .521E+00  .366E+00  .485E+00  .595E+00  .492E+00  .654E+00  .781E+00
  .126E+01  .108E+01  .287E+01  .226E+01  .183E+01  .114E+01  .896E+00  .878E+00
  .627E+00  .496E+00  .419E+00  .384E+00  .347E+00  .310E+00  .282E+00  .261E+00
  .244E+00  .186E+00  .151E+00  .135E+00  .124E+00  .113E+00  .104E+00  .982E-01
  .888E-01  .815E-01  .788E-01  .700E-01  .614E-01  .582E-01  .551E-01  .486E-01
  .435E-01  .416E-01  .361E-01  .391E-01  .345E-01  .299E-01  .282E-01  .269E-01
  .222E-01  .224E-01  .212E-01  .186E-01  .000E+00  .000E+00  .000E+00  .000E+00
  .000E+00  .000E+00  .000E+00  .000E+00  .000E+00  .000E+00  .000E+00  .000E+00
  .000E+00  .000E+00  .000E+00  .000E+00  .000E+00  .000E+00  .000E+00  .000E+00
  .000E+00  .000E+00  .000E+00  .000E+00  .000E+00  .000E+00  .000E+00  .000E+00
  .000E+00  .000E+00  .000E+00  .000E+00
  .258E+02  .258E+02  .258E+02  .258E+02  .258E+02  .258E+02  .255E+02  .260E+02
  .258E+02  .258E+02  .258E+02  .258E+02  .258E+02  .258E+02  .255E+02  .258E+02
  .260E+02  .271E+02  .259E+02  .302E+02  .302E+02  .257E+02  .258E+02  .258E+02
  .261E+02  .261E+02  .353E+02  .268E+02  .318E+02  .260E+02  .260E+02  .302E+02
  .259E+02  .259E+02  .258E+02  .258E+02  .258E+02  .258E+02  .258E+02  .258E+02
  .325E+02  .258E+02  .256E+02  .256E+02  .256E+02  .256E+02  .256E+02  .256E+02
  .256E+02  .256E+02  .256E+02  .256E+02  .256E+02  .256E+02  .256E+02  .256E+02
  .256E+02  .256E+02  .256E+02  .256E+02  .256E+02  .256E+02  .256E+02  .256E+02
  .256E+02  .256E+02  .256E+02  .256E+02  .000E+00  .000E+00  .000E+00  .000E+00
  .000E+00  .000E+00  .000E+00  .000E+00  .000E+00  .000E+00  .000E+00  .000E+00
  .000E+00  .000E+00  .000E+00  .000E+00  .000E+00  .000E+00  .000E+00  .000E+00
  .000E+00  .000E+00  .000E+00  .000E+00  .000E+00  .000E+00  .000E+00  .000E+00
  .000E+00  .000E+00  .000E+00  .000E+00
  .257E+02  .256E+02  .258E+02  .257E+02  .256E+02  .257E+02  .263E+02  .262E+02
  .259E+02  .256E+02  .256E+02  .262E+02  .257E+02  .266E+02  .256E+02  .263E+02
  .260E+02  .281E+02  .258E+02  .294E+02  .302E+02  .257E+02  .258E+02  .258E+02
  .261E+02  .262E+02  .353E+02  .267E+02  .317E+02  .260E+02  .259E+02  .303E+02
  .258E+02  .258E+02  .258E+02  .258E+02  .258E+02  .257E+02  .257E+02  .257E+02
  .257E+02  .257E+02  .257E+02  .257E+02  .257E+02  .257E+02  .257E+02  .257E+02
  .257E+02  .257E+02  .257E+02  .257E+02  .257E+02  .257E+02  .257E+02  .257E+02
  .257E+02  .257E+02  .257E+02  .257E+02  .257E+02  .257E+02  .257E+02  .257E+02
  .257E+02  .257E+02  .257E+02  .257E+02  .000E+00  .000E+00  .000E+00  .000E+00
  .000E+00  .000E+00  .000E+00  .000E+00  .000E+00  .000E+00  .000E+00  .000E+00
  .000E+00  .000E+00  .000E+00  .000E+00  .000E+00  .000E+00  .000E+00  .000E+00
  .000E+00  .000E+00  .000E+00  .000E+00  .000E+00  .000E+00  .000E+00  .000E+00
  .000E+00  .000E+00  .000E+00  .000E+00
  .258E+02  .258E+02  .258E+02  .258E+02  .258E+02  .258E+02  .255E+02  .260E+02
  .258E+02  .258E+02  .258E+02  .258E+02  .258E+02  .258E+02  .255E+02  .258E+02
  .260E+02  .271E+02  .259E+02  .302E+02  .302E+02  .257E+02  .258E+02  .258E+02
  .261E+02  .261E+02  .353E+02  .268E+02  .318E+02  .260E+02  .260E+02  .302E+02
  .259E+02  .259E+02  .258E+02  .258E+02  .258E+02  .258E+02  .258E+02  .258E+02
  .325E+02  .258E+02  .256E+02  .256E+02  .256E+02  .256E+02  .256E+02  .256E+02
  .256E+02  .256E+02  .256E+02  .256E+02  .256E+02  .256E+02  .256E+02  .256E+02
  .256E+02  .256E+02  .256E+02  .256E+02  .256E+02  .256E+02  .256E+02  .256E+02
  .256E+02  .256E+02  .256E+02  .256E+02  .000E+00  .000E+00  .000E+00  .000E+00
  .000E+00  .000E+00  .000E+00  .000E+00  .000E+00  .000E+00  .000E+00  .000E+00
  .000E+00  .000E+00  .000E+00  .000E+00  .000E+00  .000E+00  .000E+00  .000E+00
  .000E+00  .000E+00  .000E+00  .000E+00  .000E+00  .000E+00  .000E+00  .000E+00
  .000E+00  .000E+00  .000E+00  .000E+00
Damping =  .02. Data of Sd,Sv,Sa,Pssv,ttSd,ttSv,ttSa :
  .281E-03  .305E-03  .343E-03  .374E-03  .407E-03  .457E-03  .568E-03  .796E-03
  .921E-03  .110E-02  .145E-02  .133E-02  .153E-02  .179E-02  .231E-02  .298E-02
  .470E-02  .586E-02  .640E-02  .802E-02  .109E-01  .122E-01  .154E-01  .201E-01
  .280E-01  .331E-01  .531E-01  .606E-01  .507E-01  .450E-01  .385E-01  .344E-01
  .314E-01  .271E-01  .246E-01  .236E-01  .225E-01  .213E-01  .203E-01  .195E-01
  .186E-01  .162E-01  .144E-01  .138E-01  .136E-01  .134E-01  .132E-01  .130E-01
  .127E-01  .124E-01  .123E-01  .121E-01  .119E-01  .118E-01  .119E-01  .116E-01
  .113E-01  .111E-01  .108E-01  .114E-01  .110E-01  .107E-01  .109E-01  .109E-01
  .102E-01  .106E-01  .107E-01  .103E-01  .000E+00  .000E+00  .000E+00  .000E+00
  .000E+00  .000E+00  .000E+00  .000E+00  .000E+00  .000E+00  .000E+00  .000E+00
  .000E+00  .000E+00  .000E+00  .000E+00  .000E+00  .000E+00  .000E+00  .000E+00
  .000E+00  .000E+00  .000E+00  .000E+00  .000E+00  .000E+00  .000E+00  .000E+00
  .000E+00  .000E+00  .000E+00  .000E+00
  .992E-02  .129E-01  .145E-01  .145E-01  .156E-01  .195E-01  .277E-01  .363E-01
  .449E-01  .440E-01  .523E-01  .468E-01  .489E-01  .569E-01  .886E-01  .108E+00
  .186E+00  .272E+00  .232E+00  .312E+00  .349E+00  .381E+00  .459E+00  .623E+00
  .871E+00  .991E+00  .150E+01  .161E+01  .129E+01  .108E+01  .934E+00  .791E+00
  .703E+00  .628E+00  .560E+00  .510E+00  .462E+00  .435E+00  .420E+00  .409E+00
  .399E+00  .373E+00  .349E+00  .333E+00  .321E+00  .311E+00  .302E+00  .295E+00
  .289E+00  .284E+00  .282E+00  .276E+00  .273E+00  .269E+00  .267E+00  .265E+00
  .263E+00  .261E+00  .263E+00  .262E+00  .260E+00  .261E+00  .259E+00  .258E+00
  .258E+00  .259E+00  .257E+00  .257E+00  .000E+00  .000E+00  .000E+00  .000E+00
  .000E+00  .000E+00  .000E+00  .000E+00  .000E+00  .000E+00  .000E+00  .000E+00
  .000E+00  .000E+00  .000E+00  .000E+00  .000E+00  .000E+00  .000E+00  .000E+00
  .000E+00  .000E+00  .000E+00  .000E+00  .000E+00  .000E+00  .000E+00  .000E+00
  .000E+00  .000E+00  .000E+00  .000E+00
  .180E-01  .177E-01  .181E-01  .181E-01  .180E-01  .187E-01  .192E-01  .225E-01
  .223E-01  .229E-01  .263E-01  .213E-01  .217E-01  .226E-01  .262E-01  .306E-01
  .397E-01  .416E-01  .389E-01  .419E-01  .494E-01  .487E-01  .545E-01  .633E-01
  .795E-01  .849E-01  .112E+00  .108E+00  .768E-01  .588E-01  .438E-01  .344E-01
  .278E-01  .214E-01  .175E-01  .151E-01  .131E-01  .113E-01  .983E-02  .866E-02
  .763E-02  .549E-02  .411E-02  .335E-02  .284E-02  .245E-02  .212E-02  .185E-02
  .161E-02  .142E-02  .127E-02  .104E-02  .853E-03  .728E-03  .632E-03  .538E-03
  .462E-03  .404E-03  .352E-03  .334E-03  .292E-03  .237E-03  .206E-03  .177E-03
  .144E-03  .132E-03  .118E-03  .102E-03  .000E+00  .000E+00  .000E+00  .000E+00
  .000E+00  .000E+00  .000E+00  .000E+00  .000E+00  .000E+00  .000E+00  .000E+00
  .000E+00  .000E+00  .000E+00  .000E+00  .000E+00  .000E+00  .000E+00  .000E+00
  .000E+00  .000E+00  .000E+00  .000E+00  .000E+00  .000E+00  .000E+00  .000E+00
  .000E+00  .000E+00  .000E+00  .000E+00
  .441E-01  .456E-01  .490E-01  .511E-01  .532E-01  .575E-01  .649E-01  .833E-01
  .890E-01  .984E-01  .121E+00  .104E+00  .113E+00  .125E+00  .153E+00  .187E+00
  .268E+00  .307E+00  .310E+00  .360E+00  .455E+00  .478E+00  .570E+00  .701E+00
  .925E+00  .104E+01  .152E+01  .159E+01  .123E+01  .101E+01  .806E+00  .676E+00
  .581E+00  .473E+00  .407E+00  .370E+00  .337E+00  .304E+00  .277E+00  .255E+00
  .234E+00  .185E+00  .151E+00  .133E+00  .122E+00  .112E+00  .104E+00  .962E-01
  .886E-01  .819E-01  .773E-01  .692E-01  .621E-01  .572E-01  .534E-01  .485E-01
  .443E-01  .410E-01  .376E-01  .376E-01  .345E-01  .305E-01  .286E-01  .263E-01
  .229E-01  .222E-01  .209E-01  .190E-01  .000E+00  .000E+00  .000E+00  .000E+00
  .000E+00  .000E+00  .000E+00  .000E+00  .000E+00  .000E+00  .000E+00  .000E+00
  .000E+00  .000E+00  .000E+00  .000E+00  .000E+00  .000E+00  .000E+00  .000E+00
  .000E+00  .000E+00  .000E+00  .000E+00  .000E+00  .000E+00  .000E+00  .000E+00
  .000E+00  .000E+00  .000E+00  .000E+00
  .258E+02  .258E+02  .258E+02  .258E+02  .258E+02  .258E+02  .258E+02  .259E+02
  .258E+02  .258E+02  .258E+02  .258E+02  .258E+02  .258E+02  .255E+02  .258E+02
  .258E+02  .263E+02  .259E+02  .256E+02  .256E+02  .257E+02  .258E+02  .258E+02
  .260E+02  .261E+02  .264E+02  .263E+02  .262E+02  .260E+02  .260E+02  .259E+02
  .259E+02  .259E+02  .258E+02  .258E+02  .258E+02  .258E+02  .258E+02  .258E+02
  .258E+02  .258E+02  .258E+02  .256E+02  .256E+02  .256E+02  .256E+02  .256E+02
  .256E+02  .256E+02  .256E+02  .256E+02  .256E+02  .256E+02  .256E+02  .256E+02
  .256E+02  .256E+02  .256E+02  .256E+02  .256E+02  .256E+02  .256E+02  .256E+02
  .256E+02  .256E+02  .256E+02  .256E+02  .000E+00  .000E+00  .000E+00  .000E+00
  .000E+00  .000E+00  .000E+00  .000E+00  .000E+00  .000E+00  .000E+00  .000E+00
  .000E+00  .000E+00  .000E+00  .000E+00  .000E+00  .000E+00  .000E+00  .000E+00
  .000E+00  .000E+00  .000E+00  .000E+00  .000E+00  .000E+00  .000E+00  .000E+00
  .000E+00  .000E+00  .000E+00  .000E+00
  .258E+02  .258E+02  .258E+02  .257E+02  .257E+02  .257E+02  .257E+02  .258E+02
  .259E+02  .259E+02  .256E+02  .256E+02  .256E+02  .263E+02  .256E+02  .257E+02
  .260E+02  .264E+02  .258E+02  .264E+02  .256E+02  .257E+02  .257E+02  .258E+02
  .260E+02  .261E+02  .263E+02  .264E+02  .260E+02  .260E+02  .259E+02  .259E+02
  .258E+02  .258E+02  .258E+02  .258E+02  .258E+02  .257E+02  .257E+02  .257E+02
  .257E+02  .257E+02  .257E+02  .257E+02  .257E+02  .257E+02  .257E+02  .257E+02
  .257E+02  .257E+02  .257E+02  .257E+02  .257E+02  .257E+02  .257E+02  .257E+02
  .257E+02  .257E+02  .257E+02  .257E+02  .257E+02  .257E+02  .257E+02  .257E+02
  .257E+02  .257E+02  .257E+02  .257E+02  .000E+00  .000E+00  .000E+00  .000E+00
  .000E+00  .000E+00  .000E+00  .000E+00  .000E+00  .000E+00  .000E+00  .000E+00
  .000E+00  .000E+00  .000E+00  .000E+00  .000E+00  .000E+00  .000E+00  .000E+00
  .000E+00  .000E+00  .000E+00  .000E+00  .000E+00  .000E+00  .000E+00  .000E+00
  .000E+00  .000E+00  .000E+00  .000E+00
  .258E+02  .258E+02  .258E+02  .258E+02  .258E+02  .258E+02  .258E+02  .259E+02
  .258E+02  .258E+02  .258E+02  .258E+02  .258E+02  .258E+02  .255E+02  .258E+02
  .258E+02  .263E+02  .259E+02  .256E+02  .256E+02  .257E+02  .258E+02  .258E+02
  .260E+02  .261E+02  .264E+02  .263E+02  .262E+02  .260E+02  .260E+02  .259E+02
  .259E+02  .259E+02  .258E+02  .258E+02  .258E+02  .258E+02  .258E+02  .258E+02
  .258E+02  .258E+02  .258E+02  .256E+02  .256E+02  .256E+02  .256E+02  .256E+02
  .256E+02  .256E+02  .256E+02  .256E+02  .256E+02  .256E+02  .256E+02  .256E+02
  .256E+02  .256E+02  .256E+02  .256E+02  .256E+02  .256E+02  .256E+02  .256E+02
  .256E+02  .256E+02  .256E+02  .256E+02  .000E+00  .000E+00  .000E+00  .000E+00
  .000E+00  .000E+00  .000E+00  .000E+00  .000E+00  .000E+00  .000E+00  .000E+00
  .000E+00  .000E+00  .000E+00  .000E+00  .000E+00  .000E+00  .000E+00  .000E+00
  .000E+00  .000E+00  .000E+00  .000E+00  .000E+00  .000E+00  .000E+00  .000E+00
  .000E+00  .000E+00  .000E+00  .000E+00
Damping =  .05. Data of Sd,Sv,Sa,Pssv,ttSd,ttSv,ttSa :
  .276E-03  .298E-03  .333E-03  .368E-03  .402E-03  .440E-03  .553E-03  .728E-03
  .860E-03  .105E-02  .127E-02  .137E-02  .154E-02  .178E-02  .214E-02  .277E-02
  .397E-02  .451E-02  .570E-02  .740E-02  .944E-02  .111E-01  .134E-01  .172E-01
  .220E-01  .277E-01  .395E-01  .443E-01  .411E-01  .383E-01  .335E-01  .311E-01
  .284E-01  .251E-01  .234E-01  .224E-01  .215E-01  .205E-01  .197E-01  .188E-01
