Response and Fourier amplitude spectra (68 periods,  .04 -  3.4 sec)   for      
Corrected accelerogram   24207-M0150-20021.15       Chan 13:  Up         from   
Uncorrected Accelerogram Data             Processed: 01/24/20, CGS  ce24207o    
Rcrd of Tue Jan 21, 2020 23:40:50.0 PST               (Avol1 v2.0, 4/18 CSMIP)  
CSMIP Preliminary Processing            (Origin:  To be determined)             
24207-M0150-20021.15                 Start time:  1/22/20, 07:40:50.0 UTC (GPS) 
Station No. 24207   34.335N, 118.397W    MtWtny  s/n  150 (17 Chns of 17 at Sta)
Sylmar - Pacoima Dam                      CGS   Data: Acceleration              
Chan 13:  Up                        Location: Right (North) Abutment            
Rcrd of Tue Jan 21, 2020 23:40:50.0 PST    Tue Jan 21, 2020 23:40:50.0 PST      
Hypocenter:  To be determined.               ML:  To be determined.
Instr Period =  .0103 sec,  Damping =  .660,  Sensitivity =  .63 v/g
                        Record Length = 58.000 sec.
                                     Uncor Max  =   .003 g, at   25.745 sec.
RMS accel of (uncor) record  =        .   Chn. metadata effective date: 09/02/99
Accelerogram bandpass filtered with 3 dB pts at   .30 and 40.00 cyc/sec
                 instrument- and base-line correcte





Rcrd of Tue Jan 21, 2020 23:40:50.0 PST    Tue Jan 21, 2020 23:40:50.0 PST

24207-M0150-20021.15      Sylmar - Pacoima Dam    Chan 13:  Up

24207-M0150-20021.15      Sylmar - Pacoima Dam    Chan 13:  Up

Units for spectra are inches and sec, except Sa is in fraction of g.

   13  100   13   18   17  200    1    3    1   24   13  150    024207    5    0
    7   40   50    0   22    1   22 2020   10    3  50011600   39   20   74   -1
11600    0  100    3  150    1   15  580    2 -999 -999 -999 -999 -999 -999 -999
 -999 -999    3 -99911600    1  222    1   18    4 -999 -999    3    1 -99911600
    311600    4   68    5   17    5    0    0 -999    0    0    1    3    1    2
    2    2    4    0   68   67    0   10 -999    1    0    1    0    0   64  222
    1    0    4    0
      .010      .660    58.000      .000     1.000   626.000      .003    25.745
    97.100      .298      .476  -999.000     5.000  -999.000     4.000  -999.000
     2.500     1.199     2.500  2016.000    25.000    30.000  -999.000      .001
      .000     -.002     2.000    15.000    34.335  -118.397      .015      .023
     1.572     -.004      .001   594.000    25.700    27.200    12.600   103.640
     1.000    10.003    -8.000  -999.000  -999.000  -999.000  -999.000  -999.000
     6.900     2.000     6.800   980.665      .005    58.000    15.454      .000
  -999.000    40.000  -999.000    58.000      .005      .303  -999.000  -999.000
    25.740     3.058    25.445     -.110    25.495     -.005      .000      .303
    40.000      .005      .005      .000      .005      .001  -999.000  -999.000
      .011      .095      .006      .005      .000      .000  -999.000  -999.000
  -999.000  -999.000  -999.000  -999.000  -999.000  -999.000  -999.000  -999.000
  -999.000  -999.000  -999.000  -999.000
      .000      .020      .050      .100      .200
      .040      .042      .044      .046      .048      .050      .055      .060
      .065      .070      .075      .080      .085      .090      .095      .100
      .110      .120      .130      .140      .150      .160      .170      .180
      .190      .200      .220      .240      .260      .280      .300      .320
      .340      .360      .380      .400      .420      .440      .460      .480
      .500      .550      .600      .650      .700      .750      .800      .850
      .900      .950     1.000     1.100     1.200     1.300     1.400     1.500
     1.600     1.700     1.800     1.900     2.000     2.200     2.400     2.600
     2.800     3.000     3.200     3.400      .000      .000      .000      .000
      .000      .000      .000      .000      .000      .000      .000      .000
      .000      .000      .000      .000      .000      .000      .000      .000
      .000      .000      .000      .000      .000      .000      .000      .000
      .000      .000      .000      .000
Fourier amplitude spectra in in/sec.
  .184E-01  .299E-01  .130E-01  .765E-01  .178E-01  .171E-01  .551E-01  .216E-01
  .272E-01  .180E-01  .351E-01  .171E-01  .503E-01  .131E-01  .120E+00  .112E+00
  .103E+00  .247E+00  .136E+00  .125E+00  .747E-01  .350E-01  .976E-01  .821E-01
  .108E+00  .196E+00  .176E+00  .112E-01  .962E-01  .110E+00  .175E+00  .190E+00
  .127E+00  .516E-01  .851E-01  .580E-01  .707E-01  .672E-01  .807E-01  .804E-01
  .259E-01  .484E-01  .237E-01  .363E-01  .244E-01  .344E-02  .247E-01  .210E-01
  .198E-01  .140E-01  .157E-01  .652E-02  .409E-02  .240E-02  .550E-02  .606E-02
  .181E-02  .304E-02  .553E-02  .257E-02  .423E-02  .884E-02  .480E-02  .116E-02
  .302E-02  .292E-02  .938E-03  .249E-02  .000E+00  .000E+00  .000E+00  .000E+00
  .000E+00  .000E+00  .000E+00  .000E+00  .000E+00  .000E+00  .000E+00  .000E+00
  .000E+00  .000E+00  .000E+00  .000E+00  .000E+00  .000E+00  .000E+00  .000E+00
  .000E+00  .000E+00  .000E+00  .000E+00  .000E+00  .000E+00  .000E+00  .000E+00
  .000E+00  .000E+00  .000E+00  .000E+00
Damping =  .00. Data of Sd,Sv,Sa,Pssv,ttSd,ttSv,ttSa :
  .174E-03  .266E-03  .193E-03  .567E-03  .272E-03  .208E-03  .687E-03  .712E-03
  .661E-03  .137E-02  .780E-03  .855E-03  .813E-03  .134E-02  .209E-02  .208E-02
  .185E-02  .517E-02  .360E-02  .338E-02  .238E-02  .166E-02  .274E-02  .366E-02
  .352E-02  .657E-02  .624E-02  .435E-02  .510E-02  .587E-02  .933E-02  .988E-02
  .728E-02  .634E-02  .687E-02  .575E-02  .474E-02  .562E-02  .730E-02  .668E-02
  .592E-02  .513E-02  .341E-02  .400E-02  .334E-02  .303E-02  .328E-02  .363E-02
  .343E-02  .322E-02  .310E-02  .302E-02  .338E-02  .293E-02  .301E-02  .329E-02
  .226E-02  .345E-02  .248E-02  .321E-02  .182E-02  .343E-02  .227E-02  .273E-02
  .168E-02  .269E-02  .272E-02  .161E-02  .000E+00  .000E+00  .000E+00  .000E+00
  .000E+00  .000E+00  .000E+00  .000E+00  .000E+00  .000E+00  .000E+00  .000E+00
  .000E+00  .000E+00  .000E+00  .000E+00  .000E+00  .000E+00  .000E+00  .000E+00
  .000E+00  .000E+00  .000E+00  .000E+00  .000E+00  .000E+00  .000E+00  .000E+00
  .000E+00  .000E+00  .000E+00  .000E+00
  .221E-01  .343E-01  .264E-01  .774E-01  .307E-01  .224E-01  .731E-01  .663E-01
  .599E-01  .121E+00  .651E-01  .665E-01  .582E-01  .930E-01  .135E+00  .131E+00
  .105E+00  .265E+00  .173E+00  .150E+00  .951E-01  .680E-01  .101E+00  .125E+00
  .116E+00  .207E+00  .178E+00  .116E+00  .137E+00  .134E+00  .197E+00  .194E+00
  .139E+00  .125E+00  .118E+00  .963E-01  .736E-01  .786E-01  .101E+00  .952E-01
  .769E-01  .605E-01  .488E-01  .493E-01  .417E-01  .406E-01  .402E-01  .406E-01
  .438E-01  .439E-01  .451E-01  .462E-01  .470E-01  .460E-01  .428E-01  .455E-01
  .414E-01  .448E-01  .483E-01  .442E-01  .470E-01  .464E-01  .438E-01  .460E-01
  .443E-01  .432E-01  .457E-01  .445E-01  .000E+00  .000E+00  .000E+00  .000E+00
  .000E+00  .000E+00  .000E+00  .000E+00  .000E+00  .000E+00  .000E+00  .000E+00
  .000E+00  .000E+00  .000E+00  .000E+00  .000E+00  .000E+00  .000E+00  .000E+00
  .000E+00  .000E+00  .000E+00  .000E+00  .000E+00  .000E+00  .000E+00  .000E+00
  .000E+00  .000E+00  .000E+00  .000E+00
  .111E-01  .154E-01  .102E-01  .274E-01  .121E-01  .851E-02  .232E-01  .202E-01
  .160E-01  .285E-01  .142E-01  .137E-01  .115E-01  .170E-01  .237E-01  .213E-01
  .156E-01  .367E-01  .218E-01  .176E-01  .108E-01  .662E-02  .971E-02  .115E-01
  .997E-02  .168E-01  .132E-01  .773E-02  .771E-02  .766E-02  .106E-01  .987E-02
  .644E-02  .500E-02  .487E-02  .367E-02  .275E-02  .297E-02  .353E-02  .297E-02
  .242E-02  .173E-02  .968E-03  .967E-03  .698E-03  .551E-03  .525E-03  .514E-03
  .433E-03  .365E-03  .317E-03  .255E-03  .240E-03  .177E-03  .157E-03  .150E-03
  .902E-04  .122E-03  .784E-04  .908E-04  .467E-04  .724E-04  .403E-04  .413E-04
  .219E-04  .306E-04  .272E-04  .142E-04  .000E+00  .000E+00  .000E+00  .000E+00
  .000E+00  .000E+00  .000E+00  .000E+00  .000E+00  .000E+00  .000E+00  .000E+00
  .000E+00  .000E+00  .000E+00  .000E+00  .000E+00  .000E+00  .000E+00  .000E+00
  .000E+00  .000E+00  .000E+00  .000E+00  .000E+00  .000E+00  .000E+00  .000E+00
  .000E+00  .000E+00  .000E+00  .000E+00
  .274E-01  .398E-01  .276E-01  .774E-01  .356E-01  .261E-01  .784E-01  .746E-01
  .639E-01  .123E+00  .653E-01  .672E-01  .601E-01  .939E-01  .138E+00  .131E+00
  .106E+00  .271E+00  .174E+00  .152E+00  .999E-01  .650E-01  .101E+00  .128E+00
  .116E+00  .206E+00  .178E+00  .114E+00  .123E+00  .132E+00  .195E+00  .194E+00
  .135E+00  .111E+00  .114E+00  .903E-01  .710E-01  .802E-01  .998E-01  .875E-01
  .744E-01  .586E-01  .357E-01  .386E-01  .300E-01  .254E-01  .258E-01  .268E-01
  .239E-01  .213E-01  .195E-01  .173E-01  .177E-01  .142E-01  .135E-01  .138E-01
  .887E-02  .127E-01  .867E-02  .106E-01  .573E-02  .978E-02  .594E-02  .659E-02
  .377E-02  .564E-02  .534E-02  .297E-02  .000E+00  .000E+00  .000E+00  .000E+00
  .000E+00  .000E+00  .000E+00  .000E+00  .000E+00  .000E+00  .000E+00  .000E+00
  .000E+00  .000E+00  .000E+00  .000E+00  .000E+00  .000E+00  .000E+00  .000E+00
  .000E+00  .000E+00  .000E+00  .000E+00  .000E+00  .000E+00  .000E+00  .000E+00
  .000E+00  .000E+00  .000E+00  .000E+00
  .257E+02  .257E+02  .243E+02  .377E+02  .258E+02  .234E+02  .259E+02  .254E+02
  .235E+02  .242E+02  .239E+02  .258E+02  .255E+02  .247E+02  .267E+02  .297E+02
  .440E+02  .266E+02  .259E+02  .275E+02  .266E+02  .256E+02  .327E+02  .261E+02
  .277E+02  .285E+02  .338E+02  .264E+02  .257E+02  .264E+02  .273E+02  .299E+02
  .312E+02  .261E+02  .260E+02  .260E+02  .353E+02  .285E+02  .307E+02  .345E+02
  .266E+02  .295E+02  .262E+02  .361E+02  .257E+02  .257E+02  .486E+02  .322E+02
  .285E+02  .255E+02  .255E+02  .255E+02  .255E+02  .255E+02  .255E+02  .255E+02
  .255E+02  .255E+02  .255E+02  .255E+02  .255E+02  .255E+02  .255E+02  .255E+02
  .255E+02  .255E+02  .255E+02  .255E+02  .000E+00  .000E+00  .000E+00  .000E+00
  .000E+00  .000E+00  .000E+00  .000E+00  .000E+00  .000E+00  .000E+00  .000E+00
  .000E+00  .000E+00  .000E+00  .000E+00  .000E+00  .000E+00  .000E+00  .000E+00
  .000E+00  .000E+00  .000E+00  .000E+00  .000E+00  .000E+00  .000E+00  .000E+00
  .000E+00  .000E+00  .000E+00  .000E+00
  .259E+02  .259E+02  .245E+02  .454E+02  .258E+02  .241E+02  .259E+02  .254E+02
  .235E+02  .242E+02  .239E+02  .258E+02  .327E+02  .247E+02  .267E+02  .298E+02
  .439E+02  .267E+02  .259E+02  .275E+02  .266E+02  .256E+02  .322E+02  .276E+02
  .277E+02  .284E+02  .336E+02  .264E+02  .258E+02  .265E+02  .272E+02  .298E+02
  .267E+02  .260E+02  .261E+02  .259E+02  .268E+02  .284E+02  .308E+02  .267E+02
  .267E+02  .296E+02  .258E+02  .258E+02  .258E+02  .254E+02  .256E+02  .254E+02
  .254E+02  .254E+02  .254E+02  .254E+02  .254E+02  .254E+02  .254E+02  .254E+02
  .254E+02  .254E+02  .254E+02  .254E+02  .254E+02  .254E+02  .254E+02  .254E+02
  .254E+02  .254E+02  .254E+02  .254E+02  .000E+00  .000E+00  .000E+00  .000E+00
  .000E+00  .000E+00  .000E+00  .000E+00  .000E+00  .000E+00  .000E+00  .000E+00
  .000E+00  .000E+00  .000E+00  .000E+00  .000E+00  .000E+00  .000E+00  .000E+00
  .000E+00  .000E+00  .000E+00  .000E+00  .000E+00  .000E+00  .000E+00  .000E+00
  .000E+00  .000E+00  .000E+00  .000E+00
  .257E+02  .257E+02  .243E+02  .377E+02  .258E+02  .234E+02  .259E+02  .254E+02
  .235E+02  .242E+02  .239E+02  .258E+02  .255E+02  .247E+02  .267E+02  .297E+02
  .440E+02  .266E+02  .259E+02  .275E+02  .266E+02  .256E+02  .327E+02  .261E+02
  .277E+02  .285E+02  .338E+02  .264E+02  .257E+02  .264E+02  .273E+02  .299E+02
  .312E+02  .261E+02  .260E+02  .260E+02  .353E+02  .285E+02  .307E+02  .345E+02
  .266E+02  .295E+02  .262E+02  .361E+02  .257E+02  .257E+02  .486E+02  .322E+02
  .285E+02  .255E+02  .255E+02  .255E+02  .255E+02  .255E+02  .255E+02  .255E+02
  .255E+02  .255E+02  .255E+02  .255E+02  .255E+02  .255E+02  .255E+02  .255E+02
  .255E+02  .255E+02  .255E+02  .255E+02  .000E+00  .000E+00  .000E+00  .000E+00
  .000E+00  .000E+00  .000E+00  .000E+00  .000E+00  .000E+00  .000E+00  .000E+00
  .000E+00  .000E+00  .000E+00  .000E+00  .000E+00  .000E+00  .000E+00  .000E+00
  .000E+00  .000E+00  .000E+00  .000E+00  .000E+00  .000E+00  .000E+00  .000E+00
  .000E+00  .000E+00  .000E+00  .000E+00
Damping =  .02. Data of Sd,Sv,Sa,Pssv,ttSd,ttSv,ttSa :
  .113E-03  .132E-03  .133E-03  .161E-03  .189E-03  .181E-03  .286E-03  .413E-03
  .567E-03  .786E-03  .777E-03  .747E-03  .827E-03  .105E-02  .132E-02  .114E-02
  .135E-02  .207E-02  .257E-02  .206E-02  .184E-02  .185E-02  .204E-02  .252E-02
  .285E-02  .375E-02  .324E-02  .301E-02  .406E-02  .463E-02  .594E-02  .623E-02
  .546E-02  .530E-02  .567E-02  .499E-02  .391E-02  .391E-02  .447E-02  .449E-02
  .463E-02  .325E-02  .315E-02  .340E-02  .341E-02  .316E-02  .306E-02  .296E-02
  .310E-02  .315E-02  .314E-02  .303E-02  .309E-02  .298E-02  .291E-02  .296E-02
  .261E-02  .322E-02  .273E-02  .281E-02  .230E-02  .298E-02  .241E-02  .257E-02
  .198E-02  .253E-02  .253E-02  .191E-02  .000E+00  .000E+00  .000E+00  .000E+00
  .000E+00  .000E+00  .000E+00  .000E+00  .000E+00  .000E+00  .000E+00  .000E+00
  .000E+00  .000E+00  .000E+00  .000E+00  .000E+00  .000E+00  .000E+00  .000E+00
  .000E+00  .000E+00  .000E+00  .000E+00  .000E+00  .000E+00  .000E+00  .000E+00
  .000E+00  .000E+00  .000E+00  .000E+00
  .147E-01  .150E-01  .145E-01  .190E-01  .194E-01  .168E-01  .263E-01  .400E-01
  .499E-01  .661E-01  .648E-01  .577E-01  .525E-01  .741E-01  .747E-01  .691E-01
  .756E-01  .111E+00  .126E+00  .106E+00  .791E-01  .757E-01  .777E-01  .878E-01
  .893E-01  .115E+00  .938E-01  .794E-01  .116E+00  .107E+00  .128E+00  .127E+00
  .109E+00  .109E+00  .976E-01  .868E-01  .695E-01  .644E-01  .683E-01  .747E-01
  .632E-01  .502E-01  .474E-01  .469E-01  .427E-01  .404E-01  .398E-01  .406E-01
  .419E-01  .429E-01  .437E-01  .446E-01  .450E-01  .452E-01  .441E-01  .453E-01
  .434E-01  .448E-01  .463E-01  .450E-01  .455E-01  .452E-01  .443E-01  .453E-01
  .443E-01  .436E-01  .449E-01  .444E-01  .000E+00  .000E+00  .000E+00  .000E+00
  .000E+00  .000E+00  .000E+00  .000E+00  .000E+00  .000E+00  .000E+00  .000E+00
  .000E+00  .000E+00  .000E+00  .000E+00  .000E+00  .000E+00  .000E+00  .000E+00
  .000E+00  .000E+00  .000E+00  .000E+00  .000E+00  .000E+00  .000E+00  .000E+00
  .000E+00  .000E+00  .000E+00  .000E+00
  .721E-02  .763E-02  .701E-02  .776E-02  .839E-02  .736E-02  .966E-02  .118E-01
  .136E-01  .163E-01  .141E-01  .119E-01  .118E-01  .134E-01  .150E-01  .117E-01
  .114E-01  .147E-01  .155E-01  .108E-01  .835E-02  .741E-02  .724E-02  .798E-02
  .810E-02  .959E-02  .687E-02  .535E-02  .614E-02  .606E-02  .675E-02  .622E-02
  .484E-02  .419E-02  .402E-02  .319E-02  .227E-02  .207E-02  .216E-02  .200E-02
  .190E-02  .110E-02  .897E-03  .824E-03  .713E-03  .577E-03  .491E-03  .422E-03
  .394E-03  .359E-03  .324E-03  .258E-03  .222E-03  .183E-03  .154E-03  .137E-03
  .106E-03  .116E-03  .883E-04  .818E-04  .609E-04  .651E-04  .449E-04  .411E-04
  .281E-04  .309E-04  .275E-04  .191E-04  .000E+00  .000E+00  .000E+00  .000E+00
  .000E+00  .000E+00  .000E+00  .000E+00  .000E+00  .000E+00  .000E+00  .000E+00
  .000E+00  .000E+00  .000E+00  .000E+00  .000E+00  .000E+00  .000E+00  .000E+00
  .000E+00  .000E+00  .000E+00  .000E+00  .000E+00  .000E+00  .000E+00  .000E+00
  .000E+00  .000E+00  .000E+00  .000E+00
  .178E-01  .197E-01  .190E-01  .220E-01  .248E-01  .227E-01  .327E-01  .432E-01
  .548E-01  .705E-01  .651E-01  .587E-01  .611E-01  .736E-01  .875E-01  .717E-01
  .770E-01  .109E+00  .124E+00  .923E-01  .770E-01  .728E-01  .755E-01  .881E-01
  .943E-01  .118E+00  .926E-01  .787E-01  .980E-01  .104E+00  .124E+00  .122E+00
  .101E+00  .926E-01  .938E-01  .784E-01  .586E-01  .558E-01  .611E-01  .588E-01
  .581E-01  .372E-01  .330E-01  .328E-01  .306E-01  .265E-01  .241E-01  .219E-01
  .216E-01  .208E-01  .198E-01  .173E-01  .162E-01  .144E-01  .131E-01  .124E-01
  .102E-01  .119E-01  .953E-02  .930E-02  .722E-02  .850E-02  .630E-02  .622E-02
  .445E-02  .529E-02  .497E-02  .353E-02  .000E+00  .000E+00  .000E+00  .000E+00
  .000E+00  .000E+00  .000E+00  .000E+00  .000E+00  .000E+00  .000E+00  .000E+00
  .000E+00  .000E+00  .000E+00  .000E+00  .000E+00  .000E+00  .000E+00  .000E+00
  .000E+00  .000E+00  .000E+00  .000E+00  .000E+00  .000E+00  .000E+00  .000E+00
  .000E+00  .000E+00  .000E+00  .000E+00
  .235E+02  .235E+02  .257E+02  .257E+02  .258E+02  .234E+02  .258E+02  .235E+02
  .260E+02  .260E+02  .259E+02  .258E+02  .255E+02  .258E+02  .255E+02  .255E+02
  .237E+02  .258E+02  .259E+02  .258E+02  .255E+02  .255E+02  .255E+02  .255E+02
  .261E+02  .268E+02  .269E+02  .255E+02  .257E+02  .263E+02  .263E+02  .269E+02
  .261E+02  .260E+02  .260E+02  .260E+02  .260E+02  .267E+02  .268E+02  .266E+02
  .266E+02  .257E+02  .257E+02  .257E+02  .257E+02  .257E+02  .257E+02  .255E+02
  .255E+02  .255E+02  .255E+02  .255E+02  .255E+02  .255E+02  .255E+02  .255E+02
  .255E+02  .255E+02  .255E+02  .255E+02  .255E+02  .255E+02  .255E+02  .255E+02
  .255E+02  .255E+02  .255E+02  .255E+02  .000E+00  .000E+00  .000E+00  .000E+00
  .000E+00  .000E+00  .000E+00  .000E+00  .000E+00  .000E+00  .000E+00  .000E+00
  .000E+00  .000E+00  .000E+00  .000E+00  .000E+00  .000E+00  .000E+00  .000E+00
  .000E+00  .000E+00  .000E+00  .000E+00  .000E+00  .000E+00  .000E+00  .000E+00
  .000E+00  .000E+00  .000E+00  .000E+00
  .235E+02  .235E+02  .234E+02  .243E+02  .258E+02  .234E+02  .235E+02  .235E+02
  .260E+02  .260E+02  .259E+02  .258E+02  .254E+02  .258E+02  .255E+02  .236E+02
  .237E+02  .258E+02  .258E+02  .258E+02  .256E+02  .256E+02  .256E+02  .256E+02
  .262E+02  .268E+02  .269E+02  .256E+02  .258E+02  .264E+02  .263E+02  .268E+02
  .260E+02  .260E+02  .259E+02  .259E+02  .257E+02  .257E+02  .267E+02  .267E+02
  .267E+02  .258E+02  .258E+02  .258E+02  .255E+02  .255E+02  .255E+02  .254E+02
  .254E+02  .254E+02  .254E+02  .254E+02  .254E+02  .254E+02  .254E+02  .254E+02
  .254E+02  .254E+02  .254E+02  .254E+02  .254E+02  .254E+02  .254E+02  .254E+02
  .254E+02  .254E+02  .254E+02  .254E+02  .000E+00  .000E+00  .000E+00  .000E+00
  .000E+00  .000E+00  .000E+00  .000E+00  .000E+00  .000E+00  .000E+00  .000E+00
  .000E+00  .000E+00  .000E+00  .000E+00  .000E+00  .000E+00  .000E+00  .000E+00
  .000E+00  .000E+00  .000E+00  .000E+00  .000E+00  .000E+00  .000E+00  .000E+00
  .000E+00  .000E+00  .000E+00  .000E+00
  .235E+02  .235E+02  .257E+02  .257E+02  .258E+02  .234E+02  .258E+02  .235E+02
  .260E+02  .260E+02  .259E+02  .258E+02  .255E+02  .258E+02  .255E+02  .255E+02
  .237E+02  .258E+02  .259E+02  .258E+02  .255E+02  .255E+02  .255E+02  .255E+02
  .261E+02  .268E+02  .269E+02  .255E+02  .257E+02  .263E+02  .263E+02  .268E+02
  .261E+02  .260E+02  .260E+02  .260E+02  .260E+02  .267E+02  .268E+02  .266E+02
  .266E+02  .257E+02  .257E+02  .257E+02  .257E+02  .257E+02  .257E+02  .255E+02
  .255E+02  .255E+02  .255E+02  .255E+02  .255E+02  .255E+02  .255E+02  .255E+02
  .255E+02  .255E+02  .255E+02  .255E+02  .255E+02  .255E+02  .255E+02  .255E+02
  .255E+02  .255E+02  .255E+02  .255E+02  .000E+00  .000E+00  .000E+00  .000E+00
  .000E+00  .000E+00  .000E+00  .000E+00  .000E+00  .000E+00  .000E+00  .000E+00
  .000E+00  .000E+00  .000E+00  .000E+00  .000E+00  .000E+00  .000E+00  .000E+00
  .000E+00  .000E+00  .000E+00  .000E+00  .000E+00  .000E+00  .000E+00  .000E+00
  .000E+00  .000E+00  .000E+00  .000E+00
Damping =  .05. Data of Sd,Sv,Sa,Pssv,ttSd,ttSv,ttSa :
  .864E-04  .102E-03  .117E-03  .134E-03  .156E-03  .168E-03  .244E-03  .345E-03
  .425E-03  .513E-03  .595E-03  .594E-03  .656E-03  .869E-03  .989E-03  .940E-03
  .945E-03  .144E-02  .170E-02  .167E-02  .170E-02  .179E-02  .191E-02  .205E-02
  .211E-02  .230E-02  .233E-02  .247E-02  .320E-02  .357E-02  .416E-02  .423E-02
  .431E-02  .434E-02  .450E-02  .413E-02  .357E-02  .348E-02  .362E-02  .374E-02
