Response and Fourier amplitude spectra (68 periods,  .04 -  3.4 sec)   for      
Corrected accelerogram   24207-M0150-20021.15       Chan 11:  Tang       from   
Uncorrected Accelerogram Data             Processed: 01/24/20, CGS  ce24207o    
Rcrd of Tue Jan 21, 2020 23:40:50.0 PST               (Avol1 v2.0, 4/18 CSMIP)  
CSMIP Preliminary Processing            (Origin:  To be determined)             
24207-M0150-20021.15                 Start time:  1/22/20, 07:40:50.0 UTC (GPS) 
Station No. 24207   34.335N, 118.397W    MtWtny  s/n  150 (17 Chns of 17 at Sta)
Sylmar - Pacoima Dam                      CGS   Data: Acceleration              
Chan 11:  Tang                      Location: Dam Base                          
Rcrd of Tue Jan 21, 2020 23:40:50.0 PST    Tue Jan 21, 2020 23:40:50.0 PST      
Hypocenter:  To be determined.               ML:  To be determined.
Instr Period =  .0102 sec,  Damping =  .660,  Sensitivity =  .63 v/g
                        Record Length = 58.000 sec.
                                     Uncor Max  =   .005 g, at   25.475 sec.
RMS accel of (uncor) record  =        .   Chn. metadata effective date: 09/02/99
Accelerogram bandpass filtered with 3 dB pts at   .30 and 40.00 cyc/sec
                 instrument- and base-line correcte





Rcrd of Tue Jan 21, 2020 23:40:50.0 PST    Tue Jan 21, 2020 23:40:50.0 PST

24207-M0150-20021.15      Sylmar - Pacoima Dam    Chan 11:  Tang

24207-M0150-20021.15      Sylmar - Pacoima Dam    Chan 11:  Tang

Units for spectra are inches and sec, except Sa is in fraction of g.

   11  100   11   18   17  200    1    3    1   24   13  150    024207    5    0
    7   40   50    0   22    1   22 2020   10    3 100011600   39   20   74   -1
11600    1  100    3  150    1   15  580    2 -999 -999 -999 -999 -999 -999 -999
 -999 -999    3 -99911600    1  222    1   18    4 -999 -999    3    1 -99911600
    311600    4   68    5   17    5    0    0 -999    0    0    1    3    1    2
    2    2    4    0   68   67    0   10 -999    1    0    1    0    0   64  222
    1    0    4    0
      .010      .660    58.000      .000     1.000   626.000      .005    25.475
    98.100      .298      .476  -999.000     5.000  -999.000     4.000  -999.000
     2.500   -11.373     2.500  2016.000    25.000    30.000  -999.000     -.002
      .000      .002     2.000    15.000    34.335  -118.397      .020      .022
     1.093     -.001      .005   594.000    25.700    27.200    12.600   103.640
     1.000    10.003    -8.000  -999.000  -999.000  -999.000  -999.000  -999.000
     6.900     2.000     6.800   980.665      .005    58.000    15.613      .000
  -999.000    40.000  -999.000    58.000      .005      .303  -999.000  -999.000
    25.475     4.426    25.440     -.176    25.495     -.008      .000      .303
    40.000      .005      .005      .000      .005      .001  -999.000  -999.000
      .011      .140      .010      .005      .000      .000  -999.000  -999.000
  -999.000  -999.000  -999.000  -999.000  -999.000  -999.000  -999.000  -999.000
  -999.000  -999.000  -999.000  -999.000
      .000      .020      .050      .100      .200
      .040      .042      .044      .046      .048      .050      .055      .060
      .065      .070      .075      .080      .085      .090      .095      .100
      .110      .120      .130      .140      .150      .160      .170      .180
      .190      .200      .220      .240      .260      .280      .300      .320
      .340      .360      .380      .400      .420      .440      .460      .480
      .500      .550      .600      .650      .700      .750      .800      .850
      .900      .950     1.000     1.100     1.200     1.300     1.400     1.500
     1.600     1.700     1.800     1.900     2.000     2.200     2.400     2.600
     2.800     3.000     3.200     3.400      .000      .000      .000      .000
      .000      .000      .000      .000      .000      .000      .000      .000
      .000      .000      .000      .000      .000      .000      .000      .000
      .000      .000      .000      .000      .000      .000      .000      .000
      .000      .000      .000      .000
Fourier amplitude spectra in in/sec.
  .581E-02  .290E-02  .874E-02  .824E-03  .140E-01  .841E-02  .151E-01  .111E-01
  .124E-01  .198E-01  .322E-01  .178E-01  .456E-01  .530E-01  .775E-01  .102E+00
  .229E-01  .118E+00  .875E-01  .106E+00  .182E+00  .107E+00  .145E+00  .136E+00
  .135E+00  .102E+00  .171E+00  .138E+00  .146E+00  .133E+00  .163E+00  .101E+00
  .123E+00  .325E-01  .658E-01  .822E-01  .151E+00  .650E-01  .595E-01  .573E-01
  .748E-01  .782E-01  .482E-01  .373E-01  .737E-01  .548E-01  .451E-01  .408E-01
  .393E-01  .221E-01  .169E-01  .167E-01  .513E-02  .145E-01  .126E-01  .902E-02
  .775E-02  .434E-02  .632E-02  .108E-01  .614E-02  .216E-02  .369E-02  .380E-02
  .424E-02  .195E-02  .336E-02  .994E-03  .000E+00  .000E+00  .000E+00  .000E+00
  .000E+00  .000E+00  .000E+00  .000E+00  .000E+00  .000E+00  .000E+00  .000E+00
  .000E+00  .000E+00  .000E+00  .000E+00  .000E+00  .000E+00  .000E+00  .000E+00
  .000E+00  .000E+00  .000E+00  .000E+00  .000E+00  .000E+00  .000E+00  .000E+00
  .000E+00  .000E+00  .000E+00  .000E+00
Damping =  .00. Data of Sd,Sv,Sa,Pssv,ttSd,ttSv,ttSa :
  .109E-03  .868E-04  .116E-03  .161E-03  .160E-03  .222E-03  .196E-03  .285E-03
  .283E-03  .351E-03  .566E-03  .475E-03  .756E-03  .959E-03  .156E-02  .201E-02
  .130E-02  .236E-02  .228E-02  .270E-02  .439E-02  .364E-02  .430E-02  .416E-02
  .468E-02  .492E-02  .690E-02  .638E-02  .737E-02  .730E-02  .891E-02  .727E-02
  .667E-02  .559E-02  .541E-02  .677E-02  .103E-01  .615E-02  .628E-02  .618E-02
  .752E-02  .747E-02  .580E-02  .575E-02  .841E-02  .711E-02  .701E-02  .627E-02
  .607E-02  .482E-02  .427E-02  .388E-02  .343E-02  .396E-02  .457E-02  .364E-02
  .309E-02  .357E-02  .310E-02  .440E-02  .396E-02  .323E-02  .365E-02  .296E-02
  .389E-02  .320E-02  .444E-02  .338E-02  .000E+00  .000E+00  .000E+00  .000E+00
  .000E+00  .000E+00  .000E+00  .000E+00  .000E+00  .000E+00  .000E+00  .000E+00
  .000E+00  .000E+00  .000E+00  .000E+00  .000E+00  .000E+00  .000E+00  .000E+00
  .000E+00  .000E+00  .000E+00  .000E+00  .000E+00  .000E+00  .000E+00  .000E+00
  .000E+00  .000E+00  .000E+00  .000E+00
  .731E-02  .562E-02  .121E-01  .111E-01  .163E-01  .176E-01  .183E-01  .194E-01
  .176E-01  .240E-01  .413E-01  .223E-01  .531E-01  .628E-01  .100E+00  .124E+00
  .676E-01  .122E+00  .103E+00  .119E+00  .185E+00  .144E+00  .159E+00  .143E+00
  .158E+00  .156E+00  .195E+00  .169E+00  .179E+00  .164E+00  .186E+00  .140E+00
  .123E+00  .103E+00  .995E-01  .107E+00  .153E+00  .901E-01  .877E-01  .890E-01
  .945E-01  .876E-01  .759E-01  .762E-01  .762E-01  .746E-01  .738E-01  .742E-01
  .722E-01  .715E-01  .701E-01  .708E-01  .713E-01  .680E-01  .649E-01  .694E-01
  .691E-01  .727E-01  .681E-01  .681E-01  .707E-01  .711E-01  .706E-01  .696E-01
  .695E-01  .690E-01  .698E-01  .713E-01  .000E+00  .000E+00  .000E+00  .000E+00
  .000E+00  .000E+00  .000E+00  .000E+00  .000E+00  .000E+00  .000E+00  .000E+00
  .000E+00  .000E+00  .000E+00  .000E+00  .000E+00  .000E+00  .000E+00  .000E+00
  .000E+00  .000E+00  .000E+00  .000E+00  .000E+00  .000E+00  .000E+00  .000E+00
  .000E+00  .000E+00  .000E+00  .000E+00
  .695E-02  .503E-02  .611E-02  .779E-02  .709E-02  .906E-02  .663E-02  .810E-02
  .686E-02  .732E-02  .103E-01  .758E-02  .107E-01  .121E-01  .177E-01  .205E-01
  .110E-01  .167E-01  .138E-01  .141E-01  .200E-01  .145E-01  .152E-01  .131E-01
  .133E-01  .126E-01  .146E-01  .113E-01  .111E-01  .952E-02  .101E-01  .726E-02
  .590E-02  .442E-02  .383E-02  .433E-02  .595E-02  .325E-02  .304E-02  .274E-02
  .308E-02  .253E-02  .165E-02  .139E-02  .176E-02  .129E-02  .112E-02  .887E-03
  .766E-03  .547E-03  .437E-03  .328E-03  .244E-03  .240E-03  .238E-03  .165E-03
  .124E-03  .126E-03  .978E-04  .125E-03  .101E-03  .682E-04  .647E-04  .448E-04
  .507E-04  .363E-04  .443E-04  .299E-04  .000E+00  .000E+00  .000E+00  .000E+00
  .000E+00  .000E+00  .000E+00  .000E+00  .000E+00  .000E+00  .000E+00  .000E+00
  .000E+00  .000E+00  .000E+00  .000E+00  .000E+00  .000E+00  .000E+00  .000E+00
  .000E+00  .000E+00  .000E+00  .000E+00  .000E+00  .000E+00  .000E+00  .000E+00
  .000E+00  .000E+00  .000E+00  .000E+00
  .171E-01  .130E-01  .165E-01  .220E-01  .209E-01  .278E-01  .224E-01  .299E-01
  .274E-01  .315E-01  .474E-01  .373E-01  .559E-01  .669E-01  .103E+00  .126E+00
  .743E-01  .123E+00  .110E+00  .121E+00  .184E+00  .143E+00  .159E+00  .145E+00
  .155E+00  .154E+00  .197E+00  .167E+00  .178E+00  .164E+00  .187E+00  .143E+00
  .123E+00  .976E-01  .895E-01  .106E+00  .153E+00  .878E-01  .858E-01  .809E-01
  .945E-01  .853E-01  .607E-01  .556E-01  .755E-01  .595E-01  .550E-01  .463E-01
  .423E-01  .319E-01  .268E-01  .222E-01  .180E-01  .192E-01  .205E-01  .153E-01
  .121E-01  .132E-01  .108E-01  .145E-01  .124E-01  .922E-02  .954E-02  .715E-02
  .872E-02  .669E-02  .872E-02  .624E-02  .000E+00  .000E+00  .000E+00  .000E+00
  .000E+00  .000E+00  .000E+00  .000E+00  .000E+00  .000E+00  .000E+00  .000E+00
  .000E+00  .000E+00  .000E+00  .000E+00  .000E+00  .000E+00  .000E+00  .000E+00
  .000E+00  .000E+00  .000E+00  .000E+00  .000E+00  .000E+00  .000E+00  .000E+00
  .000E+00  .000E+00  .000E+00  .000E+00
  .255E+02  .255E+02  .255E+02  .255E+02  .254E+02  .255E+02  .254E+02  .255E+02
  .254E+02  .254E+02  .255E+02  .255E+02  .259E+02  .259E+02  .261E+02  .261E+02
  .255E+02  .273E+02  .255E+02  .285E+02  .376E+02  .260E+02  .259E+02  .283E+02
  .256E+02  .256E+02  .283E+02  .259E+02  .270E+02  .280E+02  .287E+02  .272E+02
  .310E+02  .258E+02  .256E+02  .277E+02  .452E+02  .268E+02  .268E+02  .264E+02
  .285E+02  .293E+02  .260E+02  .261E+02  .356E+02  .280E+02  .274E+02  .274E+02
  .406E+02  .272E+02  .272E+02  .259E+02  .259E+02  .259E+02  .259E+02  .255E+02
  .255E+02  .255E+02  .259E+02  .255E+02  .255E+02  .255E+02  .255E+02  .255E+02
  .255E+02  .255E+02  .255E+02  .255E+02  .000E+00  .000E+00  .000E+00  .000E+00
  .000E+00  .000E+00  .000E+00  .000E+00  .000E+00  .000E+00  .000E+00  .000E+00
  .000E+00  .000E+00  .000E+00  .000E+00  .000E+00  .000E+00  .000E+00  .000E+00
  .000E+00  .000E+00  .000E+00  .000E+00  .000E+00  .000E+00  .000E+00  .000E+00
  .000E+00  .000E+00  .000E+00  .000E+00
  .257E+02  .258E+02  .260E+02  .255E+02  .259E+02  .254E+02  .263E+02  .260E+02
  .262E+02  .264E+02  .259E+02  .255E+02  .270E+02  .259E+02  .260E+02  .262E+02
  .255E+02  .273E+02  .255E+02  .284E+02  .376E+02  .260E+02  .260E+02  .283E+02
  .257E+02  .257E+02  .283E+02  .262E+02  .271E+02  .280E+02  .288E+02  .271E+02
  .311E+02  .257E+02  .257E+02  .276E+02  .451E+02  .284E+02  .267E+02  .263E+02
  .284E+02  .291E+02  .254E+02  .254E+02  .357E+02  .254E+02  .254E+02  .254E+02
  .254E+02  .254E+02  .254E+02  .254E+02  .254E+02  .254E+02  .254E+02  .254E+02
  .254E+02  .254E+02  .254E+02  .254E+02  .254E+02  .254E+02  .254E+02  .254E+02
  .254E+02  .254E+02  .254E+02  .254E+02  .000E+00  .000E+00  .000E+00  .000E+00
  .000E+00  .000E+00  .000E+00  .000E+00  .000E+00  .000E+00  .000E+00  .000E+00
  .000E+00  .000E+00  .000E+00  .000E+00  .000E+00  .000E+00  .000E+00  .000E+00
  .000E+00  .000E+00  .000E+00  .000E+00  .000E+00  .000E+00  .000E+00  .000E+00
  .000E+00  .000E+00  .000E+00  .000E+00
  .255E+02  .255E+02  .255E+02  .255E+02  .254E+02  .255E+02  .254E+02  .255E+02
  .254E+02  .254E+02  .255E+02  .255E+02  .259E+02  .259E+02  .261E+02  .261E+02
  .255E+02  .273E+02  .255E+02  .285E+02  .376E+02  .260E+02  .259E+02  .283E+02
  .256E+02  .256E+02  .283E+02  .259E+02  .270E+02  .280E+02  .287E+02  .272E+02
  .310E+02  .258E+02  .256E+02  .277E+02  .452E+02  .268E+02  .268E+02  .264E+02
  .285E+02  .293E+02  .260E+02  .261E+02  .356E+02  .280E+02  .274E+02  .274E+02
  .406E+02  .272E+02  .272E+02  .259E+02  .259E+02  .259E+02  .259E+02  .255E+02
  .255E+02  .255E+02  .259E+02  .255E+02  .255E+02  .255E+02  .255E+02  .255E+02
  .255E+02  .255E+02  .255E+02  .255E+02  .000E+00  .000E+00  .000E+00  .000E+00
  .000E+00  .000E+00  .000E+00  .000E+00  .000E+00  .000E+00  .000E+00  .000E+00
  .000E+00  .000E+00  .000E+00  .000E+00  .000E+00  .000E+00  .000E+00  .000E+00
  .000E+00  .000E+00  .000E+00  .000E+00  .000E+00  .000E+00  .000E+00  .000E+00
  .000E+00  .000E+00  .000E+00  .000E+00
Damping =  .02. Data of Sd,Sv,Sa,Pssv,ttSd,ttSv,ttSa :
  .788E-04  .835E-04  .983E-04  .115E-03  .125E-03  .139E-03  .167E-03  .223E-03
  .278E-03  .357E-03  .450E-03  .546E-03  .642E-03  .709E-03  .962E-03  .116E-02
  .140E-02  .162E-02  .203E-02  .233E-02  .256E-02  .295E-02  .350E-02  .363E-02
  .408E-02  .436E-02  .477E-02  .521E-02  .560E-02  .551E-02  .540E-02  .563E-02
  .530E-02  .517E-02  .517E-02  .515E-02  .515E-02  .522E-02  .521E-02  .502E-02
  .507E-02  .518E-02  .529E-02  .527E-02  .486E-02  .547E-02  .588E-02  .519E-02
  .446E-02  .397E-02  .369E-02  .363E-02  .340E-02  .367E-02  .383E-02  .378E-02
  .353E-02  .355E-02  .331E-02  .399E-02  .399E-02  .349E-02  .356E-02  .320E-02
  .363E-02  .345E-02  .402E-02  .347E-02  .000E+00  .000E+00  .000E+00  .000E+00
  .000E+00  .000E+00  .000E+00  .000E+00  .000E+00  .000E+00  .000E+00  .000E+00
  .000E+00  .000E+00  .000E+00  .000E+00  .000E+00  .000E+00  .000E+00  .000E+00
  .000E+00  .000E+00  .000E+00  .000E+00  .000E+00  .000E+00  .000E+00  .000E+00
  .000E+00  .000E+00  .000E+00  .000E+00
  .391E-02  .501E-02  .589E-02  .598E-02  .577E-02  .662E-02  .865E-02  .102E-01
  .134E-01  .197E-01  .237E-01  .284E-01  .354E-01  .426E-01  .616E-01  .692E-01
  .697E-01  .755E-01  .888E-01  .950E-01  .986E-01  .107E+00  .121E+00  .120E+00
  .132E+00  .134E+00  .134E+00  .134E+00  .135E+00  .125E+00  .121E+00  .112E+00
  .968E-01  .938E-01  .923E-01  .892E-01  .848E-01  .837E-01  .826E-01  .780E-01
  .789E-01  .754E-01  .752E-01  .757E-01  .744E-01  .728E-01  .722E-01  .725E-01
  .727E-01  .726E-01  .715E-01  .706E-01  .707E-01  .684E-01  .676E-01  .700E-01
  .698E-01  .707E-01  .686E-01  .686E-01  .702E-01  .707E-01  .702E-01  .696E-01
  .694E-01  .692E-01  .697E-01  .706E-01  .000E+00  .000E+00  .000E+00  .000E+00
  .000E+00  .000E+00  .000E+00  .000E+00  .000E+00  .000E+00  .000E+00  .000E+00
  .000E+00  .000E+00  .000E+00  .000E+00  .000E+00  .000E+00  .000E+00  .000E+00
  .000E+00  .000E+00  .000E+00  .000E+00  .000E+00  .000E+00  .000E+00  .000E+00
  .000E+00  .000E+00  .000E+00  .000E+00
  .504E-02  .484E-02  .519E-02  .559E-02  .555E-02  .568E-02  .565E-02  .633E-02
  .671E-02  .745E-02  .816E-02  .871E-02  .908E-02  .897E-02  .109E-01  .118E-01
  .118E-01  .115E-01  .123E-01  .122E-01  .117E-01  .118E-01  .124E-01  .115E-01
  .115E-01  .112E-01  .101E-01  .926E-02  .848E-02  .721E-02  .614E-02  .563E-02
  .469E-02  .408E-02  .366E-02  .329E-02  .299E-02  .276E-02  .252E-02  .223E-02
  .207E-02  .176E-02  .150E-02  .128E-02  .102E-02  .996E-03  .941E-03  .735E-03
  .564E-03  .450E-03  .378E-03  .308E-03  .243E-03  .223E-03  .201E-03  .175E-03
  .144E-03  .129E-03  .108E-03  .116E-03  .105E-03  .768E-04  .662E-04  .517E-04
  .506E-04  .424E-04  .434E-04  .340E-04  .000E+00  .000E+00  .000E+00  .000E+00
  .000E+00  .000E+00  .000E+00  .000E+00  .000E+00  .000E+00  .000E+00  .000E+00
  .000E+00  .000E+00  .000E+00  .000E+00  .000E+00  .000E+00  .000E+00  .000E+00
  .000E+00  .000E+00  .000E+00  .000E+00  .000E+00  .000E+00  .000E+00  .000E+00
  .000E+00  .000E+00  .000E+00  .000E+00
  .124E-01  .125E-01  .140E-01  .158E-01  .164E-01  .174E-01  .190E-01  .233E-01
  .268E-01  .321E-01  .377E-01  .429E-01  .475E-01  .495E-01  .636E-01  .727E-01
  .798E-01  .847E-01  .981E-01  .104E+00  .107E+00  .116E+00  .129E+00  .127E+00
  .135E+00  .137E+00  .136E+00  .136E+00  .135E+00  .124E+00  .113E+00  .111E+00
  .979E-01  .902E-01  .854E-01  .809E-01  .770E-01  .745E-01  .712E-01  .657E-01
  .637E-01  .592E-01  .554E-01  .509E-01  .436E-01  .458E-01  .462E-01  .383E-01
  .311E-01  .262E-01  .232E-01  .207E-01  .178E-01  .178E-01  .172E-01  .159E-01
  .139E-01  .131E-01  .116E-01  .132E-01  .125E-01  .997E-02  .931E-02  .775E-02
  .815E-02  .722E-02  .788E-02  .642E-02  .000E+00  .000E+00  .000E+00  .000E+00
  .000E+00  .000E+00  .000E+00  .000E+00  .000E+00  .000E+00  .000E+00  .000E+00
  .000E+00  .000E+00  .000E+00  .000E+00  .000E+00  .000E+00  .000E+00  .000E+00
  .000E+00  .000E+00  .000E+00  .000E+00  .000E+00  .000E+00  .000E+00  .000E+00
  .000E+00  .000E+00  .000E+00  .000E+00
  .255E+02  .255E+02  .255E+02  .255E+02  .255E+02  .255E+02  .255E+02  .255E+02
  .255E+02  .255E+02  .255E+02  .255E+02  .255E+02  .255E+02  .258E+02  .255E+02
  .255E+02  .255E+02  .255E+02  .255E+02  .255E+02  .255E+02  .255E+02  .255E+02
  .255E+02  .256E+02  .257E+02  .259E+02  .260E+02  .261E+02  .265E+02  .258E+02
  .258E+02  .256E+02  .256E+02  .256E+02  .256E+02  .256E+02  .257E+02  .262E+02
  .262E+02  .263E+02  .260E+02  .261E+02  .261E+02  .276E+02  .274E+02  .274E+02
  .271E+02  .272E+02  .259E+02  .259E+02  .259E+02  .259E+02  .259E+02  .255E+02
  .255E+02  .255E+02  .255E+02  .255E+02  .255E+02  .255E+02  .255E+02  .255E+02
  .255E+02  .255E+02  .255E+02  .255E+02  .000E+00  .000E+00  .000E+00  .000E+00
  .000E+00  .000E+00  .000E+00  .000E+00  .000E+00  .000E+00  .000E+00  .000E+00
  .000E+00  .000E+00  .000E+00  .000E+00  .000E+00  .000E+00  .000E+00  .000E+00
  .000E+00  .000E+00  .000E+00  .000E+00  .000E+00  .000E+00  .000E+00  .000E+00
  .000E+00  .000E+00  .000E+00  .000E+00
  .254E+02  .254E+02  .258E+02  .258E+02  .258E+02  .254E+02  .254E+02  .255E+02
  .254E+02  .258E+02  .255E+02  .255E+02  .255E+02  .259E+02  .258E+02  .258E+02
  .255E+02  .255E+02  .255E+02  .255E+02  .255E+02  .260E+02  .256E+02  .256E+02
  .257E+02  .257E+02  .256E+02  .260E+02  .262E+02  .259E+02  .261E+02  .258E+02
  .258E+02  .257E+02  .257E+02  .257E+02  .257E+02  .255E+02  .256E+02  .256E+02
  .254E+02  .254E+02  .254E+02  .254E+02  .254E+02  .254E+02  .254E+02  .254E+02
  .254E+02  .254E+02  .254E+02  .254E+02  .254E+02  .254E+02  .254E+02  .254E+02
  .254E+02  .254E+02  .254E+02  .254E+02  .254E+02  .254E+02  .254E+02  .254E+02
  .254E+02  .254E+02  .254E+02  .254E+02  .000E+00  .000E+00  .000E+00  .000E+00
  .000E+00  .000E+00  .000E+00  .000E+00  .000E+00  .000E+00  .000E+00  .000E+00
  .000E+00  .000E+00  .000E+00  .000E+00  .000E+00  .000E+00  .000E+00  .000E+00
  .000E+00  .000E+00  .000E+00  .000E+00  .000E+00  .000E+00  .000E+00  .000E+00
  .000E+00  .000E+00  .000E+00  .000E+00
  .255E+02  .255E+02  .255E+02  .255E+02  .255E+02  .255E+02  .255E+02  .255E+02
  .255E+02  .255E+02  .255E+02  .255E+02  .255E+02  .255E+02  .258E+02  .255E+02
  .255E+02  .255E+02  .255E+02  .255E+02  .255E+02  .255E+02  .255E+02  .255E+02
  .255E+02  .256E+02  .257E+02  .259E+02  .260E+02  .261E+02  .265E+02  .258E+02
  .258E+02  .256E+02  .256E+02  .256E+02  .256E+02  .256E+02  .257E+02  .262E+02
  .262E+02  .263E+02  .260E+02  .261E+02  .261E+02  .276E+02  .274E+02  .274E+02
  .271E+02  .271E+02  .259E+02  .259E+02  .259E+02  .259E+02  .259E+02  .255E+02
  .255E+02  .255E+02  .255E+02  .255E+02  .255E+02  .255E+02  .255E+02  .255E+02
  .255E+02  .255E+02  .255E+02  .255E+02  .000E+00  .000E+00  .000E+00  .000E+00
  .000E+00  .000E+00  .000E+00  .000E+00  .000E+00  .000E+00  .000E+00  .000E+00
  .000E+00  .000E+00  .000E+00  .000E+00  .000E+00  .000E+00  .000E+00  .000E+00
  .000E+00  .000E+00  .000E+00  .000E+00  .000E+00  .000E+00  .000E+00  .000E+00
  .000E+00  .000E+00  .000E+00  .000E+00
Damping =  .05. Data of Sd,Sv,Sa,Pssv,ttSd,ttSv,ttSa :
  .779E-04  .860E-04  .977E-04  .111E-03  .124E-03  .136E-03  .172E-03  .219E-03
  .274E-03  .350E-03  .432E-03  .527E-03  .613E-03  .714E-03  .885E-03  .104E-02
  .130E-02  .154E-02  .185E-02  .215E-02  .242E-02  .275E-02  .310E-02  .335E-02
  .364E-02  .389E-02  .414E-02  .417E-02  .423E-02  .430E-02  .459E-02  .485E-02
  .483E-02  .479E-02  .477E-02  .475E-02  .474E-02  .473E-02  .466E-02  .450E-02
