Response and Fourier amplitude spectra (68 periods,  .04 -  3.4 sec)   for      
Corrected accelerogram   24207-M0150-20021.15       Chan  4:  Tang       from   
Uncorrected Accelerogram Data             Processed: 01/24/20, CGS  ce24207o    
Rcrd of Tue Jan 21, 2020 23:40:50.0 PST               (Avol1 v2.0, 4/18 CSMIP)  
CSMIP Preliminary Processing            (Origin:  To be determined)             
24207-M0150-20021.15                 Start time:  1/22/20, 07:40:50.0 UTC (GPS) 
Station No. 24207   34.335N, 118.397W    MtWtny  s/n  150 (17 Chns of 17 at Sta)
Sylmar - Pacoima Dam                      CGS   Data: Acceleration              
Chan  4:  Tang                      Location: Crest: Center                     
Rcrd of Tue Jan 21, 2020 23:40:50.0 PST    Tue Jan 21, 2020 23:40:50.0 PST      
Hypocenter:  To be determined.               ML:  To be determined.
Instr Period =  .0106 sec,  Damping =  .660,  Sensitivity =  .63 v/g
                        Record Length = 58.000 sec.
                                     Uncor Max  =   .012 g, at   25.510 sec.
RMS accel of (uncor) record  =        .   Chn. metadata effective date: 09/02/99
Accelerogram bandpass filtered with 3 dB pts at   .30 and 40.00 cyc/sec
                 instrument- and base-line correcte





Rcrd of Tue Jan 21, 2020 23:40:50.0 PST    Tue Jan 21, 2020 23:40:50.0 PST

24207-M0150-20021.15      Sylmar - Pacoima Dam    Chan  4:  Tang

24207-M0150-20021.15      Sylmar - Pacoima Dam    Chan  4:  Tang

Units for spectra are inches and sec, except Sa is in fraction of g.

    4  100    4   18   17  200    1    3    1   24   13  150    024207    5    0
    7   40   50    0   22    1   22 2020   10    3 100011600   39   20   74   -1
11600    0  100    3  150    1   15  580    2 -999 -999 -999 -999 -999 -999 -999
 -999 -999    3 -99911600    1  222    1   18    4 -999 -999    3    1 -99911600
    311600    4   68    5   17    5    0    0 -999    0    0    1    3    1    2
    2    2    4    0   68   67    0   10 -999    1    0    1    0    0   64  222
    1    0    4    0
      .011      .660    58.000      .001     1.000   625.000      .012    25.510
    94.400      .298      .477  -999.000     5.000  -999.000     4.000  -999.000
     2.500   -20.449     2.500  2016.000    25.000    30.000  -999.000      .001
     -.003     -.004     2.000    15.000    34.335  -118.397      .009      .015
     1.680     -.005     -.002   594.000    25.700    27.200    12.600   103.640
     1.000    10.003    -8.000  -999.000  -999.000  -999.000  -999.000  -999.000
     6.900     2.000     6.800   980.665      .005    58.000    15.024      .000
  -999.000    40.000  -999.000    58.000      .005      .303  -999.000  -999.000
    25.510    11.699    25.475     -.376    25.520     -.018      .000      .303
    40.000      .005      .005      .000      .005      .003  -999.000  -999.000
      .040      .240      .030      .019      .001      .000  -999.000  -999.000
  -999.000  -999.000  -999.000  -999.000  -999.000  -999.000  -999.000  -999.000
  -999.000  -999.000  -999.000  -999.000
      .000      .020      .050      .100      .200
      .040      .042      .044      .046      .048      .050      .055      .060
      .065      .070      .075      .080      .085      .090      .095      .100
      .110      .120      .130      .140      .150      .160      .170      .180
      .190      .200      .220      .240      .260      .280      .300      .320
      .340      .360      .380      .400      .420      .440      .460      .480
      .500      .550      .600      .650      .700      .750      .800      .850
      .900      .950     1.000     1.100     1.200     1.300     1.400     1.500
     1.600     1.700     1.800     1.900     2.000     2.200     2.400     2.600
     2.800     3.000     3.200     3.400      .000      .000      .000      .000
      .000      .000      .000      .000      .000      .000      .000      .000
      .000      .000      .000      .000      .000      .000      .000      .000
      .000      .000      .000      .000      .000      .000      .000      .000
      .000      .000      .000      .000
Fourier amplitude spectra in in/sec.
  .705E-01  .552E-02  .832E-01  .679E-01  .278E-01  .768E-02  .905E-01  .934E-01
  .686E-01  .111E+00  .107E+00  .114E+00  .113E+00  .280E-01  .154E+00  .286E+00
  .181E+00  .883E-01  .213E+00  .357E+00  .604E+00  .553E-01  .104E+00  .268E+00
  .703E+00  .276E+00  .131E+01  .843E+00  .886E+00  .352E+00  .241E+00  .312E+00
  .215E+00  .860E-01  .114E+00  .141E+00  .244E+00  .121E+00  .100E+00  .113E+00
  .110E+00  .751E-01  .560E-01  .670E-01  .951E-01  .704E-01  .577E-01  .428E-01
  .478E-01  .208E-01  .122E-01  .163E-01  .582E-02  .132E-01  .734E-02  .966E-02
  .865E-02  .418E-02  .104E-01  .948E-02  .220E-02  .178E-02  .852E-02  .193E-02
  .745E-03  .685E-02  .326E-02  .385E-03  .000E+00  .000E+00  .000E+00  .000E+00
  .000E+00  .000E+00  .000E+00  .000E+00  .000E+00  .000E+00  .000E+00  .000E+00
  .000E+00  .000E+00  .000E+00  .000E+00  .000E+00  .000E+00  .000E+00  .000E+00
  .000E+00  .000E+00  .000E+00  .000E+00  .000E+00  .000E+00  .000E+00  .000E+00
  .000E+00  .000E+00  .000E+00  .000E+00
Damping =  .00. Data of Sd,Sv,Sa,Pssv,ttSd,ttSv,ttSa :
  .580E-03  .400E-03  .688E-03  .693E-03  .389E-03  .545E-03  .933E-03  .129E-02
  .135E-02  .207E-02  .202E-02  .200E-02  .257E-02  .253E-02  .319E-02  .560E-02
  .425E-02  .436E-02  .735E-02  .112E-01  .145E-01  .902E-02  .633E-02  .125E-01
  .217E-01  .154E-01  .464E-01  .420E-01  .384E-01  .261E-01  .212E-01  .188E-01
  .175E-01  .158E-01  .141E-01  .125E-01  .165E-01  .123E-01  .126E-01  .122E-01
  .108E-01  .107E-01  .110E-01  .952E-02  .108E-01  .902E-02  .860E-02  .813E-02
  .776E-02  .807E-02  .770E-02  .740E-02  .721E-02  .723E-02  .658E-02  .698E-02
  .745E-02  .720E-02  .698E-02  .782E-02  .752E-02  .667E-02  .856E-02  .712E-02
  .638E-02  .823E-02  .805E-02  .780E-02  .000E+00  .000E+00  .000E+00  .000E+00
  .000E+00  .000E+00  .000E+00  .000E+00  .000E+00  .000E+00  .000E+00  .000E+00
  .000E+00  .000E+00  .000E+00  .000E+00  .000E+00  .000E+00  .000E+00  .000E+00
  .000E+00  .000E+00  .000E+00  .000E+00  .000E+00  .000E+00  .000E+00  .000E+00
  .000E+00  .000E+00  .000E+00  .000E+00
  .792E-01  .441E-01  .863E-01  .821E-01  .397E-01  .551E-01  .967E-01  .120E+00
  .111E+00  .164E+00  .153E+00  .136E+00  .157E+00  .144E+00  .187E+00  .326E+00
  .225E+00  .215E+00  .319E+00  .482E+00  .604E+00  .326E+00  .204E+00  .429E+00
  .715E+00  .450E+00  .132E+01  .111E+01  .933E+00  .616E+00  .503E+00  .450E+00
  .365E+00  .307E+00  .290E+00  .271E+00  .253E+00  .240E+00  .222E+00  .210E+00
  .198E+00  .175E+00  .168E+00  .163E+00  .160E+00  .155E+00  .155E+00  .154E+00
  .153E+00  .157E+00  .156E+00  .154E+00  .152E+00  .150E+00  .151E+00  .150E+00
  .152E+00  .150E+00  .148E+00  .146E+00  .152E+00  .151E+00  .146E+00  .149E+00
  .147E+00  .146E+00  .149E+00  .148E+00  .000E+00  .000E+00  .000E+00  .000E+00
  .000E+00  .000E+00  .000E+00  .000E+00  .000E+00  .000E+00  .000E+00  .000E+00
  .000E+00  .000E+00  .000E+00  .000E+00  .000E+00  .000E+00  .000E+00  .000E+00
  .000E+00  .000E+00  .000E+00  .000E+00  .000E+00  .000E+00  .000E+00  .000E+00
  .000E+00  .000E+00  .000E+00  .000E+00
  .370E-01  .232E-01  .363E-01  .335E-01  .173E-01  .223E-01  .315E-01  .366E-01
  .327E-01  .432E-01  .367E-01  .320E-01  .364E-01  .320E-01  .362E-01  .572E-01
  .360E-01  .310E-01  .445E-01  .585E-01  .657E-01  .360E-01  .224E-01  .393E-01
  .614E-01  .395E-01  .980E-01  .745E-01  .581E-01  .341E-01  .241E-01  .188E-01
  .155E-01  .125E-01  .997E-02  .800E-02  .959E-02  .652E-02  .610E-02  .541E-02
  .441E-02  .361E-02  .313E-02  .230E-02  .226E-02  .164E-02  .137E-02  .115E-02
  .980E-03  .914E-03  .787E-03  .626E-03  .512E-03  .438E-03  .343E-03  .317E-03
  .298E-03  .255E-03  .220E-03  .221E-03  .192E-03  .141E-03  .152E-03  .108E-03
  .832E-04  .935E-04  .804E-04  .690E-04  .000E+00  .000E+00  .000E+00  .000E+00
  .000E+00  .000E+00  .000E+00  .000E+00  .000E+00  .000E+00  .000E+00  .000E+00
  .000E+00  .000E+00  .000E+00  .000E+00  .000E+00  .000E+00  .000E+00  .000E+00
  .000E+00  .000E+00  .000E+00  .000E+00  .000E+00  .000E+00  .000E+00  .000E+00
  .000E+00  .000E+00  .000E+00  .000E+00
  .910E-01  .599E-01  .982E-01  .947E-01  .510E-01  .685E-01  .107E+00  .135E+00
  .131E+00  .186E+00  .169E+00  .157E+00  .190E+00  .177E+00  .211E+00  .352E+00
  .243E+00  .228E+00  .355E+00  .503E+00  .606E+00  .354E+00  .234E+00  .435E+00
  .717E+00  .485E+00  .132E+01  .110E+01  .929E+00  .586E+00  .443E+00  .369E+00
  .323E+00  .276E+00  .233E+00  .197E+00  .247E+00  .176E+00  .172E+00  .159E+00
  .135E+00  .122E+00  .115E+00  .920E-01  .972E-01  .755E-01  .676E-01  .601E-01
  .542E-01  .533E-01  .484E-01  .423E-01  .377E-01  .349E-01  .295E-01  .292E-01
  .292E-01  .266E-01  .243E-01  .259E-01  .236E-01  .191E-01  .224E-01  .172E-01
  .143E-01  .172E-01  .158E-01  .144E-01  .000E+00  .000E+00  .000E+00  .000E+00
  .000E+00  .000E+00  .000E+00  .000E+00  .000E+00  .000E+00  .000E+00  .000E+00
  .000E+00  .000E+00  .000E+00  .000E+00  .000E+00  .000E+00  .000E+00  .000E+00
  .000E+00  .000E+00  .000E+00  .000E+00  .000E+00  .000E+00  .000E+00  .000E+00
  .000E+00  .000E+00  .000E+00  .000E+00
  .262E+02  .258E+02  .263E+02  .261E+02  .257E+02  .257E+02  .263E+02  .260E+02
  .258E+02  .260E+02  .255E+02  .261E+02  .258E+02  .258E+02  .261E+02  .262E+02
  .268E+02  .261E+02  .261E+02  .263E+02  .293E+02  .260E+02  .256E+02  .267E+02
  .350E+02  .257E+02  .355E+02  .264E+02  .276E+02  .261E+02  .260E+02  .258E+02
  .258E+02  .258E+02  .258E+02  .256E+02  .454E+02  .256E+02  .268E+02  .261E+02
  .257E+02  .260E+02  .260E+02  .260E+02  .352E+02  .288E+02  .274E+02  .255E+02
  .255E+02  .255E+02  .255E+02  .255E+02  .255E+02  .255E+02  .255E+02  .255E+02
  .255E+02  .255E+02  .255E+02  .255E+02  .255E+02  .255E+02  .255E+02  .255E+02
  .255E+02  .255E+02  .255E+02  .255E+02  .000E+00  .000E+00  .000E+00  .000E+00
  .000E+00  .000E+00  .000E+00  .000E+00  .000E+00  .000E+00  .000E+00  .000E+00
  .000E+00  .000E+00  .000E+00  .000E+00  .000E+00  .000E+00  .000E+00  .000E+00
  .000E+00  .000E+00  .000E+00  .000E+00  .000E+00  .000E+00  .000E+00  .000E+00
  .000E+00  .000E+00  .000E+00  .000E+00
  .263E+02  .260E+02  .263E+02  .261E+02  .257E+02  .257E+02  .268E+02  .260E+02
  .258E+02  .260E+02  .258E+02  .261E+02  .258E+02  .258E+02  .258E+02  .262E+02
  .268E+02  .261E+02  .262E+02  .263E+02  .470E+02  .261E+02  .256E+02  .266E+02
  .351E+02  .257E+02  .356E+02  .264E+02  .277E+02  .262E+02  .258E+02  .258E+02
  .258E+02  .257E+02  .257E+02  .257E+02  .257E+02  .257E+02  .257E+02  .256E+02
  .256E+02  .256E+02  .256E+02  .255E+02  .255E+02  .255E+02  .255E+02  .255E+02
  .255E+02  .255E+02  .255E+02  .255E+02  .255E+02  .255E+02  .255E+02  .255E+02
  .255E+02  .255E+02  .255E+02  .255E+02  .255E+02  .255E+02  .255E+02  .255E+02
  .255E+02  .255E+02  .255E+02  .255E+02  .000E+00  .000E+00  .000E+00  .000E+00
  .000E+00  .000E+00  .000E+00  .000E+00  .000E+00  .000E+00  .000E+00  .000E+00
  .000E+00  .000E+00  .000E+00  .000E+00  .000E+00  .000E+00  .000E+00  .000E+00
  .000E+00  .000E+00  .000E+00  .000E+00  .000E+00  .000E+00  .000E+00  .000E+00
  .000E+00  .000E+00  .000E+00  .000E+00
  .262E+02  .258E+02  .263E+02  .261E+02  .257E+02  .257E+02  .263E+02  .260E+02
  .258E+02  .260E+02  .255E+02  .261E+02  .258E+02  .258E+02  .261E+02  .262E+02
  .268E+02  .261E+02  .261E+02  .263E+02  .293E+02  .260E+02  .256E+02  .267E+02
  .350E+02  .257E+02  .355E+02  .264E+02  .276E+02  .261E+02  .260E+02  .258E+02
  .258E+02  .258E+02  .258E+02  .256E+02  .454E+02  .256E+02  .268E+02  .261E+02
  .257E+02  .260E+02  .260E+02  .260E+02  .352E+02  .288E+02  .274E+02  .255E+02
  .255E+02  .255E+02  .255E+02  .255E+02  .255E+02  .255E+02  .255E+02  .255E+02
  .255E+02  .255E+02  .255E+02  .255E+02  .255E+02  .255E+02  .255E+02  .255E+02
  .255E+02  .255E+02  .255E+02  .255E+02  .000E+00  .000E+00  .000E+00  .000E+00
  .000E+00  .000E+00  .000E+00  .000E+00  .000E+00  .000E+00  .000E+00  .000E+00
  .000E+00  .000E+00  .000E+00  .000E+00  .000E+00  .000E+00  .000E+00  .000E+00
  .000E+00  .000E+00  .000E+00  .000E+00  .000E+00  .000E+00  .000E+00  .000E+00
  .000E+00  .000E+00  .000E+00  .000E+00
Damping =  .02. Data of Sd,Sv,Sa,Pssv,ttSd,ttSv,ttSa :
  .348E-03  .370E-03  .428E-03  .439E-03  .385E-03  .389E-03  .696E-03  .870E-03
  .926E-03  .873E-03  .115E-02  .128E-02  .168E-02  .221E-02  .266E-02  .346E-02
  .321E-02  .341E-02  .600E-02  .799E-02  .812E-02  .675E-02  .682E-02  .898E-02
  .938E-02  .128E-01  .268E-01  .318E-01  .277E-01  .221E-01  .187E-01  .171E-01
  .161E-01  .148E-01  .133E-01  .121E-01  .119E-01  .118E-01  .116E-01  .111E-01
  .104E-01  .100E-01  .102E-01  .912E-02  .804E-02  .781E-02  .779E-02  .793E-02
  .791E-02  .790E-02  .762E-02  .737E-02  .716E-02  .720E-02  .709E-02  .726E-02
  .737E-02  .713E-02  .706E-02  .757E-02  .742E-02  .679E-02  .781E-02  .723E-02
  .680E-02  .785E-02  .794E-02  .773E-02  .000E+00  .000E+00  .000E+00  .000E+00
  .000E+00  .000E+00  .000E+00  .000E+00  .000E+00  .000E+00  .000E+00  .000E+00
  .000E+00  .000E+00  .000E+00  .000E+00  .000E+00  .000E+00  .000E+00  .000E+00
  .000E+00  .000E+00  .000E+00  .000E+00  .000E+00  .000E+00  .000E+00  .000E+00
  .000E+00  .000E+00  .000E+00  .000E+00
  .314E-01  .353E-01  .437E-01  .453E-01  .345E-01  .348E-01  .688E-01  .817E-01
  .714E-01  .568E-01  .711E-01  .817E-01  .980E-01  .119E+00  .161E+00  .198E+00
  .155E+00  .152E+00  .260E+00  .332E+00  .310E+00  .237E+00  .229E+00  .288E+00
  .293E+00  .371E+00  .770E+00  .846E+00  .702E+00  .526E+00  .463E+00  .415E+00
  .344E+00  .288E+00  .275E+00  .259E+00  .244E+00  .230E+00  .213E+00  .202E+00
  .193E+00  .174E+00  .164E+00  .159E+00  .158E+00  .156E+00  .154E+00  .154E+00
  .154E+00  .155E+00  .154E+00  .153E+00  .151E+00  .149E+00  .150E+00  .149E+00
  .150E+00  .149E+00  .148E+00  .147E+00  .150E+00  .149E+00  .146E+00  .149E+00
  .147E+00  .146E+00  .148E+00  .148E+00  .000E+00  .000E+00  .000E+00  .000E+00
  .000E+00  .000E+00  .000E+00  .000E+00  .000E+00  .000E+00  .000E+00  .000E+00
  .000E+00  .000E+00  .000E+00  .000E+00  .000E+00  .000E+00  .000E+00  .000E+00
  .000E+00  .000E+00  .000E+00  .000E+00  .000E+00  .000E+00  .000E+00  .000E+00
  .000E+00  .000E+00  .000E+00  .000E+00
  .222E-01  .215E-01  .226E-01  .212E-01  .170E-01  .160E-01  .235E-01  .248E-01
  .225E-01  .183E-01  .210E-01  .205E-01  .237E-01  .279E-01  .302E-01  .353E-01
  .271E-01  .242E-01  .364E-01  .417E-01  .370E-01  .270E-01  .242E-01  .284E-01
  .265E-01  .329E-01  .567E-01  .563E-01  .419E-01  .289E-01  .212E-01  .171E-01
  .143E-01  .117E-01  .944E-02  .773E-02  .689E-02  .625E-02  .562E-02  .494E-02
  .426E-02  .339E-02  .290E-02  .221E-02  .169E-02  .143E-02  .125E-02  .113E-02
  .101E-02  .904E-03  .788E-03  .631E-03  .518E-03  .445E-03  .379E-03  .339E-03
  .304E-03  .262E-03  .232E-03  .223E-03  .199E-03  .153E-03  .148E-03  .119E-03
  .979E-04  .983E-04  .884E-04  .775E-04  .000E+00  .000E+00  .000E+00  .000E+00
  .000E+00  .000E+00  .000E+00  .000E+00  .000E+00  .000E+00  .000E+00  .000E+00
  .000E+00  .000E+00  .000E+00  .000E+00  .000E+00  .000E+00  .000E+00  .000E+00
  .000E+00  .000E+00  .000E+00  .000E+00  .000E+00  .000E+00  .000E+00  .000E+00
  .000E+00  .000E+00  .000E+00  .000E+00
  .547E-01  .554E-01  .611E-01  .599E-01  .504E-01  .489E-01  .796E-01  .911E-01
  .895E-01  .784E-01  .966E-01  .101E+00  .124E+00  .154E+00  .176E+00  .218E+00
  .184E+00  .179E+00  .290E+00  .358E+00  .340E+00  .265E+00  .252E+00  .314E+00
  .310E+00  .403E+00  .765E+00  .831E+00  .669E+00  .497E+00  .392E+00  .335E+00
  .298E+00  .258E+00  .220E+00  .190E+00  .178E+00  .169E+00  .159E+00  .145E+00
  .130E+00  .114E+00  .106E+00  .882E-01  .722E-01  .654E-01  .612E-01  .586E-01
  .552E-01  .522E-01  .479E-01  .421E-01  .375E-01  .348E-01  .318E-01  .304E-01
  .289E-01  .264E-01  .247E-01  .250E-01  .233E-01  .194E-01  .204E-01  .175E-01
  .153E-01  .164E-01  .156E-01  .143E-01  .000E+00  .000E+00  .000E+00  .000E+00
  .000E+00  .000E+00  .000E+00  .000E+00  .000E+00  .000E+00  .000E+00  .000E+00
  .000E+00  .000E+00  .000E+00  .000E+00  .000E+00  .000E+00  .000E+00  .000E+00
  .000E+00  .000E+00  .000E+00  .000E+00  .000E+00  .000E+00  .000E+00  .000E+00
  .000E+00  .000E+00  .000E+00  .000E+00
  .258E+02  .258E+02  .258E+02  .259E+02  .259E+02  .259E+02  .258E+02  .258E+02
  .258E+02  .258E+02  .255E+02  .255E+02  .258E+02  .258E+02  .258E+02  .262E+02
  .255E+02  .255E+02  .259E+02  .259E+02  .259E+02  .255E+02  .256E+02  .256E+02
  .257E+02  .257E+02  .265E+02  .263E+02  .262E+02  .261E+02  .259E+02  .258E+02
  .258E+02  .258E+02  .258E+02  .256E+02  .256E+02  .256E+02  .257E+02  .257E+02
  .257E+02  .260E+02  .260E+02  .260E+02  .255E+02  .255E+02  .255E+02  .255E+02
  .255E+02  .255E+02  .255E+02  .255E+02  .255E+02  .255E+02  .255E+02  .255E+02
  .255E+02  .255E+02  .255E+02  .255E+02  .255E+02  .255E+02  .255E+02  .255E+02
  .255E+02  .255E+02  .255E+02  .255E+02  .000E+00  .000E+00  .000E+00  .000E+00
  .000E+00  .000E+00  .000E+00  .000E+00  .000E+00  .000E+00  .000E+00  .000E+00
  .000E+00  .000E+00  .000E+00  .000E+00  .000E+00  .000E+00  .000E+00  .000E+00
  .000E+00  .000E+00  .000E+00  .000E+00  .000E+00  .000E+00  .000E+00  .000E+00
  .000E+00  .000E+00  .000E+00  .000E+00
  .258E+02  .258E+02  .258E+02  .258E+02  .258E+02  .257E+02  .258E+02  .258E+02
  .258E+02  .260E+02  .256E+02  .256E+02  .258E+02  .258E+02  .258E+02  .262E+02
  .255E+02  .256E+02  .259E+02  .259E+02  .264E+02  .256E+02  .256E+02  .256E+02
  .271E+02  .256E+02  .264E+02  .263E+02  .262E+02  .262E+02  .258E+02  .258E+02
  .258E+02  .257E+02  .257E+02  .257E+02  .257E+02  .257E+02  .257E+02  .256E+02
  .256E+02  .256E+02  .256E+02  .255E+02  .255E+02  .255E+02  .255E+02  .255E+02
  .255E+02  .255E+02  .255E+02  .255E+02  .255E+02  .255E+02  .255E+02  .255E+02
  .255E+02  .255E+02  .255E+02  .255E+02  .255E+02  .255E+02  .255E+02  .255E+02
  .255E+02  .255E+02  .255E+02  .255E+02  .000E+00  .000E+00  .000E+00  .000E+00
  .000E+00  .000E+00  .000E+00  .000E+00  .000E+00  .000E+00  .000E+00  .000E+00
  .000E+00  .000E+00  .000E+00  .000E+00  .000E+00  .000E+00  .000E+00  .000E+00
  .000E+00  .000E+00  .000E+00  .000E+00  .000E+00  .000E+00  .000E+00  .000E+00
  .000E+00  .000E+00  .000E+00  .000E+00
  .258E+02  .258E+02  .258E+02  .259E+02  .259E+02  .259E+02  .258E+02  .258E+02
  .258E+02  .258E+02  .255E+02  .255E+02  .258E+02  .258E+02  .258E+02  .262E+02
  .255E+02  .255E+02  .259E+02  .259E+02  .259E+02  .255E+02  .256E+02  .256E+02
  .257E+02  .257E+02  .265E+02  .263E+02  .262E+02  .261E+02  .259E+02  .258E+02
  .258E+02  .258E+02  .258E+02  .256E+02  .256E+02  .256E+02  .256E+02  .257E+02
  .257E+02  .260E+02  .260E+02  .260E+02  .255E+02  .255E+02  .255E+02  .255E+02
  .255E+02  .255E+02  .255E+02  .255E+02  .255E+02  .255E+02  .255E+02  .255E+02
  .255E+02  .255E+02  .255E+02  .255E+02  .255E+02  .255E+02  .255E+02  .255E+02
  .255E+02  .255E+02  .255E+02  .255E+02  .000E+00  .000E+00  .000E+00  .000E+00
  .000E+00  .000E+00  .000E+00  .000E+00  .000E+00  .000E+00  .000E+00  .000E+00
  .000E+00  .000E+00  .000E+00  .000E+00  .000E+00  .000E+00  .000E+00  .000E+00
  .000E+00  .000E+00  .000E+00  .000E+00  .000E+00  .000E+00  .000E+00  .000E+00
  .000E+00  .000E+00  .000E+00  .000E+00
Damping =  .05. Data of Sd,Sv,Sa,Pssv,ttSd,ttSv,ttSa :
  .295E-03  .334E-03  .368E-03  .375E-03  .363E-03  .396E-03  .572E-03  .640E-03
  .741E-03  .747E-03  .102E-02  .121E-02  .140E-02  .175E-02  .211E-02  .249E-02
  .301E-02  .369E-02  .476E-02  .625E-02  .645E-02  .615E-02  .669E-02  .757E-02
  .865E-02  .105E-01  .181E-01  .222E-01  .207E-01  .177E-01  .160E-01  .150E-01
  .144E-01  .134E-01  .122E-01  .114E-01  .112E-01  .111E-01  .108E-01  .104E-01
