Response and Fourier amplitude spectra (68 periods,  .04 -  3.4 sec)   for      
Corrected accelerogram   24207-M0150-20021.15       Chan 16:  Up         from   
Uncorrected Accelerogram Data             Processed: 01/24/20, CGS  ce24207o    
Rcrd of Tue Jan 21, 2020 23:40:50.0 PST               (Avol1 v2.0, 4/18 CSMIP)  
CSMIP Preliminary Processing            (Origin:  To be determined)             
24207-M0150-20021.15                 Start time:  1/22/20, 07:40:50.0 UTC (GPS) 
Station No. 24207   34.335N, 118.397W    MtWtny  s/n  150 (17 Chns of 17 at Sta)
Sylmar - Pacoima Dam                      CGS   Data: Acceleration              
Chan 16:  Up                        Location: Left (South) Abutment             
Rcrd of Tue Jan 21, 2020 23:40:50.0 PST    Tue Jan 21, 2020 23:40:50.0 PST      
Hypocenter:  To be determined.               ML:  To be determined.
Instr Period =  .0107 sec,  Damping =  .660,  Sensitivity =  .63 v/g
                        Record Length = 58.000 sec.
                                     Uncor Max  =   .014 g, at   25.510 sec.
RMS accel of (uncor) record  =        .   Chn. metadata effective date: 09/02/99
Accelerogram bandpass filtered with 3 dB pts at   .30 and 40.00 cyc/sec
                 instrument- and base-line correcte





Rcrd of Tue Jan 21, 2020 23:40:50.0 PST    Tue Jan 21, 2020 23:40:50.0 PST

24207-M0150-20021.15      Sylmar - Pacoima Dam    Chan 16:  Up

24207-M0150-20021.15      Sylmar - Pacoima Dam    Chan 16:  Up

Units for spectra are inches and sec, except Sa is in fraction of g.

   16  100   16   18   17  200    1    3    1   24   13  150    024207    5    0
    7   40   50    0   22    1   22 2020   10    3  50011600   39   20   74   -1
11600    0  100    3  150    1   15  580    2 -999 -999 -999 -999 -999 -999 -999
 -999 -999    3 -99911600    1  222    1   18    4 -999 -999    3    1 -99911600
    311600    4   68    5   17    5    0    0 -999    0    0    1    3    1    2
    2    2    4    0   68   67    0   10 -999    1    0    1    0    0   64  222
    1    0    4    0
      .011      .660    58.000      .001     1.000   625.000      .014    25.510
    93.600      .298      .477  -999.000     5.000  -999.000     4.000  -999.000
     2.500    66.492     2.500  2016.000    25.000    30.000  -999.000     -.005
      .000      .006     2.000    15.000    34.335  -118.397      .006      .013
     2.019      .005      .007   594.000    25.700    27.200    12.600   103.640
     1.000    10.003    -8.000  -999.000  -999.000  -999.000  -999.000  -999.000
     6.900     2.000     6.800   980.665      .005    58.000    14.897      .000
  -999.000    40.000  -999.000    58.000      .005      .303  -999.000  -999.000
    25.505    13.810    25.540      .365    25.500     -.013      .000      .303
    40.000      .005      .005      .000      .005      .002  -999.000  -999.000
      .040      .130      .028      .011      .001      .000  -999.000  -999.000
  -999.000  -999.000  -999.000  -999.000  -999.000  -999.000  -999.000  -999.000
  -999.000  -999.000  -999.000  -999.000
      .000      .020      .050      .100      .200
      .040      .042      .044      .046      .048      .050      .055      .060
      .065      .070      .075      .080      .085      .090      .095      .100
      .110      .120      .130      .140      .150      .160      .170      .180
      .190      .200      .220      .240      .260      .280      .300      .320
      .340      .360      .380      .400      .420      .440      .460      .480
      .500      .550      .600      .650      .700      .750      .800      .850
      .900      .950     1.000     1.100     1.200     1.300     1.400     1.500
     1.600     1.700     1.800     1.900     2.000     2.200     2.400     2.600
     2.800     3.000     3.200     3.400      .000      .000      .000      .000
      .000      .000      .000      .000      .000      .000      .000      .000
      .000      .000      .000      .000      .000      .000      .000      .000
      .000      .000      .000      .000      .000      .000      .000      .000
      .000      .000      .000      .000
Fourier amplitude spectra in in/sec.
  .185E+00  .972E-01  .175E+00  .146E+00  .192E+00  .132E+00  .287E+00  .818E-01
  .764E-01  .118E+00  .104E+00  .764E-01  .494E-01  .979E-01  .178E+00  .162E+00
  .201E-01  .427E+00  .365E+00  .444E+00  .462E+00  .374E+00  .359E+00  .565E+00
  .347E+00  .665E+00  .625E+00  .448E+00  .382E+00  .149E+00  .632E-01  .194E+00
  .166E+00  .106E+00  .122E+00  .723E-01  .436E-01  .786E-01  .896E-01  .101E+00
  .727E-01  .715E-01  .434E-01  .284E-01  .261E-01  .448E-02  .221E-01  .200E-01
  .174E-01  .142E-01  .125E-01  .992E-02  .483E-02  .738E-02  .532E-03  .505E-02
  .394E-02  .326E-02  .803E-02  .690E-02  .147E-02  .313E-02  .290E-02  .209E-02
  .214E-02  .117E-02  .337E-02  .437E-02  .000E+00  .000E+00  .000E+00  .000E+00
  .000E+00  .000E+00  .000E+00  .000E+00  .000E+00  .000E+00  .000E+00  .000E+00
  .000E+00  .000E+00  .000E+00  .000E+00  .000E+00  .000E+00  .000E+00  .000E+00
  .000E+00  .000E+00  .000E+00  .000E+00  .000E+00  .000E+00  .000E+00  .000E+00
  .000E+00  .000E+00  .000E+00  .000E+00
Damping =  .00. Data of Sd,Sv,Sa,Pssv,ttSd,ttSv,ttSa :
  .129E-02  .101E-02  .133E-02  .112E-02  .156E-02  .180E-02  .308E-02  .989E-03
  .162E-02  .150E-02  .225E-02  .182E-02  .207E-02  .183E-02  .332E-02  .353E-02
  .260E-02  .926E-02  .964E-02  .105E-01  .111E-01  .123E-01  .125E-01  .174E-01
  .146E-01  .232E-01  .222E-01  .194E-01  .167E-01  .124E-01  .104E-01  .107E-01
  .986E-02  .915E-02  .948E-02  .866E-02  .731E-02  .720E-02  .786E-02  .821E-02
  .806E-02  .747E-02  .574E-02  .593E-02  .604E-02  .614E-02  .616E-02  .653E-02
  .647E-02  .690E-02  .684E-02  .650E-02  .634E-02  .644E-02  .609E-02  .589E-02
  .560E-02  .560E-02  .621E-02  .505E-02  .593E-02  .608E-02  .584E-02  .539E-02
  .573E-02  .551E-02  .670E-02  .671E-02  .000E+00  .000E+00  .000E+00  .000E+00
  .000E+00  .000E+00  .000E+00  .000E+00  .000E+00  .000E+00  .000E+00  .000E+00
  .000E+00  .000E+00  .000E+00  .000E+00  .000E+00  .000E+00  .000E+00  .000E+00
  .000E+00  .000E+00  .000E+00  .000E+00  .000E+00  .000E+00  .000E+00  .000E+00
  .000E+00  .000E+00  .000E+00  .000E+00
  .192E+00  .145E+00  .182E+00  .154E+00  .202E+00  .210E+00  .324E+00  .891E-01
  .114E+00  .131E+00  .149E+00  .126E+00  .119E+00  .126E+00  .205E+00  .216E+00
  .125E+00  .469E+00  .462E+00  .470E+00  .467E+00  .470E+00  .454E+00  .609E+00
  .465E+00  .725E+00  .632E+00  .504E+00  .404E+00  .309E+00  .267E+00  .244E+00
  .245E+00  .232E+00  .239E+00  .235E+00  .214E+00  .201E+00  .205E+00  .214E+00
  .215E+00  .189E+00  .183E+00  .181E+00  .178E+00  .173E+00  .171E+00  .168E+00
  .165E+00  .161E+00  .159E+00  .154E+00  .150E+00  .150E+00  .150E+00  .147E+00
  .146E+00  .147E+00  .143E+00  .148E+00  .144E+00  .146E+00  .145E+00  .144E+00
  .145E+00  .145E+00  .145E+00  .142E+00  .000E+00  .000E+00  .000E+00  .000E+00
  .000E+00  .000E+00  .000E+00  .000E+00  .000E+00  .000E+00  .000E+00  .000E+00
  .000E+00  .000E+00  .000E+00  .000E+00  .000E+00  .000E+00  .000E+00  .000E+00
  .000E+00  .000E+00  .000E+00  .000E+00  .000E+00  .000E+00  .000E+00  .000E+00
  .000E+00  .000E+00  .000E+00  .000E+00
  .822E-01  .583E-01  .702E-01  .543E-01  .693E-01  .737E-01  .104E+00  .281E-01
  .393E-01  .314E-01  .410E-01  .291E-01  .293E-01  .231E-01  .377E-01  .361E-01
  .220E-01  .658E-01  .583E-01  .548E-01  .506E-01  .490E-01  .442E-01  .551E-01
  .413E-01  .593E-01  .470E-01  .345E-01  .253E-01  .161E-01  .119E-01  .106E-01
  .872E-02  .722E-02  .671E-02  .554E-02  .424E-02  .381E-02  .380E-02  .364E-02
  .330E-02  .252E-02  .163E-02  .144E-02  .126E-02  .112E-02  .984E-03  .924E-03
  .817E-03  .782E-03  .700E-03  .549E-03  .450E-03  .390E-03  .318E-03  .268E-03
  .224E-03  .198E-03  .196E-03  .143E-03  .152E-03  .128E-03  .104E-03  .815E-04
  .747E-04  .626E-04  .669E-04  .594E-04  .000E+00  .000E+00  .000E+00  .000E+00
  .000E+00  .000E+00  .000E+00  .000E+00  .000E+00  .000E+00  .000E+00  .000E+00
  .000E+00  .000E+00  .000E+00  .000E+00  .000E+00  .000E+00  .000E+00  .000E+00
  .000E+00  .000E+00  .000E+00  .000E+00  .000E+00  .000E+00  .000E+00  .000E+00
  .000E+00  .000E+00  .000E+00  .000E+00
  .202E+00  .150E+00  .190E+00  .153E+00  .204E+00  .226E+00  .351E+00  .104E+00
  .157E+00  .135E+00  .189E+00  .143E+00  .153E+00  .128E+00  .220E+00  .222E+00
  .149E+00  .485E+00  .466E+00  .472E+00  .466E+00  .482E+00  .462E+00  .609E+00
  .482E+00  .728E+00  .635E+00  .508E+00  .404E+00  .278E+00  .219E+00  .209E+00
  .182E+00  .160E+00  .157E+00  .136E+00  .109E+00  .103E+00  .107E+00  .107E+00
  .101E+00  .853E-01  .601E-01  .574E-01  .542E-01  .514E-01  .484E-01  .482E-01
  .452E-01  .456E-01  .430E-01  .371E-01  .332E-01  .311E-01  .273E-01  .247E-01
  .220E-01  .207E-01  .217E-01  .167E-01  .186E-01  .174E-01  .153E-01  .130E-01
  .129E-01  .115E-01  .132E-01  .124E-01  .000E+00  .000E+00  .000E+00  .000E+00
  .000E+00  .000E+00  .000E+00  .000E+00  .000E+00  .000E+00  .000E+00  .000E+00
  .000E+00  .000E+00  .000E+00  .000E+00  .000E+00  .000E+00  .000E+00  .000E+00
  .000E+00  .000E+00  .000E+00  .000E+00  .000E+00  .000E+00  .000E+00  .000E+00
  .000E+00  .000E+00  .000E+00  .000E+00
  .257E+02  .255E+02  .255E+02  .297E+02  .261E+02  .255E+02  .255E+02  .256E+02
  .255E+02  .273E+02  .255E+02  .254E+02  .256E+02  .263E+02  .255E+02  .261E+02
  .256E+02  .256E+02  .259E+02  .286E+02  .376E+02  .257E+02  .258E+02  .258E+02
  .259E+02  .278E+02  .277E+02  .264E+02  .305E+02  .257E+02  .256E+02  .286E+02
  .276E+02  .256E+02  .256E+02  .256E+02  .256E+02  .256E+02  .256E+02  .256E+02
  .266E+02  .308E+02  .256E+02  .255E+02  .255E+02  .255E+02  .255E+02  .255E+02
  .255E+02  .255E+02  .255E+02  .255E+02  .255E+02  .255E+02  .255E+02  .255E+02
  .255E+02  .255E+02  .255E+02  .255E+02  .255E+02  .255E+02  .255E+02  .255E+02
  .255E+02  .255E+02  .255E+02  .255E+02  .000E+00  .000E+00  .000E+00  .000E+00
  .000E+00  .000E+00  .000E+00  .000E+00  .000E+00  .000E+00  .000E+00  .000E+00
  .000E+00  .000E+00  .000E+00  .000E+00  .000E+00  .000E+00  .000E+00  .000E+00
  .000E+00  .000E+00  .000E+00  .000E+00  .000E+00  .000E+00  .000E+00  .000E+00
  .000E+00  .000E+00  .000E+00  .000E+00
  .257E+02  .236E+02  .243E+02  .297E+02  .330E+02  .255E+02  .261E+02  .256E+02
  .255E+02  .276E+02  .255E+02  .255E+02  .256E+02  .263E+02  .269E+02  .261E+02
  .254E+02  .265E+02  .260E+02  .287E+02  .376E+02  .257E+02  .258E+02  .258E+02
  .260E+02  .278E+02  .277E+02  .264E+02  .305E+02  .256E+02  .255E+02  .255E+02
  .255E+02  .255E+02  .255E+02  .255E+02  .255E+02  .255E+02  .255E+02  .255E+02
  .255E+02  .255E+02  .255E+02  .255E+02  .255E+02  .255E+02  .255E+02  .255E+02
  .255E+02  .255E+02  .255E+02  .255E+02  .255E+02  .255E+02  .255E+02  .255E+02
  .255E+02  .255E+02  .255E+02  .255E+02  .255E+02  .255E+02  .255E+02  .255E+02
  .255E+02  .255E+02  .255E+02  .255E+02  .000E+00  .000E+00  .000E+00  .000E+00
  .000E+00  .000E+00  .000E+00  .000E+00  .000E+00  .000E+00  .000E+00  .000E+00
  .000E+00  .000E+00  .000E+00  .000E+00  .000E+00  .000E+00  .000E+00  .000E+00
  .000E+00  .000E+00  .000E+00  .000E+00  .000E+00  .000E+00  .000E+00  .000E+00
  .000E+00  .000E+00  .000E+00  .000E+00
  .257E+02  .255E+02  .255E+02  .297E+02  .261E+02  .255E+02  .255E+02  .256E+02
  .255E+02  .273E+02  .255E+02  .254E+02  .256E+02  .263E+02  .255E+02  .261E+02
  .256E+02  .256E+02  .259E+02  .286E+02  .376E+02  .257E+02  .258E+02  .258E+02
  .259E+02  .278E+02  .277E+02  .264E+02  .305E+02  .257E+02  .256E+02  .286E+02
  .276E+02  .256E+02  .256E+02  .256E+02  .256E+02  .256E+02  .256E+02  .256E+02
  .266E+02  .308E+02  .256E+02  .255E+02  .255E+02  .255E+02  .255E+02  .255E+02
  .255E+02  .255E+02  .255E+02  .255E+02  .255E+02  .255E+02  .255E+02  .255E+02
  .255E+02  .255E+02  .255E+02  .255E+02  .255E+02  .255E+02  .255E+02  .255E+02
  .255E+02  .255E+02  .255E+02  .255E+02  .000E+00  .000E+00  .000E+00  .000E+00
  .000E+00  .000E+00  .000E+00  .000E+00  .000E+00  .000E+00  .000E+00  .000E+00
  .000E+00  .000E+00  .000E+00  .000E+00  .000E+00  .000E+00  .000E+00  .000E+00
  .000E+00  .000E+00  .000E+00  .000E+00  .000E+00  .000E+00  .000E+00  .000E+00
  .000E+00  .000E+00  .000E+00  .000E+00
Damping =  .02. Data of Sd,Sv,Sa,Pssv,ttSd,ttSv,ttSa :
  .606E-03  .711E-03  .696E-03  .603E-03  .689E-03  .611E-03  .836E-03  .553E-03
  .777E-03  .929E-03  .106E-02  .121E-02  .150E-02  .196E-02  .286E-02  .343E-02
  .372E-02  .608E-02  .768E-02  .883E-02  .922E-02  .109E-01  .115E-01  .134E-01
  .128E-01  .147E-01  .156E-01  .143E-01  .125E-01  .113E-01  .999E-02  .943E-02
  .923E-02  .898E-02  .897E-02  .836E-02  .745E-02  .728E-02  .759E-02  .771E-02
  .726E-02  .598E-02  .562E-02  .573E-02  .596E-02  .608E-02  .624E-02  .636E-02
  .646E-02  .665E-02  .663E-02  .641E-02  .629E-02  .613E-02  .600E-02  .593E-02
  .570E-02  .573E-02  .583E-02  .541E-02  .569E-02  .582E-02  .576E-02  .552E-02
  .565E-02  .569E-02  .639E-02  .642E-02  .000E+00  .000E+00  .000E+00  .000E+00
  .000E+00  .000E+00  .000E+00  .000E+00  .000E+00  .000E+00  .000E+00  .000E+00
  .000E+00  .000E+00  .000E+00  .000E+00  .000E+00  .000E+00  .000E+00  .000E+00
  .000E+00  .000E+00  .000E+00  .000E+00  .000E+00  .000E+00  .000E+00  .000E+00
  .000E+00  .000E+00  .000E+00  .000E+00
  .888E-01  .102E+00  .956E-01  .753E-01  .887E-01  .787E-01  .941E-01  .500E-01
  .699E-01  .856E-01  .798E-01  .627E-01  .747E-01  .860E-01  .153E+00  .171E+00
  .169E+00  .270E+00  .341E+00  .382E+00  .371E+00  .405E+00  .408E+00  .463E+00
  .421E+00  .449E+00  .457E+00  .389E+00  .329E+00  .293E+00  .256E+00  .241E+00
  .237E+00  .231E+00  .232E+00  .228E+00  .213E+00  .204E+00  .205E+00  .209E+00
  .208E+00  .191E+00  .183E+00  .181E+00  .177E+00  .173E+00  .170E+00  .167E+00
  .165E+00  .161E+00  .158E+00  .154E+00  .151E+00  .150E+00  .149E+00  .147E+00
  .147E+00  .147E+00  .145E+00  .146E+00  .145E+00  .146E+00  .145E+00  .145E+00
  .145E+00  .145E+00  .145E+00  .143E+00  .000E+00  .000E+00  .000E+00  .000E+00
  .000E+00  .000E+00  .000E+00  .000E+00  .000E+00  .000E+00  .000E+00  .000E+00
  .000E+00  .000E+00  .000E+00  .000E+00  .000E+00  .000E+00  .000E+00  .000E+00
  .000E+00  .000E+00  .000E+00  .000E+00  .000E+00  .000E+00  .000E+00  .000E+00
  .000E+00  .000E+00  .000E+00  .000E+00
  .385E-01  .414E-01  .369E-01  .293E-01  .306E-01  .250E-01  .282E-01  .157E-01
  .188E-01  .194E-01  .193E-01  .193E-01  .212E-01  .248E-01  .324E-01  .352E-01
  .316E-01  .433E-01  .466E-01  .460E-01  .419E-01  .438E-01  .407E-01  .423E-01
  .361E-01  .376E-01  .329E-01  .254E-01  .188E-01  .147E-01  .114E-01  .943E-02
  .819E-02  .709E-02  .638E-02  .535E-02  .433E-02  .385E-02  .368E-02  .343E-02
  .298E-02  .203E-02  .160E-02  .140E-02  .126E-02  .112E-02  .101E-02  .911E-03
  .826E-03  .764E-03  .688E-03  .552E-03  .457E-03  .381E-03  .323E-03  .279E-03
  .237E-03  .212E-03  .194E-03  .163E-03  .155E-03  .132E-03  .111E-03  .923E-04
  .824E-04  .732E-04  .722E-04  .652E-04  .000E+00  .000E+00  .000E+00  .000E+00
  .000E+00  .000E+00  .000E+00  .000E+00  .000E+00  .000E+00  .000E+00  .000E+00
  .000E+00  .000E+00  .000E+00  .000E+00  .000E+00  .000E+00  .000E+00  .000E+00
  .000E+00  .000E+00  .000E+00  .000E+00  .000E+00  .000E+00  .000E+00  .000E+00
  .000E+00  .000E+00  .000E+00  .000E+00
  .951E-01  .106E+00  .994E-01  .824E-01  .902E-01  .767E-01  .955E-01  .579E-01
  .751E-01  .834E-01  .889E-01  .947E-01  .111E+00  .137E+00  .189E+00  .216E+00
  .213E+00  .318E+00  .371E+00  .396E+00  .386E+00  .429E+00  .424E+00  .466E+00
  .422E+00  .463E+00  .444E+00  .374E+00  .301E+00  .253E+00  .209E+00  .185E+00
  .170E+00  .157E+00  .148E+00  .131E+00  .111E+00  .104E+00  .104E+00  .101E+00
  .912E-01  .683E-01  .588E-01  .554E-01  .535E-01  .509E-01  .490E-01  .470E-01
  .451E-01  .440E-01  .416E-01  .366E-01  .329E-01  .296E-01  .269E-01  .248E-01
  .224E-01  .212E-01  .203E-01  .179E-01  .179E-01  .166E-01  .151E-01  .133E-01
  .127E-01  .119E-01  .125E-01  .119E-01  .000E+00  .000E+00  .000E+00  .000E+00
  .000E+00  .000E+00  .000E+00  .000E+00  .000E+00  .000E+00  .000E+00  .000E+00
  .000E+00  .000E+00  .000E+00  .000E+00  .000E+00  .000E+00  .000E+00  .000E+00
  .000E+00  .000E+00  .000E+00  .000E+00  .000E+00  .000E+00  .000E+00  .000E+00
  .000E+00  .000E+00  .000E+00  .000E+00
  .236E+02  .236E+02  .236E+02  .236E+02  .240E+02  .237E+02  .237E+02  .256E+02
  .255E+02  .237E+02  .255E+02  .256E+02  .256E+02  .255E+02  .255E+02  .256E+02
  .256E+02  .256E+02  .256E+02  .256E+02  .257E+02  .257E+02  .257E+02  .257E+02
  .257E+02  .259E+02  .262E+02  .261E+02  .257E+02  .257E+02  .256E+02  .256E+02
  .256E+02  .256E+02  .256E+02  .256E+02  .256E+02  .256E+02  .256E+02  .256E+02
  .256E+02  .255E+02  .256E+02  .255E+02  .255E+02  .255E+02  .255E+02  .255E+02
  .255E+02  .255E+02  .255E+02  .255E+02  .255E+02  .255E+02  .255E+02  .255E+02
  .255E+02  .255E+02  .255E+02  .255E+02  .255E+02  .255E+02  .255E+02  .255E+02
  .255E+02  .255E+02  .255E+02  .255E+02  .000E+00  .000E+00  .000E+00  .000E+00
  .000E+00  .000E+00  .000E+00  .000E+00  .000E+00  .000E+00  .000E+00  .000E+00
  .000E+00  .000E+00  .000E+00  .000E+00  .000E+00  .000E+00  .000E+00  .000E+00
  .000E+00  .000E+00  .000E+00  .000E+00  .000E+00  .000E+00  .000E+00  .000E+00
  .000E+00  .000E+00  .000E+00  .000E+00
  .236E+02  .236E+02  .236E+02  .237E+02  .240E+02  .240E+02  .237E+02  .237E+02
  .237E+02  .237E+02  .239E+02  .236E+02  .256E+02  .255E+02  .255E+02  .256E+02
  .256E+02  .256E+02  .256E+02  .256E+02  .256E+02  .257E+02  .258E+02  .258E+02
  .258E+02  .259E+02  .261E+02  .261E+02  .259E+02  .256E+02  .255E+02  .255E+02
  .255E+02  .255E+02  .255E+02  .255E+02  .255E+02  .255E+02  .255E+02  .255E+02
  .255E+02  .255E+02  .255E+02  .255E+02  .255E+02  .255E+02  .255E+02  .255E+02
  .255E+02  .255E+02  .255E+02  .255E+02  .255E+02  .255E+02  .255E+02  .255E+02
  .255E+02  .255E+02  .255E+02  .255E+02  .255E+02  .255E+02  .255E+02  .255E+02
  .255E+02  .255E+02  .255E+02  .255E+02  .000E+00  .000E+00  .000E+00  .000E+00
  .000E+00  .000E+00  .000E+00  .000E+00  .000E+00  .000E+00  .000E+00  .000E+00
  .000E+00  .000E+00  .000E+00  .000E+00  .000E+00  .000E+00  .000E+00  .000E+00
  .000E+00  .000E+00  .000E+00  .000E+00  .000E+00  .000E+00  .000E+00  .000E+00
  .000E+00  .000E+00  .000E+00  .000E+00
  .236E+02  .236E+02  .236E+02  .236E+02  .240E+02  .237E+02  .237E+02  .256E+02
  .255E+02  .237E+02  .255E+02  .256E+02  .256E+02  .255E+02  .255E+02  .256E+02
  .256E+02  .256E+02  .256E+02  .256E+02  .257E+02  .257E+02  .257E+02  .257E+02
  .257E+02  .259E+02  .262E+02  .261E+02  .257E+02  .257E+02  .256E+02  .256E+02
  .256E+02  .256E+02  .256E+02  .256E+02  .256E+02  .256E+02  .256E+02  .256E+02
  .256E+02  .255E+02  .256E+02  .255E+02  .255E+02  .255E+02  .255E+02  .255E+02
  .255E+02  .255E+02  .255E+02  .255E+02  .255E+02  .255E+02  .255E+02  .255E+02
  .255E+02  .255E+02  .255E+02  .255E+02  .255E+02  .255E+02  .255E+02  .255E+02
  .255E+02  .255E+02  .255E+02  .255E+02  .000E+00  .000E+00  .000E+00  .000E+00
  .000E+00  .000E+00  .000E+00  .000E+00  .000E+00  .000E+00  .000E+00  .000E+00
  .000E+00  .000E+00  .000E+00  .000E+00  .000E+00  .000E+00  .000E+00  .000E+00
  .000E+00  .000E+00  .000E+00  .000E+00  .000E+00  .000E+00  .000E+00  .000E+00
  .000E+00  .000E+00  .000E+00  .000E+00
Damping =  .05. Data of Sd,Sv,Sa,Pssv,ttSd,ttSv,ttSa :
  .414E-03  .475E-03  .490E-03  .470E-03  .465E-03  .510E-03  .615E-03  .533E-03
  .688E-03  .800E-03  .995E-03  .117E-02  .137E-02  .182E-02  .236E-02  .295E-02
  .363E-02  .507E-02  .660E-02  .763E-02  .820E-02  .909E-02  .975E-02  .106E-01
  .108E-01  .110E-01  .110E-01  .107E-01  .109E-01  .100E-01  .941E-02  .903E-02
  .883E-02  .861E-02  .844E-02  .799E-02  .747E-02  .727E-02  .730E-02  .722E-02
