Response and Fourier amplitude spectra (68 periods,  .04 -  3.4 sec)   for      
Corrected accelerogram   24207-M0150-20021.15       Chan  6:  Radl       from   
Uncorrected Accelerogram Data             Processed: 01/24/20, CGS  ce24207o    
Rcrd of Tue Jan 21, 2020 23:40:50.0 PST               (Avol1 v2.0, 4/18 CSMIP)  
CSMIP Preliminary Processing            (Origin:  To be determined)             
24207-M0150-20021.15                 Start time:  1/22/20, 07:40:50.0 UTC (GPS) 
Station No. 24207   34.335N, 118.397W    MtWtny  s/n  150 (17 Chns of 17 at Sta)
Sylmar - Pacoima Dam                      CGS   Data: Acceleration              
Chan  6:  Radl                      Location: 80% Height: Right 1/3-length Point
Rcrd of Tue Jan 21, 2020 23:40:50.0 PST    Tue Jan 21, 2020 23:40:50.0 PST      
Hypocenter:  To be determined.               ML:  To be determined.
Instr Period =  .0104 sec,  Damping =  .660,  Sensitivity =  .63 v/g
                        Record Length = 58.000 sec.
                                     Uncor Max  =   .009 g, at   25.755 sec.
RMS accel of (uncor) record  =        .   Chn. metadata effective date: 09/02/99
Accelerogram bandpass filtered with 3 dB pts at   .30 and 40.00 cyc/sec
                 instrument- and base-line correcte





Rcrd of Tue Jan 21, 2020 23:40:50.0 PST    Tue Jan 21, 2020 23:40:50.0 PST

24207-M0150-20021.15      Sylmar - Pacoima Dam    Chan  6:  Radl

24207-M0150-20021.15      Sylmar - Pacoima Dam    Chan  6:  Radl

Units for spectra are inches and sec, except Sa is in fraction of g.

    6  100    6   18   17  200    1    3    1   24   13  150    024207    5    0
    7   40   50    0   22    1   22 2020   10    3  70011600   39   20   74   -1
11600    0  100    3  150    1   15  580    2 -999 -999 -999 -999 -999 -999 -999
 -999 -999    3 -99911600    1  222    1   18    4 -999 -999    3    1 -99911600
    311600    4   68    5   17    5    0    0 -999    0    0    1    3    1    2
    2    2    4    0   68   67    0   10 -999    1    0    1    0    0   64  222
    1    0    4    0
      .010      .660    58.000      .001     1.000   627.000      .009    25.755
    96.400      .298      .475  -999.000     5.000  -999.000     4.000  -999.000
     2.500    -8.724     2.500  2016.000    25.000    30.000  -999.000      .002
      .001     -.001     2.000    15.000    34.335  -118.397      .012      .015
     1.281     -.003      .001   594.000    25.700    27.200    12.600   103.640
     1.000    10.003    -8.000  -999.000  -999.000  -999.000  -999.000  -999.000
     6.900     2.000     6.800   980.665      .005    58.000    15.343      .000
  -999.000    40.000  -999.000    58.000      .005      .303  -999.000  -999.000
    25.755     9.178    25.705     -.323    25.635      .014      .000      .303
    40.000      .005      .005      .000      .005      .003  -999.000  -999.000
      .034      .220      .031      .018      .001      .000  -999.000  -999.000
  -999.000  -999.000  -999.000  -999.000  -999.000  -999.000  -999.000  -999.000
  -999.000  -999.000  -999.000  -999.000
      .000      .020      .050      .100      .200
      .040      .042      .044      .046      .048      .050      .055      .060
      .065      .070      .075      .080      .085      .090      .095      .100
      .110      .120      .130      .140      .150      .160      .170      .180
      .190      .200      .220      .240      .260      .280      .300      .320
      .340      .360      .380      .400      .420      .440      .460      .480
      .500      .550      .600      .650      .700      .750      .800      .850
      .900      .950     1.000     1.100     1.200     1.300     1.400     1.500
     1.600     1.700     1.800     1.900     2.000     2.200     2.400     2.600
     2.800     3.000     3.200     3.400      .000      .000      .000      .000
      .000      .000      .000      .000      .000      .000      .000      .000
      .000      .000      .000      .000      .000      .000      .000      .000
      .000      .000      .000      .000      .000      .000      .000      .000
      .000      .000      .000      .000
Fourier amplitude spectra in in/sec.
  .130E-01  .570E-02  .588E-02  .121E-01  .429E-02  .819E-02  .267E-01  .517E-01
  .287E-01  .903E-01  .140E+00  .140E+00  .511E-01  .199E-01  .154E+00  .139E+00
  .120E+00  .177E+00  .134E+00  .680E-01  .404E+00  .242E+00  .157E+00  .133E+00
  .106E+01  .765E+00  .900E+00  .886E+00  .486E+00  .438E+00  .363E+00  .404E+00
  .216E+00  .191E+00  .144E+00  .146E+00  .243E+00  .475E-01  .938E-01  .180E+00
  .221E+00  .988E-01  .535E-01  .290E-01  .286E-01  .463E-01  .359E-01  .325E-01
  .269E-01  .975E-02  .479E-02  .791E-02  .812E-02  .461E-02  .763E-02  .358E-02
  .194E-02  .370E-02  .517E-02  .748E-02  .237E-02  .429E-02  .165E-02  .497E-02
  .183E-02  .152E-02  .122E-02  .160E-02  .000E+00  .000E+00  .000E+00  .000E+00
  .000E+00  .000E+00  .000E+00  .000E+00  .000E+00  .000E+00  .000E+00  .000E+00
  .000E+00  .000E+00  .000E+00  .000E+00  .000E+00  .000E+00  .000E+00  .000E+00
  .000E+00  .000E+00  .000E+00  .000E+00  .000E+00  .000E+00  .000E+00  .000E+00
  .000E+00  .000E+00  .000E+00  .000E+00
Damping =  .00. Data of Sd,Sv,Sa,Pssv,ttSd,ttSv,ttSa :
  .216E-03  .213E-03  .194E-03  .260E-03  .250E-03  .241E-03  .514E-03  .709E-03
  .972E-03  .136E-02  .173E-02  .189E-02  .111E-02  .160E-02  .258E-02  .241E-02
  .369E-02  .420E-02  .420E-02  .329E-02  .103E-01  .820E-02  .812E-02  .941E-02
  .323E-01  .248E-01  .329E-01  .365E-01  .237E-01  .217E-01  .192E-01  .220E-01
  .176E-01  .156E-01  .147E-01  .136E-01  .164E-01  .124E-01  .123E-01  .144E-01
  .181E-01  .109E-01  .968E-02  .888E-02  .753E-02  .714E-02  .709E-02  .733E-02
  .710E-02  .738E-02  .722E-02  .736E-02  .672E-02  .626E-02  .689E-02  .624E-02
  .620E-02  .649E-02  .660E-02  .702E-02  .585E-02  .607E-02  .700E-02  .549E-02
  .564E-02  .565E-02  .635E-02  .513E-02  .000E+00  .000E+00  .000E+00  .000E+00
  .000E+00  .000E+00  .000E+00  .000E+00  .000E+00  .000E+00  .000E+00  .000E+00
  .000E+00  .000E+00  .000E+00  .000E+00  .000E+00  .000E+00  .000E+00  .000E+00
  .000E+00  .000E+00  .000E+00  .000E+00  .000E+00  .000E+00  .000E+00  .000E+00
  .000E+00  .000E+00  .000E+00  .000E+00
  .158E-01  .110E-01  .116E-01  .141E-01  .141E-01  .149E-01  .415E-01  .613E-01
  .631E-01  .103E+00  .142E+00  .147E+00  .698E-01  .907E-01  .167E+00  .148E+00
  .193E+00  .211E+00  .187E+00  .113E+00  .424E+00  .312E+00  .271E+00  .312E+00
  .107E+01  .780E+00  .941E+00  .959E+00  .592E+00  .524E+00  .441E+00  .433E+00
  .354E+00  .314E+00  .292E+00  .270E+00  .246E+00  .215E+00  .207E+00  .207E+00
  .229E+00  .201E+00  .190E+00  .182E+00  .172E+00  .166E+00  .162E+00  .160E+00
  .155E+00  .153E+00  .147E+00  .145E+00  .140E+00  .137E+00  .135E+00  .134E+00
  .134E+00  .132E+00  .131E+00  .131E+00  .128E+00  .128E+00  .127E+00  .126E+00
  .129E+00  .129E+00  .128E+00  .127E+00  .000E+00  .000E+00  .000E+00  .000E+00
  .000E+00  .000E+00  .000E+00  .000E+00  .000E+00  .000E+00  .000E+00  .000E+00
  .000E+00  .000E+00  .000E+00  .000E+00  .000E+00  .000E+00  .000E+00  .000E+00
  .000E+00  .000E+00  .000E+00  .000E+00  .000E+00  .000E+00  .000E+00  .000E+00
  .000E+00  .000E+00  .000E+00  .000E+00
  .138E-01  .123E-01  .102E-01  .126E-01  .111E-01  .988E-02  .174E-01  .202E-01
  .235E-01  .284E-01  .314E-01  .302E-01  .158E-01  .202E-01  .293E-01  .247E-01
  .312E-01  .298E-01  .254E-01  .172E-01  .469E-01  .328E-01  .287E-01  .297E-01
  .916E-01  .635E-01  .696E-01  .648E-01  .359E-01  .283E-01  .219E-01  .220E-01
  .156E-01  .123E-01  .104E-01  .871E-02  .951E-02  .657E-02  .597E-02  .639E-02
  .739E-02  .370E-02  .275E-02  .215E-02  .157E-02  .130E-02  .113E-02  .104E-02
  .896E-03  .836E-03  .739E-03  .622E-03  .477E-03  .379E-03  .359E-03  .284E-03
  .248E-03  .230E-03  .208E-03  .199E-03  .149E-03  .128E-03  .124E-03  .830E-04
  .735E-04  .642E-04  .634E-04  .454E-04  .000E+00  .000E+00  .000E+00  .000E+00
  .000E+00  .000E+00  .000E+00  .000E+00  .000E+00  .000E+00  .000E+00  .000E+00
  .000E+00  .000E+00  .000E+00  .000E+00  .000E+00  .000E+00  .000E+00  .000E+00
  .000E+00  .000E+00  .000E+00  .000E+00  .000E+00  .000E+00  .000E+00  .000E+00
  .000E+00  .000E+00  .000E+00  .000E+00
  .339E-01  .319E-01  .276E-01  .355E-01  .327E-01  .303E-01  .587E-01  .743E-01
  .940E-01  .122E+00  .145E+00  .148E+00  .823E-01  .112E+00  .171E+00  .152E+00
  .211E+00  .220E+00  .203E+00  .148E+00  .432E+00  .322E+00  .300E+00  .328E+00
  .107E+01  .780E+00  .940E+00  .956E+00  .574E+00  .487E+00  .403E+00  .432E+00
  .326E+00  .273E+00  .242E+00  .214E+00  .245E+00  .178E+00  .169E+00  .188E+00
  .227E+00  .125E+00  .101E+00  .859E-01  .676E-01  .598E-01  .557E-01  .542E-01
  .495E-01  .488E-01  .454E-01  .420E-01  .352E-01  .302E-01  .309E-01  .261E-01
  .243E-01  .240E-01  .231E-01  .232E-01  .184E-01  .174E-01  .183E-01  .133E-01
  .126E-01  .118E-01  .125E-01  .948E-02  .000E+00  .000E+00  .000E+00  .000E+00
  .000E+00  .000E+00  .000E+00  .000E+00  .000E+00  .000E+00  .000E+00  .000E+00
  .000E+00  .000E+00  .000E+00  .000E+00  .000E+00  .000E+00  .000E+00  .000E+00
  .000E+00  .000E+00  .000E+00  .000E+00  .000E+00  .000E+00  .000E+00  .000E+00
  .000E+00  .000E+00  .000E+00  .000E+00
  .258E+02  .258E+02  .257E+02  .258E+02  .257E+02  .258E+02  .256E+02  .261E+02
  .258E+02  .255E+02  .259E+02  .295E+02  .257E+02  .257E+02  .269E+02  .276E+02
  .260E+02  .261E+02  .262E+02  .256E+02  .299E+02  .272E+02  .258E+02  .259E+02
  .348E+02  .360E+02  .330E+02  .298E+02  .261E+02  .260E+02  .260E+02  .302E+02
  .259E+02  .259E+02  .259E+02  .257E+02  .440E+02  .258E+02  .258E+02  .299E+02
  .328E+02  .276E+02  .258E+02  .258E+02  .258E+02  .258E+02  .256E+02  .256E+02
  .256E+02  .256E+02  .256E+02  .256E+02  .256E+02  .256E+02  .256E+02  .256E+02
  .256E+02  .256E+02  .256E+02  .256E+02  .256E+02  .256E+02  .256E+02  .258E+02
  .256E+02  .256E+02  .256E+02  .256E+02  .000E+00  .000E+00  .000E+00  .000E+00
  .000E+00  .000E+00  .000E+00  .000E+00  .000E+00  .000E+00  .000E+00  .000E+00
  .000E+00  .000E+00  .000E+00  .000E+00  .000E+00  .000E+00  .000E+00  .000E+00
  .000E+00  .000E+00  .000E+00  .000E+00  .000E+00  .000E+00  .000E+00  .000E+00
  .000E+00  .000E+00  .000E+00  .000E+00
  .257E+02  .259E+02  .260E+02  .260E+02  .256E+02  .258E+02  .258E+02  .264E+02
  .258E+02  .255E+02  .431E+02  .312E+02  .257E+02  .257E+02  .299E+02  .276E+02
  .260E+02  .271E+02  .262E+02  .262E+02  .299E+02  .272E+02  .258E+02  .267E+02
  .348E+02  .358E+02  .330E+02  .298E+02  .260E+02  .260E+02  .259E+02  .301E+02
  .258E+02  .258E+02  .258E+02  .258E+02  .441E+02  .258E+02  .257E+02  .257E+02
  .319E+02  .257E+02  .257E+02  .257E+02  .257E+02  .257E+02  .257E+02  .257E+02
  .257E+02  .257E+02  .257E+02  .257E+02  .257E+02  .257E+02  .257E+02  .257E+02
  .257E+02  .257E+02  .257E+02  .257E+02  .257E+02  .257E+02  .257E+02  .257E+02
  .257E+02  .257E+02  .257E+02  .257E+02  .000E+00  .000E+00  .000E+00  .000E+00
  .000E+00  .000E+00  .000E+00  .000E+00  .000E+00  .000E+00  .000E+00  .000E+00
  .000E+00  .000E+00  .000E+00  .000E+00  .000E+00  .000E+00  .000E+00  .000E+00
  .000E+00  .000E+00  .000E+00  .000E+00  .000E+00  .000E+00  .000E+00  .000E+00
  .000E+00  .000E+00  .000E+00  .000E+00
  .258E+02  .258E+02  .257E+02  .258E+02  .257E+02  .258E+02  .256E+02  .261E+02
  .258E+02  .255E+02  .259E+02  .295E+02  .257E+02  .257E+02  .269E+02  .276E+02
  .260E+02  .261E+02  .262E+02  .256E+02  .299E+02  .272E+02  .258E+02  .259E+02
  .348E+02  .360E+02  .330E+02  .298E+02  .261E+02  .260E+02  .260E+02  .302E+02
  .259E+02  .259E+02  .259E+02  .257E+02  .440E+02  .258E+02  .258E+02  .299E+02
  .328E+02  .276E+02  .258E+02  .258E+02  .258E+02  .258E+02  .256E+02  .256E+02
  .256E+02  .256E+02  .256E+02  .256E+02  .256E+02  .256E+02  .256E+02  .256E+02
  .256E+02  .256E+02  .256E+02  .256E+02  .256E+02  .256E+02  .256E+02  .258E+02
  .256E+02  .256E+02  .256E+02  .256E+02  .000E+00  .000E+00  .000E+00  .000E+00
  .000E+00  .000E+00  .000E+00  .000E+00  .000E+00  .000E+00  .000E+00  .000E+00
  .000E+00  .000E+00  .000E+00  .000E+00  .000E+00  .000E+00  .000E+00  .000E+00
  .000E+00  .000E+00  .000E+00  .000E+00  .000E+00  .000E+00  .000E+00  .000E+00
  .000E+00  .000E+00  .000E+00  .000E+00
Damping =  .02. Data of Sd,Sv,Sa,Pssv,ttSd,ttSv,ttSa :
  .160E-03  .177E-03  .198E-03  .216E-03  .221E-03  .245E-03  .290E-03  .518E-03
  .652E-03  .759E-03  .107E-02  .112E-02  .932E-03  .130E-02  .166E-02  .169E-02
  .282E-02  .291E-02  .303E-02  .340E-02  .497E-02  .521E-02  .677E-02  .883E-02
  .137E-01  .163E-01  .206E-01  .229E-01  .205E-01  .193E-01  .173E-01  .166E-01
  .161E-01  .148E-01  .136E-01  .130E-01  .127E-01  .122E-01  .120E-01  .119E-01
  .117E-01  .105E-01  .950E-02  .872E-02  .776E-02  .719E-02  .702E-02  .708E-02
  .709E-02  .715E-02  .699E-02  .694E-02  .662E-02  .645E-02  .674E-02  .638E-02
  .638E-02  .652E-02  .655E-02  .665E-02  .621E-02  .624E-02  .648E-02  .497E-02
  .550E-02  .573E-02  .602E-02  .540E-02  .000E+00  .000E+00  .000E+00  .000E+00
  .000E+00  .000E+00  .000E+00  .000E+00  .000E+00  .000E+00  .000E+00  .000E+00
  .000E+00  .000E+00  .000E+00  .000E+00  .000E+00  .000E+00  .000E+00  .000E+00
  .000E+00  .000E+00  .000E+00  .000E+00  .000E+00  .000E+00  .000E+00  .000E+00
  .000E+00  .000E+00  .000E+00  .000E+00
  .712E-02  .659E-02  .617E-02  .802E-02  .971E-02  .108E-01  .155E-01  .368E-01
  .332E-01  .532E-01  .719E-01  .747E-01  .532E-01  .688E-01  .897E-01  .871E-01
  .138E+00  .139E+00  .128E+00  .119E+00  .201E+00  .204E+00  .227E+00  .296E+00
  .452E+00  .507E+00  .600E+00  .639E+00  .525E+00  .461E+00  .407E+00  .372E+00
  .333E+00  .304E+00  .280E+00  .259E+00  .233E+00  .211E+00  .204E+00  .203E+00
  .203E+00  .196E+00  .186E+00  .179E+00  .172E+00  .165E+00  .161E+00  .158E+00
  .154E+00  .151E+00  .147E+00  .143E+00  .139E+00  .138E+00  .136E+00  .134E+00
  .133E+00  .133E+00  .131E+00  .131E+00  .129E+00  .129E+00  .127E+00  .127E+00
  .129E+00  .128E+00  .128E+00  .127E+00  .000E+00  .000E+00  .000E+00  .000E+00
  .000E+00  .000E+00  .000E+00  .000E+00  .000E+00  .000E+00  .000E+00  .000E+00
  .000E+00  .000E+00  .000E+00  .000E+00  .000E+00  .000E+00  .000E+00  .000E+00
  .000E+00  .000E+00  .000E+00  .000E+00  .000E+00  .000E+00  .000E+00  .000E+00
  .000E+00  .000E+00  .000E+00  .000E+00
  .102E-01  .102E-01  .105E-01  .104E-01  .981E-02  .100E-01  .982E-02  .148E-01
  .158E-01  .158E-01  .194E-01  .179E-01  .132E-01  .164E-01  .189E-01  .173E-01
  .239E-01  .207E-01  .184E-01  .177E-01  .226E-01  .208E-01  .239E-01  .279E-01
  .389E-01  .417E-01  .436E-01  .406E-01  .310E-01  .252E-01  .197E-01  .166E-01
  .143E-01  .117E-01  .967E-02  .831E-02  .735E-02  .646E-02  .582E-02  .530E-02
  .480E-02  .355E-02  .271E-02  .212E-02  .163E-02  .132E-02  .113E-02  .101E-02
  .900E-03  .816E-03  .720E-03  .592E-03  .476E-03  .396E-03  .357E-03  .295E-03
  .260E-03  .236E-03  .212E-03  .193E-03  .163E-03  .136E-03  .120E-03  .823E-04
  .761E-04  .693E-04  .644E-04  .520E-04  .000E+00  .000E+00  .000E+00  .000E+00
  .000E+00  .000E+00  .000E+00  .000E+00  .000E+00  .000E+00  .000E+00  .000E+00
  .000E+00  .000E+00  .000E+00  .000E+00  .000E+00  .000E+00  .000E+00  .000E+00
  .000E+00  .000E+00  .000E+00  .000E+00  .000E+00  .000E+00  .000E+00  .000E+00
  .000E+00  .000E+00  .000E+00  .000E+00
  .251E-01  .264E-01  .283E-01  .295E-01  .289E-01  .308E-01  .332E-01  .542E-01
  .631E-01  .681E-01  .896E-01  .880E-01  .689E-01  .906E-01  .110E+00  .106E+00
  .161E+00  .153E+00  .147E+00  .153E+00  .208E+00  .204E+00  .250E+00  .308E+00
  .454E+00  .512E+00  .590E+00  .598E+00  .496E+00  .433E+00  .363E+00  .326E+00
  .298E+00  .258E+00  .225E+00  .204E+00  .189E+00  .174E+00  .164E+00  .156E+00
  .147E+00  .120E+00  .995E-01  .843E-01  .697E-01  .602E-01  .551E-01  .523E-01
  .495E-01  .473E-01  .439E-01  .397E-01  .347E-01  .312E-01  .303E-01  .267E-01
  .250E-01  .241E-01  .229E-01  .220E-01  .195E-01  .178E-01  .170E-01  .120E-01
  .123E-01  .120E-01  .118E-01  .998E-02  .000E+00  .000E+00  .000E+00  .000E+00
  .000E+00  .000E+00  .000E+00  .000E+00  .000E+00  .000E+00  .000E+00  .000E+00
  .000E+00  .000E+00  .000E+00  .000E+00  .000E+00  .000E+00  .000E+00  .000E+00
  .000E+00  .000E+00  .000E+00  .000E+00  .000E+00  .000E+00  .000E+00  .000E+00
  .000E+00  .000E+00  .000E+00  .000E+00
  .258E+02  .258E+02  .258E+02  .258E+02  .258E+02  .258E+02  .259E+02  .261E+02
  .258E+02  .261E+02  .259E+02  .259E+02  .257E+02  .257E+02  .258E+02  .260E+02
  .260E+02  .261E+02  .262E+02  .256E+02  .270E+02  .266E+02  .258E+02  .259E+02
  .263E+02  .263E+02  .262E+02  .262E+02  .261E+02  .260E+02  .260E+02  .259E+02
  .259E+02  .259E+02  .259E+02  .257E+02  .257E+02  .257E+02  .258E+02  .258E+02
  .258E+02  .258E+02  .258E+02  .258E+02  .258E+02  .258E+02  .256E+02  .256E+02
  .256E+02  .256E+02  .256E+02  .256E+02  .256E+02  .256E+02  .256E+02  .256E+02
  .256E+02  .256E+02  .256E+02  .256E+02  .256E+02  .256E+02  .256E+02  .256E+02
  .256E+02  .256E+02  .256E+02  .256E+02  .000E+00  .000E+00  .000E+00  .000E+00
  .000E+00  .000E+00  .000E+00  .000E+00  .000E+00  .000E+00  .000E+00  .000E+00
  .000E+00  .000E+00  .000E+00  .000E+00  .000E+00  .000E+00  .000E+00  .000E+00
  .000E+00  .000E+00  .000E+00  .000E+00  .000E+00  .000E+00  .000E+00  .000E+00
  .000E+00  .000E+00  .000E+00  .000E+00
  .237E+02  .236E+02  .259E+02  .258E+02  .256E+02  .256E+02  .259E+02  .260E+02
  .261E+02  .261E+02  .259E+02  .259E+02  .259E+02  .257E+02  .259E+02  .259E+02
  .260E+02  .258E+02  .262E+02  .256E+02  .271E+02  .266E+02  .258E+02  .258E+02
  .263E+02  .264E+02  .263E+02  .261E+02  .260E+02  .260E+02  .259E+02  .259E+02
  .258E+02  .258E+02  .258E+02  .258E+02  .258E+02  .258E+02  .257E+02  .257E+02
  .257E+02  .257E+02  .257E+02  .257E+02  .257E+02  .257E+02  .257E+02  .257E+02
  .257E+02  .257E+02  .257E+02  .257E+02  .257E+02  .257E+02  .257E+02  .257E+02
  .257E+02  .257E+02  .257E+02  .257E+02  .257E+02  .257E+02  .257E+02  .257E+02
  .257E+02  .257E+02  .257E+02  .257E+02  .000E+00  .000E+00  .000E+00  .000E+00
  .000E+00  .000E+00  .000E+00  .000E+00  .000E+00  .000E+00  .000E+00  .000E+00
  .000E+00  .000E+00  .000E+00  .000E+00  .000E+00  .000E+00  .000E+00  .000E+00
  .000E+00  .000E+00  .000E+00  .000E+00  .000E+00  .000E+00  .000E+00  .000E+00
  .000E+00  .000E+00  .000E+00  .000E+00
  .258E+02  .258E+02  .258E+02  .258E+02  .258E+02  .258E+02  .259E+02  .261E+02
  .258E+02  .261E+02  .259E+02  .259E+02  .257E+02  .257E+02  .258E+02  .260E+02
  .260E+02  .261E+02  .262E+02  .256E+02  .270E+02  .266E+02  .258E+02  .259E+02
  .263E+02  .263E+02  .262E+02  .262E+02  .261E+02  .260E+02  .260E+02  .259E+02
  .259E+02  .259E+02  .259E+02  .257E+02  .257E+02  .257E+02  .257E+02  .257E+02
  .258E+02  .258E+02  .258E+02  .258E+02  .258E+02  .258E+02  .256E+02  .256E+02
  .256E+02  .256E+02  .256E+02  .256E+02  .256E+02  .256E+02  .256E+02  .256E+02
  .256E+02  .256E+02  .256E+02  .256E+02  .256E+02  .256E+02  .256E+02  .257E+02
  .256E+02  .256E+02  .256E+02  .256E+02  .000E+00  .000E+00  .000E+00  .000E+00
  .000E+00  .000E+00  .000E+00  .000E+00  .000E+00  .000E+00  .000E+00  .000E+00
  .000E+00  .000E+00  .000E+00  .000E+00  .000E+00  .000E+00  .000E+00  .000E+00
  .000E+00  .000E+00  .000E+00  .000E+00  .000E+00  .000E+00  .000E+00  .000E+00
  .000E+00  .000E+00  .000E+00  .000E+00
Damping =  .05. Data of Sd,Sv,Sa,Pssv,ttSd,ttSv,ttSa :
  .159E-03  .176E-03  .195E-03  .211E-03  .226E-03  .245E-03  .301E-03  .446E-03
  .589E-03  .702E-03  .820E-03  .889E-03  .805E-03  .105E-02  .137E-02  .156E-02
  .221E-02  .239E-02  .241E-02  .308E-02  .366E-02  .435E-02  .590E-02  .766E-02
  .971E-02  .122E-01  .160E-01  .175E-01  .168E-01  .163E-01  .150E-01  .149E-01
  .144E-01  .134E-01  .124E-01  .122E-01  .120E-01  .117E-01  .115E-01  .113E-01
