Response and Fourier amplitude spectra (68 periods,  .04 -  3.4 sec)   for      
Corrected accelerogram   24207-M0150-20021.15       Chan  2:  Radl       from   
Uncorrected Accelerogram Data             Processed: 01/24/20, CGS  ce24207o    
Rcrd of Tue Jan 21, 2020 23:40:50.0 PST               (Avol1 v2.0, 4/18 CSMIP)  
CSMIP Preliminary Processing            (Origin:  To be determined)             
24207-M0150-20021.15                 Start time:  1/22/20, 07:40:50.0 UTC (GPS) 
Station No. 24207   34.335N, 118.397W    MtWtny  s/n  150 (17 Chns of 17 at Sta)
Sylmar - Pacoima Dam                      CGS   Data: Acceleration              
Chan  2:  Radl                      Location: Crest: Center                     
Rcrd of Tue Jan 21, 2020 23:40:50.0 PST    Tue Jan 21, 2020 23:40:50.0 PST      
Hypocenter:  To be determined.               ML:  To be determined.
Instr Period =  .0104 sec,  Damping =  .660,  Sensitivity =  .63 v/g
                        Record Length = 58.000 sec.
                                     Uncor Max  =  -.074 g, at   25.660 sec.
RMS accel of (uncor) record  =        .   Chn. metadata effective date: 06/25/09
Accelerogram bandpass filtered with 3 dB pts at   .30 and 40.00 cyc/sec
                 instrument- and base-line correcte





Rcrd of Tue Jan 21, 2020 23:40:50.0 PST    Tue Jan 21, 2020 23:40:50.0 PST

24207-M0150-20021.15      Sylmar - Pacoima Dam    Chan  2:  Radl

24207-M0150-20021.15      Sylmar - Pacoima Dam    Chan  2:  Radl

Units for spectra are inches and sec, except Sa is in fraction of g.

    2  100    2   18   17  200    1    3    1   24   13  150    024207    5    0
    7   40   50    0   22    1   22 2020   10    3  70011600   39   20   74   -1
11600    0  100    3  150    1   15  580    2 -999 -999 -999 -999 -999 -999 -999
 -999 -999    3 -99911600    1  222    1   18    4 -999 -999    3    1 -99911600
    311600    4   68    5   17    5    0    0 -999    0    0    1    3    1    2
    2    2    4    0   68   67    0   10 -999    1    0    1    0    0   64  222
    1    0    4    0
      .010      .660    58.000      .004     1.000   627.000     -.074    25.660
    95.800      .298      .475  -999.000     5.000  -999.000     4.000  -999.000
     2.500    16.563     2.500  2016.000    25.000    30.000  -999.000     -.003
      .000      .003     2.000    15.000    34.335  -118.397      .011      .050
     4.427     -.001      .007   594.000    25.700    27.200    12.600   103.640
     1.000    10.003    -8.000  -999.000  -999.000  -999.000  -999.000  -999.000
     6.900     2.000     6.800   980.665      .005    58.000    15.247      .000
  -999.000    40.000  -999.000    58.000      .005      .303  -999.000  -999.000
    25.660   -73.280    25.710    -2.131    25.660      .081      .000      .303
    40.000      .005      .005      .000      .255      .015  -999.000  -999.000
      .281      .200      .278      .105      .004      .001  -999.000  -999.000
  -999.000  -999.000  -999.000  -999.000  -999.000  -999.000  -999.000  -999.000
  -999.000  -999.000  -999.000  -999.000
      .000      .020      .050      .100      .200
      .040      .042      .044      .046      .048      .050      .055      .060
      .065      .070      .075      .080      .085      .090      .095      .100
      .110      .120      .130      .140      .150      .160      .170      .180
      .190      .200      .220      .240      .260      .280      .300      .320
      .340      .360      .380      .400      .420      .440      .460      .480
      .500      .550      .600      .650      .700      .750      .800      .850
      .900      .950     1.000     1.100     1.200     1.300     1.400     1.500
     1.600     1.700     1.800     1.900     2.000     2.200     2.400     2.600
     2.800     3.000     3.200     3.400      .000      .000      .000      .000
      .000      .000      .000      .000      .000      .000      .000      .000
      .000      .000      .000      .000      .000      .000      .000      .000
      .000      .000      .000      .000      .000      .000      .000      .000
      .000      .000      .000      .000
Fourier amplitude spectra in in/sec.
  .109E+00  .748E-01  .549E-01  .894E-01  .261E-01  .171E+00  .106E+00  .578E-01
  .184E+00  .186E+00  .218E+00  .271E+00  .247E+00  .168E+00  .602E+00  .665E+00
  .438E+00  .155E+01  .103E+01  .957E+00  .699E+00  .236E+01  .243E+01  .216E+01
  .539E+01  .439E+01  .942E+01  .449E+01  .437E+01  .228E+01  .752E+00  .158E+01
  .656E+00  .397E+00  .309E+00  .144E+00  .317E+00  .111E+00  .235E+00  .318E+00
  .317E+00  .144E+00  .571E-01  .692E-01  .385E-01  .579E-01  .327E-01  .157E-01
  .155E-01  .125E-01  .160E-01  .852E-02  .173E-01  .582E-02  .866E-02  .585E-02
  .468E-02  .450E-02  .402E-02  .218E-02  .116E-02  .992E-02  .451E-02  .294E-02
  .238E-02  .175E-02  .164E-02  .272E-02  .000E+00  .000E+00  .000E+00  .000E+00
  .000E+00  .000E+00  .000E+00  .000E+00  .000E+00  .000E+00  .000E+00  .000E+00
  .000E+00  .000E+00  .000E+00  .000E+00  .000E+00  .000E+00  .000E+00  .000E+00
  .000E+00  .000E+00  .000E+00  .000E+00  .000E+00  .000E+00  .000E+00  .000E+00
  .000E+00  .000E+00  .000E+00  .000E+00
Damping =  .00. Data of Sd,Sv,Sa,Pssv,ttSd,ttSv,ttSa :
  .174E-02  .162E-02  .181E-02  .176E-02  .186E-02  .321E-02  .277E-02  .314E-02
  .443E-02  .520E-02  .558E-02  .668E-02  .926E-02  .108E-01  .128E-01  .142E-01
  .232E-01  .332E-01  .370E-01  .424E-01  .548E-01  .742E-01  .948E-01  .110E+00
  .172E+00  .149E+00  .337E+00  .240E+00  .187E+00  .126E+00  .105E+00  .916E-01
  .811E-01  .696E-01  .640E-01  .605E-01  .574E-01  .541E-01  .516E-01  .495E-01
  .474E-01  .420E-01  .401E-01  .389E-01  .382E-01  .378E-01  .371E-01  .367E-01
  .360E-01  .358E-01  .355E-01  .341E-01  .346E-01  .340E-01  .337E-01  .335E-01
  .329E-01  .327E-01  .332E-01  .327E-01  .319E-01  .324E-01  .312E-01  .317E-01
  .313E-01  .316E-01  .317E-01  .325E-01  .000E+00  .000E+00  .000E+00  .000E+00
  .000E+00  .000E+00  .000E+00  .000E+00  .000E+00  .000E+00  .000E+00  .000E+00
  .000E+00  .000E+00  .000E+00  .000E+00  .000E+00  .000E+00  .000E+00  .000E+00
  .000E+00  .000E+00  .000E+00  .000E+00  .000E+00  .000E+00  .000E+00  .000E+00
  .000E+00  .000E+00  .000E+00  .000E+00
  .121E+00  .110E+00  .907E-01  .115E+00  .984E-01  .252E+00  .159E+00  .141E+00
  .271E+00  .340E+00  .367E+00  .276E+00  .379E+00  .470E+00  .762E+00  .702E+00
  .112E+01  .172E+01  .156E+01  .158E+01  .193E+01  .289E+01  .325E+01  .363E+01
  .556E+01  .465E+01  .963E+01  .631E+01  .451E+01  .313E+01  .256E+01  .221E+01
  .203E+01  .181E+01  .162E+01  .149E+01  .137E+01  .129E+01  .124E+01  .121E+01
  .118E+01  .110E+01  .104E+01  .101E+01  .976E+00  .952E+00  .933E+00  .919E+00
  .909E+00  .900E+00  .892E+00  .880E+00  .872E+00  .866E+00  .860E+00  .856E+00
  .855E+00  .853E+00  .852E+00  .848E+00  .847E+00  .846E+00  .845E+00  .844E+00
  .845E+00  .843E+00  .844E+00  .842E+00  .000E+00  .000E+00  .000E+00  .000E+00
  .000E+00  .000E+00  .000E+00  .000E+00  .000E+00  .000E+00  .000E+00  .000E+00
  .000E+00  .000E+00  .000E+00  .000E+00  .000E+00  .000E+00  .000E+00  .000E+00
  .000E+00  .000E+00  .000E+00  .000E+00  .000E+00  .000E+00  .000E+00  .000E+00
  .000E+00  .000E+00  .000E+00  .000E+00
  .111E+00  .941E-01  .956E-01  .848E-01  .824E-01  .131E+00  .937E-01  .891E-01
  .107E+00  .108E+00  .101E+00  .107E+00  .131E+00  .137E+00  .146E+00  .145E+00
  .196E+00  .236E+00  .224E+00  .221E+00  .249E+00  .297E+00  .336E+00  .348E+00
  .487E+00  .382E+00  .712E+00  .426E+00  .282E+00  .165E+00  .119E+00  .915E-01
  .717E-01  .549E-01  .453E-01  .387E-01  .333E-01  .286E-01  .249E-01  .220E-01
  .194E-01  .142E-01  .114E-01  .942E-02  .798E-02  .687E-02  .592E-02  .519E-02
  .454E-02  .406E-02  .363E-02  .288E-02  .246E-02  .206E-02  .176E-02  .152E-02
  .132E-02  .116E-02  .105E-02  .927E-03  .816E-03  .684E-03  .554E-03  .479E-03
  .409E-03  .359E-03  .317E-03  .287E-03  .000E+00  .000E+00  .000E+00  .000E+00
  .000E+00  .000E+00  .000E+00  .000E+00  .000E+00  .000E+00  .000E+00  .000E+00
  .000E+00  .000E+00  .000E+00  .000E+00  .000E+00  .000E+00  .000E+00  .000E+00
  .000E+00  .000E+00  .000E+00  .000E+00  .000E+00  .000E+00  .000E+00  .000E+00
  .000E+00  .000E+00  .000E+00  .000E+00
  .273E+00  .243E+00  .258E+00  .240E+00  .243E+00  .403E+00  .317E+00  .328E+00
  .428E+00  .466E+00  .468E+00  .525E+00  .684E+00  .756E+00  .850E+00  .891E+00
  .132E+01  .174E+01  .179E+01  .190E+01  .229E+01  .292E+01  .350E+01  .385E+01
  .569E+01  .469E+01  .963E+01  .628E+01  .451E+01  .283E+01  .220E+01  .180E+01
  .150E+01  .122E+01  .106E+01  .951E+00  .858E+00  .772E+00  .704E+00  .648E+00
  .596E+00  .480E+00  .420E+00  .376E+00  .343E+00  .316E+00  .291E+00  .271E+00
  .251E+00  .237E+00  .223E+00  .195E+00  .181E+00  .165E+00  .151E+00  .140E+00
  .129E+00  .121E+00  .116E+00  .108E+00  .100E+00  .924E-01  .817E-01  .765E-01
  .703E-01  .662E-01  .623E-01  .600E-01  .000E+00  .000E+00  .000E+00  .000E+00
  .000E+00  .000E+00  .000E+00  .000E+00  .000E+00  .000E+00  .000E+00  .000E+00
  .000E+00  .000E+00  .000E+00  .000E+00  .000E+00  .000E+00  .000E+00  .000E+00
  .000E+00  .000E+00  .000E+00  .000E+00  .000E+00  .000E+00  .000E+00  .000E+00
  .000E+00  .000E+00  .000E+00  .000E+00
  .257E+02  .257E+02  .257E+02  .259E+02  .256E+02  .257E+02  .256E+02  .256E+02
  .259E+02  .258E+02  .256E+02  .257E+02  .257E+02  .256E+02  .259E+02  .259E+02
  .259E+02  .280E+02  .258E+02  .258E+02  .258E+02  .271E+02  .259E+02  .260E+02
  .261E+02  .263E+02  .353E+02  .268E+02  .317E+02  .260E+02  .259E+02  .259E+02
  .259E+02  .258E+02  .258E+02  .258E+02  .258E+02  .258E+02  .258E+02  .258E+02
  .258E+02  .258E+02  .257E+02  .257E+02  .257E+02  .257E+02  .257E+02  .257E+02
  .257E+02  .257E+02  .257E+02  .257E+02  .257E+02  .257E+02  .257E+02  .257E+02
  .257E+02  .257E+02  .257E+02  .257E+02  .257E+02  .257E+02  .258E+02  .257E+02
  .257E+02  .257E+02  .257E+02  .257E+02  .000E+00  .000E+00  .000E+00  .000E+00
  .000E+00  .000E+00  .000E+00  .000E+00  .000E+00  .000E+00  .000E+00  .000E+00
  .000E+00  .000E+00  .000E+00  .000E+00  .000E+00  .000E+00  .000E+00  .000E+00
  .000E+00  .000E+00  .000E+00  .000E+00  .000E+00  .000E+00  .000E+00  .000E+00
  .000E+00  .000E+00  .000E+00  .000E+00
  .259E+02  .259E+02  .256E+02  .261E+02  .256E+02  .259E+02  .261E+02  .260E+02
  .261E+02  .256E+02  .262E+02  .380E+02  .256E+02  .256E+02  .264E+02  .276E+02
  .259E+02  .280E+02  .257E+02  .257E+02  .257E+02  .270E+02  .259E+02  .260E+02
  .261E+02  .361E+02  .353E+02  .267E+02  .316E+02  .259E+02  .259E+02  .258E+02
  .258E+02  .258E+02  .258E+02  .258E+02  .258E+02  .257E+02  .257E+02  .257E+02
  .257E+02  .257E+02  .257E+02  .257E+02  .257E+02  .257E+02  .257E+02  .257E+02
  .257E+02  .257E+02  .257E+02  .257E+02  .257E+02  .257E+02  .257E+02  .257E+02
  .257E+02  .257E+02  .257E+02  .257E+02  .257E+02  .258E+02  .257E+02  .257E+02
  .257E+02  .257E+02  .257E+02  .257E+02  .000E+00  .000E+00  .000E+00  .000E+00
  .000E+00  .000E+00  .000E+00  .000E+00  .000E+00  .000E+00  .000E+00  .000E+00
  .000E+00  .000E+00  .000E+00  .000E+00  .000E+00  .000E+00  .000E+00  .000E+00
  .000E+00  .000E+00  .000E+00  .000E+00  .000E+00  .000E+00  .000E+00  .000E+00
  .000E+00  .000E+00  .000E+00  .000E+00
  .257E+02  .257E+02  .257E+02  .259E+02  .256E+02  .257E+02  .256E+02  .256E+02
  .259E+02  .258E+02  .256E+02  .257E+02  .257E+02  .256E+02  .259E+02  .259E+02
  .259E+02  .280E+02  .258E+02  .258E+02  .258E+02  .271E+02  .259E+02  .260E+02
  .261E+02  .263E+02  .353E+02  .268E+02  .317E+02  .260E+02  .259E+02  .259E+02
  .259E+02  .258E+02  .258E+02  .258E+02  .258E+02  .258E+02  .258E+02  .258E+02
  .258E+02  .258E+02  .257E+02  .257E+02  .257E+02  .257E+02  .257E+02  .257E+02
  .257E+02  .257E+02  .257E+02  .257E+02  .257E+02  .257E+02  .257E+02  .257E+02
  .257E+02  .257E+02  .257E+02  .257E+02  .257E+02  .257E+02  .258E+02  .257E+02
  .257E+02  .257E+02  .257E+02  .257E+02  .000E+00  .000E+00  .000E+00  .000E+00
  .000E+00  .000E+00  .000E+00  .000E+00  .000E+00  .000E+00  .000E+00  .000E+00
  .000E+00  .000E+00  .000E+00  .000E+00  .000E+00  .000E+00  .000E+00  .000E+00
  .000E+00  .000E+00  .000E+00  .000E+00  .000E+00  .000E+00  .000E+00  .000E+00
  .000E+00  .000E+00  .000E+00  .000E+00
Damping =  .02. Data of Sd,Sv,Sa,Pssv,ttSd,ttSv,ttSa :
  .127E-02  .142E-02  .159E-02  .171E-02  .186E-02  .211E-02  .252E-02  .294E-02
  .348E-02  .412E-02  .465E-02  .611E-02  .772E-02  .917E-02  .113E-01  .134E-01
  .188E-01  .242E-01  .327E-01  .385E-01  .499E-01  .629E-01  .800E-01  .996E-01
  .130E+00  .131E+00  .178E+00  .174E+00  .137E+00  .114E+00  .983E-01  .872E-01
  .770E-01  .671E-01  .625E-01  .592E-01  .563E-01  .533E-01  .508E-01  .488E-01
  .469E-01  .420E-01  .397E-01  .386E-01  .380E-01  .375E-01  .370E-01  .364E-01
  .359E-01  .356E-01  .353E-01  .344E-01  .343E-01  .338E-01  .335E-01  .333E-01
  .329E-01  .327E-01  .329E-01  .326E-01  .322E-01  .322E-01  .313E-01  .315E-01
  .314E-01  .316E-01  .318E-01  .322E-01  .000E+00  .000E+00  .000E+00  .000E+00
  .000E+00  .000E+00  .000E+00  .000E+00  .000E+00  .000E+00  .000E+00  .000E+00
  .000E+00  .000E+00  .000E+00  .000E+00  .000E+00  .000E+00  .000E+00  .000E+00
  .000E+00  .000E+00  .000E+00  .000E+00  .000E+00  .000E+00  .000E+00  .000E+00
  .000E+00  .000E+00  .000E+00  .000E+00
  .617E-01  .618E-01  .654E-01  .753E-01  .807E-01  .880E-01  .107E+00  .139E+00
  .175E+00  .170E+00  .183E+00  .237E+00  .288E+00  .346E+00  .485E+00  .548E+00
  .830E+00  .105E+01  .140E+01  .146E+01  .177E+01  .210E+01  .266E+01  .325E+01
  .411E+01  .399E+01  .507E+01  .464E+01  .356E+01  .290E+01  .241E+01  .212E+01
  .195E+01  .176E+01  .160E+01  .147E+01  .137E+01  .128E+01  .123E+01  .120E+01
  .117E+01  .110E+01  .104E+01  .100E+01  .977E+00  .954E+00  .936E+00  .921E+00
  .910E+00  .901E+00  .893E+00  .882E+00  .873E+00  .867E+00  .862E+00  .858E+00
  .856E+00  .854E+00  .852E+00  .849E+00  .848E+00  .845E+00  .845E+00  .844E+00
  .845E+00  .844E+00  .844E+00  .843E+00  .000E+00  .000E+00  .000E+00  .000E+00
  .000E+00  .000E+00  .000E+00  .000E+00  .000E+00  .000E+00  .000E+00  .000E+00
  .000E+00  .000E+00  .000E+00  .000E+00  .000E+00  .000E+00  .000E+00  .000E+00
  .000E+00  .000E+00  .000E+00  .000E+00  .000E+00  .000E+00  .000E+00  .000E+00
  .000E+00  .000E+00  .000E+00  .000E+00
  .812E-01  .823E-01  .838E-01  .827E-01  .825E-01  .862E-01  .851E-01  .833E-01
  .844E-01  .860E-01  .845E-01  .975E-01  .109E+00  .116E+00  .129E+00  .137E+00
  .158E+00  .172E+00  .198E+00  .201E+00  .227E+00  .251E+00  .284E+00  .314E+00
  .368E+00  .334E+00  .375E+00  .310E+00  .207E+00  .149E+00  .112E+00  .872E-01
  .683E-01  .530E-01  .444E-01  .379E-01  .327E-01  .282E-01  .247E-01  .217E-01
  .192E-01  .143E-01  .113E-01  .942E-02  .801E-02  .688E-02  .597E-02  .521E-02
  .459E-02  .409E-02  .366E-02  .296E-02  .249E-02  .210E-02  .180E-02  .157E-02
  .137E-02  .122E-02  .110E-02  .981E-03  .879E-03  .734E-03  .609E-03  .531E-03
  .463E-03  .411E-03  .368E-03  .335E-03  .000E+00  .000E+00  .000E+00  .000E+00
  .000E+00  .000E+00  .000E+00  .000E+00  .000E+00  .000E+00  .000E+00  .000E+00
  .000E+00  .000E+00  .000E+00  .000E+00  .000E+00  .000E+00  .000E+00  .000E+00
  .000E+00  .000E+00  .000E+00  .000E+00  .000E+00  .000E+00  .000E+00  .000E+00
  .000E+00  .000E+00  .000E+00  .000E+00
  .199E+00  .212E+00  .227E+00  .234E+00  .243E+00  .265E+00  .288E+00  .308E+00
  .336E+00  .370E+00  .389E+00  .480E+00  .570E+00  .640E+00  .750E+00  .841E+00
  .107E+01  .127E+01  .158E+01  .173E+01  .209E+01  .247E+01  .296E+01  .348E+01
  .429E+01  .410E+01  .507E+01  .456E+01  .330E+01  .256E+01  .206E+01  .171E+01
  .142E+01  .117E+01  .103E+01  .931E+00  .842E+00  .761E+00  .694E+00  .639E+00
  .589E+00  .480E+00  .415E+00  .373E+00  .341E+00  .314E+00  .290E+00  .269E+00
  .251E+00  .236E+00  .222E+00  .197E+00  .180E+00  .163E+00  .150E+00  .139E+00
  .129E+00  .121E+00  .115E+00  .108E+00  .101E+00  .920E-01  .818E-01  .762E-01
  .705E-01  .663E-01  .624E-01  .595E-01  .000E+00  .000E+00  .000E+00  .000E+00
  .000E+00  .000E+00  .000E+00  .000E+00  .000E+00  .000E+00  .000E+00  .000E+00
  .000E+00  .000E+00  .000E+00  .000E+00  .000E+00  .000E+00  .000E+00  .000E+00
  .000E+00  .000E+00  .000E+00  .000E+00  .000E+00  .000E+00  .000E+00  .000E+00
  .000E+00  .000E+00  .000E+00  .000E+00
  .257E+02  .257E+02  .257E+02  .257E+02  .257E+02  .257E+02  .257E+02  .259E+02
  .259E+02  .256E+02  .257E+02  .257E+02  .257E+02  .257E+02  .259E+02  .259E+02
  .259E+02  .257E+02  .258E+02  .258E+02  .258E+02  .258E+02  .259E+02  .260E+02
  .260E+02  .261E+02  .264E+02  .263E+02  .261E+02  .260E+02  .259E+02  .259E+02
  .259E+02  .258E+02  .258E+02  .258E+02  .258E+02  .258E+02  .258E+02  .258E+02
  .258E+02  .258E+02  .257E+02  .257E+02  .257E+02  .257E+02  .257E+02  .257E+02
  .257E+02  .257E+02  .257E+02  .257E+02  .257E+02  .257E+02  .257E+02  .257E+02
  .257E+02  .257E+02  .257E+02  .257E+02  .257E+02  .257E+02  .257E+02  .257E+02
  .257E+02  .257E+02  .257E+02  .257E+02  .000E+00  .000E+00  .000E+00  .000E+00
  .000E+00  .000E+00  .000E+00  .000E+00  .000E+00  .000E+00  .000E+00  .000E+00
  .000E+00  .000E+00  .000E+00  .000E+00  .000E+00  .000E+00  .000E+00  .000E+00
  .000E+00  .000E+00  .000E+00  .000E+00  .000E+00  .000E+00  .000E+00  .000E+00
  .000E+00  .000E+00  .000E+00  .000E+00
  .258E+02  .258E+02  .258E+02  .259E+02  .259E+02  .259E+02  .257E+02  .259E+02
  .256E+02  .256E+02  .256E+02  .256E+02  .256E+02  .258E+02  .258E+02  .259E+02
  .259E+02  .257E+02  .257E+02  .257E+02  .257E+02  .258E+02  .259E+02  .259E+02
  .261E+02  .261E+02  .264E+02  .262E+02  .261E+02  .259E+02  .259E+02  .258E+02
  .258E+02  .258E+02  .258E+02  .258E+02  .258E+02  .258E+02  .257E+02  .257E+02
  .257E+02  .257E+02  .257E+02  .257E+02  .257E+02  .257E+02  .257E+02  .257E+02
  .257E+02  .257E+02  .257E+02  .257E+02  .257E+02  .257E+02  .257E+02  .257E+02
  .257E+02  .257E+02  .257E+02  .257E+02  .257E+02  .258E+02  .257E+02  .257E+02
  .257E+02  .257E+02  .257E+02  .257E+02  .000E+00  .000E+00  .000E+00  .000E+00
  .000E+00  .000E+00  .000E+00  .000E+00  .000E+00  .000E+00  .000E+00  .000E+00
  .000E+00  .000E+00  .000E+00  .000E+00  .000E+00  .000E+00  .000E+00  .000E+00
  .000E+00  .000E+00  .000E+00  .000E+00  .000E+00  .000E+00  .000E+00  .000E+00
  .000E+00  .000E+00  .000E+00  .000E+00
  .257E+02  .257E+02  .257E+02  .257E+02  .257E+02  .257E+02  .257E+02  .259E+02
  .259E+02  .256E+02  .257E+02  .257E+02  .257E+02  .257E+02  .259E+02  .259E+02
  .259E+02  .257E+02  .258E+02  .258E+02  .258E+02  .258E+02  .259E+02  .260E+02
  .260E+02  .261E+02  .264E+02  .263E+02  .261E+02  .260E+02  .259E+02  .259E+02
  .259E+02  .258E+02  .258E+02  .258E+02  .258E+02  .258E+02  .258E+02  .258E+02
  .258E+02  .258E+02  .256E+02  .256E+02  .256E+02  .256E+02  .256E+02  .256E+02
  .256E+02  .256E+02  .256E+02  .256E+02  .256E+02  .256E+02  .256E+02  .256E+02
  .256E+02  .256E+02  .256E+02  .256E+02  .256E+02  .256E+02  .256E+02  .256E+02
  .256E+02  .256E+02  .256E+02  .256E+02  .000E+00  .000E+00  .000E+00  .000E+00
  .000E+00  .000E+00  .000E+00  .000E+00  .000E+00  .000E+00  .000E+00  .000E+00
  .000E+00  .000E+00  .000E+00  .000E+00  .000E+00  .000E+00  .000E+00  .000E+00
  .000E+00  .000E+00  .000E+00  .000E+00  .000E+00  .000E+00  .000E+00  .000E+00
  .000E+00  .000E+00  .000E+00  .000E+00
Damping =  .05. Data of Sd,Sv,Sa,Pssv,ttSd,ttSv,ttSa :
  .125E-02  .140E-02  .156E-02  .170E-02  .187E-02  .203E-02  .245E-02  .282E-02
  .327E-02  .411E-02  .488E-02  .598E-02  .729E-02  .871E-02  .101E-01  .120E-01
  .163E-01  .228E-01  .282E-01  .346E-01  .440E-01  .545E-01  .665E-01  .826E-01
  .986E-01  .109E+00  .128E+00  .130E+00  .114E+00  .991E-01  .899E-01  .810E-01
  .721E-01  .635E-01  .602E-01  .571E-01  .545E-01  .521E-01  .499E-01  .479E-01
