Response and Fourier amplitude spectra (68 periods,  .04 -  3.4 sec)   for      
Corrected accelerogram   24207-M0150-20021.15       Chan 14: 360 Deg     from   
Uncorrected Accelerogram Data             Processed: 01/24/20, CGS  ce24207o    
Rcrd of Tue Jan 21, 2020 23:40:50.0 PST               (Avol1 v2.0, 4/18 CSMIP)  
CSMIP Preliminary Processing            (Origin:  To be determined)             
24207-M0150-20021.15                 Start time:  1/22/20, 07:40:50.0 UTC (GPS) 
Station No. 24207   34.335N, 118.397W    MtWtny  s/n  150 (17 Chns of 17 at Sta)
Sylmar - Pacoima Dam                      CGS   Data: Acceleration              
Chan 14: 360 DegR                   Location: Right (North) Abutment            
Rcrd of Tue Jan 21, 2020 23:40:50.0 PST    Tue Jan 21, 2020 23:40:50.0 PST      
Hypocenter:  To be determined.               ML:  To be determined.
Instr Period =  .0106 sec,  Damping =  .660,  Sensitivity =  .63 v/g
                        Record Length = 58.000 sec.
                                     Uncor Max  =   .012 g, at   25.505 sec.
RMS accel of (uncor) record  =        .   Chn. metadata effective date: 09/02/99
Accelerogram bandpass filtered with 3 dB pts at   .30 and 40.00 cyc/sec
                 instrument- and base-line correcte





Rcrd of Tue Jan 21, 2020 23:40:50.0 PST    Tue Jan 21, 2020 23:40:50.0 PST

24207-M0150-20021.15      Sylmar - Pacoima Dam    Chan 14: 360 Deg

24207-M0150-20021.15      Sylmar - Pacoima Dam    Chan 14: 360 Deg

Units for spectra are inches and sec, except Sa is in fraction of g.

   14  100   14   18   17  200    1    3    1   24   13  150    024207    5    0
    7   40   50    0   22    1   22 2020   10    3  36011600   39   20   74   -1
11600    0  100    3  150    1   15  580    2 -999 -999 -999 -999 -999 -999 -999
 -999 -999    3 -99911600    1  222    1   18    4 -999 -999    3    1 -99911600
    311600    4   68    5   17    5    0    0 -999    0    0    1    3    1    2
    2    2    4    0   68   67    0   10 -999    1    0    1    0    0   64  222
    1    0    4    0
      .011      .660    58.000      .000     1.000   625.000      .012    25.505
    94.600      .298      .477  -999.000     5.000  -999.000     4.000  -999.000
     2.500   -60.047     2.500  2016.000    25.000    30.000  -999.000      .002
      .000     -.003     2.000    15.000    34.335  -118.397      .013      .019
     1.427     -.005      .000   594.000    25.700    27.200    12.600   103.640
     1.000    10.003    -8.000  -999.000  -999.000  -999.000  -999.000  -999.000
     6.900     2.000     6.800   980.665      .005    58.000    15.056      .000
  -999.000    40.000  -999.000    58.000      .005      .303  -999.000  -999.000
    25.505    12.245    25.465     -.377    25.515     -.017      .000      .303
    40.000      .005      .005      .000      .005      .002  -999.000  -999.000
      .029      .110      .024      .013      .001      .000  -999.000  -999.000
  -999.000  -999.000  -999.000  -999.000  -999.000  -999.000  -999.000  -999.000
  -999.000  -999.000  -999.000  -999.000
      .000      .020      .050      .100      .200
      .040      .042      .044      .046      .048      .050      .055      .060
      .065      .070      .075      .080      .085      .090      .095      .100
      .110      .120      .130      .140      .150      .160      .170      .180
      .190      .200      .220      .240      .260      .280      .300      .320
      .340      .360      .380      .400      .420      .440      .460      .480
      .500      .550      .600      .650      .700      .750      .800      .850
      .900      .950     1.000     1.100     1.200     1.300     1.400     1.500
     1.600     1.700     1.800     1.900     2.000     2.200     2.400     2.600
     2.800     3.000     3.200     3.400      .000      .000      .000      .000
      .000      .000      .000      .000      .000      .000      .000      .000
      .000      .000      .000      .000      .000      .000      .000      .000
      .000      .000      .000      .000      .000      .000      .000      .000
      .000      .000      .000      .000
Fourier amplitude spectra in in/sec.
  .139E-01  .667E-02  .321E-01  .446E-01  .318E-01  .364E-01  .225E-01  .295E-01
  .458E-01  .100E+00  .195E+00  .198E+00  .315E-01  .900E-01  .160E+00  .138E+00
  .233E+00  .222E+00  .394E+00  .260E+00  .260E+00  .342E+00  .388E+00  .228E+00
  .374E+00  .266E+00  .528E+00  .478E+00  .497E+00  .270E+00  .255E+00  .346E+00
  .174E+00  .988E-01  .115E+00  .189E+00  .303E+00  .139E+00  .934E-01  .101E+00
  .108E+00  .472E-01  .684E-01  .103E+00  .100E+00  .758E-01  .587E-01  .458E-01
  .423E-01  .213E-01  .181E-01  .149E-01  .503E-02  .767E-02  .110E-01  .105E-01
  .801E-02  .398E-02  .867E-02  .362E-02  .595E-02  .672E-02  .222E-02  .500E-02
  .508E-03  .212E-02  .246E-02  .660E-03  .000E+00  .000E+00  .000E+00  .000E+00
  .000E+00  .000E+00  .000E+00  .000E+00  .000E+00  .000E+00  .000E+00  .000E+00
  .000E+00  .000E+00  .000E+00  .000E+00  .000E+00  .000E+00  .000E+00  .000E+00
  .000E+00  .000E+00  .000E+00  .000E+00  .000E+00  .000E+00  .000E+00  .000E+00
  .000E+00  .000E+00  .000E+00  .000E+00
Damping =  .00. Data of Sd,Sv,Sa,Pssv,ttSd,ttSv,ttSa :
  .272E-03  .295E-03  .393E-03  .582E-03  .557E-03  .486E-03  .548E-03  .919E-03
  .126E-02  .147E-02  .237E-02  .264E-02  .128E-02  .230E-02  .248E-02  .290E-02
  .425E-02  .504E-02  .820E-02  .667E-02  .751E-02  .884E-02  .107E-01  .103E-01
  .120E-01  .128E-01  .194E-01  .222E-01  .209E-01  .157E-01  .145E-01  .176E-01
  .127E-01  .122E-01  .115E-01  .122E-01  .205E-01  .131E-01  .121E-01  .101E-01
  .105E-01  .911E-02  .901E-02  .112E-01  .115E-01  .101E-01  .884E-02  .806E-02
  .764E-02  .755E-02  .775E-02  .715E-02  .689E-02  .685E-02  .648E-02  .771E-02
  .764E-02  .737E-02  .712E-02  .745E-02  .669E-02  .754E-02  .760E-02  .701E-02
  .677E-02  .727E-02  .697E-02  .687E-02  .000E+00  .000E+00  .000E+00  .000E+00
  .000E+00  .000E+00  .000E+00  .000E+00  .000E+00  .000E+00  .000E+00  .000E+00
  .000E+00  .000E+00  .000E+00  .000E+00  .000E+00  .000E+00  .000E+00  .000E+00
  .000E+00  .000E+00  .000E+00  .000E+00  .000E+00  .000E+00  .000E+00  .000E+00
  .000E+00  .000E+00  .000E+00  .000E+00
  .264E-01  .233E-01  .438E-01  .577E-01  .431E-01  .541E-01  .328E-01  .653E-01
  .113E+00  .128E+00  .198E+00  .206E+00  .717E-01  .153E+00  .160E+00  .179E+00
  .243E+00  .259E+00  .397E+00  .298E+00  .303E+00  .345E+00  .393E+00  .345E+00
  .381E+00  .388E+00  .555E+00  .577E+00  .502E+00  .359E+00  .334E+00  .346E+00
  .257E+00  .239E+00  .214E+00  .196E+00  .306E+00  .196E+00  .179E+00  .170E+00
  .164E+00  .164E+00  .162E+00  .164E+00  .157E+00  .156E+00  .153E+00  .156E+00
  .156E+00  .156E+00  .156E+00  .154E+00  .151E+00  .150E+00  .148E+00  .150E+00
  .151E+00  .152E+00  .151E+00  .150E+00  .151E+00  .149E+00  .151E+00  .149E+00
  .150E+00  .148E+00  .150E+00  .148E+00  .000E+00  .000E+00  .000E+00  .000E+00
  .000E+00  .000E+00  .000E+00  .000E+00  .000E+00  .000E+00  .000E+00  .000E+00
  .000E+00  .000E+00  .000E+00  .000E+00  .000E+00  .000E+00  .000E+00  .000E+00
  .000E+00  .000E+00  .000E+00  .000E+00  .000E+00  .000E+00  .000E+00  .000E+00
  .000E+00  .000E+00  .000E+00  .000E+00
  .174E-01  .171E-01  .208E-01  .281E-01  .247E-01  .199E-01  .185E-01  .261E-01
  .304E-01  .308E-01  .431E-01  .422E-01  .182E-01  .291E-01  .281E-01  .296E-01
  .359E-01  .358E-01  .496E-01  .348E-01  .341E-01  .353E-01  .379E-01  .324E-01
  .341E-01  .328E-01  .410E-01  .394E-01  .317E-01  .205E-01  .164E-01  .176E-01
  .112E-01  .962E-02  .816E-02  .778E-02  .119E-01  .693E-02  .583E-02  .447E-02
  .431E-02  .308E-02  .256E-02  .271E-02  .240E-02  .183E-02  .141E-02  .114E-02
  .965E-03  .856E-03  .793E-03  .605E-03  .489E-03  .414E-03  .338E-03  .350E-03
  .305E-03  .261E-03  .225E-03  .211E-03  .171E-03  .159E-03  .135E-03  .106E-03
  .883E-04  .826E-04  .696E-04  .607E-04  .000E+00  .000E+00  .000E+00  .000E+00
  .000E+00  .000E+00  .000E+00  .000E+00  .000E+00  .000E+00  .000E+00  .000E+00
  .000E+00  .000E+00  .000E+00  .000E+00  .000E+00  .000E+00  .000E+00  .000E+00
  .000E+00  .000E+00  .000E+00  .000E+00  .000E+00  .000E+00  .000E+00  .000E+00
  .000E+00  .000E+00  .000E+00  .000E+00
  .428E-01  .441E-01  .561E-01  .795E-01  .729E-01  .611E-01  .626E-01  .962E-01
  .122E+00  .132E+00  .198E+00  .207E+00  .949E-01  .161E+00  .164E+00  .182E+00
  .243E+00  .264E+00  .396E+00  .299E+00  .315E+00  .347E+00  .396E+00  .358E+00
  .398E+00  .403E+00  .554E+00  .581E+00  .506E+00  .352E+00  .303E+00  .346E+00
  .235E+00  .213E+00  .190E+00  .191E+00  .306E+00  .187E+00  .165E+00  .132E+00
  .132E+00  .104E+00  .944E-01  .108E+00  .103E+00  .844E-01  .695E-01  .596E-01
  .533E-01  .499E-01  .487E-01  .409E-01  .361E-01  .331E-01  .291E-01  .323E-01
  .300E-01  .272E-01  .248E-01  .246E-01  .210E-01  .215E-01  .199E-01  .170E-01
  .152E-01  .152E-01  .137E-01  .127E-01  .000E+00  .000E+00  .000E+00  .000E+00
  .000E+00  .000E+00  .000E+00  .000E+00  .000E+00  .000E+00  .000E+00  .000E+00
  .000E+00  .000E+00  .000E+00  .000E+00  .000E+00  .000E+00  .000E+00  .000E+00
  .000E+00  .000E+00  .000E+00  .000E+00  .000E+00  .000E+00  .000E+00  .000E+00
  .000E+00  .000E+00  .000E+00  .000E+00
  .255E+02  .255E+02  .255E+02  .255E+02  .255E+02  .258E+02  .255E+02  .255E+02
  .256E+02  .265E+02  .434E+02  .299E+02  .254E+02  .256E+02  .260E+02  .262E+02
  .276E+02  .255E+02  .324E+02  .297E+02  .256E+02  .268E+02  .289E+02  .256E+02
  .258E+02  .258E+02  .271E+02  .267E+02  .277E+02  .260E+02  .266E+02  .576E+02
  .258E+02  .256E+02  .256E+02  .287E+02  .355E+02  .270E+02  .268E+02  .268E+02
  .284E+02  .260E+02  .260E+02  .316E+02  .359E+02  .276E+02  .273E+02  .255E+02
  .255E+02  .255E+02  .255E+02  .255E+02  .255E+02  .255E+02  .255E+02  .255E+02
  .255E+02  .255E+02  .255E+02  .255E+02  .255E+02  .255E+02  .255E+02  .255E+02
  .255E+02  .255E+02  .255E+02  .255E+02  .000E+00  .000E+00  .000E+00  .000E+00
  .000E+00  .000E+00  .000E+00  .000E+00  .000E+00  .000E+00  .000E+00  .000E+00
  .000E+00  .000E+00  .000E+00  .000E+00  .000E+00  .000E+00  .000E+00  .000E+00
  .000E+00  .000E+00  .000E+00  .000E+00  .000E+00  .000E+00  .000E+00  .000E+00
  .000E+00  .000E+00  .000E+00  .000E+00
  .255E+02  .243E+02  .259E+02  .255E+02  .244E+02  .259E+02  .258E+02  .255E+02
  .256E+02  .266E+02  .434E+02  .298E+02  .257E+02  .257E+02  .558E+02  .260E+02
  .343E+02  .274E+02  .324E+02  .297E+02  .256E+02  .393E+02  .290E+02  .257E+02
  .297E+02  .259E+02  .271E+02  .267E+02  .277E+02  .261E+02  .258E+02  .577E+02
  .257E+02  .257E+02  .255E+02  .256E+02  .356E+02  .269E+02  .256E+02  .256E+02
  .255E+02  .255E+02  .255E+02  .255E+02  .255E+02  .255E+02  .255E+02  .255E+02
  .255E+02  .255E+02  .255E+02  .255E+02  .255E+02  .255E+02  .255E+02  .255E+02
  .255E+02  .255E+02  .255E+02  .255E+02  .255E+02  .255E+02  .255E+02  .255E+02
  .255E+02  .255E+02  .255E+02  .255E+02  .000E+00  .000E+00  .000E+00  .000E+00
  .000E+00  .000E+00  .000E+00  .000E+00  .000E+00  .000E+00  .000E+00  .000E+00
  .000E+00  .000E+00  .000E+00  .000E+00  .000E+00  .000E+00  .000E+00  .000E+00
  .000E+00  .000E+00  .000E+00  .000E+00  .000E+00  .000E+00  .000E+00  .000E+00
  .000E+00  .000E+00  .000E+00  .000E+00
  .255E+02  .255E+02  .255E+02  .255E+02  .255E+02  .258E+02  .255E+02  .255E+02
  .256E+02  .265E+02  .434E+02  .299E+02  .254E+02  .256E+02  .260E+02  .262E+02
  .276E+02  .255E+02  .324E+02  .297E+02  .256E+02  .268E+02  .289E+02  .256E+02
  .258E+02  .258E+02  .271E+02  .267E+02  .277E+02  .260E+02  .266E+02  .576E+02
  .258E+02  .256E+02  .256E+02  .287E+02  .355E+02  .270E+02  .268E+02  .268E+02
  .284E+02  .260E+02  .260E+02  .316E+02  .359E+02  .276E+02  .273E+02  .255E+02
  .255E+02  .255E+02  .255E+02  .255E+02  .255E+02  .255E+02  .255E+02  .255E+02
  .255E+02  .255E+02  .255E+02  .255E+02  .255E+02  .255E+02  .255E+02  .255E+02
  .255E+02  .255E+02  .255E+02  .255E+02  .000E+00  .000E+00  .000E+00  .000E+00
  .000E+00  .000E+00  .000E+00  .000E+00  .000E+00  .000E+00  .000E+00  .000E+00
  .000E+00  .000E+00  .000E+00  .000E+00  .000E+00  .000E+00  .000E+00  .000E+00
  .000E+00  .000E+00  .000E+00  .000E+00  .000E+00  .000E+00  .000E+00  .000E+00
  .000E+00  .000E+00  .000E+00  .000E+00
Damping =  .02. Data of Sd,Sv,Sa,Pssv,ttSd,ttSv,ttSa :
  .205E-03  .228E-03  .266E-03  .277E-03  .324E-03  .342E-03  .423E-03  .627E-03
  .758E-03  .920E-03  .146E-02  .136E-02  .120E-02  .185E-02  .220E-02  .258E-02
  .386E-02  .438E-02  .545E-02  .591E-02  .683E-02  .748E-02  .831E-02  .932E-02
  .104E-01  .113E-01  .134E-01  .155E-01  .151E-01  .134E-01  .126E-01  .123E-01
  .116E-01  .115E-01  .110E-01  .103E-01  .994E-02  .982E-02  .955E-02  .904E-02
  .860E-02  .841E-02  .834E-02  .818E-02  .835E-02  .791E-02  .758E-02  .779E-02
  .767E-02  .757E-02  .752E-02  .721E-02  .708E-02  .706E-02  .701E-02  .761E-02
  .760E-02  .738E-02  .717E-02  .725E-02  .696E-02  .745E-02  .741E-02  .705E-02
  .691E-02  .713E-02  .703E-02  .705E-02  .000E+00  .000E+00  .000E+00  .000E+00
  .000E+00  .000E+00  .000E+00  .000E+00  .000E+00  .000E+00  .000E+00  .000E+00
  .000E+00  .000E+00  .000E+00  .000E+00  .000E+00  .000E+00  .000E+00  .000E+00
  .000E+00  .000E+00  .000E+00  .000E+00  .000E+00  .000E+00  .000E+00  .000E+00
  .000E+00  .000E+00  .000E+00  .000E+00
  .155E-01  .138E-01  .156E-01  .180E-01  .223E-01  .238E-01  .301E-01  .352E-01
  .439E-01  .684E-01  .116E+00  .102E+00  .600E-01  .978E-01  .112E+00  .154E+00
  .200E+00  .220E+00  .252E+00  .258E+00  .278E+00  .283E+00  .290E+00  .303E+00
  .321E+00  .335E+00  .386E+00  .400E+00  .382E+00  .302E+00  .297E+00  .265E+00
  .240E+00  .223E+00  .209E+00  .194E+00  .184E+00  .179E+00  .174E+00  .167E+00
  .159E+00  .159E+00  .159E+00  .161E+00  .158E+00  .155E+00  .154E+00  .154E+00
  .154E+00  .154E+00  .154E+00  .152E+00  .151E+00  .150E+00  .149E+00  .149E+00
  .150E+00  .151E+00  .150E+00  .150E+00  .150E+00  .149E+00  .150E+00  .149E+00
  .149E+00  .148E+00  .149E+00  .148E+00  .000E+00  .000E+00  .000E+00  .000E+00
  .000E+00  .000E+00  .000E+00  .000E+00  .000E+00  .000E+00  .000E+00  .000E+00
  .000E+00  .000E+00  .000E+00  .000E+00  .000E+00  .000E+00  .000E+00  .000E+00
  .000E+00  .000E+00  .000E+00  .000E+00  .000E+00  .000E+00  .000E+00  .000E+00
  .000E+00  .000E+00  .000E+00  .000E+00
  .131E-01  .132E-01  .141E-01  .134E-01  .144E-01  .140E-01  .143E-01  .178E-01
  .184E-01  .192E-01  .268E-01  .218E-01  .170E-01  .234E-01  .250E-01  .264E-01
  .326E-01  .312E-01  .330E-01  .309E-01  .311E-01  .298E-01  .295E-01  .295E-01
  .295E-01  .288E-01  .283E-01  .275E-01  .228E-01  .175E-01  .143E-01  .123E-01
  .103E-01  .905E-02  .777E-02  .660E-02  .577E-02  .520E-02  .462E-02  .402E-02
  .353E-02  .285E-02  .238E-02  .199E-02  .174E-02  .144E-02  .122E-02  .111E-02
  .980E-03  .869E-03  .781E-03  .620E-03  .513E-03  .438E-03  .376E-03  .356E-03
  .314E-03  .271E-03  .237E-03  .216E-03  .188E-03  .167E-03  .141E-03  .116E-03
  .100E-03  .908E-04  .798E-04  .718E-04  .000E+00  .000E+00  .000E+00  .000E+00
  .000E+00  .000E+00  .000E+00  .000E+00  .000E+00  .000E+00  .000E+00  .000E+00
  .000E+00  .000E+00  .000E+00  .000E+00  .000E+00  .000E+00  .000E+00  .000E+00
  .000E+00  .000E+00  .000E+00  .000E+00  .000E+00  .000E+00  .000E+00  .000E+00
  .000E+00  .000E+00  .000E+00  .000E+00
  .322E-01  .342E-01  .380E-01  .378E-01  .425E-01  .430E-01  .483E-01  .657E-01
  .733E-01  .826E-01  .123E+00  .107E+00  .889E-01  .129E+00  .146E+00  .162E+00
  .220E+00  .230E+00  .264E+00  .265E+00  .286E+00  .294E+00  .307E+00  .325E+00
  .343E+00  .353E+00  .383E+00  .405E+00  .365E+00  .302E+00  .264E+00  .241E+00
  .214E+00  .200E+00  .181E+00  .162E+00  .149E+00  .140E+00  .130E+00  .118E+00
  .108E+00  .960E-01  .873E-01  .790E-01  .750E-01  .662E-01  .595E-01  .576E-01
  .536E-01  .501E-01  .473E-01  .412E-01  .371E-01  .341E-01  .315E-01  .319E-01
  .298E-01  .273E-01  .250E-01  .240E-01  .219E-01  .213E-01  .194E-01  .170E-01
  .155E-01  .149E-01  .138E-01  .130E-01  .000E+00  .000E+00  .000E+00  .000E+00
  .000E+00  .000E+00  .000E+00  .000E+00  .000E+00  .000E+00  .000E+00  .000E+00
  .000E+00  .000E+00  .000E+00  .000E+00  .000E+00  .000E+00  .000E+00  .000E+00
  .000E+00  .000E+00  .000E+00  .000E+00  .000E+00  .000E+00  .000E+00  .000E+00
  .000E+00  .000E+00  .000E+00  .000E+00
  .255E+02  .255E+02  .255E+02  .255E+02  .255E+02  .255E+02  .255E+02  .255E+02
  .255E+02  .255E+02  .259E+02  .259E+02  .254E+02  .255E+02  .255E+02  .260E+02
  .255E+02  .255E+02  .255E+02  .255E+02  .255E+02  .256E+02  .256E+02  .256E+02
  .256E+02  .257E+02  .259E+02  .261E+02  .261E+02  .260E+02  .257E+02  .258E+02
  .256E+02  .256E+02  .256E+02  .256E+02  .256E+02  .256E+02  .256E+02  .257E+02
  .255E+02  .260E+02  .255E+02  .255E+02  .279E+02  .268E+02  .255E+02  .255E+02
  .255E+02  .255E+02  .255E+02  .255E+02  .255E+02  .255E+02  .255E+02  .255E+02
  .255E+02  .255E+02  .255E+02  .255E+02  .255E+02  .255E+02  .255E+02  .255E+02
  .255E+02  .255E+02  .255E+02  .255E+02  .000E+00  .000E+00  .000E+00  .000E+00
  .000E+00  .000E+00  .000E+00  .000E+00  .000E+00  .000E+00  .000E+00  .000E+00
  .000E+00  .000E+00  .000E+00  .000E+00  .000E+00  .000E+00  .000E+00  .000E+00
  .000E+00  .000E+00  .000E+00  .000E+00  .000E+00  .000E+00  .000E+00  .000E+00
  .000E+00  .000E+00  .000E+00  .000E+00
  .236E+02  .236E+02  .259E+02  .242E+02  .242E+02  .259E+02  .258E+02  .255E+02
  .260E+02  .259E+02  .259E+02  .260E+02  .257E+02  .257E+02  .260E+02  .260E+02
  .255E+02  .256E+02  .256E+02  .256E+02  .256E+02  .256E+02  .256E+02  .256E+02
  .257E+02  .257E+02  .258E+02  .261E+02  .260E+02  .259E+02  .258E+02  .258E+02
  .257E+02  .255E+02  .255E+02  .255E+02  .255E+02  .255E+02  .256E+02  .256E+02
  .255E+02  .255E+02  .255E+02  .255E+02  .255E+02  .255E+02  .255E+02  .255E+02
  .255E+02  .255E+02  .255E+02  .255E+02  .255E+02  .255E+02  .255E+02  .255E+02
  .255E+02  .255E+02  .255E+02  .255E+02  .255E+02  .255E+02  .255E+02  .255E+02
  .255E+02  .255E+02  .255E+02  .255E+02  .000E+00  .000E+00  .000E+00  .000E+00
  .000E+00  .000E+00  .000E+00  .000E+00  .000E+00  .000E+00  .000E+00  .000E+00
  .000E+00  .000E+00  .000E+00  .000E+00  .000E+00  .000E+00  .000E+00  .000E+00
  .000E+00  .000E+00  .000E+00  .000E+00  .000E+00  .000E+00  .000E+00  .000E+00
  .000E+00  .000E+00  .000E+00  .000E+00
  .255E+02  .255E+02  .255E+02  .255E+02  .255E+02  .255E+02  .255E+02  .255E+02
  .255E+02  .255E+02  .259E+02  .259E+02  .254E+02  .255E+02  .255E+02  .260E+02
  .255E+02  .255E+02  .255E+02  .255E+02  .255E+02  .256E+02  .256E+02  .256E+02
  .256E+02  .257E+02  .259E+02  .261E+02  .261E+02  .260E+02  .257E+02  .258E+02
  .256E+02  .256E+02  .256E+02  .256E+02  .256E+02  .256E+02  .256E+02  .256E+02
  .255E+02  .260E+02  .255E+02  .255E+02  .279E+02  .268E+02  .255E+02  .255E+02
  .255E+02  .255E+02  .255E+02  .255E+02  .255E+02  .255E+02  .255E+02  .255E+02
  .255E+02  .255E+02  .255E+02  .255E+02  .255E+02  .255E+02  .255E+02  .255E+02
  .255E+02  .255E+02  .255E+02  .255E+02  .000E+00  .000E+00  .000E+00  .000E+00
  .000E+00  .000E+00  .000E+00  .000E+00  .000E+00  .000E+00  .000E+00  .000E+00
  .000E+00  .000E+00  .000E+00  .000E+00  .000E+00  .000E+00  .000E+00  .000E+00
  .000E+00  .000E+00  .000E+00  .000E+00  .000E+00  .000E+00  .000E+00  .000E+00
  .000E+00  .000E+00  .000E+00  .000E+00
Damping =  .05. Data of Sd,Sv,Sa,Pssv,ttSd,ttSv,ttSa :
  .208E-03  .231E-03  .252E-03  .269E-03  .308E-03  .340E-03  .425E-03  .581E-03
  .721E-03  .890E-03  .103E-02  .114E-02  .129E-02  .170E-02  .206E-02  .243E-02
  .344E-02  .404E-02  .481E-02  .555E-02  .628E-02  .685E-02  .744E-02  .806E-02
  .881E-02  .961E-02  .107E-01  .111E-01  .114E-01  .111E-01  .109E-01  .107E-01
  .107E-01  .105E-01  .102E-01  .974E-02  .942E-02  .920E-02  .890E-02  .848E-02
