Response and Fourier amplitude spectra (68 periods,  .04 -  3.4 sec)   for      
Corrected accelerogram   24207-M0150-20021.15       Chan 17: 360 Deg     from   
Uncorrected Accelerogram Data             Processed: 01/24/20, CGS  ce24207o    
Rcrd of Tue Jan 21, 2020 23:40:50.0 PST               (Avol1 v2.0, 4/18 CSMIP)  
CSMIP Preliminary Processing            (Origin:  To be determined)             
24207-M0150-20021.15                 Start time:  1/22/20, 07:40:50.0 UTC (GPS) 
Station No. 24207   34.335N, 118.397W    MtWtny  s/n  150 (17 Chns of 17 at Sta)
Sylmar - Pacoima Dam                      CGS   Data: Acceleration              
Chan 17: 360 DegR                   Location: Left (South) Abutment             
Rcrd of Tue Jan 21, 2020 23:40:50.0 PST    Tue Jan 21, 2020 23:40:50.0 PST      
Hypocenter:  To be determined.               ML:  To be determined.
Instr Period =  .0110 sec,  Damping =  .660,  Sensitivity =  .63 v/g
                        Record Length = 58.000 sec.
                                     Uncor Max  =   .016 g, at   25.535 sec.
RMS accel of (uncor) record  =        .   Chn. metadata effective date: 09/02/99
Accelerogram bandpass filtered with 3 dB pts at   .30 and 40.00 cyc/sec
                 instrument- and base-line correcte





Rcrd of Tue Jan 21, 2020 23:40:50.0 PST    Tue Jan 21, 2020 23:40:50.0 PST

24207-M0150-20021.15      Sylmar - Pacoima Dam    Chan 17: 360 Deg

24207-M0150-20021.15      Sylmar - Pacoima Dam    Chan 17: 360 Deg

Units for spectra are inches and sec, except Sa is in fraction of g.

   17  100   17   18   17  200    1    3    1   24   13  150    024207    5    0
    7   40   50    0   22    1   22 2020   10    3  36011600   39   20   74   -1
11600    0  100    3  150    1   15  580    2 -999 -999 -999 -999 -999 -999 -999
 -999 -999    3 -99911600    1  222    1   18    4 -999 -999    3    1 -99911600
    311600    4   68    5   17    5    0    0 -999    0    0    1    3    1    2
    2    2    4    0   68   67    0   10 -999    1    0    1    0    0   64  222
    1    0    4    0
      .011      .660    58.000      .001     1.000   627.000      .016    25.535
    90.600      .298      .475  -999.000     5.000  -999.000     4.000  -999.000
     2.500    28.218     2.500  2016.000    25.000    30.000  -999.000      .003
      .005      .002     2.000    15.000    34.335  -118.397      .008      .016
     1.968      .001      .004   594.000    25.700    27.200    12.600   103.640
     1.000    10.003    -8.000  -999.000  -999.000  -999.000  -999.000  -999.000
     6.900     2.000     6.800   980.665      .005    58.000    14.419      .000
  -999.000    40.000  -999.000    58.000      .005      .303  -999.000  -999.000
    25.535    15.291    25.505     -.430    25.545     -.016      .000      .303
    40.000      .005      .005      .000      .005      .003  -999.000  -999.000
      .053      .070      .027      .014      .001      .000  -999.000  -999.000
  -999.000  -999.000  -999.000  -999.000  -999.000  -999.000  -999.000  -999.000
  -999.000  -999.000  -999.000  -999.000
      .000      .020      .050      .100      .200
      .040      .042      .044      .046      .048      .050      .055      .060
      .065      .070      .075      .080      .085      .090      .095      .100
      .110      .120      .130      .140      .150      .160      .170      .180
      .190      .200      .220      .240      .260      .280      .300      .320
      .340      .360      .380      .400      .420      .440      .460      .480
      .500      .550      .600      .650      .700      .750      .800      .850
      .900      .950     1.000     1.100     1.200     1.300     1.400     1.500
     1.600     1.700     1.800     1.900     2.000     2.200     2.400     2.600
     2.800     3.000     3.200     3.400      .000      .000      .000      .000
      .000      .000      .000      .000      .000      .000      .000      .000
      .000      .000      .000      .000      .000      .000      .000      .000
      .000      .000      .000      .000      .000      .000      .000      .000
      .000      .000      .000      .000
Fourier amplitude spectra in in/sec.
  .643E-01  .731E-01  .712E-01  .624E-01  .103E+00  .131E+00  .166E+00  .808E-01
  .223E+00  .800E+00  .564E+00  .271E+00  .219E+00  .264E+00  .318E+00  .349E+00
  .847E-01  .610E+00  .272E+00  .346E+00  .407E+00  .134E+00  .229E-01  .348E+00
  .374E+00  .592E+00  .605E+00  .551E+00  .419E+00  .589E+00  .318E+00  .258E+00
  .117E+00  .133E+00  .173E+00  .189E+00  .239E+00  .908E-01  .119E+00  .163E+00
  .171E+00  .125E+00  .822E-01  .424E-01  .965E-01  .674E-01  .530E-01  .439E-01
  .489E-01  .182E-01  .115E-01  .149E-01  .203E-02  .115E-01  .119E-01  .660E-02
  .736E-02  .513E-02  .735E-02  .459E-02  .802E-02  .496E-02  .686E-02  .548E-02
  .280E-02  .386E-02  .498E-02  .229E-02  .000E+00  .000E+00  .000E+00  .000E+00
  .000E+00  .000E+00  .000E+00  .000E+00  .000E+00  .000E+00  .000E+00  .000E+00
  .000E+00  .000E+00  .000E+00  .000E+00  .000E+00  .000E+00  .000E+00  .000E+00
  .000E+00  .000E+00  .000E+00  .000E+00  .000E+00  .000E+00  .000E+00  .000E+00
  .000E+00  .000E+00  .000E+00  .000E+00
Damping =  .00. Data of Sd,Sv,Sa,Pssv,ttSd,ttSv,ttSa :
  .793E-03  .832E-03  .582E-03  .684E-03  .122E-02  .172E-02  .272E-02  .157E-02
  .298E-02  .101E-01  .890E-02  .490E-02  .443E-02  .472E-02  .610E-02  .799E-02
  .590E-02  .127E-01  .982E-02  .100E-01  .106E-01  .872E-02  .830E-02  .122E-01
  .161E-01  .219E-01  .241E-01  .212E-01  .202E-01  .288E-01  .170E-01  .143E-01
  .129E-01  .119E-01  .124E-01  .148E-01  .162E-01  .131E-01  .137E-01  .139E-01
  .165E-01  .130E-01  .969E-02  .844E-02  .108E-01  .905E-02  .974E-02  .750E-02
  .773E-02  .751E-02  .716E-02  .649E-02  .649E-02  .667E-02  .686E-02  .750E-02
  .612E-02  .730E-02  .636E-02  .632E-02  .688E-02  .687E-02  .661E-02  .679E-02
  .746E-02  .547E-02  .607E-02  .712E-02  .000E+00  .000E+00  .000E+00  .000E+00
  .000E+00  .000E+00  .000E+00  .000E+00  .000E+00  .000E+00  .000E+00  .000E+00
  .000E+00  .000E+00  .000E+00  .000E+00  .000E+00  .000E+00  .000E+00  .000E+00
  .000E+00  .000E+00  .000E+00  .000E+00  .000E+00  .000E+00  .000E+00  .000E+00
  .000E+00  .000E+00  .000E+00  .000E+00
  .103E+00  .108E+00  .745E-01  .836E-01  .146E+00  .188E+00  .275E+00  .157E+00
  .286E+00  .889E+00  .744E+00  .383E+00  .315E+00  .340E+00  .398E+00  .497E+00
  .334E+00  .666E+00  .495E+00  .448E+00  .443E+00  .306E+00  .284E+00  .424E+00
  .521E+00  .687E+00  .701E+00  .556E+00  .485E+00  .648E+00  .357E+00  .353E+00
  .327E+00  .278E+00  .254E+00  .243E+00  .242E+00  .204E+00  .197E+00  .205E+00
  .210E+00  .191E+00  .181E+00  .183E+00  .185E+00  .181E+00  .179E+00  .178E+00
  .176E+00  .180E+00  .179E+00  .174E+00  .174E+00  .173E+00  .170E+00  .172E+00
  .170E+00  .173E+00  .171E+00  .170E+00  .169E+00  .171E+00  .169E+00  .169E+00
  .171E+00  .171E+00  .167E+00  .168E+00  .000E+00  .000E+00  .000E+00  .000E+00
  .000E+00  .000E+00  .000E+00  .000E+00  .000E+00  .000E+00  .000E+00  .000E+00
  .000E+00  .000E+00  .000E+00  .000E+00  .000E+00  .000E+00  .000E+00  .000E+00
  .000E+00  .000E+00  .000E+00  .000E+00  .000E+00  .000E+00  .000E+00  .000E+00
  .000E+00  .000E+00  .000E+00  .000E+00
  .507E-01  .483E-01  .307E-01  .330E-01  .542E-01  .705E-01  .921E-01  .446E-01
  .722E-01  .211E+00  .162E+00  .783E-01  .627E-01  .596E-01  .691E-01  .818E-01
  .498E-01  .905E-01  .594E-01  .522E-01  .482E-01  .348E-01  .294E-01  .386E-01
  .456E-01  .560E-01  .510E-01  .377E-01  .305E-01  .376E-01  .193E-01  .143E-01
  .114E-01  .941E-02  .877E-02  .945E-02  .938E-02  .694E-02  .665E-02  .617E-02
  .674E-02  .438E-02  .275E-02  .204E-02  .226E-02  .165E-02  .156E-02  .106E-02
  .976E-03  .851E-03  .732E-03  .548E-03  .461E-03  .404E-03  .358E-03  .341E-03
  .244E-03  .258E-03  .201E-03  .179E-03  .176E-03  .145E-03  .117E-03  .103E-03
  .974E-04  .621E-04  .607E-04  .630E-04  .000E+00  .000E+00  .000E+00  .000E+00
  .000E+00  .000E+00  .000E+00  .000E+00  .000E+00  .000E+00  .000E+00  .000E+00
  .000E+00  .000E+00  .000E+00  .000E+00  .000E+00  .000E+00  .000E+00  .000E+00
  .000E+00  .000E+00  .000E+00  .000E+00  .000E+00  .000E+00  .000E+00  .000E+00
  .000E+00  .000E+00  .000E+00  .000E+00
  .125E+00  .125E+00  .831E-01  .934E-01  .160E+00  .217E+00  .311E+00  .164E+00
  .288E+00  .907E+00  .746E+00  .385E+00  .327E+00  .329E+00  .403E+00  .502E+00
  .337E+00  .667E+00  .475E+00  .449E+00  .444E+00  .342E+00  .307E+00  .427E+00
  .533E+00  .688E+00  .689E+00  .556E+00  .487E+00  .647E+00  .356E+00  .281E+00
  .239E+00  .208E+00  .205E+00  .232E+00  .242E+00  .188E+00  .188E+00  .182E+00
  .207E+00  .148E+00  .101E+00  .816E-01  .973E-01  .758E-01  .765E-01  .555E-01
  .540E-01  .497E-01  .450E-01  .371E-01  .340E-01  .322E-01  .308E-01  .314E-01
  .240E-01  .270E-01  .222E-01  .209E-01  .216E-01  .196E-01  .173E-01  .164E-01
  .167E-01  .114E-01  .119E-01  .132E-01  .000E+00  .000E+00  .000E+00  .000E+00
  .000E+00  .000E+00  .000E+00  .000E+00  .000E+00  .000E+00  .000E+00  .000E+00
  .000E+00  .000E+00  .000E+00  .000E+00  .000E+00  .000E+00  .000E+00  .000E+00
  .000E+00  .000E+00  .000E+00  .000E+00  .000E+00  .000E+00  .000E+00  .000E+00
  .000E+00  .000E+00  .000E+00  .000E+00
  .255E+02  .259E+02  .264E+02  .259E+02  .262E+02  .259E+02  .259E+02  .261E+02
  .251E+02  .265E+02  .261E+02  .271E+02  .257E+02  .260E+02  .261E+02  .263E+02
  .258E+02  .265E+02  .259E+02  .265E+02  .286E+02  .256E+02  .256E+02  .272E+02
  .262E+02  .266E+02  .269E+02  .431E+02  .298E+02  .276E+02  .287E+02  .258E+02
  .258E+02  .257E+02  .282E+02  .279E+02  .452E+02  .264E+02  .264E+02  .296E+02
  .285E+02  .274E+02  .266E+02  .261E+02  .517E+02  .280E+02  .274E+02  .300E+02
  .255E+02  .255E+02  .255E+02  .255E+02  .255E+02  .255E+02  .255E+02  .255E+02
  .255E+02  .255E+02  .255E+02  .255E+02  .255E+02  .255E+02  .255E+02  .255E+02
  .255E+02  .255E+02  .255E+02  .255E+02  .000E+00  .000E+00  .000E+00  .000E+00
  .000E+00  .000E+00  .000E+00  .000E+00  .000E+00  .000E+00  .000E+00  .000E+00
  .000E+00  .000E+00  .000E+00  .000E+00  .000E+00  .000E+00  .000E+00  .000E+00
  .000E+00  .000E+00  .000E+00  .000E+00  .000E+00  .000E+00  .000E+00  .000E+00
  .000E+00  .000E+00  .000E+00  .000E+00
  .259E+02  .259E+02  .273E+02  .262E+02  .262E+02  .262E+02  .259E+02  .260E+02
  .251E+02  .265E+02  .261E+02  .265E+02  .257E+02  .260E+02  .261E+02  .263E+02
  .258E+02  .264E+02  .259E+02  .264E+02  .286E+02  .256E+02  .255E+02  .262E+02
  .264E+02  .267E+02  .270E+02  .437E+02  .297E+02  .277E+02  .288E+02  .257E+02
  .257E+02  .257E+02  .257E+02  .280E+02  .451E+02  .265E+02  .263E+02  .263E+02
  .284E+02  .255E+02  .255E+02  .255E+02  .255E+02  .255E+02  .255E+02  .255E+02
  .255E+02  .255E+02  .255E+02  .255E+02  .255E+02  .255E+02  .255E+02  .255E+02
  .255E+02  .255E+02  .255E+02  .255E+02  .255E+02  .255E+02  .255E+02  .255E+02
  .255E+02  .255E+02  .255E+02  .255E+02  .000E+00  .000E+00  .000E+00  .000E+00
  .000E+00  .000E+00  .000E+00  .000E+00  .000E+00  .000E+00  .000E+00  .000E+00
  .000E+00  .000E+00  .000E+00  .000E+00  .000E+00  .000E+00  .000E+00  .000E+00
  .000E+00  .000E+00  .000E+00  .000E+00  .000E+00  .000E+00  .000E+00  .000E+00
  .000E+00  .000E+00  .000E+00  .000E+00
  .255E+02  .259E+02  .264E+02  .259E+02  .262E+02  .259E+02  .259E+02  .261E+02
  .251E+02  .265E+02  .261E+02  .271E+02  .257E+02  .260E+02  .261E+02  .263E+02
  .258E+02  .265E+02  .259E+02  .265E+02  .286E+02  .256E+02  .256E+02  .272E+02
  .262E+02  .266E+02  .269E+02  .431E+02  .298E+02  .276E+02  .287E+02  .258E+02
  .258E+02  .257E+02  .282E+02  .279E+02  .452E+02  .264E+02  .264E+02  .296E+02
  .285E+02  .274E+02  .266E+02  .261E+02  .517E+02  .280E+02  .274E+02  .300E+02
  .255E+02  .255E+02  .255E+02  .255E+02  .255E+02  .255E+02  .255E+02  .255E+02
  .255E+02  .255E+02  .255E+02  .255E+02  .255E+02  .255E+02  .255E+02  .255E+02
  .255E+02  .255E+02  .255E+02  .255E+02  .000E+00  .000E+00  .000E+00  .000E+00
  .000E+00  .000E+00  .000E+00  .000E+00  .000E+00  .000E+00  .000E+00  .000E+00
  .000E+00  .000E+00  .000E+00  .000E+00  .000E+00  .000E+00  .000E+00  .000E+00
  .000E+00  .000E+00  .000E+00  .000E+00  .000E+00  .000E+00  .000E+00  .000E+00
  .000E+00  .000E+00  .000E+00  .000E+00
Damping =  .02. Data of Sd,Sv,Sa,Pssv,ttSd,ttSv,ttSa :
  .375E-03  .427E-03  .476E-03  .514E-03  .535E-03  .668E-03  .116E-02  .139E-02
  .209E-02  .359E-02  .415E-02  .282E-02  .332E-02  .357E-02  .434E-02  .476E-02
  .600E-02  .735E-02  .827E-02  .793E-02  .831E-02  .832E-02  .842E-02  .971E-02
  .119E-01  .146E-01  .161E-01  .165E-01  .146E-01  .167E-01  .128E-01  .128E-01
  .119E-01  .115E-01  .114E-01  .114E-01  .113E-01  .114E-01  .115E-01  .111E-01
  .106E-01  .102E-01  .811E-02  .816E-02  .792E-02  .763E-02  .817E-02  .749E-02
  .754E-02  .746E-02  .722E-02  .675E-02  .660E-02  .660E-02  .670E-02  .703E-02
  .654E-02  .694E-02  .650E-02  .648E-02  .677E-02  .679E-02  .663E-02  .683E-02
  .707E-02  .595E-02  .622E-02  .697E-02  .000E+00  .000E+00  .000E+00  .000E+00
  .000E+00  .000E+00  .000E+00  .000E+00  .000E+00  .000E+00  .000E+00  .000E+00
  .000E+00  .000E+00  .000E+00  .000E+00  .000E+00  .000E+00  .000E+00  .000E+00
  .000E+00  .000E+00  .000E+00  .000E+00  .000E+00  .000E+00  .000E+00  .000E+00
  .000E+00  .000E+00  .000E+00  .000E+00
  .425E-01  .455E-01  .431E-01  .493E-01  .492E-01  .597E-01  .113E+00  .138E+00
  .189E+00  .308E+00  .352E+00  .220E+00  .244E+00  .244E+00  .298E+00  .285E+00
  .330E+00  .373E+00  .421E+00  .352E+00  .324E+00  .291E+00  .290E+00  .330E+00
  .375E+00  .452E+00  .511E+00  .425E+00  .410E+00  .381E+00  .327E+00  .329E+00
  .309E+00  .272E+00  .247E+00  .223E+00  .201E+00  .183E+00  .186E+00  .185E+00
  .186E+00  .186E+00  .181E+00  .182E+00  .182E+00  .179E+00  .178E+00  .177E+00
  .177E+00  .178E+00  .177E+00  .174E+00  .173E+00  .172E+00  .170E+00  .171E+00
  .170E+00  .171E+00  .171E+00  .170E+00  .169E+00  .170E+00  .169E+00  .169E+00
  .170E+00  .170E+00  .168E+00  .168E+00  .000E+00  .000E+00  .000E+00  .000E+00
  .000E+00  .000E+00  .000E+00  .000E+00  .000E+00  .000E+00  .000E+00  .000E+00
  .000E+00  .000E+00  .000E+00  .000E+00  .000E+00  .000E+00  .000E+00  .000E+00
  .000E+00  .000E+00  .000E+00  .000E+00  .000E+00  .000E+00  .000E+00  .000E+00
  .000E+00  .000E+00  .000E+00  .000E+00
  .239E-01  .248E-01  .252E-01  .249E-01  .237E-01  .274E-01  .392E-01  .394E-01
  .506E-01  .752E-01  .756E-01  .453E-01  .470E-01  .451E-01  .492E-01  .490E-01
  .507E-01  .521E-01  .499E-01  .416E-01  .377E-01  .332E-01  .299E-01  .307E-01
  .338E-01  .373E-01  .340E-01  .294E-01  .221E-01  .219E-01  .146E-01  .128E-01
  .106E-01  .906E-02  .806E-02  .729E-02  .658E-02  .606E-02  .556E-02  .494E-02
  .433E-02  .344E-02  .232E-02  .199E-02  .167E-02  .139E-02  .131E-02  .107E-02
  .965E-03  .857E-03  .750E-03  .583E-03  .481E-03  .412E-03  .362E-03  .332E-03
  .273E-03  .257E-03  .217E-03  .196E-03  .186E-03  .156E-03  .130E-03  .115E-03
  .104E-03  .796E-04  .740E-04  .734E-04  .000E+00  .000E+00  .000E+00  .000E+00
  .000E+00  .000E+00  .000E+00  .000E+00  .000E+00  .000E+00  .000E+00  .000E+00
  .000E+00  .000E+00  .000E+00  .000E+00  .000E+00  .000E+00  .000E+00  .000E+00
  .000E+00  .000E+00  .000E+00  .000E+00  .000E+00  .000E+00  .000E+00  .000E+00
  .000E+00  .000E+00  .000E+00  .000E+00
  .589E-01  .639E-01  .680E-01  .701E-01  .700E-01  .840E-01  .133E+00  .145E+00
  .202E+00  .322E+00  .348E+00  .221E+00  .246E+00  .250E+00  .287E+00  .299E+00
  .343E+00  .385E+00  .400E+00  .356E+00  .348E+00  .327E+00  .311E+00  .339E+00
  .394E+00  .459E+00  .460E+00  .431E+00  .352E+00  .376E+00  .268E+00  .251E+00
  .221E+00  .200E+00  .188E+00  .179E+00  .170E+00  .163E+00  .157E+00  .145E+00
  .133E+00  .116E+00  .849E-01  .789E-01  .711E-01  .640E-01  .641E-01  .554E-01
  .527E-01  .493E-01  .453E-01  .385E-01  .346E-01  .319E-01  .301E-01  .294E-01
  .257E-01  .257E-01  .227E-01  .214E-01  .213E-01  .194E-01  .174E-01  .165E-01
  .159E-01  .125E-01  .122E-01  .129E-01  .000E+00  .000E+00  .000E+00  .000E+00
  .000E+00  .000E+00  .000E+00  .000E+00  .000E+00  .000E+00  .000E+00  .000E+00
  .000E+00  .000E+00  .000E+00  .000E+00  .000E+00  .000E+00  .000E+00  .000E+00
  .000E+00  .000E+00  .000E+00  .000E+00  .000E+00  .000E+00  .000E+00  .000E+00
  .000E+00  .000E+00  .000E+00  .000E+00
  .259E+02  .259E+02  .259E+02  .259E+02  .259E+02  .255E+02  .259E+02  .259E+02
  .259E+02  .263E+02  .259E+02  .258E+02  .256E+02  .257E+02  .259E+02  .257E+02
  .258E+02  .258E+02  .259E+02  .259E+02  .256E+02  .256E+02  .256E+02  .256E+02
  .262E+02  .264E+02  .258E+02  .259E+02  .258E+02  .274E+02  .258E+02  .258E+02
  .257E+02  .257E+02  .257E+02  .257E+02  .257E+02  .257E+02  .257E+02  .257E+02
  .275E+02  .274E+02  .255E+02  .255E+02  .255E+02  .273E+02  .274E+02  .255E+02
  .255E+02  .255E+02  .255E+02  .255E+02  .255E+02  .255E+02  .255E+02  .255E+02
  .255E+02  .255E+02  .255E+02  .255E+02  .255E+02  .255E+02  .255E+02  .255E+02
  .255E+02  .255E+02  .255E+02  .255E+02  .000E+00  .000E+00  .000E+00  .000E+00
  .000E+00  .000E+00  .000E+00  .000E+00  .000E+00  .000E+00  .000E+00  .000E+00
  .000E+00  .000E+00  .000E+00  .000E+00  .000E+00  .000E+00  .000E+00  .000E+00
  .000E+00  .000E+00  .000E+00  .000E+00  .000E+00  .000E+00  .000E+00  .000E+00
  .000E+00  .000E+00  .000E+00  .000E+00
  .236E+02  .236E+02  .259E+02  .259E+02  .259E+02  .259E+02  .259E+02  .259E+02
  .238E+02  .263E+02  .260E+02  .259E+02  .256E+02  .257E+02  .259E+02  .256E+02
  .258E+02  .258E+02  .259E+02  .259E+02  .256E+02  .255E+02  .255E+02  .255E+02
  .259E+02  .259E+02  .259E+02  .258E+02  .258E+02  .258E+02  .257E+02  .257E+02
  .257E+02  .257E+02  .257E+02  .257E+02  .257E+02  .256E+02  .256E+02  .256E+02
  .255E+02  .255E+02  .255E+02  .255E+02  .255E+02  .255E+02  .255E+02  .255E+02
  .255E+02  .255E+02  .255E+02  .255E+02  .255E+02  .255E+02  .255E+02  .255E+02
  .255E+02  .255E+02  .255E+02  .255E+02  .255E+02  .255E+02  .255E+02  .255E+02
  .255E+02  .255E+02  .255E+02  .255E+02  .000E+00  .000E+00  .000E+00  .000E+00
  .000E+00  .000E+00  .000E+00  .000E+00  .000E+00  .000E+00  .000E+00  .000E+00
  .000E+00  .000E+00  .000E+00  .000E+00  .000E+00  .000E+00  .000E+00  .000E+00
  .000E+00  .000E+00  .000E+00  .000E+00  .000E+00  .000E+00  .000E+00  .000E+00
  .000E+00  .000E+00  .000E+00  .000E+00
  .259E+02  .259E+02  .259E+02  .259E+02  .259E+02  .259E+02  .259E+02  .259E+02
  .259E+02  .263E+02  .259E+02  .258E+02  .256E+02  .257E+02  .259E+02  .257E+02
  .258E+02  .258E+02  .259E+02  .259E+02  .256E+02  .256E+02  .256E+02  .256E+02
  .262E+02  .264E+02  .259E+02  .259E+02  .258E+02  .274E+02  .258E+02  .258E+02
  .257E+02  .257E+02  .257E+02  .257E+02  .257E+02  .257E+02  .257E+02  .257E+02
  .275E+02  .274E+02  .255E+02  .255E+02  .255E+02  .273E+02  .274E+02  .255E+02
  .255E+02  .255E+02  .255E+02  .255E+02  .255E+02  .255E+02  .255E+02  .255E+02
  .255E+02  .255E+02  .255E+02  .255E+02  .255E+02  .255E+02  .255E+02  .255E+02
  .255E+02  .255E+02  .255E+02  .255E+02  .000E+00  .000E+00  .000E+00  .000E+00
  .000E+00  .000E+00  .000E+00  .000E+00  .000E+00  .000E+00  .000E+00  .000E+00
  .000E+00  .000E+00  .000E+00  .000E+00  .000E+00  .000E+00  .000E+00  .000E+00
  .000E+00  .000E+00  .000E+00  .000E+00  .000E+00  .000E+00  .000E+00  .000E+00
  .000E+00  .000E+00  .000E+00  .000E+00
Damping =  .05. Data of Sd,Sv,Sa,Pssv,ttSd,ttSv,ttSa :
  .355E-03  .404E-03  .453E-03  .498E-03  .546E-03  .620E-03  .964E-03  .114E-02
  .174E-02  .256E-02  .280E-02  .217E-02  .269E-02  .299E-02  .336E-02  .358E-02
  .468E-02  .554E-02  .614E-02  .661E-02  .736E-02  .764E-02  .797E-02  .847E-02
  .934E-02  .106E-01  .131E-01  .136E-01  .129E-01  .126E-01  .116E-01  .111E-01
  .108E-01  .107E-01  .107E-01  .107E-01  .107E-01  .107E-01  .106E-01  .103E-01
