Response and Fourier amplitude spectra (68 periods,  .04 -  3.4 sec)   for      
Corrected accelerogram   24207-M0150-20021.15       Chan 15: 270 Deg     from   
Uncorrected Accelerogram Data             Processed: 01/24/20, CGS  ce24207o    
Rcrd of Tue Jan 21, 2020 23:40:50.0 PST               (Avol1 v2.0, 4/18 CSMIP)  
CSMIP Preliminary Processing            (Origin:  To be determined)             
24207-M0150-20021.15                 Start time:  1/22/20, 07:40:50.0 UTC (GPS) 
Station No. 24207   34.335N, 118.397W    MtWtny  s/n  150 (17 Chns of 17 at Sta)
Sylmar - Pacoima Dam                      CGS   Data: Acceleration              
Chan 15: 270 DegR                   Location: Left (South) Abutment             
Rcrd of Tue Jan 21, 2020 23:40:50.0 PST    Tue Jan 21, 2020 23:40:50.0 PST      
Hypocenter:  To be determined.               ML:  To be determined.
Instr Period =  .0104 sec,  Damping =  .660,  Sensitivity =  .63 v/g
                        Record Length = 58.000 sec.
                                     Uncor Max  =   .012 g, at   25.550 sec.
RMS accel of (uncor) record  =        .   Chn. metadata effective date: 09/02/99
Accelerogram bandpass filtered with 3 dB pts at   .30 and 40.00 cyc/sec
                 instrument- and base-line correcte





Rcrd of Tue Jan 21, 2020 23:40:50.0 PST    Tue Jan 21, 2020 23:40:50.0 PST

24207-M0150-20021.15      Sylmar - Pacoima Dam    Chan 15: 270 Deg

24207-M0150-20021.15      Sylmar - Pacoima Dam    Chan 15: 270 Deg

Units for spectra are inches and sec, except Sa is in fraction of g.

   15  100   15   18   17  200    1    3    1   24   13  150    024207    5    0
    7   40   50    0   22    1   22 2020   10    3  27011600   39   20   74   -1
11600    0  100    3  150    1   15  580    2 -999 -999 -999 -999 -999 -999 -999
 -999 -999    3 -99911600    1  222    1   18    4 -999 -999    3    1 -99911600
    311600    4   68    5   17    5    0    0 -999    0    0    1    3    1    2
    2    2    4    0   68   67    0   10 -999    1    0    1    0    0   64  222
    1    0    4    0
      .010      .660    58.000      .001     1.000   627.000      .012    25.550
    95.900      .298      .475  -999.000     5.000  -999.000     4.000  -999.000
     2.500     6.299     2.500  2016.000    25.000    30.000  -999.000     -.004
      .000      .004     2.000    15.000    34.335  -118.397      .007      .016
     2.169      .002      .006   594.000    25.700    27.200    12.600   103.640
     1.000    10.003    -8.000  -999.000  -999.000  -999.000  -999.000  -999.000
     6.900     2.000     6.800   980.665      .005    58.000    15.263      .000
  -999.000    40.000  -999.000    58.000      .005      .303  -999.000  -999.000
    25.545    12.025    25.855      .316    25.795     -.012      .000      .303
    40.000      .005      .005      .000      .005      .003  -999.000  -999.000
      .041      .220      .036      .017      .001      .000  -999.000  -999.000
  -999.000  -999.000  -999.000  -999.000  -999.000  -999.000  -999.000  -999.000
  -999.000  -999.000  -999.000  -999.000
      .000      .020      .050      .100      .200
      .040      .042      .044      .046      .048      .050      .055      .060
      .065      .070      .075      .080      .085      .090      .095      .100
      .110      .120      .130      .140      .150      .160      .170      .180
      .190      .200      .220      .240      .260      .280      .300      .320
      .340      .360      .380      .400      .420      .440      .460      .480
      .500      .550      .600      .650      .700      .750      .800      .850
      .900      .950     1.000     1.100     1.200     1.300     1.400     1.500
     1.600     1.700     1.800     1.900     2.000     2.200     2.400     2.600
     2.800     3.000     3.200     3.400      .000      .000      .000      .000
      .000      .000      .000      .000      .000      .000      .000      .000
      .000      .000      .000      .000      .000      .000      .000      .000
      .000      .000      .000      .000      .000      .000      .000      .000
      .000      .000      .000      .000
Fourier amplitude spectra in in/sec.
  .202E+00  .102E+00  .188E+00  .947E-01  .561E-01  .125E+00  .275E+00  .202E+00
  .226E+00  .335E+00  .198E+00  .104E+00  .154E+00  .246E+00  .291E+00  .211E+00
  .169E+00  .252E+00  .234E+00  .746E+00  .554E+00  .138E+00  .423E-01  .381E+00
  .554E+00  .478E+00  .892E+00  .106E+01  .969E+00  .337E+00  .198E+00  .395E+00
  .199E+00  .112E+00  .443E-01  .593E-01  .989E-01  .187E-01  .405E-01  .207E-01
  .768E-01  .855E-01  .509E-01  .362E-01  .214E-01  .783E-02  .112E-01  .615E-02
  .169E-01  .956E-02  .554E-02  .148E-01  .131E-01  .162E-01  .141E-01  .664E-02
  .939E-02  .275E-02  .435E-02  .869E-02  .111E-02  .445E-02  .742E-02  .514E-02
  .152E-02  .255E-02  .283E-02  .227E-02  .000E+00  .000E+00  .000E+00  .000E+00
  .000E+00  .000E+00  .000E+00  .000E+00  .000E+00  .000E+00  .000E+00  .000E+00
  .000E+00  .000E+00  .000E+00  .000E+00  .000E+00  .000E+00  .000E+00  .000E+00
  .000E+00  .000E+00  .000E+00  .000E+00  .000E+00  .000E+00  .000E+00  .000E+00
  .000E+00  .000E+00  .000E+00  .000E+00
Damping =  .00. Data of Sd,Sv,Sa,Pssv,ttSd,ttSv,ttSa :
  .154E-02  .968E-03  .143E-02  .819E-03  .747E-03  .147E-02  .347E-02  .221E-02
  .264E-02  .446E-02  .308E-02  .242E-02  .263E-02  .368E-02  .471E-02  .410E-02
  .418E-02  .552E-02  .821E-02  .169E-01  .141E-01  .121E-01  .132E-01  .140E-01
  .185E-01  .216E-01  .318E-01  .456E-01  .412E-01  .220E-01  .174E-01  .207E-01
  .149E-01  .110E-01  .996E-02  .923E-02  .811E-02  .711E-02  .690E-02  .689E-02
  .672E-02  .822E-02  .615E-02  .520E-02  .510E-02  .509E-02  .504E-02  .498E-02
  .535E-02  .538E-02  .534E-02  .581E-02  .610E-02  .645E-02  .651E-02  .624E-02
  .644E-02  .508E-02  .508E-02  .569E-02  .517E-02  .489E-02  .589E-02  .534E-02
  .515E-02  .510E-02  .490E-02  .478E-02  .000E+00  .000E+00  .000E+00  .000E+00
  .000E+00  .000E+00  .000E+00  .000E+00  .000E+00  .000E+00  .000E+00  .000E+00
  .000E+00  .000E+00  .000E+00  .000E+00  .000E+00  .000E+00  .000E+00  .000E+00
  .000E+00  .000E+00  .000E+00  .000E+00  .000E+00  .000E+00  .000E+00  .000E+00
  .000E+00  .000E+00  .000E+00  .000E+00
  .221E+00  .140E+00  .189E+00  .104E+00  .960E-01  .168E+00  .383E+00  .231E+00
  .243E+00  .403E+00  .256E+00  .175E+00  .191E+00  .249E+00  .312E+00  .246E+00
  .229E+00  .272E+00  .364E+00  .756E+00  .593E+00  .451E+00  .477E+00  .489E+00
  .609E+00  .683E+00  .907E+00  .120E+01  .100E+01  .524E+00  .416E+00  .411E+00
  .290E+00  .249E+00  .230E+00  .219E+00  .203E+00  .185E+00  .174E+00  .170E+00
  .170E+00  .156E+00  .143E+00  .138E+00  .135E+00  .134E+00  .132E+00  .130E+00
  .131E+00  .130E+00  .129E+00  .130E+00  .130E+00  .131E+00  .131E+00  .130E+00
  .130E+00  .128E+00  .131E+00  .126E+00  .127E+00  .129E+00  .129E+00  .127E+00
  .127E+00  .128E+00  .125E+00  .126E+00  .000E+00  .000E+00  .000E+00  .000E+00
  .000E+00  .000E+00  .000E+00  .000E+00  .000E+00  .000E+00  .000E+00  .000E+00
  .000E+00  .000E+00  .000E+00  .000E+00  .000E+00  .000E+00  .000E+00  .000E+00
  .000E+00  .000E+00  .000E+00  .000E+00  .000E+00  .000E+00  .000E+00  .000E+00
  .000E+00  .000E+00  .000E+00  .000E+00
  .986E-01  .561E-01  .758E-01  .396E-01  .332E-01  .603E-01  .117E+00  .627E-01
  .640E-01  .932E-01  .560E-01  .387E-01  .372E-01  .464E-01  .534E-01  .419E-01
  .353E-01  .392E-01  .497E-01  .881E-01  .639E-01  .485E-01  .467E-01  .441E-01
  .523E-01  .551E-01  .672E-01  .810E-01  .624E-01  .288E-01  .198E-01  .207E-01
  .132E-01  .872E-02  .705E-02  .590E-02  .470E-02  .376E-02  .333E-02  .306E-02
  .275E-02  .278E-02  .175E-02  .126E-02  .106E-02  .925E-03  .806E-03  .705E-03
  .676E-03  .609E-03  .546E-03  .491E-03  .433E-03  .390E-03  .340E-03  .283E-03
  .257E-03  .180E-03  .160E-03  .161E-03  .132E-03  .103E-03  .105E-03  .808E-04
  .671E-04  .579E-04  .489E-04  .423E-04  .000E+00  .000E+00  .000E+00  .000E+00
  .000E+00  .000E+00  .000E+00  .000E+00  .000E+00  .000E+00  .000E+00  .000E+00
  .000E+00  .000E+00  .000E+00  .000E+00  .000E+00  .000E+00  .000E+00  .000E+00
  .000E+00  .000E+00  .000E+00  .000E+00  .000E+00  .000E+00  .000E+00  .000E+00
  .000E+00  .000E+00  .000E+00  .000E+00
  .242E+00  .145E+00  .205E+00  .112E+00  .978E-01  .185E+00  .396E+00  .231E+00
  .256E+00  .401E+00  .258E+00  .190E+00  .194E+00  .257E+00  .311E+00  .257E+00
  .239E+00  .289E+00  .397E+00  .758E+00  .589E+00  .476E+00  .488E+00  .488E+00
  .610E+00  .678E+00  .909E+00  .119E+01  .997E+00  .495E+00  .365E+00  .407E+00
  .275E+00  .193E+00  .165E+00  .145E+00  .121E+00  .102E+00  .942E-01  .902E-01
  .844E-01  .939E-01  .644E-01  .502E-01  .458E-01  .426E-01  .396E-01  .368E-01
  .374E-01  .356E-01  .335E-01  .332E-01  .319E-01  .312E-01  .292E-01  .261E-01
  .253E-01  .188E-01  .177E-01  .188E-01  .162E-01  .140E-01  .154E-01  .129E-01
  .115E-01  .107E-01  .961E-02  .884E-02  .000E+00  .000E+00  .000E+00  .000E+00
  .000E+00  .000E+00  .000E+00  .000E+00  .000E+00  .000E+00  .000E+00  .000E+00
  .000E+00  .000E+00  .000E+00  .000E+00  .000E+00  .000E+00  .000E+00  .000E+00
  .000E+00  .000E+00  .000E+00  .000E+00  .000E+00  .000E+00  .000E+00  .000E+00
  .000E+00  .000E+00  .000E+00  .000E+00
  .255E+02  .238E+02  .263E+02  .263E+02  .256E+02  .263E+02  .256E+02  .324E+02
  .259E+02  .269E+02  .262E+02  .255E+02  .273E+02  .258E+02  .264E+02  .262E+02
  .263E+02  .259E+02  .259E+02  .287E+02  .267E+02  .258E+02  .258E+02  .258E+02
  .261E+02  .270E+02  .304E+02  .290E+02  .275E+02  .263E+02  .260E+02  .313E+02
  .271E+02  .269E+02  .259E+02  .259E+02  .259E+02  .259E+02  .259E+02  .259E+02
  .259E+02  .343E+02  .296E+02  .256E+02  .256E+02  .256E+02  .256E+02  .259E+02
  .259E+02  .259E+02  .259E+02  .259E+02  .259E+02  .259E+02  .259E+02  .259E+02
  .259E+02  .259E+02  .255E+02  .259E+02  .258E+02  .255E+02  .259E+02  .259E+02
  .259E+02  .255E+02  .258E+02  .259E+02  .000E+00  .000E+00  .000E+00  .000E+00
  .000E+00  .000E+00  .000E+00  .000E+00  .000E+00  .000E+00  .000E+00  .000E+00
  .000E+00  .000E+00  .000E+00  .000E+00  .000E+00  .000E+00  .000E+00  .000E+00
  .000E+00  .000E+00  .000E+00  .000E+00  .000E+00  .000E+00  .000E+00  .000E+00
  .000E+00  .000E+00  .000E+00  .000E+00
  .258E+02  .238E+02  .477E+02  .247E+02  .243E+02  .263E+02  .250E+02  .325E+02
  .295E+02  .269E+02  .263E+02  .261E+02  .273E+02  .291E+02  .263E+02  .263E+02
  .262E+02  .274E+02  .259E+02  .322E+02  .267E+02  .257E+02  .257E+02  .257E+02
  .262E+02  .261E+02  .304E+02  .289E+02  .275E+02  .262E+02  .259E+02  .303E+02
  .271E+02  .258E+02  .258E+02  .258E+02  .258E+02  .258E+02  .258E+02  .258E+02
  .258E+02  .258E+02  .258E+02  .258E+02  .258E+02  .256E+02  .256E+02  .258E+02
  .256E+02  .256E+02  .256E+02  .256E+02  .256E+02  .256E+02  .258E+02  .258E+02
  .258E+02  .258E+02  .258E+02  .258E+02  .258E+02  .258E+02  .258E+02  .258E+02
  .258E+02  .258E+02  .258E+02  .258E+02  .000E+00  .000E+00  .000E+00  .000E+00
  .000E+00  .000E+00  .000E+00  .000E+00  .000E+00  .000E+00  .000E+00  .000E+00
  .000E+00  .000E+00  .000E+00  .000E+00  .000E+00  .000E+00  .000E+00  .000E+00
  .000E+00  .000E+00  .000E+00  .000E+00  .000E+00  .000E+00  .000E+00  .000E+00
  .000E+00  .000E+00  .000E+00  .000E+00
  .255E+02  .238E+02  .263E+02  .263E+02  .256E+02  .263E+02  .256E+02  .324E+02
  .259E+02  .269E+02  .262E+02  .255E+02  .273E+02  .258E+02  .264E+02  .262E+02
  .263E+02  .259E+02  .259E+02  .287E+02  .267E+02  .258E+02  .258E+02  .258E+02
  .261E+02  .270E+02  .304E+02  .290E+02  .275E+02  .263E+02  .260E+02  .313E+02
  .271E+02  .269E+02  .259E+02  .259E+02  .259E+02  .259E+02  .259E+02  .259E+02
  .259E+02  .343E+02  .296E+02  .256E+02  .256E+02  .256E+02  .256E+02  .259E+02
  .259E+02  .259E+02  .259E+02  .259E+02  .259E+02  .259E+02  .259E+02  .259E+02
  .259E+02  .259E+02  .255E+02  .259E+02  .258E+02  .255E+02  .259E+02  .259E+02
  .259E+02  .255E+02  .258E+02  .259E+02  .000E+00  .000E+00  .000E+00  .000E+00
  .000E+00  .000E+00  .000E+00  .000E+00  .000E+00  .000E+00  .000E+00  .000E+00
  .000E+00  .000E+00  .000E+00  .000E+00  .000E+00  .000E+00  .000E+00  .000E+00
  .000E+00  .000E+00  .000E+00  .000E+00  .000E+00  .000E+00  .000E+00  .000E+00
  .000E+00  .000E+00  .000E+00  .000E+00
Damping =  .02. Data of Sd,Sv,Sa,Pssv,ttSd,ttSv,ttSa :
  .557E-03  .586E-03  .560E-03  .503E-03  .474E-03  .549E-03  .113E-02  .129E-02
  .218E-02  .196E-02  .178E-02  .177E-02  .187E-02  .250E-02  .308E-02  .323E-02
  .356E-02  .486E-02  .752E-02  .902E-02  .971E-02  .101E-01  .112E-01  .123E-01
  .138E-01  .179E-01  .244E-01  .268E-01  .249E-01  .192E-01  .162E-01  .133E-01
  .119E-01  .107E-01  .973E-02  .894E-02  .801E-02  .725E-02  .692E-02  .681E-02
  .661E-02  .605E-02  .542E-02  .516E-02  .511E-02  .515E-02  .513E-02  .509E-02
  .529E-02  .531E-02  .534E-02  .564E-02  .600E-02  .610E-02  .609E-02  .594E-02
  .593E-02  .540E-02  .523E-02  .532E-02  .496E-02  .528E-02  .560E-02  .523E-02
  .512E-02  .481E-02  .480E-02  .473E-02  .000E+00  .000E+00  .000E+00  .000E+00
  .000E+00  .000E+00  .000E+00  .000E+00  .000E+00  .000E+00  .000E+00  .000E+00
  .000E+00  .000E+00  .000E+00  .000E+00  .000E+00  .000E+00  .000E+00  .000E+00
  .000E+00  .000E+00  .000E+00  .000E+00  .000E+00  .000E+00  .000E+00  .000E+00
  .000E+00  .000E+00  .000E+00  .000E+00
  .840E-01  .840E-01  .747E-01  .625E-01  .594E-01  .594E-01  .124E+00  .106E+00
  .187E+00  .173E+00  .141E+00  .103E+00  .113E+00  .155E+00  .166E+00  .169E+00
  .177E+00  .220E+00  .319E+00  .416E+00  .407E+00  .382E+00  .424E+00  .444E+00
  .453E+00  .580E+00  .679E+00  .727E+00  .617E+00  .457E+00  .392E+00  .332E+00
  .280E+00  .243E+00  .225E+00  .213E+00  .199E+00  .185E+00  .175E+00  .171E+00
  .168E+00  .155E+00  .144E+00  .139E+00  .136E+00  .133E+00  .132E+00  .130E+00
  .130E+00  .129E+00  .128E+00  .129E+00  .129E+00  .129E+00  .129E+00  .129E+00
  .129E+00  .129E+00  .129E+00  .127E+00  .127E+00  .127E+00  .128E+00  .127E+00
  .127E+00  .127E+00  .126E+00  .126E+00  .000E+00  .000E+00  .000E+00  .000E+00
  .000E+00  .000E+00  .000E+00  .000E+00  .000E+00  .000E+00  .000E+00  .000E+00
  .000E+00  .000E+00  .000E+00  .000E+00  .000E+00  .000E+00  .000E+00  .000E+00
  .000E+00  .000E+00  .000E+00  .000E+00  .000E+00  .000E+00  .000E+00  .000E+00
  .000E+00  .000E+00  .000E+00  .000E+00
  .358E-01  .339E-01  .296E-01  .244E-01  .210E-01  .225E-01  .382E-01  .367E-01
  .523E-01  .407E-01  .325E-01  .283E-01  .265E-01  .317E-01  .348E-01  .332E-01
  .301E-01  .346E-01  .454E-01  .472E-01  .441E-01  .404E-01  .398E-01  .387E-01
  .393E-01  .458E-01  .516E-01  .476E-01  .377E-01  .251E-01  .184E-01  .133E-01
  .105E-01  .844E-02  .689E-02  .573E-02  .466E-02  .385E-02  .336E-02  .304E-02
  .272E-02  .206E-02  .155E-02  .126E-02  .107E-02  .944E-03  .828E-03  .729E-03
  .676E-03  .610E-03  .554E-03  .485E-03  .434E-03  .377E-03  .325E-03  .277E-03
  .244E-03  .199E-03  .173E-03  .158E-03  .134E-03  .119E-03  .107E-03  .864E-04
  .741E-04  .636E-04  .541E-04  .488E-04  .000E+00  .000E+00  .000E+00  .000E+00
  .000E+00  .000E+00  .000E+00  .000E+00  .000E+00  .000E+00  .000E+00  .000E+00
  .000E+00  .000E+00  .000E+00  .000E+00  .000E+00  .000E+00  .000E+00  .000E+00
  .000E+00  .000E+00  .000E+00  .000E+00  .000E+00  .000E+00  .000E+00  .000E+00
  .000E+00  .000E+00  .000E+00  .000E+00
  .876E-01  .877E-01  .800E-01  .687E-01  .620E-01  .690E-01  .129E+00  .135E+00
  .210E+00  .176E+00  .149E+00  .139E+00  .139E+00  .175E+00  .204E+00  .203E+00
  .203E+00  .254E+00  .363E+00  .405E+00  .407E+00  .397E+00  .416E+00  .429E+00
  .458E+00  .562E+00  .697E+00  .703E+00  .602E+00  .432E+00  .338E+00  .262E+00
  .220E+00  .186E+00  .161E+00  .140E+00  .120E+00  .103E+00  .945E-01  .891E-01
  .831E-01  .691E-01  .567E-01  .499E-01  .459E-01  .431E-01  .403E-01  .377E-01
  .369E-01  .351E-01  .336E-01  .322E-01  .314E-01  .295E-01  .273E-01  .249E-01
  .233E-01  .199E-01  .182E-01  .176E-01  .156E-01  .151E-01  .146E-01  .126E-01
  .115E-01  .101E-01  .942E-02  .873E-02  .000E+00  .000E+00  .000E+00  .000E+00
  .000E+00  .000E+00  .000E+00  .000E+00  .000E+00  .000E+00  .000E+00  .000E+00
  .000E+00  .000E+00  .000E+00  .000E+00  .000E+00  .000E+00  .000E+00  .000E+00
  .000E+00  .000E+00  .000E+00  .000E+00  .000E+00  .000E+00  .000E+00  .000E+00
  .000E+00  .000E+00  .000E+00  .000E+00
  .235E+02  .236E+02  .236E+02  .236E+02  .236E+02  .238E+02  .239E+02  .258E+02
  .258E+02  .263E+02  .255E+02  .256E+02  .258E+02  .258E+02  .256E+02  .256E+02
  .256E+02  .259E+02  .259E+02  .264E+02  .261E+02  .257E+02  .258E+02  .258E+02
  .259E+02  .260E+02  .261E+02  .263E+02  .273E+02  .260E+02  .260E+02  .259E+02
  .259E+02  .259E+02  .259E+02  .259E+02  .259E+02  .259E+02  .259E+02  .259E+02
  .259E+02  .258E+02  .258E+02  .256E+02  .259E+02  .259E+02  .259E+02  .259E+02
  .259E+02  .259E+02  .259E+02  .259E+02  .259E+02  .259E+02  .259E+02  .259E+02
  .259E+02  .259E+02  .259E+02  .259E+02  .259E+02  .259E+02  .259E+02  .259E+02
  .259E+02  .255E+02  .258E+02  .259E+02  .000E+00  .000E+00  .000E+00  .000E+00
  .000E+00  .000E+00  .000E+00  .000E+00  .000E+00  .000E+00  .000E+00  .000E+00
  .000E+00  .000E+00  .000E+00  .000E+00  .000E+00  .000E+00  .000E+00  .000E+00
  .000E+00  .000E+00  .000E+00  .000E+00  .000E+00  .000E+00  .000E+00  .000E+00
  .000E+00  .000E+00  .000E+00  .000E+00
  .236E+02  .236E+02  .236E+02  .236E+02  .243E+02  .238E+02  .239E+02  .237E+02
  .258E+02  .264E+02  .239E+02  .256E+02  .258E+02  .258E+02  .261E+02  .256E+02
  .256E+02  .259E+02  .259E+02  .263E+02  .261E+02  .257E+02  .257E+02  .257E+02
  .261E+02  .261E+02  .261E+02  .260E+02  .272E+02  .259E+02  .259E+02  .259E+02
  .260E+02  .258E+02  .258E+02  .258E+02  .258E+02  .258E+02  .258E+02  .258E+02
  .258E+02  .258E+02  .258E+02  .258E+02  .258E+02  .258E+02  .258E+02  .258E+02
  .256E+02  .256E+02  .256E+02  .256E+02  .256E+02  .256E+02  .258E+02  .258E+02
  .258E+02  .258E+02  .258E+02  .258E+02  .258E+02  .258E+02  .258E+02  .258E+02
  .258E+02  .258E+02  .258E+02  .258E+02  .000E+00  .000E+00  .000E+00  .000E+00
  .000E+00  .000E+00  .000E+00  .000E+00  .000E+00  .000E+00  .000E+00  .000E+00
  .000E+00  .000E+00  .000E+00  .000E+00  .000E+00  .000E+00  .000E+00  .000E+00
  .000E+00  .000E+00  .000E+00  .000E+00  .000E+00  .000E+00  .000E+00  .000E+00
  .000E+00  .000E+00  .000E+00  .000E+00
  .235E+02  .237E+02  .236E+02  .236E+02  .236E+02  .238E+02  .239E+02  .258E+02
  .258E+02  .263E+02  .255E+02  .256E+02  .258E+02  .258E+02  .256E+02  .256E+02
  .256E+02  .259E+02  .259E+02  .264E+02  .261E+02  .258E+02  .258E+02  .258E+02
  .259E+02  .260E+02  .261E+02  .263E+02  .273E+02  .260E+02  .260E+02  .259E+02
  .259E+02  .259E+02  .259E+02  .259E+02  .259E+02  .259E+02  .259E+02  .259E+02
  .259E+02  .258E+02  .258E+02  .256E+02  .259E+02  .259E+02  .259E+02  .259E+02
  .259E+02  .259E+02  .259E+02  .259E+02  .259E+02  .259E+02  .259E+02  .259E+02
  .259E+02  .259E+02  .259E+02  .259E+02  .259E+02  .259E+02  .259E+02  .259E+02
  .259E+02  .255E+02  .255E+02  .259E+02  .000E+00  .000E+00  .000E+00  .000E+00
  .000E+00  .000E+00  .000E+00  .000E+00  .000E+00  .000E+00  .000E+00  .000E+00
  .000E+00  .000E+00  .000E+00  .000E+00  .000E+00  .000E+00  .000E+00  .000E+00
  .000E+00  .000E+00  .000E+00  .000E+00  .000E+00  .000E+00  .000E+00  .000E+00
  .000E+00  .000E+00  .000E+00  .000E+00
Damping =  .05. Data of Sd,Sv,Sa,Pssv,ttSd,ttSv,ttSa :
  .407E-03  .436E-03  .432E-03  .423E-03  .422E-03  .475E-03  .817E-03  .114E-02
  .160E-02  .143E-02  .155E-02  .164E-02  .176E-02  .225E-02  .270E-02  .296E-02
  .341E-02  .427E-02  .574E-02  .663E-02  .780E-02  .877E-02  .961E-02  .104E-01
  .108E-01  .143E-01  .195E-01  .203E-01  .185E-01  .168E-01  .145E-01  .123E-01
  .112E-01  .102E-01  .938E-02  .865E-02  .793E-02  .733E-02  .696E-02  .674E-02
