RESPONSE AND FOURIER AMPLITUDE SPECTRA (83 PERIODS,  .04 -  8.5 SEC)   FOR
CORRECTED ACCELEROGRAM   24207-S2485-94021.02       CHAN  1: 194 DEG     FROM   
UNCORRECTED ACCELEROGRAM DATA              PROCESSED: 02/04/94, CDMG QN94A207 TT
NORTHRIDGE EARTHQUAKE                                                           
JANUARY 17, 1994 04:31 PST              (ORIGIN(CIT): 01/17/94, 12:30:55.4 GMT) 
24207-S2485-94021.02               TRIGGER TIME: 01/17/94, 12:31:00.5 UTC       
STATION NO. 24207   34.334N, 118.396W     SMA-1  S/N 2485                       
PACOIMA DAM - UPPER LEFT ABUTMENT                                               
CHAN  1: 194 DEG                                                                
NORTHRIDGE EARTHQUAKE     JANUARY 17, 1994 04:31 PST                            
HYPOCENTER(CIT): 34.215N, 118.538W, H=18KM. ML=6.6, MW=6.7(CIT); MS=6.7(NEIC)   
INSTR PERIOD =  .0380 SEC,  DAMPING =  .593,  SENSITIVITY = 1.69 CM/G.          
                        RECORD LENGTH = 59.980 SEC.                             
                                     UNCOR MAX  = -1.492 G, AT   4.558 SEC.     
RMS ACCEL OF (UNCOR) RECORD  =  .098 G.                                         
ACCELEROGRAM BANDPASS FILTERED WITH RAMPS AT  .080- .160 AND 23.00-25.00 CYC/SEC
                 INSTRUMENT- AND BASELINE-CORRECTED 





NORTHRIDGE EARTHQUAKE     JANUARY 17, 1994 04:31 PST                            
                                                                                
24207-S2485-94021.02      PACOIMA DAM - UPPER LEFT ABUTMENT   CHAN  1: 194 DEG  
                                                                                
24207-S2485-94021.02      PACOIMA DAM - UPPER LEFT ABUTMENT   CHAN  1: 194 DEG  
                                                                                
UNITS FOR SPECTRA ARE INCHES AND SEC, EXCEPT SA IS IN FRACTION OF G.
 
    1    1    1    3    3    0    1    1    1 2048    0    0    0    0    0    0
    0    0    0    0    0    0    0    0    0    0  19412175   21   33   52    0
    0    0    0    0    0    0    0    0    0    0    0    0    0    0    0    0
    0    01217512175 3000    4   10   10    0    0   52   78   10   10    0 3000
    0 3000   79   83    5    0    0    0    0    0    0    0    0    0    0    0
    0    0    0    0    0    0    0    0    0    0    0    0    0    0    0    0
    0    0    0    0
      .038      .593    59.996      .098     1.000     1.690    -1.469     4.558
    26.300    50.000     2.959    50.000     4.928      .092     3.255     9.758
      .000      .000      .000      .000      .000      .000      .000      .000
      .000      .000      .000      .000      .000      .000      .000      .000
      .000      .000      .000      .000      .000      .000      .000      .000
      .000      .000      .000      .000      .000      .000      .000      .000
      .000      .000      .000    98.066      .005    59.996   165.248      .000
      .000    25.000     2.000    59.980      .020      .160      .080      .000
     4.540 -1259.910     3.820   104.536     3.980    21.755    -1.905      .160
    23.000      .020      .020     -.242      .000      .000      .000      .000
      .000      .000      .000      .000      .000      .000      .000      .000
      .000      .000      .000      .000      .000      .000      .000      .000
      .000      .000      .000      .000
      .000      .020      .050      .100      .200
      .040      .042      .044      .046      .048      .050      .055      .060
      .065      .070      .075      .080      .085      .090      .095      .100
      .110      .120      .130      .140      .150      .160      .170      .180
      .190      .200      .220      .240      .260      .280      .300      .320
      .340      .360      .380      .400      .420      .440      .460      .480
      .500      .550      .600      .650      .700      .750      .800      .850
      .900      .950     1.000     1.100     1.200     1.300     1.400     1.500
     1.600     1.700     1.800     1.900     2.000     2.200     2.400     2.600
     2.800     3.000     3.200     3.400     3.600     3.800     4.000     4.200
     4.400     4.600     4.800     5.000     5.500     6.000     6.500     7.000
     7.500     8.000     8.500     9.000     9.500    10.000    11.000    12.000
    13.000    14.000    15.000      .000      .000      .000      .000      .000
      .000      .000      .000      .000
FOURIER AMPLITUDE SPECTRA IN IN/SEC.
  .214E+00  .848E+00  .424E+00  .393E+01  .295E+01  .134E+01  .936E+01  .122E+01
  .413E+01  .431E+01  .121E+02  .850E+01  .198E+02  .739E+01  .868E+01  .287E+02
  .252E+02  .189E+02  .255E+02  .236E+02  .108E+02  .790E+02  .104E+03  .639E+02
  .313E+02  .344E+02  .877E+02  .329E+02  .344E+02  .656E+02  .110E+03  .127E+03
  .760E+02  .125E+03  .126E+03  .202E+02  .186E+02  .466E+02  .975E+02  .192E+02
  .145E+03  .670E+02  .140E+02  .180E+03  .982E+02  .764E+02  .149E+03  .114E+03
  .663E+02  .819E+02  .128E+03  .116E+03  .477E+02  .400E+02  .672E+02  .543E+02
  .491E+02  .477E+02  .387E+02  .336E+02  .230E+02  .141E+02  .116E+02  .207E+02
  .234E+02  .289E+02  .291E+02  .279E+02  .228E+02  .288E+02  .288E+02  .300E+02
  .262E+02  .214E+02  .212E+02  .179E+02  .134E+02  .124E+02  .120E+02  .912E+01
  .890E+01  .440E+01  .279E+01  .000E+00  .000E+00  .000E+00  .000E+00  .000E+00
  .000E+00  .000E+00  .000E+00  .000E+00  .000E+00  .000E+00  .000E+00  .000E+00
  .000E+00  .000E+00  .000E+00  .000E+00
DAMPING =  .00. DATA OF SD,SV,SA,PSSV,TTSD,TTSV,TTSA :
  .277E-01  .335E-01  .313E-01  .525E-01  .339E-01  .450E-01  .916E-01  .710E-01
  .122E+00  .133E+00  .155E+00  .237E+00  .301E+00  .255E+00  .274E+00  .496E+00
  .579E+00  .497E+00  .686E+00  .697E+00  .802E+00  .215E+01  .296E+01  .187E+01
  .131E+01  .157E+01  .320E+01  .210E+01  .206E+01  .292E+01  .569E+01  .662E+01
  .428E+01  .717E+01  .772E+01  .387E+01  .349E+01  .392E+01  .750E+01  .764E+01
  .117E+02  .725E+01  .838E+01  .189E+02  .129E+02  .130E+02  .200E+02  .168E+02
  .154E+02  .160E+02  .206E+02  .206E+02  .132E+02  .128E+02  .151E+02  .144E+02
  .165E+02  .146E+02  .118E+02  .104E+02  .100E+02  .924E+01  .887E+01  .102E+02
  .117E+02  .139E+02  .149E+02  .158E+02  .167E+02  .181E+02  .195E+02  .201E+02
  .187E+02  .173E+02  .164E+02  .159E+02  .141E+02  .129E+02  .124E+02  .114E+02
  .106E+02  .926E+01  .827E+01  .000E+00  .000E+00  .000E+00  .000E+00  .000E+00
  .000E+00  .000E+00  .000E+00  .000E+00  .000E+00  .000E+00  .000E+00  .000E+00
  .000E+00  .000E+00  .000E+00  .000E+00
  .145E+01  .189E+01  .215E+01  .445E+01  .339E+01  .231E+01  .998E+01  .378E+01
  .861E+01  .866E+01  .127E+02  .180E+02  .214E+02  .138E+02  .170E+02  .289E+02
  .304E+02  .256E+02  .320E+02  .292E+02  .311E+02  .835E+02  .109E+03  .652E+02
  .404E+02  .459E+02  .925E+02  .533E+02  .414E+02  .655E+02  .119E+03  .130E+03
  .795E+02  .124E+03  .128E+03  .653E+02  .492E+02  .487E+02  .103E+03  .102E+03
  .147E+03  .838E+02  .945E+02  .185E+03  .121E+03  .112E+03  .163E+03  .133E+03
  .108E+03  .106E+03  .128E+03  .118E+03  .803E+02  .637E+02  .677E+02  .684E+02
  .691E+02  .675E+02  .603E+02  .479E+02  .469E+02  .453E+02  .437E+02  .420E+02
  .403E+02  .440E+02  .442E+02  .416E+02  .408E+02  .408E+02  .408E+02  .407E+02
  .406E+02  .405E+02  .404E+02  .403E+02  .402E+02  .401E+02  .400E+02  .400E+02
  .400E+02  .400E+02  .401E+02  .000E+00  .000E+00  .000E+00  .000E+00  .000E+00
  .000E+00  .000E+00  .000E+00  .000E+00  .000E+00  .000E+00  .000E+00  .000E+00
  .000E+00  .000E+00  .000E+00  .000E+00
  .177E+01  .194E+01  .166E+01  .254E+01  .150E+01  .184E+01  .310E+01  .202E+01
  .295E+01  .277E+01  .281E+01  .378E+01  .426E+01  .321E+01  .310E+01  .507E+01
  .489E+01  .353E+01  .415E+01  .364E+01  .365E+01  .861E+01  .105E+02  .589E+01
  .372E+01  .401E+01  .676E+01  .374E+01  .312E+01  .381E+01  .647E+01  .661E+01
  .378E+01  .566E+01  .547E+01  .247E+01  .202E+01  .207E+01  .363E+01  .339E+01
  .478E+01  .245E+01  .238E+01  .458E+01  .269E+01  .236E+01  .319E+01  .237E+01
  .195E+01  .182E+01  .211E+01  .174E+01  .938E+00  .773E+00  .787E+00  .656E+00
  .661E+00  .515E+00  .372E+00  .296E+00  .256E+00  .195E+00  .158E+00  .154E+00
  .153E+00  .158E+00  .149E+00  .140E+00  .132E+00  .129E+00  .124E+00  .116E+00
  .987E-01  .835E-01  .727E-01  .649E-01  .477E-01  .367E-01  .300E-01  .238E-01
  .193E-01  .148E-01  .117E-01  .000E+00  .000E+00  .000E+00  .000E+00  .000E+00
  .000E+00  .000E+00  .000E+00  .000E+00  .000E+00  .000E+00  .000E+00  .000E+00
  .000E+00  .000E+00  .000E+00  .000E+00
  .435E+01  .501E+01  .447E+01  .717E+01  .443E+01  .565E+01  .105E+02  .743E+01
  .118E+02  .119E+02  .130E+02  .186E+02  .222E+02  .178E+02  .181E+02  .311E+02
  .330E+02  .260E+02  .332E+02  .313E+02  .336E+02  .846E+02  .109E+03  .652E+02
  .434E+02  .493E+02  .914E+02  .551E+02  .498E+02  .655E+02  .119E+03  .130E+03
  .791E+02  .125E+03  .128E+03  .608E+02  .522E+02  .559E+02  .102E+03  .100E+03
  .147E+03  .829E+02  .878E+02  .183E+03  .116E+03  .109E+03  .157E+03  .124E+03
  .108E+03  .106E+03  .130E+03  .118E+03  .692E+02  .617E+02  .677E+02  .605E+02
  .649E+02  .538E+02  .411E+02  .345E+02  .314E+02  .264E+02  .232E+02  .246E+02
  .263E+02  .291E+02  .294E+02  .292E+02  .291E+02  .300E+02  .306E+02  .300E+02
  .267E+02  .236E+02  .214E+02  .199E+02  .161E+02  .135E+02  .120E+02  .102E+02
  .889E+01  .727E+01  .611E+01  .000E+00  .000E+00  .000E+00  .000E+00  .000E+00
  .000E+00  .000E+00  .000E+00  .000E+00  .000E+00  .000E+00  .000E+00  .000E+00
  .000E+00  .000E+00  .000E+00  .000E+00
  .454E+01  .454E+01  .454E+01  .455E+01  .802E+01  .455E+01  .976E+01  .455E+01
  .455E+01  .454E+01  .995E+01  .455E+01  .887E+01  .447E+01  .493E+01  .805E+01
  .489E+01  .805E+01  .808E+01  .464E+01  .464E+01  .980E+01  .141E+02  .241E+02
  .441E+01  .734E+01  .114E+02  .760E+01  .394E+01  .164E+02  .148E+02  .238E+02
  .932E+01  .597E+02  .196E+02  .792E+01  .880E+01  .400E+01  .121E+02  .790E+01
  .308E+02  .994E+01  .686E+01  .904E+01  .830E+01  .532E+01  .822E+01  .800E+01
  .648E+01  .662E+01  .830E+01  .174E+02  .606E+01  .560E+01  .275E+02  .812E+01
  .762E+01  .772E+01  .714E+01  .724E+01  .446E+01  .462E+01  .592E+01  .764E+01
  .150E+02  .592E+02  .996E+01  .103E+02  .876E+01  .471E+02  .332E+02  .576E+02
  .533E+02  .187E+02  .552E+02  .124E+02  .129E+02  .802E+01  .694E+02  .804E+01
  .640E+02  .806E+01  .806E+01  .000E+00  .000E+00  .000E+00  .000E+00  .000E+00
  .000E+00  .000E+00  .000E+00  .000E+00  .000E+00  .000E+00  .000E+00  .000E+00
  .000E+00  .000E+00  .000E+00  .000E+00
  .456E+01  .456E+01  .452E+01  .912E+01  .834E+01  .453E+01  .949E+01  .613E+01
  .457E+01  .451E+01  .241E+02  .470E+01  .889E+01  .450E+01  .495E+01  .817E+01
  .531E+01  .838E+01  .941E+01  .460E+01  .460E+01  .984E+01  .140E+02  .242E+02
  .436E+01  .510E+01  .109E+02  .466E+01  .400E+01  .595E+02  .147E+02  .239E+02
  .940E+01  .242E+02  .191E+02  .782E+01  .890E+01  .450E+01  .106E+02  .780E+01
  .304E+02  .982E+01  .458E+01  .920E+01  .814E+01  .550E+01  .840E+01  .818E+01
  .448E+01  .450E+01  .471E+02  .199E+02  .748E+01  .468E+01  .272E+02  .776E+01
  .796E+01  .746E+01  .748E+01  .424E+01  .424E+01  .424E+01  .424E+01  .424E+01
  .426E+01  .748E+01  .748E+01  .748E+01  .380E+01  .380E+01  .380E+01  .380E+01
  .380E+01  .380E+01  .380E+01  .380E+01  .380E+01  .380E+01  .380E+01  .380E+01
  .380E+01  .380E+01  .380E+01  .000E+00  .000E+00  .000E+00  .000E+00  .000E+00
  .000E+00  .000E+00  .000E+00  .000E+00  .000E+00  .000E+00  .000E+00  .000E+00
  .000E+00  .000E+00  .000E+00  .000E+00
  .454E+01  .454E+01  .454E+01  .455E+01  .802E+01  .455E+01  .976E+01  .455E+01
  .455E+01  .454E+01  .995E+01  .455E+01  .887E+01  .447E+01  .493E+01  .805E+01
  .489E+01  .805E+01  .808E+01  .464E+01  .464E+01  .980E+01  .141E+02  .241E+02
  .441E+01  .734E+01  .114E+02  .760E+01  .394E+01  .164E+02  .148E+02  .238E+02
  .932E+01  .597E+02  .196E+02  .792E+01  .880E+01  .400E+01  .121E+02  .790E+01
  .308E+02  .994E+01  .686E+01  .904E+01  .830E+01  .532E+01  .822E+01  .800E+01
  .648E+01  .662E+01  .830E+01  .174E+02  .606E+01  .560E+01  .275E+02  .812E+01
  .762E+01  .772E+01  .714E+01  .724E+01  .446E+01  .462E+01  .592E+01  .764E+01
  .150E+02  .592E+02  .996E+01  .103E+02  .876E+01  .471E+02  .332E+02  .576E+02
  .533E+02  .187E+02  .552E+02  .124E+02  .129E+02  .802E+01  .694E+02  .804E+01
  .640E+02  .806E+01  .806E+01  .000E+00  .000E+00  .000E+00  .000E+00  .000E+00
  .000E+00  .000E+00  .000E+00  .000E+00  .000E+00  .000E+00  .000E+00  .000E+00
  .000E+00  .000E+00  .000E+00  .000E+00
DAMPING =  .02. DATA OF SD,SV,SA,PSSV,TTSD,TTSV,TTSA :
  .268E-01  .298E-01  .328E-01  .409E-01  .371E-01  .403E-01  .586E-01  .585E-01
  .914E-01  .987E-01  .123E+00  .176E+00  .191E+00  .212E+00  .257E+00  .334E+00
  .416E+00  .387E+00  .484E+00  .642E+00  .868E+00  .123E+01  .160E+01  .145E+01
  .911E+00  .983E+00  .147E+01  .137E+01  .163E+01  .167E+01  .223E+01  .282E+01
  .295E+01  .318E+01  .344E+01  .279E+01  .303E+01  .374E+01  .443E+01  .497E+01
  .541E+01  .646E+01  .752E+01  .107E+02  .109E+02  .115E+02  .132E+02  .125E+02
  .128E+02  .127E+02  .142E+02  .146E+02  .120E+02  .114E+02  .115E+02  .115E+02
  .137E+02  .123E+02  .105E+02  .102E+02  .978E+01  .903E+01  .852E+01  .895E+01
  .972E+01  .119E+02  .132E+02  .141E+02  .151E+02  .151E+02  .145E+02  .146E+02
  .143E+02  .141E+02  .139E+02  .136E+02  .125E+02  .122E+02  .118E+02  .110E+02
  .101E+02  .912E+01  .821E+01  .000E+00  .000E+00  .000E+00  .000E+00  .000E+00
  .000E+00  .000E+00  .000E+00  .000E+00  .000E+00  .000E+00  .000E+00  .000E+00
  .000E+00  .000E+00  .000E+00  .000E+00
  .127E+01  .141E+01  .146E+01  .253E+01  .228E+01  .184E+01  .407E+01  .301E+01
  .572E+01  .505E+01  .764E+01  .123E+02  .101E+02  .106E+02  .130E+02  .184E+02
  .230E+02  .192E+02  .224E+02  .271E+02  .354E+02  .457E+02  .588E+02  .505E+02
  .303E+02  .299E+02  .433E+02  .369E+02  .307E+02  .396E+02  .500E+02  .574E+02
  .524E+02  .543E+02  .566E+02  .446E+02  .414E+02  .453E+02  .556E+02  .635E+02
  .688E+02  .733E+02  .830E+02  .107E+03  .893E+02  .929E+02  .107E+03  .970E+02
  .100E+03  .990E+02  .947E+02  .873E+02  .693E+02  .596E+02  .555E+02  .557E+02
  .572E+02  .583E+02  .540E+02  .467E+02  .459E+02  .445E+02  .430E+02  .414E+02
  .398E+02  .415E+02  .420E+02  .403E+02  .404E+02  .405E+02  .405E+02  .404E+02
  .403E+02  .403E+02  .402E+02  .401E+02  .400E+02  .399E+02  .399E+02  .399E+02
  .399E+02  .399E+02  .400E+02  .000E+00  .000E+00  .000E+00  .000E+00  .000E+00
  .000E+00  .000E+00  .000E+00  .000E+00  .000E+00  .000E+00  .000E+00  .000E+00
  .000E+00  .000E+00  .000E+00  .000E+00
  .172E+01  .173E+01  .174E+01  .198E+01  .164E+01  .165E+01  .199E+01  .167E+01
  .222E+01  .205E+01  .222E+01  .280E+01  .269E+01  .269E+01  .292E+01  .341E+01
  .352E+01  .275E+01  .294E+01  .335E+01  .396E+01  .494E+01  .565E+01  .458E+01
  .259E+01  .252E+01  .309E+01  .243E+01  .248E+01  .217E+01  .252E+01  .282E+01
  .260E+01  .251E+01  .243E+01  .178E+01  .175E+01  .197E+01  .215E+01  .221E+01
  .222E+01  .218E+01  .213E+01  .258E+01  .228E+01  .211E+01  .212E+01  .177E+01
  .161E+01  .143E+01  .145E+01  .123E+01  .856E+00  .690E+00  .603E+00  .524E+00
  .548E+00  .435E+00  .334E+00  .289E+00  .251E+00  .192E+00  .152E+00  .136E+00
  .127E+00  .135E+00  .132E+00  .125E+00  .119E+00  .107E+00  .926E-01  .850E-01
  .757E-01  .686E-01  .619E-01  .559E-01  .425E-01  .352E-01  .290E-01  .234E-01
  .187E-01  .150E-01  .120E-01  .000E+00  .000E+00  .000E+00  .000E+00  .000E+00
  .000E+00  .000E+00  .000E+00  .000E+00  .000E+00  .000E+00  .000E+00  .000E+00
  .000E+00  .000E+00  .000E+00  .000E+00
  .421E+01  .446E+01  .469E+01  .558E+01  .485E+01  .506E+01  .669E+01  .613E+01
  .884E+01  .886E+01  .103E+02  .138E+02  .141E+02  .148E+02  .170E+02  .210E+02
  .237E+02  .203E+02  .234E+02  .288E+02  .364E+02  .484E+02  .593E+02  .508E+02
  .301E+02  .309E+02  .420E+02  .359E+02  .394E+02  .375E+02  .468E+02  .554E+02
  .545E+02  .554E+02  .570E+02  .438E+02  .454E+02  .534E+02  .605E+02  .651E+02
  .680E+02  .737E+02  .787E+02  .103E+03  .979E+02  .966E+02  .104E+03  .922E+02
  .892E+02  .838E+02  .891E+02  .833E+02  .629E+02  .551E+02  .518E+02  .483E+02
  .539E+02  .453E+02  .367E+02  .336E+02  .307E+02  .258E+02  .223E+02  .216E+02
  .218E+02  .249E+02  .259E+02  .261E+02  .263E+02  .250E+02  .227E+02  .219E+02
  .204E+02  .193E+02  .182E+02  .171E+02  .143E+02  .128E+02  .114E+02  .989E+01
  .844E+01  .716E+01  .607E+01  .000E+00  .000E+00  .000E+00  .000E+00  .000E+00
  .000E+00  .000E+00  .000E+00  .000E+00  .000E+00  .000E+00  .000E+00  .000E+00
  .000E+00  .000E+00  .000E+00  .000E+00
  .454E+01  .455E+01  .454E+01  .455E+01  .455E+01  .455E+01  .455E+01  .455E+01
  .455E+01  .455E+01  .455E+01  .456E+01  .447E+01  .448E+01  .455E+01  .455E+01
  .456E+01  .463E+01  .463E+01  .464E+01  .465E+01  .491E+01  .494E+01  .496E+01
  .497E+01  .506E+01  .470E+01  .472E+01  .394E+01  .474E+01  .462E+01  .496E+01
  .850E+01  .874E+01  .876E+01  .400E+01  .400E+01  .400E+01  .402E+01  .402E+01
  .404E+01  .408E+01  .410E+01  .842E+01  .452E+01  .454E+01  .822E+01  .506E+01
  .512E+01  .472E+01  .830E+01  .806E+01  .490E+01  .438E+01  .440E+01  .442E+01
  .762E+01  .770E+01  .446E+01  .446E+01  .446E+01  .446E+01  .464E+01  .764E+01
  .784E+01  .826E+01  .830E+01  .868E+01  .876E+01  .884E+01  .890E+01  .924E+01
  .932E+01  .732E+01  .121E+02  .124E+02  .102E+02  .802E+01  .804E+01  .804E+01
  .806E+01  .806E+01  .806E+01  .000E+00  .000E+00  .000E+00  .000E+00  .000E+00
  .000E+00  .000E+00  .000E+00  .000E+00  .000E+00  .000E+00  .000E+00  .000E+00
  .000E+00  .000E+00  .000E+00  .000E+00
  .456E+01  .456E+01  .456E+01  .456E+01  .457E+01  .451E+01  .457E+01  .457E+01
  .457E+01  .457E+01  .457E+01  .458E+01  .444E+01  .450E+01  .495E+01  .458E+01
  .459E+01  .460E+01  .460E+01  .460E+01  .461E+01  .462E+01  .498E+01  .500E+01
  .502E+01  .500E+01  .474E+01  .466E+01  .402E+01  .466E+01  .468E+01  .456E+01
  .458E+01  .866E+01  .866E+01  .448E+01  .450E+01  .414E+01  .416E+01  .416E+01
  .418E+01  .420E+01  .458E+01  .858E+01  .470E+01  .474E+01  .840E+01  .448E+01
  .448E+01  .450E+01  .450E+01  .776E+01  .450E+01  .468E+01  .410E+01  .776E+01
  .796E+01  .746E+01  .748E+01  .424E+01  .424E+01  .424E+01  .424E+01  .424E+01
  .424E+01  .746E+01  .748E+01  .380E+01  .380E+01  .380E+01  .380E+01  .380E+01
  .380E+01  .380E+01  .380E+01  .380E+01  .380E+01  .380E+01  .380E+01  .380E+01
  .380E+01  .380E+01  .380E+01  .000E+00  .000E+00  .000E+00  .000E+00  .000E+00
  .000E+00  .000E+00  .000E+00  .000E+00  .000E+00  .000E+00  .000E+00  .000E+00
  .000E+00  .000E+00  .000E+00  .000E+00
  .454E+01  .454E+01  .454E+01  .455E+01  .455E+01  .455E+01  .455E+01  .455E+01
  .455E+01  .455E+01  .455E+01  .456E+01  .447E+01  .447E+01  .455E+01  .455E+01
  .456E+01  .463E+01  .463E+01  .464E+01  .464E+01  .491E+01  .494E+01  .496E+01
  .506E+01  .496E+01  .470E+01  .472E+01  .394E+01  .474E+01  .462E+01  .496E+01
  .850E+01  .874E+01  .876E+01  .400E+01  .400E+01  .400E+01  .400E+01  .402E+01
  .404E+01  .406E+01  .410E+01  .842E+01  .452E+01  .454E+01  .822E+01  .506E+01
  .512E+01  .472E+01  .830E+01  .804E+01  .488E+01  .436E+01  .440E+01  .442E+01
  .760E+01  .770E+01  .444E+01  .444E+01  .444E+01  .446E+01  .462E+01  .764E+01
  .782E+01  .824E+01  .828E+01  .864E+01  .872E+01  .882E+01  .888E+01  .922E+01
  .928E+01  .728E+01  .730E+01  .123E+02  .101E+02  .800E+01  .800E+01  .800E+01
  .800E+01  .800E+01  .800E+01  .000E+00  .000E+00  .000E+00  .000E+00  .000E+00
  .000E+00  .000E+00  .000E+00  .000E+00  .000E+00  .000E+00  .000E+00  .000E+00
  .000E+00  .000E+00  .000E+00  .000E+00
DAMPING =  .05. DATA OF SD,SV,SA,PSSV,TTSD,TTSV,TTSA :
  .262E-01  .293E-01  .329E-01  .368E-01  .380E-01  .410E-01  .531E-01  .598E-01
