CORRECTED ACCELEROGRAM   24207-S2485-94021.02       CHAN  1: 194 DEG     FROM   
UNCORRECTED ACCELEROGRAM DATA              PROCESSED: 02/04/94, CDMG QN94A207 TT
NORTHRIDGE EARTHQUAKE                                                           
JANUARY 17, 1994 04:31 PST              (ORIGIN(CIT): 01/17/94, 12:30:55.4 GMT) 
24207-S2485-94021.02               TRIGGER TIME: 01/17/94, 12:31:00.5 UTC       
STATION NO. 24207   34.334N, 118.396W     SMA-1  S/N 2485                       
PACOIMA DAM - UPPER LEFT ABUTMENT                                               
CHAN  1: 194 DEG                                                                
NORTHRIDGE EARTHQUAKE     JANUARY 17, 1994 04:31 PST                            
HYPOCENTER(CIT): 34.215N, 118.538W, H=18KM. ML=6.6, MW=6.7(CIT); MS=6.7(NEIC)   
INSTR PERIOD =  .0380 SEC,  DAMPING =  .593,  SENSITIVITY = 1.69 CM/G.          
                        RECORD LENGTH = 59.980 SEC.                             
                                     UNCOR MAX  = -1.492 G, AT   4.558 SEC.     
RMS ACCEL OF (UNCOR) RECORD  =  .098 G.                                         
ACCELEROGRAM BANDPASS FILTERED WITH RAMPS AT  .080- .160 AND 23.00-25.00 CYC/SEC
  3000 POINTS OF INSTRUMENT- AND BASELINE-CORRECTED ACCEL, VELOC AND DISPL DATA 
AT EQUALLY-SPACED INTERVALS OF    .020  SEC.                                    
PEAK ACCELERATION = -1259.910    CM/SEC/SEC  AT    4.540   SEC.                 
PEAK   VELOCITY   =   104.536      CM/SEC    AT    3.820   SEC.                 
PEAK DISPLACEMENT =    21.755        CM      AT    3.980   SEC.                 
INITIAL VELOCITY  =    -1.905   CM/SEC;   INITIAL DISPLACEMENT =    -.242   CM  
NORTHRIDGE EARTHQUAKE     JANUARY 17, 1994 04:31 PST                            
                                                                                
24207-S2485-94021.02      PACOIMA DAM - UPPER LEFT ABUTMENT   CHAN  1: 194 DEG  
                                                                                
    1    1    1    3    3    0    1    1    1 2048    0    0    0    0    0    0
    0    0    0    0    0    0    0    0    0    0  19412175   21   33   52    0
    0    0    0    0    0    0    0    0    0    0    0    0    0    0    0    0
    0    01217512175 3000    4   10   10    0    0   52   78   10   10    0 3000
    0 3000    0    0    0    0    0    0    0    0    0    0    0    0    0    0
    0    0    0    0    0    0    0    0    0    0    0    0    0    0    0    0
    0    0    0    0
      .038      .593    59.996      .098     1.000     1.690    -1.469     4.558
    26.300    50.000     2.959    50.000     4.928      .092     3.255     9.758
      .000      .000      .000      .000      .000      .000      .000      .000
      .000      .000      .000      .000      .000      .000      .000      .000
      .000      .000      .000      .000      .000      .000      .000      .000
      .000      .000      .000      .000      .000      .000      .000      .000
      .000      .000      .000    98.066      .005    59.996   165.248      .000
      .000    25.000     2.000    59.980      .020      .160      .080      .000
     4.540 -1259.910     3.820   104.536     3.980    21.755    -1.905      .160
    23.000      .020      .020     -.242      .000      .000      .000      .000
      .000      .000      .000      .000      .000      .000      .000      .000
      .000      .000      .000      .000      .000      .000      .000      .000
      .000      .000      .000      .000
 3000 POINTS OF ACCEL DATA EQUALLY SPACED AT  .020 SEC.  (UNITS: CM/SEC/SEC)
    -6.071    -4.268     -.187     2.191     4.308     6.868     4.266    -7.805
   -17.485   -15.148      .235    32.561    53.324    43.635    -1.233   -43.778
   -49.196   -22.468    10.966    36.680    64.949    60.652    12.391   -48.926
   -67.410   -88.817   -93.000   -59.277    37.242    99.735   159.947   207.809
   146.766    25.491  -247.404  -282.731  -169.126   -80.394    62.706   104.051
   125.016   124.566    62.208   -32.097   -63.025   -26.507   -21.342    59.655
    74.467   -22.233   -59.734   -28.118    -3.763     7.571    10.941      .708
    12.425     5.509    29.313    79.012    43.458   -26.379   -92.777  -100.427
   -65.968   -68.013   -38.982    18.075    85.583   145.024   155.999    61.898
   -98.798  -169.607  -127.548   -42.098    34.840    50.936    36.785   -12.422
   -23.575    -2.045    25.838    20.788    31.120    50.094    -7.619   -29.746
    10.979     4.504   -18.501   -21.171    -6.361    31.099    53.695    71.273
    29.569   -35.039   -21.878     -.071    15.588    22.737   -24.753   -85.081
   -84.482   -53.746   -53.105   -23.483    20.090     7.520     9.092    42.995
    59.040    76.235   114.554   104.484    27.114   -97.409  -149.349  -152.263
  -105.000   -29.969    15.542    55.989    89.309    74.443    74.113    58.614
   -68.280  -104.918  -102.211   -35.702    40.250    52.633    39.277    25.732
    10.208   -20.982     5.192    25.566    27.814    37.938   -19.690   -61.410
   -48.573   -27.596    12.190    31.227    13.519    -3.547    -5.475    -1.568
    16.231    37.462    58.476    64.618    48.231     6.189   -33.729   -22.329
    36.808    55.759    18.794   -15.409   -66.253   -92.068   -81.008   -81.578
   -84.584  -105.335  -136.901  -149.997  -126.634   -80.516   -45.493    90.551
   199.251   308.354   352.228   360.338   326.510   315.703   330.503   371.202
   397.690   441.534   471.213   472.525   481.777   583.489   468.141    28.164
  -135.016  -425.664  -873.941 -1095.562  -814.535  -710.934  -640.907  -573.233
  -468.222  -428.323  -606.034  -580.611  -516.148  -228.352   -42.652    98.995
   184.577   339.810   106.665  -597.514  -503.423  -168.429   147.520   216.655
    43.021   227.585   403.034   311.953   153.841   277.469   581.299   916.710
  1101.528   730.002   -76.798 -1259.910 -1153.110  -132.910   135.537   222.959
   269.465   384.575   295.745   -10.779  -174.254  -299.605  -209.091    74.453
   224.595   312.446   331.503   180.971  -302.831  -714.737  -623.267  -311.019
    37.946   138.905   137.580    97.381    77.979    -7.431    -3.586    23.923
    -3.286    54.577   107.552   178.575   -12.864  -170.669  -112.412   117.283
   313.888   235.575   -48.521  -198.831  -332.504  -280.121   -97.166  -212.094
  -123.669    17.181    16.365    21.303    33.492    84.724   118.413   143.199
   167.246   236.740   330.217   218.435    45.381    16.216    53.863      .407
    -4.767    25.340    -5.176   -41.311   -82.144  -128.519  -178.044   -93.872
   -30.010    46.014    61.925   -72.072  -137.072  -197.616  -210.652  -106.622
     4.710    38.171    95.556   169.962   256.444   282.859   169.051    98.934
   -57.420   -72.407    39.477    85.849    71.171    17.242   -32.223   -41.807
    68.625   -24.693   -76.279   -17.524   -56.033    42.610   120.884   128.145
   175.284   166.528   116.309    24.818   -86.353  -150.904  -145.645   -50.827
    50.397   110.180   179.326   255.487   255.109   102.203    54.895    74.602
    61.020    11.349   -34.371    15.787    27.817    37.863    90.623   107.202
   143.394   147.466    19.384   -72.709  -149.821  -262.523  -252.392  -158.045
  -104.741   -65.786   -56.134   -76.968  -155.255  -218.997  -228.022  -219.629
  -222.033  -286.078  -331.231  -374.043  -401.399  -334.070   -98.930    54.259
   162.124   299.973   346.387   413.174   343.260   235.674   321.107   393.622
   334.282   217.393   154.852   201.471   -18.493  -287.916  -347.695  -222.127
     3.207   151.641   261.283   259.120   198.799    83.772     8.872   -63.255
  -253.958  -446.576  -493.492  -464.435  -473.791  -435.753  -375.134  -239.370
  -101.827    -2.941   114.527   234.910   368.551   333.675   278.371   326.047
   484.738   361.703    46.538   -18.428   -26.330   -48.111  -181.578  -357.687
  -284.551  -274.738  -262.210  -154.711  -163.154  -128.270   -67.099    47.326
   128.419   126.820    74.893    62.056    87.152   160.527   219.999   139.212
    41.898    15.935    72.528   145.485   171.107   136.679    43.753   -29.916
   -62.595   -48.647   -59.318  -101.144  -127.465  -159.962  -155.654  -161.547
  -136.940   -44.799   -46.035   -48.946    30.362   109.166   129.481   145.075
   161.749   103.601    35.720    -4.809   -20.340   -21.041     1.855    40.999
    48.065   113.611   114.349   -14.931   -92.699  -120.349  -161.741  -157.981
  -114.544  -115.434  -124.702  -126.024   -79.618     -.187    77.242   150.430
   183.849   214.096   194.813   132.837   105.317    65.963    64.980   -51.461
  -178.115  -254.055  -276.859  -140.827   -74.234   -74.525   -49.225    37.583
    81.231    73.140    94.133   123.766   173.736   212.139   180.529    94.448
    36.831   -50.326  -122.161  -143.427  -112.898   -61.233   -57.493   -25.712
   -32.898   -78.876   -66.340   -34.090   -14.017    35.267    70.137    73.238
    95.103    99.338    97.955    81.303    40.164   -38.408  -128.504  -133.622
   -71.194   -25.326    23.603   105.942    74.300   -22.389  -113.208   -85.311
   -26.334    10.970    84.445   105.385    67.536     4.101   -21.391   -25.085
    -5.601   -32.298   -55.697   -45.276    -9.222    46.504    56.130    31.964
    24.184    28.941    31.861    40.287    41.531    23.480     2.838    -4.225
   -13.167   -27.300   -68.439  -114.959   -87.617   -42.816   -27.714   -24.899
   -26.908   -17.526    21.526    76.662   120.508   131.481    85.064    23.841
   -18.935      .467      .320   -35.085   -49.882   -18.753    43.401    73.452
    49.969     -.281   -36.494   -52.056   -49.791   -30.139   -13.091      .684
    27.772    42.469    47.313    35.278     2.277   -30.222   -62.609   -85.077
   -67.674   -19.573    25.442    53.782    47.100    39.517    47.232    45.158
    30.052     4.691   -20.872   -49.597   -71.212   -73.199   -49.637   -17.784
    -1.636    10.275    26.387    19.803    -3.910   -12.363   -11.257   -12.323
   -11.136      .507    27.138    37.595   -11.682   -55.280   -52.056   -19.838
     2.682     6.888    25.006    42.324    48.476    17.893   -53.641   -84.156
   -86.541   -75.819   -39.409   -33.558   -12.216    34.663    56.181    50.784
    42.192    38.155    58.664    63.299    16.055   -36.304   -47.230   -25.793
   -16.173   -11.932   -21.691   -21.061   -15.467     6.236    39.070    47.797
    61.218    66.917    54.045    44.301     4.624   -35.421   -31.580      .571
    14.265    21.003    34.257    29.558    17.294    -3.501   -13.367   -17.299
   -18.056   -10.743     2.003     8.854     6.438    -9.641   -41.743   -64.165
   -77.034   -66.868   -20.545     5.417    22.575    35.371    40.703    44.900
    16.781     -.842     -.371   -20.840   -55.286   -75.805   -50.945     6.795
    48.932    55.373    36.355    23.773     5.614    -4.690    10.308    29.963
    37.182    37.648    16.078   -16.424   -25.772   -11.005     -.072    -4.688
    -4.355     -.966    21.976    33.609    22.249    19.090    -1.719   -28.492
   -35.874   -23.384    12.183    27.927    26.145    17.872    11.992     1.454
   -12.212   -20.356   -22.241   -19.932   -25.955   -16.072    -8.710     -.872
    12.972    12.713     9.490    11.998    19.653    18.221     8.425    -1.832
    -9.086   -28.590   -41.824   -40.422   -21.171    10.801    18.494    24.751
    41.389    49.716    36.873     7.383   -24.181   -38.239   -41.362   -30.575
   -17.938    -6.142    10.256    13.824     8.068    -2.207    -1.347     4.216
     2.873    -2.875     5.545    20.261    23.891    10.319    -4.567   -23.967
   -46.868   -33.855   -11.306     5.566    26.343    30.341    25.973     5.380
    -8.250    -3.735     3.208    10.247     1.834    -3.658    -8.013   -15.364
   -15.538   -13.396    -2.894    10.794    21.709    31.603    30.386    23.767
    11.953    -1.971    -9.135   -16.737   -25.281   -34.415   -39.001   -32.774
   -25.805   -19.835   -12.292    -6.823    -6.888    -4.932     8.474    21.040
    29.693    33.976    45.741    62.024    47.642    13.114    -9.010   -23.241
   -30.209   -31.965   -28.186   -13.081     -.075     6.955     9.846   -12.130
   -41.008   -49.394   -39.242   -20.699    -8.682     3.139     6.011     3.610
     1.272    -5.673    -5.628     3.183     7.611     5.997     -.442     4.627
    13.335    13.622    -2.077   -22.542   -28.364   -27.869   -19.086     4.192
    28.518    37.440    33.102    23.288    16.669   -16.088   -42.556   -32.391
   -19.079    -6.385      .497     -.337      .994    -5.052    -4.611     6.346
     9.453     9.543    10.105    14.844     3.428   -18.791   -14.218     4.570
    10.554     1.578   -10.569   -10.959    -6.914    -7.603    -9.982   -12.736
   -15.799   -15.141    -6.055     7.213    13.753    15.745    16.515    14.883
    11.795    12.907    17.841    18.768    11.974     4.301    -8.897   -20.918
   -24.214   -15.033    10.635    28.729    32.345    23.544    11.352    -1.067
    -8.269    -8.682   -10.017    -9.418    -3.451     3.971    14.632    17.893
    10.072     1.613      .238     3.852     7.888    10.230     3.668    -5.348
    -1.996     7.927    10.971     6.986     5.510     8.788      .839   -11.365
   -11.955    -3.705     5.225    18.766    29.378    25.118     8.552    -6.278
    -1.322     9.286    12.214    13.529     9.372     8.625     3.671    -7.994
   -12.609   -12.842   -12.253    -7.416    -2.191    -7.031   -10.997    -6.097
      .517     3.502    -2.848    -9.427    -6.188    -1.131    -5.301   -18.075
   -22.802   -24.363   -21.427   -14.197    -8.499     3.777    14.181    24.075
    25.919    25.202    17.017    -6.227   -17.586   -12.566    -2.396     -.092
    -6.648   -11.915   -14.056   -13.830   -11.377    -7.269    -2.313      .081
     3.923     9.005    11.466     9.861     2.060    -8.103   -16.851   -10.509
     3.217     8.483     3.714     1.401     1.261     1.738     9.539    19.736
    24.172    16.759    13.107    14.396     7.912    -3.556    -9.394   -10.464
    -9.338    -5.254     -.849     4.109     2.946     3.231     3.601      .355
    -5.399   -10.630    -9.955    -9.493    -7.202    -4.668    -4.048    -6.170
    -3.845     -.339    -2.769    -2.798      .788     6.738     8.691     5.980
     1.605    -9.528   -18.538   -18.055   -12.890    -8.086     3.511    18.522
    22.004     8.925      .858    -9.368   -16.716    -4.333    13.406    21.205
    14.027     2.532   -10.582   -18.529   -19.034    -5.794     6.891    10.049
    10.259     5.991     6.397     8.284    11.300    15.006    11.191     9.842
     4.720    -9.964   -19.740   -16.133    -5.735     6.282    10.662    11.028
    10.148    10.687     8.789    -2.345   -16.751   -19.452    -8.298    -2.535
     2.856     5.820     5.336    -2.613    -3.318     1.629      .378    -5.171
    -7.254     -.835     1.352    -3.382   -21.011   -16.745    -4.235     7.294
    19.631    20.797    10.508    -5.022   -18.050   -17.586    -5.938     1.917
     6.501     1.991    -3.773    -9.188    -5.600     1.292     5.746     5.158
     2.691     -.261    -3.510    -4.497      .186     7.159     6.850     5.408
     7.819     5.341    -3.900    -4.012     4.930     7.596     3.292     1.331
     1.294    -4.654    -3.777     1.900     2.614     -.224    -4.569    -4.799
    -6.415    -7.376    -4.850    -1.126     2.251     6.902    14.038    17.047
    13.103     7.405     3.056    -2.182   -11.606   -18.593   -14.175    -7.172
    -3.186    -1.626     1.688     6.133     3.608     2.053     1.471     3.191
     4.101     3.990     7.286     5.180     4.773     1.992    -4.749   -14.887
   -19.940    -4.700    16.659    25.090    25.011    10.394   -35.291   -66.609
   -64.044   -51.661   -44.316   -21.491    17.237    47.985    53.102    38.591
    30.763    30.847    25.996   -10.205   -37.188   -23.453   -23.847   -24.400
   -14.059    -8.922     2.389    12.131    23.242    25.205    23.195    22.385
    27.311    14.340   -12.591   -15.329   -12.894   -13.092   -17.049   -11.603
     5.663    11.575     6.967     8.194    12.052    11.799     1.631   -10.418
   -13.828   -15.125   -14.383   -10.576    -1.598     7.833     8.440     1.179
    -6.331   -10.816   -11.820    -8.319    -3.949     3.605     7.490     3.843
     -.626    -3.931    -4.405    -1.656     5.877    12.084    16.557    15.385
     8.698    -5.711   -16.320   -16.595   -14.949   -12.359   -10.687    -4.536
     4.034     5.329     5.826     5.726     3.451     2.518     2.428     1.172
      .722     1.005      .268      .961     4.931     8.376     7.610     6.441
     3.941     2.464     -.268    -2.000     -.426     1.605     2.998     5.530
     8.031     9.917     5.940     1.115    -3.658    -6.803    -1.110     5.135
     8.553    12.597    12.327    12.980    15.580    12.572     2.999    -7.293
   -11.090   -13.262   -13.211   -10.484    -4.126    -2.437      .130     6.346
    10.617     6.060    -2.730    -8.429    -8.606    -7.420    -9.752    -8.502
    -9.451    -9.355    -6.157    -2.797      .610     1.234     -.052     -.247
     1.108     2.888     -.486    -4.349    -2.880      .398     3.220     4.599
     2.163     -.642     -.407     2.679     1.158    -4.295    -7.592    -8.364
    -4.718    -1.050     5.265     5.380     5.047     7.938     4.322    -4.090
    -9.854    -9.004    -7.494    -3.329     1.926     5.040     3.504     4.697
     6.913     5.691     6.126     5.072     1.405     -.835     -.150     -.095
    -1.715    -1.483     -.861      .586     2.877     7.359    10.847     9.802
     9.341    10.836    10.143     7.395     5.744     4.195     1.487     1.046
    -1.380    -4.135    -3.878    -1.789      .185      .054      .998     1.876
     1.882     -.348    -3.158    -1.920    -1.359    -2.542    -1.541     -.305
     -.617      .311     1.905      .528    -3.034    -6.951    -7.210    -8.543
    -8.065    -5.757    -4.298    -2.753     -.544     2.196     2.632      .212
    -1.953    -3.293    -3.439    -2.210    -3.793    -5.749    -6.156    -5.032
    -1.409     3.481     7.508     6.533     5.424     4.593      .120    -1.819
    -1.821    -1.934    -4.195    -4.477    -5.876    -7.515    -5.678    -2.513
    -1.104     -.095     1.721     1.572      .448    -3.389    -6.066    -8.029
    -9.138    -6.977    -5.889    -5.050    -1.637     2.137     5.707     8.035
     4.850     2.695      .575    -4.166    -7.291    -6.616    -1.467     1.960
     5.973     5.964     4.704     3.004     2.586     2.208     1.980     5.240
     7.021     6.880     5.596     6.061     2.791     -.516    -2.438    -3.257
     -.592     2.344     5.924     8.561     7.055     4.337     2.826     1.562
    -1.183    -4.962    -5.158    -3.057    -3.182    -2.301     -.143     2.296
     4.680     6.100     5.571     2.535     2.349     2.364     3.471     2.739
      .773     3.319     4.171     1.074    -2.083    -4.858    -8.329    -8.737
    -4.968      .616      .463    -2.356     -.459      .264    -1.681      .127
     2.365     2.865     1.501     2.203     2.245     1.453     -.451    -3.357
    -3.915    -3.777    -1.515      .131    -2.134    -3.675    -4.010    -2.490
     1.484     4.770     4.811     2.298     2.970     2.277     2.642     4.405
     4.439     -.412     -.333     -.135    -2.502    -5.090    -4.261    -4.643
    -5.763    -2.125    -2.526    -1.239     -.399     3.307     3.980     1.754
     -.843    -3.231    -4.410    -1.213     3.078     3.267     1.444    -1.879
    -2.201     -.476     2.188     2.959      .511    -2.875    -3.906    -5.551
    -7.397    -5.567    -4.961    -1.187     3.283     4.702     3.444     1.536
      .788     -.734    -1.677    -2.260    -2.854    -3.832    -5.122    -2.437
      .299     3.450     4.760     4.796     4.321     1.978     1.028     -.003
      .927     1.880     1.976     1.598    -1.518    -3.700    -4.362    -3.784
