Response and Fourier amplitude spectra (68 periods,  .04 -  3.4 sec)   for      
Corrected accelerogram   24207-M0150-11244.01       Chan 10:  Up         from   
Uncorrected Accelerogram Data             Processed: 03/04/14, CGS  jh001       
Rcrd of Thu Sep  1, 2011 13:46:46.0 PDT               (Avol1 v0.5, 2/14 CSMIP)  
CSMIP Preliminary Processing            (Origin:  To be determined)             
24207-M0150-11244.01                 Start time:  9/01/11, 20:46:46.0 UTC (GPS) 
Station No. 24207   34.335N, 118.397W    MtWtny  s/n  150 (17 Chns of 17 at Sta)
Sylmar - Pacoima Dam                      CGS   Data: Acceleration              
Chan 10:  Up                        Location: Dam Base                          
Rcrd of Thu Sep  1, 2011 13:46:46.0 PDT    Thu Sep  1, 2011 13:46:46.0 PDT      
Hypocenter:  To be determined.               ML:  To be determined.
Instr Period =  .0110 sec,  Damping =  .660,  Sensitivity =  .62 v/g
                        Record length = 58.000 sec.
                                     Uncor Max  =   .004 g , at  25.560 sec.
RMS accel of (uncor) record  =        .   Chn. metadata effective date: 03/23/00
Accelerogram bandpass filtered with 3 dB pts at   .30 and 40.00 cyc/sec
                 instrument- and baseline-corrected





Rcrd of Thu Sep  1, 2011 13:46:46.0 PDT    Thu Sep  1, 2011 13:46:46.0 PDT

24207-M0150-11244.01      Sylmar - Pacoima Dam    Chan 10:  Up

24207-M0150-11244.01      Sylmar - Pacoima Dam    Chan 10:  Up

Units for spectra are inches and sec, except Sa is in fraction of g.

   10  100   10   18   17  200    1    3    1   24   13  150    024207    5    0
   20   46   46    0  244    9    1 2011   10    3  50011600   39   20   74   -1
11600    1  100    3  150    1    1  580    2    0    0    0    0    0    0    0
    0    0    3    011600    1  222    1   18    4    0    0    3    1    011600
    311600    4   68    5   17    5    0    0    0    0    0    1    3    1    2
    2    2    4    0   68   99    0   10    0    0    0    1    0    0   68  222
    1    0    6    0
      .011      .660    58.000      .000      .000   624.000      .004    25.560
    90.600      .298      .478      .000     5.000  -999.000     4.000      .000
     2.500    50.559     2.500  2016.000    25.000    30.000  -999.000      .001
     -.001     -.002     2.000    15.000    34.335  -118.397      .018      .024
     1.339     -.005      .000   594.000    25.800    27.800    12.800   118.940
     1.000    -1.659      .000  -999.000  -999.000  -999.000  -999.000      .000
      .100      .500     6.300   980.665      .005    58.000    14.419      .000
      .000    40.000      .000    58.000      .005      .303      .000      .000
    25.560     3.532    25.485     -.159    25.635     -.015      .000      .303
    40.000      .005      .005      .000      .005      .002      .000      .000
      .012      .070      .006      .004      .001      .000      .000      .000
      .000      .000      .000      .000      .000      .000      .000      .000
      .000      .000      .000      .000
      .000      .020      .050      .100      .200
      .040      .042      .044      .046      .048      .050      .055      .060
      .065      .070      .075      .080      .085      .090      .095      .100
      .110      .120      .130      .140      .150      .160      .170      .180
      .190      .200      .220      .240      .260      .280      .300      .320
      .340      .360      .380      .400      .420      .440      .460      .480
      .500      .550      .600      .650      .700      .750      .800      .850
      .900      .950     1.000     1.100     1.200     1.300     1.400     1.500
     1.600     1.700     1.800     1.900     2.000     2.200     2.400     2.600
     2.800     3.000     3.200     3.400      .000      .000      .000      .000
      .000      .000      .000      .000      .000      .000      .000      .000
      .000      .000      .000      .000      .000      .000      .000      .000
      .000      .000      .000      .000      .000      .000      .000      .000
      .000      .000      .000      .000
Fourier amplitude spectra in in/sec.
  .467E-01  .163E-01  .141E-01  .254E-01  .103E+00  .434E-01  .558E-01  .103E+00
  .904E-01  .411E-01  .926E-01  .561E-01  .223E-01  .884E-01  .105E+00  .671E-01
  .638E-01  .324E-01  .123E+00  .585E-01  .238E-01  .597E-01  .557E-01  .946E-01
  .229E+00  .112E+00  .921E-01  .209E+00  .126E+00  .941E-01  .107E+00  .135E+00
  .858E-01  .102E+00  .880E-01  .126E+00  .177E+00  .921E-01  .619E-01  .119E+00
  .570E-01  .374E-01  .168E+00  .129E+00  .117E+00  .200E-01  .118E+00  .124E+00
  .122E+00  .852E-01  .703E-01  .825E-01  .103E+00  .580E-01  .509E-01  .339E-01
  .327E-01  .335E-01  .501E-01  .329E-01  .219E-01  .239E-01  .154E-01  .116E-01
  .136E-01  .196E-01  .624E-02  .885E-02  .000E+00  .000E+00  .000E+00  .000E+00
  .000E+00  .000E+00  .000E+00  .000E+00  .000E+00  .000E+00  .000E+00  .000E+00
  .000E+00  .000E+00  .000E+00  .000E+00  .000E+00  .000E+00  .000E+00  .000E+00
  .000E+00  .000E+00  .000E+00  .000E+00  .000E+00  .000E+00  .000E+00  .000E+00
  .000E+00  .000E+00  .000E+00  .000E+00
Damping =  .00. Data of Sd,Sv,Sa,Pssv,ttSd,ttSv,ttSa :
  .320E-03  .283E-03  .410E-03  .377E-03  .955E-03  .538E-03  .529E-03  .100E-02
  .120E-02  .849E-03  .132E-02  .123E-02  .129E-02  .135E-02  .163E-02  .118E-02
  .154E-02  .123E-02  .321E-02  .179E-02  .957E-03  .227E-02  .273E-02  .373E-02
  .772E-02  .558E-02  .436E-02  .844E-02  .558E-02  .562E-02  .668E-02  .788E-02
  .618E-02  .722E-02  .707E-02  .872E-02  .122E-01  .924E-02  .768E-02  .104E-01
  .948E-02  .949E-02  .184E-01  .145E-01  .135E-01  .111E-01  .183E-01  .196E-01
  .191E-01  .154E-01  .161E-01  .155E-01  .211E-01  .156E-01  .146E-01  .116E-01
  .108E-01  .105E-01  .155E-01  .115E-01  .916E-02  .901E-02  .918E-02  .939E-02
  .883E-02  .937E-02  .835E-02  .845E-02  .000E+00  .000E+00  .000E+00  .000E+00
  .000E+00  .000E+00  .000E+00  .000E+00  .000E+00  .000E+00  .000E+00  .000E+00
  .000E+00  .000E+00  .000E+00  .000E+00  .000E+00  .000E+00  .000E+00  .000E+00
  .000E+00  .000E+00  .000E+00  .000E+00  .000E+00  .000E+00  .000E+00  .000E+00
  .000E+00  .000E+00  .000E+00  .000E+00
  .493E-01  .406E-01  .555E-01  .491E-01  .124E+00  .633E-01  .590E-01  .105E+00
  .115E+00  .755E-01  .110E+00  .932E-01  .914E-01  .937E-01  .108E+00  .740E-01
  .886E-01  .611E-01  .154E+00  .827E-01  .391E-01  .901E-01  .924E-01  .123E+00
  .255E+00  .178E+00  .127E+00  .220E+00  .135E+00  .131E+00  .143E+00  .154E+00
  .127E+00  .132E+00  .124E+00  .135E+00  .182E+00  .130E+00  .121E+00  .135E+00
  .115E+00  .114E+00  .192E+00  .140E+00  .121E+00  .101E+00  .146E+00  .151E+00
  .134E+00  .109E+00  .105E+00  .100E+00  .110E+00  .885E-01  .664E-01  .654E-01
  .677E-01  .666E-01  .665E-01  .678E-01  .662E-01  .664E-01  .670E-01  .665E-01
  .678E-01  .673E-01  .677E-01  .666E-01  .000E+00  .000E+00  .000E+00  .000E+00
  .000E+00  .000E+00  .000E+00  .000E+00  .000E+00  .000E+00  .000E+00  .000E+00
  .000E+00  .000E+00  .000E+00  .000E+00  .000E+00  .000E+00  .000E+00  .000E+00
  .000E+00  .000E+00  .000E+00  .000E+00  .000E+00  .000E+00  .000E+00  .000E+00
  .000E+00  .000E+00  .000E+00  .000E+00
  .205E-01  .164E-01  .217E-01  .182E-01  .424E-01  .220E-01  .179E-01  .285E-01
  .290E-01  .177E-01  .240E-01  .196E-01  .182E-01  .171E-01  .185E-01  .121E-01
  .130E-01  .870E-02  .194E-01  .933E-02  .435E-02  .908E-02  .965E-02  .118E-01
  .219E-01  .143E-01  .921E-02  .150E-01  .845E-02  .734E-02  .760E-02  .787E-02
  .547E-02  .570E-02  .501E-02  .557E-02  .706E-02  .488E-02  .371E-02  .463E-02
  .388E-02  .321E-02  .523E-02  .351E-02  .281E-02  .202E-02  .293E-02  .277E-02
  .242E-02  .174E-02  .165E-02  .131E-02  .150E-02  .945E-03  .764E-03  .529E-03
  .432E-03  .371E-03  .490E-03  .326E-03  .234E-03  .190E-03  .163E-03  .142E-03
  .115E-03  .106E-03  .834E-04  .747E-04  .000E+00  .000E+00  .000E+00  .000E+00
  .000E+00  .000E+00  .000E+00  .000E+00  .000E+00  .000E+00  .000E+00  .000E+00
  .000E+00  .000E+00  .000E+00  .000E+00  .000E+00  .000E+00  .000E+00  .000E+00
  .000E+00  .000E+00  .000E+00  .000E+00  .000E+00  .000E+00  .000E+00  .000E+00
  .000E+00  .000E+00  .000E+00  .000E+00
  .503E-01  .423E-01  .586E-01  .515E-01  .125E+00  .677E-01  .604E-01  .105E+00
  .116E+00  .762E-01  .111E+00  .964E-01  .953E-01  .946E-01  .108E+00  .743E-01
  .880E-01  .642E-01  .155E+00  .803E-01  .401E-01  .893E-01  .101E+00  .130E+00
  .255E+00  .175E+00  .125E+00  .221E+00  .135E+00  .126E+00  .140E+00  .155E+00
  .114E+00  .126E+00  .117E+00  .137E+00  .182E+00  .132E+00  .105E+00  .137E+00
  .119E+00  .108E+00  .193E+00  .140E+00  .121E+00  .931E-01  .144E+00  .145E+00
  .134E+00  .102E+00  .101E+00  .886E-01  .111E+00  .755E-01  .657E-01  .487E-01
  .424E-01  .388E-01  .542E-01  .380E-01  .288E-01  .257E-01  .240E-01  .227E-01
  .198E-01  .196E-01  .164E-01  .156E-01  .000E+00  .000E+00  .000E+00  .000E+00
  .000E+00  .000E+00  .000E+00  .000E+00  .000E+00  .000E+00  .000E+00  .000E+00
  .000E+00  .000E+00  .000E+00  .000E+00  .000E+00  .000E+00  .000E+00  .000E+00
  .000E+00  .000E+00  .000E+00  .000E+00  .000E+00  .000E+00  .000E+00  .000E+00
  .000E+00  .000E+00  .000E+00  .000E+00
  .273E+02  .253E+02  .255E+02  .268E+02  .272E+02  .256E+02  .280E+02  .335E+02
  .261E+02  .258E+02  .269E+02  .260E+02  .260E+02  .288E+02  .371E+02  .364E+02
  .271E+02  .265E+02  .280E+02  .268E+02  .255E+02  .270E+02  .259E+02  .270E+02
  .279E+02  .263E+02  .277E+02  .340E+02  .381E+02  .268E+02  .278E+02  .325E+02
  .262E+02  .260E+02  .272E+02  .287E+02  .481E+02  .294E+02  .266E+02  .348E+02
  .297E+02  .277E+02  .329E+02  .389E+02  .433E+02  .266E+02  .343E+02  .297E+02
  .390E+02  .288E+02  .270E+02  .293E+02  .476E+02  .299E+02  .338E+02  .269E+02
  .263E+02  .263E+02  .407E+02  .367E+02  .313E+02  .256E+02  .256E+02  .256E+02
  .256E+02  .508E+02  .256E+02  .256E+02  .000E+00  .000E+00  .000E+00  .000E+00
  .000E+00  .000E+00  .000E+00  .000E+00  .000E+00  .000E+00  .000E+00  .000E+00
  .000E+00  .000E+00  .000E+00  .000E+00  .000E+00  .000E+00  .000E+00  .000E+00
  .000E+00  .000E+00  .000E+00  .000E+00  .000E+00  .000E+00  .000E+00  .000E+00
  .000E+00  .000E+00  .000E+00  .000E+00
  .273E+02  .253E+02  .255E+02  .268E+02  .272E+02  .256E+02  .279E+02  .335E+02
  .261E+02  .258E+02  .264E+02  .262E+02  .261E+02  .288E+02  .371E+02  .364E+02
  .271E+02  .264E+02  .280E+02  .268E+02  .257E+02  .269E+02  .264E+02  .267E+02
  .278E+02  .261E+02  .276E+02  .340E+02  .381E+02  .268E+02  .277E+02  .323E+02
  .261E+02  .260E+02  .260E+02  .286E+02  .480E+02  .308E+02  .265E+02  .350E+02
  .301E+02  .259E+02  .330E+02  .384E+02  .302E+02  .261E+02  .341E+02  .295E+02
  .293E+02  .290E+02  .272E+02  .269E+02  .473E+02  .290E+02  .255E+02  .255E+02
  .255E+02  .255E+02  .255E+02  .255E+02  .255E+02  .255E+02  .255E+02  .255E+02
  .255E+02  .255E+02  .255E+02  .255E+02  .000E+00  .000E+00  .000E+00  .000E+00
  .000E+00  .000E+00  .000E+00  .000E+00  .000E+00  .000E+00  .000E+00  .000E+00
  .000E+00  .000E+00  .000E+00  .000E+00  .000E+00  .000E+00  .000E+00  .000E+00
  .000E+00  .000E+00  .000E+00  .000E+00  .000E+00  .000E+00  .000E+00  .000E+00
  .000E+00  .000E+00  .000E+00  .000E+00
  .273E+02  .253E+02  .255E+02  .268E+02  .272E+02  .256E+02  .280E+02  .335E+02
  .261E+02  .258E+02  .269E+02  .260E+02  .260E+02  .288E+02  .371E+02  .364E+02
  .271E+02  .265E+02  .280E+02  .268E+02  .255E+02  .270E+02  .259E+02  .270E+02
  .279E+02  .263E+02  .277E+02  .340E+02  .381E+02  .268E+02  .278E+02  .325E+02
  .262E+02  .260E+02  .272E+02  .287E+02  .481E+02  .294E+02  .266E+02  .348E+02
  .297E+02  .277E+02  .329E+02  .389E+02  .433E+02  .266E+02  .343E+02  .297E+02
  .390E+02  .288E+02  .270E+02  .293E+02  .476E+02  .299E+02  .338E+02  .269E+02
  .263E+02  .263E+02  .407E+02  .367E+02  .313E+02  .256E+02  .256E+02  .256E+02
  .256E+02  .508E+02  .256E+02  .256E+02  .000E+00  .000E+00  .000E+00  .000E+00
  .000E+00  .000E+00  .000E+00  .000E+00  .000E+00  .000E+00  .000E+00  .000E+00
  .000E+00  .000E+00  .000E+00  .000E+00  .000E+00  .000E+00  .000E+00  .000E+00
  .000E+00  .000E+00  .000E+00  .000E+00  .000E+00  .000E+00  .000E+00  .000E+00
  .000E+00  .000E+00  .000E+00  .000E+00
Damping =  .02. Data of Sd,Sv,Sa,Pssv,ttSd,ttSv,ttSa :
  .159E-03  .237E-03  .190E-03  .228E-03  .296E-03  .251E-03  .251E-03  .369E-03
  .608E-03  .709E-03  .794E-03  .686E-03  .657E-03  .775E-03  .784E-03  .671E-03
  .921E-03  .104E-02  .148E-02  .113E-02  .990E-03  .153E-02  .198E-02  .256E-02
  .381E-02  .382E-02  .284E-02  .376E-02  .344E-02  .437E-02  .473E-02  .440E-02
  .533E-02  .600E-02  .546E-02  .601E-02  .611E-02  .653E-02  .672E-02  .674E-02
  .680E-02  .812E-02  .954E-02  .102E-01  .104E-01  .102E-01  .101E-01  .131E-01
  .129E-01  .128E-01  .138E-01  .130E-01  .134E-01  .123E-01  .112E-01  .106E-01
  .103E-01  .100E-01  .981E-02  .910E-02  .875E-02  .888E-02  .899E-02  .913E-02
  .885E-02  .887E-02  .842E-02  .834E-02  .000E+00  .000E+00  .000E+00  .000E+00
  .000E+00  .000E+00  .000E+00  .000E+00  .000E+00  .000E+00  .000E+00  .000E+00
  .000E+00  .000E+00  .000E+00  .000E+00  .000E+00  .000E+00  .000E+00  .000E+00
  .000E+00  .000E+00  .000E+00  .000E+00  .000E+00  .000E+00  .000E+00  .000E+00
  .000E+00  .000E+00  .000E+00  .000E+00
  .205E-01  .312E-01  .242E-01  .238E-01  .362E-01  .301E-01  .271E-01  .384E-01
  .584E-01  .598E-01  .646E-01  .495E-01  .478E-01  .545E-01  .521E-01  .404E-01
  .528E-01  .546E-01  .739E-01  .477E-01  .421E-01  .509E-01  .643E-01  .905E-01
  .125E+00  .123E+00  .869E-01  .990E-01  .830E-01  .104E+00  .102E+00  .100E+00
  .108E+00  .113E+00  .113E+00  .105E+00  .102E+00  .995E-01  .102E+00  .101E+00
  .100E+00  .106E+00  .102E+00  .926E-01  .912E-01  .922E-01  .950E-01  .102E+00
  .967E-01  .909E-01  .880E-01  .885E-01  .881E-01  .723E-01  .645E-01  .648E-01
  .659E-01  .657E-01  .659E-01  .665E-01  .658E-01  .658E-01  .662E-01  .663E-01
  .670E-01  .669E-01  .670E-01  .665E-01  .000E+00  .000E+00  .000E+00  .000E+00
  .000E+00  .000E+00  .000E+00  .000E+00  .000E+00  .000E+00  .000E+00  .000E+00
  .000E+00  .000E+00  .000E+00  .000E+00  .000E+00  .000E+00  .000E+00  .000E+00
  .000E+00  .000E+00  .000E+00  .000E+00  .000E+00  .000E+00  .000E+00  .000E+00
  .000E+00  .000E+00  .000E+00  .000E+00
  .102E-01  .137E-01  .100E-01  .110E-01  .132E-01  .102E-01  .850E-02  .105E-01
  .147E-01  .148E-01  .146E-01  .110E-01  .931E-02  .981E-02  .887E-02  .688E-02
  .776E-02  .744E-02  .893E-02  .591E-02  .451E-02  .609E-02  .702E-02  .810E-02
  .108E-01  .980E-02  .601E-02  .669E-02  .522E-02  .570E-02  .538E-02  .440E-02
  .473E-02  .474E-02  .387E-02  .384E-02  .355E-02  .346E-02  .325E-02  .300E-02
  .279E-02  .275E-02  .271E-02  .247E-02  .217E-02  .186E-02  .162E-02  .185E-02
  .163E-02  .145E-02  .141E-02  .110E-02  .956E-03  .748E-03  .586E-03  .483E-03
  .411E-03  .356E-03  .311E-03  .259E-03  .225E-03  .188E-03  .160E-03  .139E-03
  .116E-03  .102E-03  .850E-04  .747E-04  .000E+00  .000E+00  .000E+00  .000E+00
  .000E+00  .000E+00  .000E+00  .000E+00  .000E+00  .000E+00  .000E+00  .000E+00
  .000E+00  .000E+00  .000E+00  .000E+00  .000E+00  .000E+00  .000E+00  .000E+00
  .000E+00  .000E+00  .000E+00  .000E+00  .000E+00  .000E+00  .000E+00  .000E+00
  .000E+00  .000E+00  .000E+00  .000E+00
  .250E-01  .354E-01  .271E-01  .312E-01  .388E-01  .316E-01  .287E-01  .386E-01
  .588E-01  .637E-01  .666E-01  .539E-01  .486E-01  .541E-01  .518E-01  .422E-01
  .526E-01  .546E-01  .713E-01  .507E-01  .415E-01  .599E-01  .732E-01  .894E-01
  .126E+00  .120E+00  .812E-01  .984E-01  .832E-01  .981E-01  .990E-01  .864E-01
  .986E-01  .105E+00  .903E-01  .944E-01  .914E-01  .933E-01  .918E-01  .883E-01
  .854E-01  .928E-01  .999E-01  .987E-01  .933E-01  .858E-01  .796E-01  .968E-01
  .899E-01  .846E-01  .865E-01  .745E-01  .704E-01  .596E-01  .504E-01  .443E-01
  .403E-01  .370E-01  .343E-01  .301E-01  .275E-01  .254E-01  .235E-01  .221E-01
  .199E-01  .186E-01  .165E-01  .154E-01  .000E+00  .000E+00  .000E+00  .000E+00
  .000E+00  .000E+00  .000E+00  .000E+00  .000E+00  .000E+00  .000E+00  .000E+00
  .000E+00  .000E+00  .000E+00  .000E+00  .000E+00  .000E+00  .000E+00  .000E+00
  .000E+00  .000E+00  .000E+00  .000E+00  .000E+00  .000E+00  .000E+00  .000E+00
  .000E+00  .000E+00  .000E+00  .000E+00
  .259E+02  .260E+02  .261E+02  .256E+02  .263E+02  .256E+02  .260E+02  .260E+02
  .260E+02  .257E+02  .257E+02  .260E+02  .258E+02  .272E+02  .271E+02  .260E+02
  .260E+02  .263E+02  .270E+02  .267E+02  .259E+02  .259E+02  .259E+02  .261E+02
  .270E+02  .261E+02  .272E+02  .272E+02  .267E+02  .266E+02  .265E+02  .261E+02
  .260E+02  .260E+02  .259E+02  .271E+02  .271E+02  .259E+02  .259E+02  .259E+02
  .259E+02  .258E+02  .258E+02  .258E+02  .258E+02  .258E+02  .258E+02  .293E+02
  .290E+02  .264E+02  .270E+02  .270E+02  .290E+02  .267E+02  .268E+02  .269E+02
  .263E+02  .263E+02  .263E+02  .263E+02  .256E+02  .256E+02  .256E+02  .256E+02
  .256E+02  .256E+02  .256E+02  .256E+02  .000E+00  .000E+00  .000E+00  .000E+00
  .000E+00  .000E+00  .000E+00  .000E+00  .000E+00  .000E+00  .000E+00  .000E+00
  .000E+00  .000E+00  .000E+00  .000E+00  .000E+00  .000E+00  .000E+00  .000E+00
  .000E+00  .000E+00  .000E+00  .000E+00  .000E+00  .000E+00  .000E+00  .000E+00
  .000E+00  .000E+00  .000E+00  .000E+00
  .260E+02  .260E+02  .261E+02  .258E+02  .263E+02  .260E+02  .260E+02  .260E+02
  .260E+02  .258E+02  .257E+02  .258E+02  .258E+02  .272E+02  .270E+02  .271E+02
  .262E+02  .263E+02  .269E+02  .262E+02  .259E+02  .259E+02  .259E+02  .262E+02
  .261E+02  .261E+02  .272E+02  .271E+02  .268E+02  .267E+02  .266E+02  .261E+02
  .261E+02  .260E+02  .260E+02  .260E+02  .260E+02  .258E+02  .258E+02  .258E+02
  .258E+02  .259E+02  .259E+02  .257E+02  .257E+02  .261E+02  .265E+02  .295E+02
  .270E+02  .271E+02  .272E+02  .269E+02  .269E+02  .264E+02  .257E+02  .255E+02
  .255E+02  .255E+02  .255E+02  .255E+02  .255E+02  .255E+02  .255E+02  .255E+02
  .255E+02  .255E+02  .255E+02  .255E+02  .000E+00  .000E+00  .000E+00  .000E+00
  .000E+00  .000E+00  .000E+00  .000E+00  .000E+00  .000E+00  .000E+00  .000E+00
  .000E+00  .000E+00  .000E+00  .000E+00  .000E+00  .000E+00  .000E+00  .000E+00
  .000E+00  .000E+00  .000E+00  .000E+00  .000E+00  .000E+00  .000E+00  .000E+00
  .000E+00  .000E+00  .000E+00  .000E+00
  .259E+02  .260E+02  .261E+02  .256E+02  .263E+02  .257E+02  .260E+02  .260E+02
  .260E+02  .257E+02  .257E+02  .260E+02  .258E+02  .272E+02  .271E+02  .260E+02
  .260E+02  .263E+02  .270E+02  .267E+02  .259E+02  .259E+02  .259E+02  .261E+02
  .270E+02  .261E+02  .272E+02  .272E+02  .267E+02  .266E+02  .265E+02  .261E+02
  .260E+02  .260E+02  .259E+02  .271E+02  .271E+02  .259E+02  .259E+02  .259E+02
  .259E+02  .257E+02  .258E+02  .258E+02  .258E+02  .258E+02  .258E+02  .293E+02
  .290E+02  .264E+02  .270E+02  .270E+02  .290E+02  .267E+02  .268E+02  .268E+02
  .262E+02  .263E+02  .263E+02  .263E+02  .256E+02  .256E+02  .256E+02  .256E+02
  .256E+02  .256E+02  .256E+02  .256E+02  .000E+00  .000E+00  .000E+00  .000E+00
  .000E+00  .000E+00  .000E+00  .000E+00  .000E+00  .000E+00  .000E+00  .000E+00
  .000E+00  .000E+00  .000E+00  .000E+00  .000E+00  .000E+00  .000E+00  .000E+00
  .000E+00  .000E+00  .000E+00  .000E+00  .000E+00  .000E+00  .000E+00  .000E+00
  .000E+00  .000E+00  .000E+00  .000E+00
Damping =  .05. Data of Sd,Sv,Sa,Pssv,ttSd,ttSv,ttSa :
  .132E-03  .155E-03  .150E-03  .157E-03  .189E-03  .197E-03  .233E-03  .312E-03
  .417E-03  .564E-03  .605E-03  .528E-03  .492E-03  .497E-03  .548E-03  .550E-03
  .745E-03  .806E-03  .924E-03  .774E-03  .924E-03  .124E-02  .154E-02  .200E-02
  .254E-02  .269E-02  .211E-02  .256E-02  .268E-02  .318E-02  .333E-02  .368E-02
  .441E-02  .474E-02  .471E-02  .499E-02  .534E-02  .561E-02  .575E-02  .586E-02
