Response and Fourier amplitude spectra (68 periods,  .04 -  3.4 sec)   for      
Corrected accelerogram   24207-M0150-11244.01       Chan 16:  Up         from   
Uncorrected Accelerogram Data             Processed: 03/04/14, CGS  jh001       
Rcrd of Thu Sep  1, 2011 13:46:46.0 PDT               (Avol1 v0.5, 2/14 CSMIP)  
CSMIP Preliminary Processing            (Origin:  To be determined)             
24207-M0150-11244.01                 Start time:  9/01/11, 20:46:46.0 UTC (GPS) 
Station No. 24207   34.335N, 118.397W    MtWtny  s/n  150 (17 Chns of 17 at Sta)
Sylmar - Pacoima Dam                      CGS   Data: Acceleration              
Chan 16:  Up                        Location: Left (South) Abutment             
Rcrd of Thu Sep  1, 2011 13:46:46.0 PDT    Thu Sep  1, 2011 13:46:46.0 PDT      
Hypocenter:  To be determined.               ML:  To be determined.
Instr Period =  .0107 sec,  Damping =  .660,  Sensitivity =  .63 v/g
                        Record length = 58.000 sec.
                                     Uncor Max  =   .011 g , at  25.880 sec.
RMS accel of (uncor) record  =        .   Chn. metadata effective date: 09/02/99
Accelerogram bandpass filtered with 3 dB pts at   .30 and 40.00 cyc/sec
                 instrument- and baseline-corrected





Rcrd of Thu Sep  1, 2011 13:46:46.0 PDT    Thu Sep  1, 2011 13:46:46.0 PDT

24207-M0150-11244.01      Sylmar - Pacoima Dam    Chan 16:  Up

24207-M0150-11244.01      Sylmar - Pacoima Dam    Chan 16:  Up

Units for spectra are inches and sec, except Sa is in fraction of g.

   16  100   16   18   17  200    1    3    1   24   13  150    024207    5    0
   20   46   46    0  244    9    1 2011   10    3  50011600   39   20   74   -1
11600    0  100    3  150    1    1  580    2    0    0    0    0    0    0    0
    0    0    3    011600    1  222    1   18    4    0    0    3    1    011600
    311600    4   68    5   17    5    0    0    0    0    0    1    3    1    2
    2    2    4    0   68   99    0   10    0    0    0    1    0    0   68  222
    1    0    6    0
      .011      .660    58.000      .001      .000   625.000      .011    25.880
    93.600      .298      .477      .000     5.000  -999.000     4.000      .000
     2.500    60.597     2.500  2016.000    25.000    30.000  -999.000     -.003
      .004      .006     2.000    15.000    34.335  -118.397      .020      .045
     2.239      .003      .010   594.000    25.800    27.800    12.800   118.940
     1.000    -1.026      .000  -999.000  -999.000  -999.000  -999.000      .000
      .100      .500     6.300   980.665      .005    58.000    14.897      .000
      .000    40.000      .000    58.000      .005      .303      .000      .000
    25.875    10.854    25.530     -.242    25.575     -.015      .000      .303
    40.000      .005      .005      .000      .005      .003      .000      .000
      .049      .046      .013      .005      .001      .000      .000      .000
      .000      .000      .000      .000      .000      .000      .000      .000
      .000      .000      .000      .000
      .000      .020      .050      .100      .200
      .040      .042      .044      .046      .048      .050      .055      .060
      .065      .070      .075      .080      .085      .090      .095      .100
      .110      .120      .130      .140      .150      .160      .170      .180
      .190      .200      .220      .240      .260      .280      .300      .320
      .340      .360      .380      .400      .420      .440      .460      .480
      .500      .550      .600      .650      .700      .750      .800      .850
      .900      .950     1.000     1.100     1.200     1.300     1.400     1.500
     1.600     1.700     1.800     1.900     2.000     2.200     2.400     2.600
     2.800     3.000     3.200     3.400      .000      .000      .000      .000
      .000      .000      .000      .000      .000      .000      .000      .000
      .000      .000      .000      .000      .000      .000      .000      .000
      .000      .000      .000      .000      .000      .000      .000      .000
      .000      .000      .000      .000
Fourier amplitude spectra in in/sec.
  .205E+00  .471E+00  .423E+00  .417E+00  .590E+00  .874E+00  .433E+00  .187E+00
  .207E+00  .967E-01  .212E+00  .279E+00  .388E+00  .286E+00  .523E+00  .560E+00
  .160E+00  .135E+00  .117E+00  .119E+00  .452E+00  .110E+00  .344E+00  .180E+00
  .534E+00  .185E+00  .136E+00  .288E+00  .243E+00  .127E+00  .115E+00  .966E-01
  .139E+00  .118E+00  .792E-01  .127E+00  .139E+00  .130E+00  .771E-01  .139E+00
  .768E-01  .439E-01  .169E+00  .122E+00  .118E+00  .435E-02  .111E+00  .131E+00
  .126E+00  .855E-01  .734E-01  .868E-01  .111E+00  .604E-01  .536E-01  .294E-01
  .316E-01  .419E-01  .495E-01  .350E-01  .260E-01  .294E-01  .183E-01  .127E-01
  .166E-01  .161E-01  .127E-01  .614E-02  .000E+00  .000E+00  .000E+00  .000E+00
  .000E+00  .000E+00  .000E+00  .000E+00  .000E+00  .000E+00  .000E+00  .000E+00
  .000E+00  .000E+00  .000E+00  .000E+00  .000E+00  .000E+00  .000E+00  .000E+00
  .000E+00  .000E+00  .000E+00  .000E+00  .000E+00  .000E+00  .000E+00  .000E+00
  .000E+00  .000E+00  .000E+00  .000E+00
Damping =  .00. Data of Sd,Sv,Sa,Pssv,ttSd,ttSv,ttSa :
  .135E-02  .335E-02  .369E-02  .324E-02  .558E-02  .684E-02  .390E-02  .208E-02
  .236E-02  .169E-02  .389E-02  .396E-02  .551E-02  .460E-02  .794E-02  .961E-02
  .466E-02  .340E-02  .502E-02  .811E-02  .122E-01  .786E-02  .104E-01  .935E-02
  .174E-01  .118E-01  .630E-02  .116E-01  .104E-01  .730E-02  .746E-02  .660E-02
  .806E-02  .834E-02  .756E-02  .819E-02  .989E-02  .110E-01  .798E-02  .118E-01
  .115E-01  .101E-01  .181E-01  .136E-01  .136E-01  .117E-01  .185E-01  .205E-01
  .197E-01  .157E-01  .168E-01  .166E-01  .226E-01  .159E-01  .153E-01  .120E-01
  .125E-01  .118E-01  .161E-01  .120E-01  .989E-02  .104E-01  .977E-02  .903E-02
  .102E-01  .858E-02  .101E-01  .921E-02  .000E+00  .000E+00  .000E+00  .000E+00
  .000E+00  .000E+00  .000E+00  .000E+00  .000E+00  .000E+00  .000E+00  .000E+00
  .000E+00  .000E+00  .000E+00  .000E+00  .000E+00  .000E+00  .000E+00  .000E+00
  .000E+00  .000E+00  .000E+00  .000E+00  .000E+00  .000E+00  .000E+00  .000E+00
  .000E+00  .000E+00  .000E+00  .000E+00
  .211E+00  .491E+00  .528E+00  .434E+00  .723E+00  .868E+00  .446E+00  .218E+00
  .227E+00  .152E+00  .316E+00  .317E+00  .406E+00  .307E+00  .525E+00  .605E+00
  .282E+00  .164E+00  .245E+00  .352E+00  .520E+00  .317E+00  .379E+00  .339E+00
  .571E+00  .380E+00  .178E+00  .303E+00  .251E+00  .169E+00  .176E+00  .154E+00
  .174E+00  .152E+00  .131E+00  .140E+00  .143E+00  .157E+00  .165E+00  .161E+00
  .161E+00  .166E+00  .190E+00  .131E+00  .121E+00  .129E+00  .149E+00  .160E+00
  .147E+00  .134E+00  .136E+00  .121E+00  .124E+00  .101E+00  .943E-01  .960E-01
  .932E-01  .949E-01  .949E-01  .992E-01  .931E-01  .961E-01  .975E-01  .963E-01
  .994E-01  .972E-01  .982E-01  .995E-01  .000E+00  .000E+00  .000E+00  .000E+00
  .000E+00  .000E+00  .000E+00  .000E+00  .000E+00  .000E+00  .000E+00  .000E+00
  .000E+00  .000E+00  .000E+00  .000E+00  .000E+00  .000E+00  .000E+00  .000E+00
  .000E+00  .000E+00  .000E+00  .000E+00  .000E+00  .000E+00  .000E+00  .000E+00
  .000E+00  .000E+00  .000E+00  .000E+00
  .861E-01  .194E+00  .195E+00  .157E+00  .248E+00  .280E+00  .132E+00  .592E-01
  .571E-01  .354E-01  .707E-01  .632E-01  .780E-01  .581E-01  .899E-01  .983E-01
  .394E-01  .241E-01  .304E-01  .423E-01  .555E-01  .314E-01  .370E-01  .295E-01
  .492E-01  .302E-01  .133E-01  .205E-01  .157E-01  .953E-02  .847E-02  .659E-02
  .713E-02  .658E-02  .536E-02  .524E-02  .573E-02  .582E-02  .386E-02  .523E-02
  .470E-02  .341E-02  .515E-02  .330E-02  .284E-02  .212E-02  .296E-02  .290E-02
  .248E-02  .178E-02  .172E-02  .140E-02  .161E-02  .963E-03  .798E-03  .546E-03
  .499E-03  .419E-03  .507E-03  .340E-03  .253E-03  .220E-03  .173E-03  .137E-03
  .134E-03  .975E-04  .101E-03  .815E-04  .000E+00  .000E+00  .000E+00  .000E+00
  .000E+00  .000E+00  .000E+00  .000E+00  .000E+00  .000E+00  .000E+00  .000E+00
  .000E+00  .000E+00  .000E+00  .000E+00  .000E+00  .000E+00  .000E+00  .000E+00
  .000E+00  .000E+00  .000E+00  .000E+00  .000E+00  .000E+00  .000E+00  .000E+00
  .000E+00  .000E+00  .000E+00  .000E+00
  .212E+00  .502E+00  .527E+00  .443E+00  .730E+00  .859E+00  .445E+00  .218E+00
  .228E+00  .152E+00  .326E+00  .311E+00  .407E+00  .321E+00  .525E+00  .604E+00
  .266E+00  .178E+00  .243E+00  .364E+00  .511E+00  .309E+00  .386E+00  .326E+00
  .574E+00  .371E+00  .180E+00  .303E+00  .251E+00  .164E+00  .156E+00  .130E+00
  .149E+00  .146E+00  .125E+00  .129E+00  .148E+00  .157E+00  .109E+00  .154E+00
  .145E+00  .115E+00  .190E+00  .132E+00  .122E+00  .977E-01  .145E+00  .151E+00
  .137E+00  .104E+00  .106E+00  .949E-01  .118E+00  .769E-01  .686E-01  .503E-01
  .490E-01  .438E-01  .561E-01  .397E-01  .311E-01  .297E-01  .256E-01  .218E-01
  .230E-01  .180E-01  .198E-01  .170E-01  .000E+00  .000E+00  .000E+00  .000E+00
  .000E+00  .000E+00  .000E+00  .000E+00  .000E+00  .000E+00  .000E+00  .000E+00
  .000E+00  .000E+00  .000E+00  .000E+00  .000E+00  .000E+00  .000E+00  .000E+00
  .000E+00  .000E+00  .000E+00  .000E+00  .000E+00  .000E+00  .000E+00  .000E+00
  .000E+00  .000E+00  .000E+00  .000E+00
  .295E+02  .271E+02  .258E+02  .273E+02  .273E+02  .508E+02  .299E+02  .267E+02
  .277E+02  .265E+02  .272E+02  .251E+02  .354E+02  .275E+02  .424E+02  .279E+02
  .261E+02  .257E+02  .273E+02  .265E+02  .278E+02  .259E+02  .277E+02  .267E+02
  .289E+02  .263E+02  .294E+02  .362E+02  .381E+02  .304E+02  .265E+02  .314E+02
  .389E+02  .260E+02  .259E+02  .427E+02  .288E+02  .314E+02  .264E+02  .349E+02
  .297E+02  .276E+02  .329E+02  .389E+02  .412E+02  .258E+02  .343E+02  .293E+02
  .385E+02  .316E+02  .270E+02  .293E+02  .476E+02  .287E+02  .345E+02  .262E+02
  .262E+02  .262E+02  .407E+02  .367E+02  .313E+02  .528E+02  .256E+02  .256E+02
  .256E+02  .256E+02  .256E+02  .257E+02  .000E+00  .000E+00  .000E+00  .000E+00
  .000E+00  .000E+00  .000E+00  .000E+00  .000E+00  .000E+00  .000E+00  .000E+00
  .000E+00  .000E+00  .000E+00  .000E+00  .000E+00  .000E+00  .000E+00  .000E+00
  .000E+00  .000E+00  .000E+00  .000E+00  .000E+00  .000E+00  .000E+00  .000E+00
  .000E+00  .000E+00  .000E+00  .000E+00
  .295E+02  .271E+02  .259E+02  .273E+02  .273E+02  .508E+02  .299E+02  .267E+02
  .277E+02  .265E+02  .272E+02  .254E+02  .274E+02  .274E+02  .438E+02  .279E+02
  .261E+02  .257E+02  .272E+02  .265E+02  .277E+02  .259E+02  .278E+02  .267E+02
  .290E+02  .262E+02  .293E+02  .364E+02  .382E+02  .268E+02  .262E+02  .261E+02
  .261E+02  .261E+02  .271E+02  .272E+02  .461E+02  .258E+02  .258E+02  .258E+02
  .259E+02  .259E+02  .316E+02  .391E+02  .414E+02  .261E+02  .342E+02  .295E+02
  .293E+02  .271E+02  .272E+02  .269E+02  .269E+02  .269E+02  .255E+02  .255E+02
  .255E+02  .255E+02  .255E+02  .255E+02  .255E+02  .255E+02  .255E+02  .255E+02
  .255E+02  .255E+02  .255E+02  .255E+02  .000E+00  .000E+00  .000E+00  .000E+00
  .000E+00  .000E+00  .000E+00  .000E+00  .000E+00  .000E+00  .000E+00  .000E+00
  .000E+00  .000E+00  .000E+00  .000E+00  .000E+00  .000E+00  .000E+00  .000E+00
  .000E+00  .000E+00  .000E+00  .000E+00  .000E+00  .000E+00  .000E+00  .000E+00
  .000E+00  .000E+00  .000E+00  .000E+00
  .295E+02  .271E+02  .258E+02  .273E+02  .273E+02  .508E+02  .299E+02  .267E+02
  .277E+02  .265E+02  .272E+02  .251E+02  .354E+02  .275E+02  .424E+02  .279E+02
  .261E+02  .257E+02  .273E+02  .265E+02  .278E+02  .259E+02  .277E+02  .267E+02
  .289E+02  .263E+02  .294E+02  .362E+02  .381E+02  .304E+02  .265E+02  .314E+02
  .389E+02  .260E+02  .259E+02  .427E+02  .288E+02  .314E+02  .264E+02  .349E+02
  .297E+02  .276E+02  .329E+02  .389E+02  .412E+02  .258E+02  .343E+02  .293E+02
  .385E+02  .316E+02  .270E+02  .293E+02  .476E+02  .287E+02  .345E+02  .262E+02
  .262E+02  .262E+02  .407E+02  .367E+02  .313E+02  .528E+02  .256E+02  .256E+02
  .256E+02  .256E+02  .256E+02  .257E+02  .000E+00  .000E+00  .000E+00  .000E+00
  .000E+00  .000E+00  .000E+00  .000E+00  .000E+00  .000E+00  .000E+00  .000E+00
  .000E+00  .000E+00  .000E+00  .000E+00  .000E+00  .000E+00  .000E+00  .000E+00
  .000E+00  .000E+00  .000E+00  .000E+00  .000E+00  .000E+00  .000E+00  .000E+00
  .000E+00  .000E+00  .000E+00  .000E+00
Damping =  .02. Data of Sd,Sv,Sa,Pssv,ttSd,ttSv,ttSa :
  .654E-03  .121E-02  .126E-02  .159E-02  .147E-02  .183E-02  .159E-02  .126E-02
  .895E-03  .144E-02  .146E-02  .223E-02  .297E-02  .263E-02  .312E-02  .359E-02
  .340E-02  .265E-02  .353E-02  .525E-02  .615E-02  .665E-02  .691E-02  .652E-02
  .825E-02  .808E-02  .452E-02  .540E-02  .536E-02  .510E-02  .570E-02  .595E-02
  .638E-02  .700E-02  .696E-02  .683E-02  .705E-02  .699E-02  .678E-02  .650E-02
  .665E-02  .810E-02  .102E-01  .111E-01  .112E-01  .110E-01  .106E-01  .143E-01
  .137E-01  .132E-01  .146E-01  .139E-01  .142E-01  .128E-01  .119E-01  .116E-01
  .117E-01  .112E-01  .105E-01  .976E-02  .943E-02  .951E-02  .959E-02  .928E-02
  .975E-02  .896E-02  .962E-02  .920E-02  .000E+00  .000E+00  .000E+00  .000E+00
  .000E+00  .000E+00  .000E+00  .000E+00  .000E+00  .000E+00  .000E+00  .000E+00
  .000E+00  .000E+00  .000E+00  .000E+00  .000E+00  .000E+00  .000E+00  .000E+00
  .000E+00  .000E+00  .000E+00  .000E+00  .000E+00  .000E+00  .000E+00  .000E+00
  .000E+00  .000E+00  .000E+00  .000E+00
  .952E-01  .172E+00  .169E+00  .202E+00  .181E+00  .215E+00  .176E+00  .140E+00
  .819E-01  .115E+00  .132E+00  .175E+00  .222E+00  .182E+00  .201E+00  .223E+00
  .191E+00  .129E+00  .175E+00  .236E+00  .273E+00  .275E+00  .273E+00  .233E+00
  .291E+00  .267E+00  .148E+00  .157E+00  .153E+00  .132E+00  .147E+00  .143E+00
  .153E+00  .133E+00  .118E+00  .119E+00  .132E+00  .147E+00  .154E+00  .155E+00
  .155E+00  .157E+00  .143E+00  .117E+00  .109E+00  .120E+00  .121E+00  .115E+00
  .114E+00  .119E+00  .119E+00  .109E+00  .114E+00  .987E-01  .935E-01  .936E-01
  .928E-01  .942E-01  .945E-01  .960E-01  .941E-01  .955E-01  .965E-01  .962E-01
  .978E-01  .971E-01  .976E-01  .986E-01  .000E+00  .000E+00  .000E+00  .000E+00
  .000E+00  .000E+00  .000E+00  .000E+00  .000E+00  .000E+00  .000E+00  .000E+00
  .000E+00  .000E+00  .000E+00  .000E+00  .000E+00  .000E+00  .000E+00  .000E+00
  .000E+00  .000E+00  .000E+00  .000E+00  .000E+00  .000E+00  .000E+00  .000E+00
  .000E+00  .000E+00  .000E+00  .000E+00
  .417E-01  .700E-01  .668E-01  .770E-01  .650E-01  .751E-01  .539E-01  .360E-01
  .216E-01  .301E-01  .264E-01  .358E-01  .423E-01  .333E-01  .355E-01  .367E-01
  .288E-01  .189E-01  .213E-01  .275E-01  .280E-01  .265E-01  .245E-01  .206E-01
  .234E-01  .206E-01  .959E-02  .960E-02  .811E-02  .668E-02  .648E-02  .595E-02
  .564E-02  .553E-02  .494E-02  .437E-02  .409E-02  .370E-02  .328E-02  .289E-02
  .272E-02  .274E-02  .291E-02  .270E-02  .235E-02  .202E-02  .170E-02  .203E-02
  .173E-02  .150E-02  .149E-02  .118E-02  .101E-02  .776E-03  .624E-03  .532E-03
  .472E-03  .403E-03  .339E-03  .283E-03  .247E-03  .205E-03  .175E-03  .144E-03
  .131E-03  .106E-03  .100E-03  .855E-04  .000E+00  .000E+00  .000E+00  .000E+00
  .000E+00  .000E+00  .000E+00  .000E+00  .000E+00  .000E+00  .000E+00  .000E+00
  .000E+00  .000E+00  .000E+00  .000E+00  .000E+00  .000E+00  .000E+00  .000E+00
  .000E+00  .000E+00  .000E+00  .000E+00  .000E+00  .000E+00  .000E+00  .000E+00
  .000E+00  .000E+00  .000E+00  .000E+00
  .103E+00  .181E+00  .181E+00  .218E+00  .192E+00  .230E+00  .181E+00  .132E+00
  .865E-01  .129E+00  .122E+00  .175E+00  .220E+00  .184E+00  .206E+00  .226E+00
  .194E+00  .139E+00  .170E+00  .236E+00  .258E+00  .261E+00  .255E+00  .228E+00
  .273E+00  .254E+00  .129E+00  .141E+00  .130E+00  .115E+00  .119E+00  .117E+00
  .118E+00  .122E+00  .115E+00  .107E+00  .105E+00  .999E-01  .926E-01  .851E-01
  .836E-01  .925E-01  .107E+00  .108E+00  .101E+00  .925E-01  .832E-01  .106E+00
  .957E-01  .870E-01  .916E-01  .793E-01  .744E-01  .619E-01  .532E-01  .486E-01
  .458E-01  .415E-01  .368E-01  .323E-01  .296E-01  .272E-01  .251E-01  .224E-01
  .219E-01  .188E-01  .189E-01  .170E-01  .000E+00  .000E+00  .000E+00  .000E+00
  .000E+00  .000E+00  .000E+00  .000E+00  .000E+00  .000E+00  .000E+00  .000E+00
  .000E+00  .000E+00  .000E+00  .000E+00  .000E+00  .000E+00  .000E+00  .000E+00
  .000E+00  .000E+00  .000E+00  .000E+00  .000E+00  .000E+00  .000E+00  .000E+00
  .000E+00  .000E+00  .000E+00  .000E+00
  .241E+02  .261E+02  .242E+02  .256E+02  .256E+02  .264E+02  .255E+02  .260E+02
  .273E+02  .258E+02  .267E+02  .266E+02  .273E+02  .274E+02  .275E+02  .275E+02
  .259E+02  .257E+02  .257E+02  .265E+02  .272E+02  .259E+02  .259E+02  .267E+02
  .263E+02  .263E+02  .263E+02  .271E+02  .270E+02  .266E+02  .261E+02  .261E+02
  .260E+02  .260E+02  .259E+02  .259E+02  .259E+02  .259E+02  .259E+02  .264E+02
  .297E+02  .258E+02  .258E+02  .258E+02  .258E+02  .258E+02  .258E+02  .293E+02
  .291E+02  .269E+02  .270E+02  .271E+02  .291E+02  .267E+02  .262E+02  .262E+02
  .262E+02  .262E+02  .262E+02  .262E+02  .262E+02  .256E+02  .256E+02  .256E+02
  .256E+02  .256E+02  .256E+02  .256E+02  .000E+00  .000E+00  .000E+00  .000E+00
  .000E+00  .000E+00  .000E+00  .000E+00  .000E+00  .000E+00  .000E+00  .000E+00
  .000E+00  .000E+00  .000E+00  .000E+00  .000E+00  .000E+00  .000E+00  .000E+00
  .000E+00  .000E+00  .000E+00  .000E+00  .000E+00  .000E+00  .000E+00  .000E+00
  .000E+00  .000E+00  .000E+00  .000E+00
  .241E+02  .261E+02  .242E+02  .255E+02  .255E+02  .264E+02  .255E+02  .260E+02
  .273E+02  .258E+02  .254E+02  .266E+02  .273E+02  .274E+02  .275E+02  .263E+02
  .259E+02  .257E+02  .272E+02  .264E+02  .271E+02  .259E+02  .259E+02  .267E+02
  .263E+02  .262E+02  .262E+02  .271E+02  .269E+02  .266E+02  .262E+02  .261E+02
  .261E+02  .261E+02  .260E+02  .258E+02  .258E+02  .258E+02  .258E+02  .258E+02
  .258E+02  .259E+02  .259E+02  .259E+02  .261E+02  .261E+02  .261E+02  .261E+02
  .270E+02  .271E+02  .272E+02  .269E+02  .269E+02  .258E+02  .258E+02  .255E+02
  .255E+02  .255E+02  .255E+02  .255E+02  .255E+02  .255E+02  .255E+02  .255E+02
  .255E+02  .255E+02  .255E+02  .255E+02  .000E+00  .000E+00  .000E+00  .000E+00
  .000E+00  .000E+00  .000E+00  .000E+00  .000E+00  .000E+00  .000E+00  .000E+00
  .000E+00  .000E+00  .000E+00  .000E+00  .000E+00  .000E+00  .000E+00  .000E+00
  .000E+00  .000E+00  .000E+00  .000E+00  .000E+00  .000E+00  .000E+00  .000E+00
  .000E+00  .000E+00  .000E+00  .000E+00
  .241E+02  .261E+02  .242E+02  .256E+02  .256E+02  .264E+02  .255E+02  .260E+02
  .273E+02  .258E+02  .267E+02  .266E+02  .273E+02  .274E+02  .275E+02  .275E+02
  .259E+02  .257E+02  .257E+02  .265E+02  .272E+02  .259E+02  .259E+02  .267E+02
  .263E+02  .263E+02  .263E+02  .271E+02  .270E+02  .262E+02  .261E+02  .261E+02
  .260E+02  .260E+02  .259E+02  .259E+02  .259E+02  .259E+02  .259E+02  .264E+02
  .297E+02  .258E+02  .258E+02  .258E+02  .258E+02  .258E+02  .258E+02  .293E+02
  .290E+02  .269E+02  .270E+02  .271E+02  .290E+02  .267E+02  .262E+02  .262E+02
  .262E+02  .262E+02  .262E+02  .262E+02  .262E+02  .256E+02  .256E+02  .256E+02
  .256E+02  .256E+02  .256E+02  .255E+02  .000E+00  .000E+00  .000E+00  .000E+00
  .000E+00  .000E+00  .000E+00  .000E+00  .000E+00  .000E+00  .000E+00  .000E+00
  .000E+00  .000E+00  .000E+00  .000E+00  .000E+00  .000E+00  .000E+00  .000E+00
  .000E+00  .000E+00  .000E+00  .000E+00  .000E+00  .000E+00  .000E+00  .000E+00
  .000E+00  .000E+00  .000E+00  .000E+00
Damping =  .05. Data of Sd,Sv,Sa,Pssv,ttSd,ttSv,ttSa :
  .523E-03  .711E-03  .752E-03  .996E-03  .106E-02  .112E-02  .122E-02  .971E-03
  .742E-03  .111E-02  .117E-02  .138E-02  .201E-02  .208E-02  .211E-02  .258E-02
  .270E-02  .219E-02  .267E-02  .374E-02  .482E-02  .535E-02  .539E-02  .513E-02
  .547E-02  .549E-02  .386E-02  .387E-02  .382E-02  .420E-02  .453E-02  .490E-02
  .534E-02  .578E-02  .616E-02  .620E-02  .623E-02  .606E-02  .583E-02  .571E-02
