Response and Fourier amplitude spectra (68 periods,  .04 -  3.4 sec)   for      
Corrected accelerogram   24207-M0150-11244.01       Chan  1:  Radl       from   
Uncorrected Accelerogram Data             Processed: 03/04/14, CGS  jh001       
Rcrd of Thu Sep  1, 2011 13:46:46.0 PDT               (Avol1 v0.5, 2/14 CSMIP)  
CSMIP Preliminary Processing            (Origin:  To be determined)             
24207-M0150-11244.01                 Start time:  9/01/11, 20:46:46.0 UTC (GPS) 
Station No. 24207   34.335N, 118.397W    MtWtny  s/n  150 (17 Chns of 17 at Sta)
Sylmar - Pacoima Dam                      CGS   Data: Acceleration              
Chan  1:  Radl                      Location: Crest: Right 1/3-length Point     
Rcrd of Thu Sep  1, 2011 13:46:46.0 PDT    Thu Sep  1, 2011 13:46:46.0 PDT      
Hypocenter:  To be determined.               ML:  To be determined.
Instr Period =  .0102 sec,  Damping =  .660,  Sensitivity =  .62 v/g
                        Record length = 58.000 sec.
                                     Uncor Max  =   .027 g , at  26.340 sec.
RMS accel of (uncor) record  =        .   Chn. metadata effective date: 09/02/99
Accelerogram bandpass filtered with 3 dB pts at   .30 and 40.00 cyc/sec
                 instrument- and baseline-corrected





Rcrd of Thu Sep  1, 2011 13:46:46.0 PDT    Thu Sep  1, 2011 13:46:46.0 PDT

24207-M0150-11244.01      Sylmar - Pacoima Dam    Chan  1:  Radl

24207-M0150-11244.01      Sylmar - Pacoima Dam    Chan  1:  Radl

Units for spectra are inches and sec, except Sa is in fraction of g.

    1  100    1   18   17  200    1    3    1   24   13  150    024207    5    0
   20   46   46    0  244    9    1 2011   10    3  70011600   39   20   74   -1
11600    0  100    3  150    1    1  580    2    0    0    0    0    0    0    0
    0    0    3    011600    1  222    1   18    4    0    0    3    1    011600
    311600    4   68    5   17    5    0    0    0    0    0    1    3    1    2
    2    2    4    0   68   99    0   10    0    0    0    1    0    0   68  222
    1    0    6    0
      .010      .660    58.000      .002      .000   621.000      .027    26.340
    98.000      .298      .480      .000     5.000  -999.000     4.000      .000
     2.500    47.250     2.500  2016.000    25.000    30.000  -999.000      .001
      .000     -.001     2.000    15.000    34.335  -118.397      .026      .178
     6.838     -.010      .008   594.000    25.800    27.800    12.800   118.940
     1.000    -1.334      .000  -999.000  -999.000  -999.000  -999.000      .000
      .100      .500     6.300   980.665      .005    58.000    15.597      .000
      .000    40.000      .000    58.000      .005      .303      .000      .000
    26.340    26.162    26.210      .700    26.255      .023      .000      .303
    40.000      .005      .005      .000      .005      .008      .000      .000
      .109      .120      .064      .024      .001      .000      .000      .000
      .000      .000      .000      .000      .000      .000      .000      .000
      .000      .000      .000      .000
      .000      .020      .050      .100      .200
      .040      .042      .044      .046      .048      .050      .055      .060
      .065      .070      .075      .080      .085      .090      .095      .100
      .110      .120      .130      .140      .150      .160      .170      .180
      .190      .200      .220      .240      .260      .280      .300      .320
      .340      .360      .380      .400      .420      .440      .460      .480
      .500      .550      .600      .650      .700      .750      .800      .850
      .900      .950     1.000     1.100     1.200     1.300     1.400     1.500
     1.600     1.700     1.800     1.900     2.000     2.200     2.400     2.600
     2.800     3.000     3.200     3.400      .000      .000      .000      .000
      .000      .000      .000      .000      .000      .000      .000      .000
      .000      .000      .000      .000      .000      .000      .000      .000
      .000      .000      .000      .000      .000      .000      .000      .000
      .000      .000      .000      .000
Fourier amplitude spectra in in/sec.
  .832E-01  .279E+00  .235E+00  .143E+00  .233E+00  .642E+00  .104E+01  .573E+00
  .517E+00  .498E+00  .104E+01  .105E+01  .746E+00  .105E+01  .573E+00  .670E+00
  .110E+01  .264E+01  .156E+01  .141E+01  .151E+01  .146E+01  .354E+00  .188E+01
  .178E+01  .170E+01  .371E+00  .135E+01  .649E+00  .437E+00  .449E+00  .579E+00
  .210E+00  .204E+00  .133E+00  .442E+00  .957E-01  .680E-01  .108E+00  .214E+00
  .159E+00  .233E+00  .810E-01  .236E+00  .838E-01  .683E-01  .106E-01  .123E+00
  .140E+00  .308E-01  .448E-01  .348E-01  .493E-01  .539E-01  .493E-01  .446E-01
  .544E-01  .490E-01  .189E-01  .258E-01  .136E-01  .208E-01  .263E-01  .160E-01
  .841E-02  .497E-02  .387E-02  .350E-02  .000E+00  .000E+00  .000E+00  .000E+00
  .000E+00  .000E+00  .000E+00  .000E+00  .000E+00  .000E+00  .000E+00  .000E+00
  .000E+00  .000E+00  .000E+00  .000E+00  .000E+00  .000E+00  .000E+00  .000E+00
  .000E+00  .000E+00  .000E+00  .000E+00  .000E+00  .000E+00  .000E+00  .000E+00
  .000E+00  .000E+00  .000E+00  .000E+00
Damping =  .00. Data of Sd,Sv,Sa,Pssv,ttSd,ttSv,ttSa :
  .842E-03  .232E-02  .219E-02  .148E-02  .231E-02  .542E-02  .913E-02  .562E-02
  .677E-02  .752E-02  .154E-01  .171E-01  .112E-01  .158E-01  .963E-02  .167E-01
  .208E-01  .593E-01  .379E-01  .361E-01  .521E-01  .389E-01  .440E-01  .664E-01
  .639E-01  .584E-01  .405E-01  .528E-01  .294E-01  .273E-01  .241E-01  .299E-01
  .151E-01  .145E-01  .133E-01  .322E-01  .149E-01  .145E-01  .128E-01  .212E-01
  .157E-01  .212E-01  .185E-01  .281E-01  .160E-01  .137E-01  .138E-01  .170E-01
  .212E-01  .127E-01  .109E-01  .992E-02  .134E-01  .137E-01  .131E-01  .141E-01
  .140E-01  .137E-01  .129E-01  .137E-01  .129E-01  .133E-01  .139E-01  .123E-01
  .114E-01  .110E-01  .109E-01  .108E-01  .000E+00  .000E+00  .000E+00  .000E+00
  .000E+00  .000E+00  .000E+00  .000E+00  .000E+00  .000E+00  .000E+00  .000E+00
  .000E+00  .000E+00  .000E+00  .000E+00  .000E+00  .000E+00  .000E+00  .000E+00
  .000E+00  .000E+00  .000E+00  .000E+00  .000E+00  .000E+00  .000E+00  .000E+00
  .000E+00  .000E+00  .000E+00  .000E+00
  .107E+00  .316E+00  .277E+00  .179E+00  .279E+00  .690E+00  .105E+01  .586E+00
  .615E+00  .657E+00  .125E+01  .132E+01  .790E+00  .107E+01  .600E+00  .101E+01
  .119E+01  .309E+01  .184E+01  .163E+01  .223E+01  .153E+01  .168E+01  .232E+01
  .214E+01  .184E+01  .121E+01  .139E+01  .782E+00  .780E+00  .676E+00  .593E+00
  .488E+00  .405E+00  .343E+00  .501E+00  .398E+00  .370E+00  .353E+00  .339E+00
  .346E+00  .393E+00  .387E+00  .347E+00  .301E+00  .267E+00  .266E+00  .282E+00
  .292E+00  .294E+00  .296E+00  .294E+00  .286E+00  .280E+00  .276E+00  .270E+00
  .268E+00  .269E+00  .274E+00  .274E+00  .276E+00  .277E+00  .281E+00  .281E+00
  .281E+00  .280E+00  .279E+00  .279E+00  .000E+00  .000E+00  .000E+00  .000E+00
  .000E+00  .000E+00  .000E+00  .000E+00  .000E+00  .000E+00  .000E+00  .000E+00
  .000E+00  .000E+00  .000E+00  .000E+00  .000E+00  .000E+00  .000E+00  .000E+00
  .000E+00  .000E+00  .000E+00  .000E+00  .000E+00  .000E+00  .000E+00  .000E+00
  .000E+00  .000E+00  .000E+00  .000E+00
  .538E-01  .134E+00  .116E+00  .716E-01  .102E+00  .222E+00  .309E+00  .160E+00
  .164E+00  .157E+00  .280E+00  .273E+00  .159E+00  .200E+00  .109E+00  .170E+00
  .176E+00  .421E+00  .229E+00  .188E+00  .237E+00  .155E+00  .156E+00  .210E+00
  .181E+00  .149E+00  .856E-01  .937E-01  .445E-01  .356E-01  .273E-01  .299E-01
  .133E-01  .114E-01  .942E-02  .206E-01  .862E-02  .768E-02  .618E-02  .943E-02
  .644E-02  .718E-02  .525E-02  .681E-02  .334E-02  .249E-02  .221E-02  .240E-02
  .268E-02  .144E-02  .112E-02  .839E-03  .950E-03  .829E-03  .682E-03  .641E-03
  .560E-03  .486E-03  .408E-03  .387E-03  .329E-03  .281E-03  .247E-03  .185E-03
  .149E-03  .126E-03  .109E-03  .956E-04  .000E+00  .000E+00  .000E+00  .000E+00
  .000E+00  .000E+00  .000E+00  .000E+00  .000E+00  .000E+00  .000E+00  .000E+00
  .000E+00  .000E+00  .000E+00  .000E+00  .000E+00  .000E+00  .000E+00  .000E+00
  .000E+00  .000E+00  .000E+00  .000E+00  .000E+00  .000E+00  .000E+00  .000E+00
  .000E+00  .000E+00  .000E+00  .000E+00
  .132E+00  .347E+00  .313E+00  .202E+00  .302E+00  .681E+00  .104E+01  .589E+00
  .655E+00  .675E+00  .129E+01  .134E+01  .830E+00  .111E+01  .637E+00  .105E+01
  .119E+01  .310E+01  .183E+01  .162E+01  .218E+01  .153E+01  .163E+01  .232E+01
  .211E+01  .183E+01  .116E+01  .138E+01  .710E+00  .613E+00  .504E+00  .588E+00
  .279E+00  .252E+00  .220E+00  .506E+00  .222E+00  .208E+00  .175E+00  .278E+00
  .198E+00  .243E+00  .193E+00  .272E+00  .144E+00  .115E+00  .109E+00  .125E+00
  .148E+00  .838E-01  .687E-01  .567E-01  .700E-01  .662E-01  .586E-01  .591E-01
  .550E-01  .508E-01  .451E-01  .452E-01  .405E-01  .380E-01  .365E-01  .296E-01
  .256E-01  .231E-01  .214E-01  .200E-01  .000E+00  .000E+00  .000E+00  .000E+00
  .000E+00  .000E+00  .000E+00  .000E+00  .000E+00  .000E+00  .000E+00  .000E+00
  .000E+00  .000E+00  .000E+00  .000E+00  .000E+00  .000E+00  .000E+00  .000E+00
  .000E+00  .000E+00  .000E+00  .000E+00  .000E+00  .000E+00  .000E+00  .000E+00
  .000E+00  .000E+00  .000E+00  .000E+00
  .270E+02  .272E+02  .262E+02  .277E+02  .276E+02  .273E+02  .378E+02  .317E+02
  .259E+02  .268E+02  .268E+02  .272E+02  .275E+02  .277E+02  .267E+02  .274E+02
  .303E+02  .284E+02  .280E+02  .280E+02  .275E+02  .430E+02  .264E+02  .289E+02
  .275E+02  .311E+02  .268E+02  .336E+02  .276E+02  .263E+02  .262E+02  .442E+02
  .263E+02  .389E+02  .277E+02  .378E+02  .300E+02  .263E+02  .263E+02  .347E+02
  .317E+02  .302E+02  .270E+02  .352E+02  .262E+02  .262E+02  .263E+02  .515E+02
  .466E+02  .287E+02  .270E+02  .260E+02  .365E+02  .320E+02  .283E+02  .284E+02
  .565E+02  .413E+02  .263E+02  .263E+02  .263E+02  .263E+02  .263E+02  .263E+02
  .263E+02  .263E+02  .263E+02  .263E+02  .000E+00  .000E+00  .000E+00  .000E+00
  .000E+00  .000E+00  .000E+00  .000E+00  .000E+00  .000E+00  .000E+00  .000E+00
  .000E+00  .000E+00  .000E+00  .000E+00  .000E+00  .000E+00  .000E+00  .000E+00
  .000E+00  .000E+00  .000E+00  .000E+00  .000E+00  .000E+00  .000E+00  .000E+00
  .000E+00  .000E+00  .000E+00  .000E+00
  .276E+02  .272E+02  .276E+02  .280E+02  .273E+02  .273E+02  .377E+02  .318E+02
  .259E+02  .267E+02  .269E+02  .273E+02  .275E+02  .362E+02  .268E+02  .274E+02
  .302E+02  .290E+02  .279E+02  .279E+02  .276E+02  .430E+02  .264E+02  .289E+02
  .276E+02  .311E+02  .268E+02  .277E+02  .263E+02  .263E+02  .263E+02  .262E+02
  .262E+02  .262E+02  .277E+02  .383E+02  .263E+02  .262E+02  .262E+02  .262E+02
  .262E+02  .262E+02  .262E+02  .262E+02  .262E+02  .262E+02  .263E+02  .263E+02
  .263E+02  .263E+02  .263E+02  .263E+02  .263E+02  .263E+02  .263E+02  .263E+02
  .263E+02  .262E+02  .262E+02  .262E+02  .262E+02  .262E+02  .262E+02  .262E+02
  .262E+02  .262E+02  .262E+02  .262E+02  .000E+00  .000E+00  .000E+00  .000E+00
  .000E+00  .000E+00  .000E+00  .000E+00  .000E+00  .000E+00  .000E+00  .000E+00
  .000E+00  .000E+00  .000E+00  .000E+00  .000E+00  .000E+00  .000E+00  .000E+00
  .000E+00  .000E+00  .000E+00  .000E+00  .000E+00  .000E+00  .000E+00  .000E+00
  .000E+00  .000E+00  .000E+00  .000E+00
  .270E+02  .272E+02  .262E+02  .277E+02  .276E+02  .273E+02  .378E+02  .317E+02
  .259E+02  .268E+02  .268E+02  .272E+02  .275E+02  .277E+02  .267E+02  .274E+02
  .303E+02  .284E+02  .280E+02  .280E+02  .275E+02  .430E+02  .264E+02  .289E+02
  .275E+02  .311E+02  .268E+02  .336E+02  .276E+02  .263E+02  .262E+02  .442E+02
  .263E+02  .389E+02  .277E+02  .378E+02  .300E+02  .263E+02  .263E+02  .347E+02
  .317E+02  .302E+02  .270E+02  .352E+02  .262E+02  .262E+02  .263E+02  .515E+02
  .466E+02  .287E+02  .270E+02  .260E+02  .365E+02  .320E+02  .283E+02  .284E+02
  .565E+02  .413E+02  .263E+02  .263E+02  .263E+02  .263E+02  .263E+02  .263E+02
  .263E+02  .263E+02  .263E+02  .263E+02  .000E+00  .000E+00  .000E+00  .000E+00
  .000E+00  .000E+00  .000E+00  .000E+00  .000E+00  .000E+00  .000E+00  .000E+00
  .000E+00  .000E+00  .000E+00  .000E+00  .000E+00  .000E+00  .000E+00  .000E+00
  .000E+00  .000E+00  .000E+00  .000E+00  .000E+00  .000E+00  .000E+00  .000E+00
  .000E+00  .000E+00  .000E+00  .000E+00
Damping =  .02. Data of Sd,Sv,Sa,Pssv,ttSd,ttSv,ttSa :
  .725E-03  .101E-02  .113E-02  .132E-02  .166E-02  .232E-02  .303E-02  .293E-02
  .464E-02  .478E-02  .594E-02  .874E-02  .847E-02  .104E-01  .954E-02  .111E-01
  .158E-01  .246E-01  .202E-01  .239E-01  .294E-01  .246E-01  .341E-01  .405E-01
  .395E-01  .317E-01  .307E-01  .301E-01  .274E-01  .248E-01  .224E-01  .205E-01
  .152E-01  .117E-01  .111E-01  .135E-01  .136E-01  .137E-01  .130E-01  .130E-01
  .139E-01  .142E-01  .158E-01  .153E-01  .149E-01  .132E-01  .129E-01  .129E-01
  .137E-01  .114E-01  .103E-01  .937E-02  .102E-01  .110E-01  .117E-01  .126E-01
  .123E-01  .126E-01  .128E-01  .131E-01  .129E-01  .131E-01  .134E-01  .123E-01
  .115E-01  .111E-01  .109E-01  .107E-01  .000E+00  .000E+00  .000E+00  .000E+00
  .000E+00  .000E+00  .000E+00  .000E+00  .000E+00  .000E+00  .000E+00  .000E+00
  .000E+00  .000E+00  .000E+00  .000E+00  .000E+00  .000E+00  .000E+00  .000E+00
  .000E+00  .000E+00  .000E+00  .000E+00  .000E+00  .000E+00  .000E+00  .000E+00
  .000E+00  .000E+00  .000E+00  .000E+00
  .871E-01  .121E+00  .138E+00  .156E+00  .176E+00  .246E+00  .327E+00  .292E+00
  .433E+00  .399E+00  .473E+00  .653E+00  .621E+00  .704E+00  .604E+00  .687E+00
  .848E+00  .127E+01  .980E+00  .108E+01  .124E+01  .105E+01  .132E+01  .139E+01
  .137E+01  .109E+01  .945E+00  .898E+00  .753E+00  .722E+00  .638E+00  .544E+00
  .473E+00  .401E+00  .341E+00  .370E+00  .378E+00  .356E+00  .350E+00  .343E+00
  .348E+00  .380E+00  .376E+00  .342E+00  .303E+00  .272E+00  .263E+00  .278E+00
  .287E+00  .291E+00  .292E+00  .290E+00  .284E+00  .279E+00  .275E+00  .270E+00
  .268E+00  .269E+00  .272E+00  .274E+00  .275E+00  .276E+00  .279E+00  .281E+00
  .280E+00  .279E+00  .279E+00  .279E+00  .000E+00  .000E+00  .000E+00  .000E+00
  .000E+00  .000E+00  .000E+00  .000E+00  .000E+00  .000E+00  .000E+00  .000E+00
  .000E+00  .000E+00  .000E+00  .000E+00  .000E+00  .000E+00  .000E+00  .000E+00
  .000E+00  .000E+00  .000E+00  .000E+00  .000E+00  .000E+00  .000E+00  .000E+00
  .000E+00  .000E+00  .000E+00  .000E+00
  .466E-01  .581E-01  .598E-01  .639E-01  .738E-01  .942E-01  .103E+00  .834E-01
  .112E+00  .996E-01  .109E+00  .139E+00  .121E+00  .132E+00  .108E+00  .114E+00
  .134E+00  .175E+00  .122E+00  .125E+00  .134E+00  .983E-01  .121E+00  .128E+00
  .112E+00  .812E-01  .651E-01  .536E-01  .416E-01  .324E-01  .256E-01  .205E-01
  .135E-01  .927E-02  .791E-02  .862E-02  .788E-02  .729E-02  .629E-02  .580E-02
  .571E-02  .481E-02  .452E-02  .371E-02  .314E-02  .242E-02  .208E-02  .185E-02
  .173E-02  .131E-02  .108E-02  .803E-03  .743E-03  .686E-03  .621E-03  .577E-03
  .507E-03  .464E-03  .424E-03  .391E-03  .348E-03  .297E-03  .257E-03  .205E-03
  .169E-03  .144E-03  .127E-03  .113E-03  .000E+00  .000E+00  .000E+00  .000E+00
  .000E+00  .000E+00  .000E+00  .000E+00  .000E+00  .000E+00  .000E+00  .000E+00
  .000E+00  .000E+00  .000E+00  .000E+00  .000E+00  .000E+00  .000E+00  .000E+00
  .000E+00  .000E+00  .000E+00  .000E+00  .000E+00  .000E+00  .000E+00  .000E+00
  .000E+00  .000E+00  .000E+00  .000E+00
  .114E+00  .150E+00  .161E+00  .180E+00  .218E+00  .292E+00  .346E+00  .307E+00
  .448E+00  .429E+00  .498E+00  .686E+00  .626E+00  .725E+00  .631E+00  .699E+00
  .904E+00  .129E+01  .975E+00  .107E+01  .123E+01  .967E+00  .126E+01  .142E+01
  .131E+01  .994E+00  .878E+00  .787E+00  .663E+00  .557E+00  .470E+00  .402E+00
  .281E+00  .204E+00  .184E+00  .211E+00  .203E+00  .196E+00  .177E+00  .170E+00
  .175E+00  .162E+00  .166E+00  .147E+00  .134E+00  .111E+00  .101E+00  .953E-01
  .955E-01  .751E-01  .647E-01  .535E-01  .532E-01  .531E-01  .524E-01  .530E-01
  .482E-01  .464E-01  .448E-01  .434E-01  .405E-01  .375E-01  .350E-01  .297E-01
  .258E-01  .232E-01  .214E-01  .198E-01  .000E+00  .000E+00  .000E+00  .000E+00
  .000E+00  .000E+00  .000E+00  .000E+00  .000E+00  .000E+00  .000E+00  .000E+00
  .000E+00  .000E+00  .000E+00  .000E+00  .000E+00  .000E+00  .000E+00  .000E+00
  .000E+00  .000E+00  .000E+00  .000E+00  .000E+00  .000E+00  .000E+00  .000E+00
  .000E+00  .000E+00  .000E+00  .000E+00
  .260E+02  .260E+02  .261E+02  .261E+02  .262E+02  .262E+02  .262E+02  .259E+02
  .259E+02  .260E+02  .267E+02  .271E+02  .272E+02  .277E+02  .274E+02  .274E+02
  .277E+02  .278E+02  .278E+02  .278E+02  .271E+02  .264E+02  .264E+02  .264E+02
  .271E+02  .269E+02  .267E+02  .263E+02  .263E+02  .263E+02  .262E+02  .263E+02
  .263E+02  .263E+02  .271E+02  .291E+02  .262E+02  .263E+02  .263E+02  .263E+02
  .263E+02  .291E+02  .270E+02  .262E+02  .262E+02  .262E+02  .263E+02  .263E+02
  .286E+02  .263E+02  .263E+02  .260E+02  .262E+02  .262E+02  .283E+02  .284E+02
  .277E+02  .263E+02  .263E+02  .263E+02  .263E+02  .263E+02  .263E+02  .263E+02
  .263E+02  .263E+02  .263E+02  .263E+02  .000E+00  .000E+00  .000E+00  .000E+00
  .000E+00  .000E+00  .000E+00  .000E+00  .000E+00  .000E+00  .000E+00  .000E+00
  .000E+00  .000E+00  .000E+00  .000E+00  .000E+00  .000E+00  .000E+00  .000E+00
  .000E+00  .000E+00  .000E+00  .000E+00  .000E+00  .000E+00  .000E+00  .000E+00
  .000E+00  .000E+00  .000E+00  .000E+00
  .260E+02  .260E+02  .261E+02  .261E+02  .261E+02  .261E+02  .262E+02  .261E+02
  .259E+02  .259E+02  .266E+02  .271E+02  .272E+02  .272E+02  .273E+02  .274E+02
  .277E+02  .278E+02  .279E+02  .279E+02  .271E+02  .264E+02  .264E+02  .263E+02
  .270E+02  .269E+02  .264E+02  .264E+02  .263E+02  .263E+02  .263E+02  .262E+02
  .262E+02  .262E+02  .262E+02  .263E+02  .263E+02  .262E+02  .262E+02  .262E+02
  .262E+02  .262E+02  .262E+02  .262E+02  .262E+02  .262E+02  .263E+02  .263E+02
  .263E+02  .263E+02  .263E+02  .263E+02  .263E+02  .263E+02  .263E+02  .263E+02
  .262E+02  .262E+02  .262E+02  .262E+02  .262E+02  .262E+02  .262E+02  .262E+02
  .262E+02  .262E+02  .262E+02  .262E+02  .000E+00  .000E+00  .000E+00  .000E+00
  .000E+00  .000E+00  .000E+00  .000E+00  .000E+00  .000E+00  .000E+00  .000E+00
  .000E+00  .000E+00  .000E+00  .000E+00  .000E+00  .000E+00  .000E+00  .000E+00
  .000E+00  .000E+00  .000E+00  .000E+00  .000E+00  .000E+00  .000E+00  .000E+00
  .000E+00  .000E+00  .000E+00  .000E+00
  .260E+02  .260E+02  .261E+02  .261E+02  .262E+02  .262E+02  .262E+02  .259E+02
  .259E+02  .260E+02  .267E+02  .271E+02  .272E+02  .277E+02  .274E+02  .274E+02
  .277E+02  .278E+02  .278E+02  .278E+02  .271E+02  .264E+02  .264E+02  .264E+02
  .271E+02  .269E+02  .267E+02  .263E+02  .263E+02  .263E+02  .262E+02  .262E+02
  .263E+02  .263E+02  .271E+02  .291E+02  .262E+02  .262E+02  .262E+02  .262E+02
  .262E+02  .291E+02  .270E+02  .262E+02  .262E+02  .262E+02  .263E+02  .263E+02
  .286E+02  .263E+02  .263E+02  .260E+02  .262E+02  .262E+02  .262E+02  .284E+02
  .262E+02  .262E+02  .262E+02  .262E+02  .262E+02  .262E+02  .262E+02  .262E+02
  .262E+02  .262E+02  .262E+02  .262E+02  .000E+00  .000E+00  .000E+00  .000E+00
  .000E+00  .000E+00  .000E+00  .000E+00  .000E+00  .000E+00  .000E+00  .000E+00
  .000E+00  .000E+00  .000E+00  .000E+00  .000E+00  .000E+00  .000E+00  .000E+00
  .000E+00  .000E+00  .000E+00  .000E+00  .000E+00  .000E+00  .000E+00  .000E+00
  .000E+00  .000E+00  .000E+00  .000E+00
Damping =  .05. Data of Sd,Sv,Sa,Pssv,ttSd,ttSv,ttSa :
  .668E-03  .838E-03  .991E-03  .114E-02  .130E-02  .155E-02  .194E-02  .235E-02
  .328E-02  .332E-02  .376E-02  .560E-02  .619E-02  .754E-02  .747E-02  .759E-02
  .119E-01  .153E-01  .146E-01  .159E-01  .181E-01  .221E-01  .279E-01  .312E-01
  .279E-01  .242E-01  .237E-01  .262E-01  .249E-01  .221E-01  .203E-01  .184E-01
  .150E-01  .124E-01  .111E-01  .117E-01  .127E-01  .130E-01  .128E-01  .129E-01
