Response and Fourier amplitude spectra (68 periods,  .04 -  3.4 sec)   for      
Corrected accelerogram   24207-M0150-11244.01       Chan 15: 270 Deg     from   
Uncorrected Accelerogram Data             Processed: 03/04/14, CGS  jh001       
Rcrd of Thu Sep  1, 2011 13:46:46.0 PDT               (Avol1 v0.5, 2/14 CSMIP)  
CSMIP Preliminary Processing            (Origin:  To be determined)             
24207-M0150-11244.01                 Start time:  9/01/11, 20:46:46.0 UTC (GPS) 
Station No. 24207   34.335N, 118.397W    MtWtny  s/n  150 (17 Chns of 17 at Sta)
Sylmar - Pacoima Dam                      CGS   Data: Acceleration              
Chan 15: 270 DegR                   Location: Left (South) Abutment             
Rcrd of Thu Sep  1, 2011 13:46:46.0 PDT    Thu Sep  1, 2011 13:46:46.0 PDT      
Hypocenter:  To be determined.               ML:  To be determined.
Instr Period =  .0104 sec,  Damping =  .660,  Sensitivity =  .63 v/g
                        Record length = 58.000 sec.
                                     Uncor Max  =  -.018 g , at  26.060 sec.
RMS accel of (uncor) record  =        .   Chn. metadata effective date: 09/02/99
Accelerogram bandpass filtered with 3 dB pts at   .30 and 40.00 cyc/sec
                 instrument- and baseline-corrected





Rcrd of Thu Sep  1, 2011 13:46:46.0 PDT    Thu Sep  1, 2011 13:46:46.0 PDT

24207-M0150-11244.01      Sylmar - Pacoima Dam    Chan 15: 270 Deg

24207-M0150-11244.01      Sylmar - Pacoima Dam    Chan 15: 270 Deg

Units for spectra are inches and sec, except Sa is in fraction of g.

   15  100   15   18   17  200    1    3    1   24   13  150    024207    5    0
   20   46   46    0  244    9    1 2011   10    3  27011600   39   20   74   -1
11600    0  100    3  150    1    1  580    2    0    0    0    0    0    0    0
    0    0    3    011600    1  222    1   18    4    0    0    3    1    011600
    311600    4   68    5   17    5    0    0    0    0    0    1    3    1    2
    2    2    4    0   68   99    0   10    0    0    0    1    0    0   68  222
    1    0    6    0
      .010      .660    58.000      .001      .000   627.000     -.018    26.060
    95.900      .298      .475      .000     5.000  -999.000     4.000      .000
     2.500     7.269     2.500  2016.000    25.000    30.000  -999.000      .009
     -.008     -.017     2.000    15.000    34.335  -118.397      .022      .064
     2.958     -.021     -.013   594.000    25.800    27.800    12.800   118.940
     1.000    -1.088      .000  -999.000  -999.000  -999.000  -999.000      .000
      .100      .500     6.300   980.665      .005    58.000    15.263      .000
      .000    40.000      .000    58.000      .005      .303      .000      .000
    26.060   -17.919    26.215      .247    25.805     -.015      .000      .303
    40.000      .005      .005      .000      .005      .004      .000      .000
      .069      .055      .023      .012      .001      .000      .000      .000
      .000      .000      .000      .000      .000      .000      .000      .000
      .000      .000      .000      .000
      .000      .020      .050      .100      .200
      .040      .042      .044      .046      .048      .050      .055      .060
      .065      .070      .075      .080      .085      .090      .095      .100
      .110      .120      .130      .140      .150      .160      .170      .180
      .190      .200      .220      .240      .260      .280      .300      .320
      .340      .360      .380      .400      .420      .440      .460      .480
      .500      .550      .600      .650      .700      .750      .800      .850
      .900      .950     1.000     1.100     1.200     1.300     1.400     1.500
     1.600     1.700     1.800     1.900     2.000     2.200     2.400     2.600
     2.800     3.000     3.200     3.400      .000      .000      .000      .000
      .000      .000      .000      .000      .000      .000      .000      .000
      .000      .000      .000      .000      .000      .000      .000      .000
      .000      .000      .000      .000      .000      .000      .000      .000
      .000      .000      .000      .000
Fourier amplitude spectra in in/sec.
  .156E+00  .327E+00  .601E+00  .464E+00  .381E+00  .359E+00  .137E+01  .878E+00
  .838E+00  .194E+00  .808E+00  .895E-01  .126E+00  .168E+00  .387E+00  .385E+00
  .125E+00  .178E+00  .242E+00  .461E+00  .159E+00  .415E+00  .499E+00  .391E+00
  .457E+00  .456E+00  .234E+00  .359E+00  .684E+00  .392E+00  .264E+00  .381E+00
  .149E+00  .705E-01  .116E+00  .130E+00  .749E-01  .262E+00  .196E+00  .702E-01
  .885E-01  .169E+00  .111E+00  .232E+00  .103E+00  .174E+00  .631E-01  .117E+00
  .466E-01  .101E+00  .299E-01  .446E-01  .947E-01  .896E-01  .601E-01  .445E-01
  .594E-01  .497E-01  .288E-01  .306E-01  .163E-01  .242E-01  .240E-01  .131E-01
  .645E-02  .236E-02  .628E-02  .322E-02  .000E+00  .000E+00  .000E+00  .000E+00
  .000E+00  .000E+00  .000E+00  .000E+00  .000E+00  .000E+00  .000E+00  .000E+00
  .000E+00  .000E+00  .000E+00  .000E+00  .000E+00  .000E+00  .000E+00  .000E+00
  .000E+00  .000E+00  .000E+00  .000E+00  .000E+00  .000E+00  .000E+00  .000E+00
  .000E+00  .000E+00  .000E+00  .000E+00
Damping =  .00. Data of Sd,Sv,Sa,Pssv,ttSd,ttSv,ttSa :
  .159E-02  .256E-02  .434E-02  .348E-02  .392E-02  .287E-02  .120E-01  .881E-02
  .912E-02  .627E-02  .118E-01  .452E-02  .292E-02  .395E-02  .709E-02  .632E-02
  .355E-02  .416E-02  .796E-02  .114E-01  .694E-02  .112E-01  .162E-01  .158E-01
  .189E-01  .152E-01  .119E-01  .191E-01  .324E-01  .191E-01  .161E-01  .198E-01
  .112E-01  .785E-02  .785E-02  .107E-01  .972E-02  .184E-01  .146E-01  .948E-02
  .101E-01  .154E-01  .148E-01  .253E-01  .125E-01  .209E-01  .147E-01  .164E-01
  .142E-01  .160E-01  .104E-01  .140E-01  .234E-01  .197E-01  .158E-01  .152E-01
  .153E-01  .136E-01  .122E-01  .108E-01  .107E-01  .900E-02  .975E-02  .793E-02
  .717E-02  .691E-02  .730E-02  .786E-02  .000E+00  .000E+00  .000E+00  .000E+00
  .000E+00  .000E+00  .000E+00  .000E+00  .000E+00  .000E+00  .000E+00  .000E+00
  .000E+00  .000E+00  .000E+00  .000E+00  .000E+00  .000E+00  .000E+00  .000E+00
  .000E+00  .000E+00  .000E+00  .000E+00  .000E+00  .000E+00  .000E+00  .000E+00
  .000E+00  .000E+00  .000E+00  .000E+00
  .237E+00  .376E+00  .621E+00  .475E+00  .497E+00  .360E+00  .137E+01  .920E+00
  .880E+00  .567E+00  .971E+00  .374E+00  .214E+00  .278E+00  .470E+00  .389E+00
  .193E+00  .216E+00  .380E+00  .509E+00  .285E+00  .440E+00  .595E+00  .584E+00
  .605E+00  .503E+00  .361E+00  .496E+00  .786E+00  .428E+00  .362E+00  .389E+00
  .206E+00  .181E+00  .147E+00  .171E+00  .193E+00  .262E+00  .199E+00  .180E+00
  .171E+00  .177E+00  .186E+00  .242E+00  .179E+00  .176E+00  .133E+00  .130E+00
  .133E+00  .131E+00  .127E+00  .113E+00  .125E+00  .118E+00  .112E+00  .103E+00
  .998E-01  .101E+00  .101E+00  .102E+00  .106E+00  .103E+00  .108E+00  .106E+00
  .105E+00  .103E+00  .104E+00  .104E+00  .000E+00  .000E+00  .000E+00  .000E+00
  .000E+00  .000E+00  .000E+00  .000E+00  .000E+00  .000E+00  .000E+00  .000E+00
  .000E+00  .000E+00  .000E+00  .000E+00  .000E+00  .000E+00  .000E+00  .000E+00
  .000E+00  .000E+00  .000E+00  .000E+00  .000E+00  .000E+00  .000E+00  .000E+00
  .000E+00  .000E+00  .000E+00  .000E+00
  .101E+00  .148E+00  .229E+00  .168E+00  .174E+00  .118E+00  .407E+00  .250E+00
  .221E+00  .131E+00  .214E+00  .723E-01  .413E-01  .499E-01  .804E-01  .646E-01
  .300E-01  .296E-01  .482E-01  .594E-01  .315E-01  .449E-01  .572E-01  .498E-01
  .534E-01  .389E-01  .251E-01  .339E-01  .490E-01  .249E-01  .183E-01  .197E-01
  .988E-02  .619E-02  .556E-02  .683E-02  .564E-02  .970E-02  .706E-02  .421E-02
  .415E-02  .521E-02  .421E-02  .612E-02  .261E-02  .381E-02  .234E-02  .232E-02
  .179E-02  .181E-02  .106E-02  .118E-02  .166E-02  .119E-02  .825E-03  .691E-03
  .613E-03  .481E-03  .384E-03  .306E-03  .273E-03  .190E-03  .173E-03  .120E-03
  .935E-04  .785E-04  .729E-04  .695E-04  .000E+00  .000E+00  .000E+00  .000E+00
  .000E+00  .000E+00  .000E+00  .000E+00  .000E+00  .000E+00  .000E+00  .000E+00
  .000E+00  .000E+00  .000E+00  .000E+00  .000E+00  .000E+00  .000E+00  .000E+00
  .000E+00  .000E+00  .000E+00  .000E+00  .000E+00  .000E+00  .000E+00  .000E+00
  .000E+00  .000E+00  .000E+00  .000E+00
  .249E+00  .383E+00  .620E+00  .476E+00  .513E+00  .361E+00  .138E+01  .922E+00
  .882E+00  .563E+00  .984E+00  .355E+00  .216E+00  .276E+00  .469E+00  .397E+00
  .203E+00  .218E+00  .385E+00  .511E+00  .291E+00  .441E+00  .597E+00  .550E+00
  .624E+00  .478E+00  .340E+00  .499E+00  .782E+00  .428E+00  .337E+00  .388E+00
  .206E+00  .137E+00  .130E+00  .168E+00  .145E+00  .262E+00  .200E+00  .124E+00
  .127E+00  .176E+00  .155E+00  .244E+00  .112E+00  .175E+00  .115E+00  .121E+00
  .989E-01  .106E+00  .651E-01  .801E-01  .122E+00  .951E-01  .710E-01  .636E-01
  .602E-01  .502E-01  .425E-01  .357E-01  .335E-01  .257E-01  .255E-01  .192E-01
  .161E-01  .145E-01  .143E-01  .145E-01  .000E+00  .000E+00  .000E+00  .000E+00
  .000E+00  .000E+00  .000E+00  .000E+00  .000E+00  .000E+00  .000E+00  .000E+00
  .000E+00  .000E+00  .000E+00  .000E+00  .000E+00  .000E+00  .000E+00  .000E+00
  .000E+00  .000E+00  .000E+00  .000E+00  .000E+00  .000E+00  .000E+00  .000E+00
  .000E+00  .000E+00  .000E+00  .000E+00
  .260E+02  .271E+02  .302E+02  .355E+02  .274E+02  .307E+02  .433E+02  .308E+02
  .282E+02  .260E+02  .273E+02  .264E+02  .273E+02  .273E+02  .279E+02  .286E+02
  .263E+02  .281E+02  .280E+02  .281E+02  .273E+02  .410E+02  .289E+02  .263E+02
  .264E+02  .417E+02  .279E+02  .273E+02  .319E+02  .333E+02  .308E+02  .445E+02
  .338E+02  .264E+02  .327E+02  .318E+02  .263E+02  .565E+02  .327E+02  .262E+02
  .262E+02  .437E+02  .359E+02  .406E+02  .274E+02  .527E+02  .289E+02  .346E+02
  .301E+02  .432E+02  .266E+02  .330E+02  .365E+02  .340E+02  .296E+02  .284E+02
  .558E+02  .560E+02  .280E+02  .272E+02  .272E+02  .272E+02  .467E+02  .265E+02
  .265E+02  .265E+02  .265E+02  .258E+02  .000E+00  .000E+00  .000E+00  .000E+00
  .000E+00  .000E+00  .000E+00  .000E+00  .000E+00  .000E+00  .000E+00  .000E+00
  .000E+00  .000E+00  .000E+00  .000E+00  .000E+00  .000E+00  .000E+00  .000E+00
  .000E+00  .000E+00  .000E+00  .000E+00  .000E+00  .000E+00  .000E+00  .000E+00
  .000E+00  .000E+00  .000E+00  .000E+00
  .260E+02  .298E+02  .302E+02  .360E+02  .274E+02  .530E+02  .433E+02  .308E+02
  .284E+02  .260E+02  .273E+02  .263E+02  .273E+02  .273E+02  .274E+02  .287E+02
  .270E+02  .281E+02  .280E+02  .281E+02  .274E+02  .411E+02  .290E+02  .264E+02
  .289E+02  .273E+02  .272E+02  .271E+02  .319E+02  .334E+02  .266E+02  .446E+02
  .337E+02  .262E+02  .262E+02  .321E+02  .262E+02  .566E+02  .326E+02  .262E+02
  .262E+02  .323E+02  .261E+02  .453E+02  .261E+02  .525E+02  .263E+02  .263E+02
  .264E+02  .264E+02  .264E+02  .264E+02  .362E+02  .285E+02  .272E+02  .272E+02
  .262E+02  .262E+02  .262E+02  .262E+02  .262E+02  .262E+02  .262E+02  .262E+02
  .262E+02  .262E+02  .262E+02  .262E+02  .000E+00  .000E+00  .000E+00  .000E+00
  .000E+00  .000E+00  .000E+00  .000E+00  .000E+00  .000E+00  .000E+00  .000E+00
  .000E+00  .000E+00  .000E+00  .000E+00  .000E+00  .000E+00  .000E+00  .000E+00
  .000E+00  .000E+00  .000E+00  .000E+00  .000E+00  .000E+00  .000E+00  .000E+00
  .000E+00  .000E+00  .000E+00  .000E+00
  .260E+02  .271E+02  .302E+02  .355E+02  .274E+02  .307E+02  .433E+02  .308E+02
  .282E+02  .260E+02  .273E+02  .264E+02  .273E+02  .273E+02  .279E+02  .286E+02
  .263E+02  .281E+02  .280E+02  .281E+02  .273E+02  .410E+02  .289E+02  .263E+02
  .264E+02  .417E+02  .279E+02  .273E+02  .319E+02  .333E+02  .308E+02  .445E+02
  .338E+02  .264E+02  .327E+02  .318E+02  .263E+02  .565E+02  .327E+02  .262E+02
  .262E+02  .437E+02  .359E+02  .406E+02  .274E+02  .527E+02  .289E+02  .346E+02
  .301E+02  .432E+02  .266E+02  .330E+02  .365E+02  .340E+02  .296E+02  .284E+02
  .558E+02  .560E+02  .280E+02  .272E+02  .272E+02  .272E+02  .467E+02  .265E+02
  .265E+02  .265E+02  .265E+02  .258E+02  .000E+00  .000E+00  .000E+00  .000E+00
  .000E+00  .000E+00  .000E+00  .000E+00  .000E+00  .000E+00  .000E+00  .000E+00
  .000E+00  .000E+00  .000E+00  .000E+00  .000E+00  .000E+00  .000E+00  .000E+00
  .000E+00  .000E+00  .000E+00  .000E+00  .000E+00  .000E+00  .000E+00  .000E+00
  .000E+00  .000E+00  .000E+00  .000E+00
Damping =  .02. Data of Sd,Sv,Sa,Pssv,ttSd,ttSv,ttSa :
  .731E-03  .116E-02  .125E-02  .163E-02  .170E-02  .197E-02  .250E-02  .359E-02
  .365E-02  .337E-02  .435E-02  .273E-02  .283E-02  .348E-02  .432E-02  .350E-02
  .272E-02  .334E-02  .447E-02  .584E-02  .549E-02  .682E-02  .924E-02  .125E-01
  .136E-01  .978E-02  .103E-01  .144E-01  .162E-01  .137E-01  .128E-01  .938E-02
  .715E-02  .694E-02  .612E-02  .702E-02  .843E-02  .985E-02  .920E-02  .902E-02
  .972E-02  .112E-01  .105E-01  .114E-01  .108E-01  .119E-01  .124E-01  .117E-01
  .110E-01  .105E-01  .994E-02  .997E-02  .158E-01  .151E-01  .138E-01  .137E-01
  .124E-01  .118E-01  .109E-01  .103E-01  .996E-02  .874E-02  .866E-02  .773E-02
  .714E-02  .685E-02  .692E-02  .744E-02  .000E+00  .000E+00  .000E+00  .000E+00
  .000E+00  .000E+00  .000E+00  .000E+00  .000E+00  .000E+00  .000E+00  .000E+00
  .000E+00  .000E+00  .000E+00  .000E+00  .000E+00  .000E+00  .000E+00  .000E+00
  .000E+00  .000E+00  .000E+00  .000E+00  .000E+00  .000E+00  .000E+00  .000E+00
  .000E+00  .000E+00  .000E+00  .000E+00
  .108E+00  .161E+00  .173E+00  .215E+00  .207E+00  .230E+00  .281E+00  .377E+00
  .365E+00  .311E+00  .363E+00  .222E+00  .204E+00  .237E+00  .297E+00  .223E+00
  .185E+00  .190E+00  .223E+00  .278E+00  .252E+00  .254E+00  .327E+00  .452E+00
  .401E+00  .317E+00  .314E+00  .412E+00  .384E+00  .324E+00  .307E+00  .242E+00
  .197E+00  .174E+00  .155E+00  .155E+00  .182E+00  .194E+00  .186E+00  .175E+00
  .166E+00  .160E+00  .175E+00  .178E+00  .171E+00  .153E+00  .133E+00  .126E+00
  .126E+00  .126E+00  .123E+00  .112E+00  .107E+00  .112E+00  .108E+00  .102E+00
  .982E-01  .996E-01  .101E+00  .102E+00  .104E+00  .103E+00  .106E+00  .105E+00
  .105E+00  .103E+00  .104E+00  .104E+00  .000E+00  .000E+00  .000E+00  .000E+00
  .000E+00  .000E+00  .000E+00  .000E+00  .000E+00  .000E+00  .000E+00  .000E+00
  .000E+00  .000E+00  .000E+00  .000E+00  .000E+00  .000E+00  .000E+00  .000E+00
  .000E+00  .000E+00  .000E+00  .000E+00  .000E+00  .000E+00  .000E+00  .000E+00
  .000E+00  .000E+00  .000E+00  .000E+00
  .469E-01  .677E-01  .658E-01  .787E-01  .754E-01  .810E-01  .846E-01  .103E+00
  .886E-01  .699E-01  .787E-01  .439E-01  .400E-01  .438E-01  .493E-01  .359E-01
  .230E-01  .236E-01  .270E-01  .306E-01  .249E-01  .273E-01  .327E-01  .395E-01
  .388E-01  .250E-01  .217E-01  .255E-01  .244E-01  .179E-01  .146E-01  .937E-02
  .633E-02  .548E-02  .434E-02  .450E-02  .490E-02  .521E-02  .445E-02  .401E-02
  .398E-02  .378E-02  .300E-02  .276E-02  .226E-02  .217E-02  .198E-02  .167E-02
  .141E-02  .121E-02  .103E-02  .846E-03  .113E-02  .914E-03  .719E-03  .626E-03
  .499E-03  .418E-03  .345E-03  .297E-03  .261E-03  .191E-03  .158E-03  .122E-03
  .987E-04  .833E-04  .745E-04  .716E-04  .000E+00  .000E+00  .000E+00  .000E+00
  .000E+00  .000E+00  .000E+00  .000E+00  .000E+00  .000E+00  .000E+00  .000E+00
  .000E+00  .000E+00  .000E+00  .000E+00  .000E+00  .000E+00  .000E+00  .000E+00
  .000E+00  .000E+00  .000E+00  .000E+00  .000E+00  .000E+00  .000E+00  .000E+00
  .000E+00  .000E+00  .000E+00  .000E+00
  .115E+00  .174E+00  .178E+00  .222E+00  .223E+00  .248E+00  .285E+00  .376E+00
  .353E+00  .303E+00  .364E+00  .214E+00  .209E+00  .243E+00  .286E+00  .220E+00
  .155E+00  .175E+00  .216E+00  .262E+00  .230E+00  .268E+00  .341E+00  .437E+00
  .451E+00  .307E+00  .293E+00  .376E+00  .391E+00  .308E+00  .269E+00  .184E+00
  .132E+00  .121E+00  .101E+00  .110E+00  .126E+00  .141E+00  .126E+00  .118E+00
  .122E+00  .128E+00  .110E+00  .110E+00  .969E-01  .994E-01  .970E-01  .864E-01
  .769E-01  .696E-01  .625E-01  .569E-01  .829E-01  .729E-01  .618E-01  .575E-01
  .489E-01  .435E-01  .379E-01  .339E-01  .313E-01  .250E-01  .227E-01  .187E-01
  .160E-01  .144E-01  .136E-01  .137E-01  .000E+00  .000E+00  .000E+00  .000E+00
  .000E+00  .000E+00  .000E+00  .000E+00  .000E+00  .000E+00  .000E+00  .000E+00
  .000E+00  .000E+00  .000E+00  .000E+00  .000E+00  .000E+00  .000E+00  .000E+00
  .000E+00  .000E+00  .000E+00  .000E+00  .000E+00  .000E+00  .000E+00  .000E+00
  .000E+00  .000E+00  .000E+00  .000E+00
  .241E+02  .261E+02  .242E+02  .256E+02  .261E+02  .261E+02  .275E+02  .267E+02
  .275E+02  .259E+02  .265E+02  .271E+02  .273E+02  .273E+02  .273E+02  .274E+02
  .274E+02  .265E+02  .266E+02  .266E+02  .273E+02  .261E+02  .261E+02  .263E+02
  .263E+02  .263E+02  .267E+02  .267E+02  .266E+02  .265E+02  .265E+02  .281E+02
  .276E+02  .263E+02  .264E+02  .264E+02  .263E+02  .294E+02  .293E+02  .262E+02
  .262E+02  .262E+02  .262E+02  .289E+02  .260E+02  .260E+02  .264E+02  .265E+02
  .261E+02  .261E+02  .261E+02  .302E+02  .299E+02  .295E+02  .283E+02  .284E+02
  .285E+02  .278E+02  .279E+02  .272E+02  .272E+02  .272E+02  .263E+02  .265E+02
  .265E+02  .265E+02  .265E+02  .258E+02  .000E+00  .000E+00  .000E+00  .000E+00
  .000E+00  .000E+00  .000E+00  .000E+00  .000E+00  .000E+00  .000E+00  .000E+00
  .000E+00  .000E+00  .000E+00  .000E+00  .000E+00  .000E+00  .000E+00  .000E+00
  .000E+00  .000E+00  .000E+00  .000E+00  .000E+00  .000E+00  .000E+00  .000E+00
  .000E+00  .000E+00  .000E+00  .000E+00
  .241E+02  .241E+02  .242E+02  .256E+02  .261E+02  .261E+02  .275E+02  .267E+02
  .275E+02  .260E+02  .265E+02  .271E+02  .273E+02  .273E+02  .273E+02  .274E+02
  .274E+02  .274E+02  .274E+02  .268E+02  .274E+02  .261E+02  .266E+02  .263E+02
  .263E+02  .264E+02  .266E+02  .266E+02  .266E+02  .266E+02  .266E+02  .265E+02
  .265E+02  .265E+02  .262E+02  .262E+02  .262E+02  .262E+02  .262E+02  .262E+02
  .262E+02  .261E+02  .261E+02  .261E+02  .261E+02  .261E+02  .261E+02  .263E+02
  .264E+02  .264E+02  .264E+02  .264E+02  .272E+02  .272E+02  .272E+02  .272E+02
  .262E+02  .262E+02  .262E+02  .262E+02  .262E+02  .262E+02  .262E+02  .262E+02
  .262E+02  .262E+02  .262E+02  .262E+02  .000E+00  .000E+00  .000E+00  .000E+00
  .000E+00  .000E+00  .000E+00  .000E+00  .000E+00  .000E+00  .000E+00  .000E+00
  .000E+00  .000E+00  .000E+00  .000E+00  .000E+00  .000E+00  .000E+00  .000E+00
  .000E+00  .000E+00  .000E+00  .000E+00  .000E+00  .000E+00  .000E+00  .000E+00
  .000E+00  .000E+00  .000E+00  .000E+00
  .241E+02  .261E+02  .256E+02  .256E+02  .261E+02  .261E+02  .275E+02  .267E+02
  .275E+02  .259E+02  .265E+02  .271E+02  .273E+02  .273E+02  .273E+02  .274E+02
  .274E+02  .265E+02  .266E+02  .266E+02  .273E+02  .261E+02  .261E+02  .263E+02
  .263E+02  .263E+02  .267E+02  .267E+02  .266E+02  .265E+02  .265E+02  .281E+02
  .276E+02  .263E+02  .264E+02  .264E+02  .263E+02  .294E+02  .293E+02  .262E+02
  .262E+02  .262E+02  .262E+02  .289E+02  .260E+02  .260E+02  .264E+02  .264E+02
  .260E+02  .260E+02  .261E+02  .273E+02  .299E+02  .295E+02  .283E+02  .284E+02
  .285E+02  .278E+02  .278E+02  .272E+02  .272E+02  .272E+02  .263E+02  .265E+02
  .265E+02  .265E+02  .265E+02  .258E+02  .000E+00  .000E+00  .000E+00  .000E+00
  .000E+00  .000E+00  .000E+00  .000E+00  .000E+00  .000E+00  .000E+00  .000E+00
  .000E+00  .000E+00  .000E+00  .000E+00  .000E+00  .000E+00  .000E+00  .000E+00
  .000E+00  .000E+00  .000E+00  .000E+00  .000E+00  .000E+00  .000E+00  .000E+00
  .000E+00  .000E+00  .000E+00  .000E+00
Damping =  .05. Data of Sd,Sv,Sa,Pssv,ttSd,ttSv,ttSa :
  .551E-03  .844E-03  .100E-02  .120E-02  .137E-02  .156E-02  .207E-02  .213E-02
  .239E-02  .224E-02  .241E-02  .199E-02  .226E-02  .276E-02  .308E-02  .260E-02
  .256E-02  .298E-02  .381E-02  .424E-02  .386E-02  .532E-02  .657E-02  .912E-02
  .100E-01  .869E-02  .839E-02  .111E-01  .126E-01  .115E-01  .106E-01  .834E-02
  .678E-02  .652E-02  .624E-02  .659E-02  .725E-02  .723E-02  .765E-02  .833E-02
