Response and Fourier amplitude spectra (68 periods,  .04 -  3.4 sec)   for      
Corrected accelerogram   24207-M0150-11244.01       Chan  5:  Radl       from   
Uncorrected Accelerogram Data             Processed: 03/04/14, CGS  jh001       
Rcrd of Thu Sep  1, 2011 13:46:46.0 PDT               (Avol1 v0.5, 2/14 CSMIP)  
CSMIP Preliminary Processing            (Origin:  To be determined)             
24207-M0150-11244.01                 Start time:  9/01/11, 20:46:46.0 UTC (GPS) 
Station No. 24207   34.335N, 118.397W    MtWtny  s/n  150 (17 Chns of 17 at Sta)
Sylmar - Pacoima Dam                      CGS   Data: Acceleration              
Chan  5:  Radl                      Location: Crest: Left 1/4-length Point      
Rcrd of Thu Sep  1, 2011 13:46:46.0 PDT    Thu Sep  1, 2011 13:46:46.0 PDT      
Hypocenter:  To be determined.               ML:  To be determined.
Instr Period =  .0101 sec,  Damping =  .680,  Sensitivity =  .63 v/g
                        Record length = 58.000 sec.
                                     Uncor Max  =  -.033 g , at  26.020 sec.
RMS accel of (uncor) record  =        .   Chn. metadata effective date: 09/02/99
Accelerogram bandpass filtered with 3 dB pts at   .30 and 40.00 cyc/sec
                 instrument- and baseline-corrected





Rcrd of Thu Sep  1, 2011 13:46:46.0 PDT    Thu Sep  1, 2011 13:46:46.0 PDT

24207-M0150-11244.01      Sylmar - Pacoima Dam    Chan  5:  Radl

24207-M0150-11244.01      Sylmar - Pacoima Dam    Chan  5:  Radl

Units for spectra are inches and sec, except Sa is in fraction of g.

    5  100    5   18   17  200    1    3    1   24   13  150    024207    5    0
   20   46   46    0  244    9    1 2011   10    3  70011600   39   20   74   -1
11600    0  100    3  150    1    1  580    2    0    0    0    0    0    0    0
    0    0    3    011600    1  222    1   18    4    0    0    3    1    011600
    311600    4   68    5   17    5    0    0    0    0    0    1    3    1    2
    2    2    4    0   68   99    0   10    0    0    0    1    0    0   68  222
    1    0    6    0
      .010      .680    58.000      .003      .000   625.000     -.033    26.020
    98.700      .298      .477      .000     5.000  -999.000     4.000      .000
     2.500   -11.090     2.500  2016.000    25.000    30.000  -999.000     -.001
      .002      .003     2.000    15.000    34.335  -118.397      .031      .233
     7.528     -.009      .015   594.000    25.800    27.800    12.800   118.940
     1.000    -1.032      .000  -999.000  -999.000  -999.000  -999.000      .000
      .100      .500     6.300   980.665      .005    58.000    15.709      .000
      .000    40.000      .000    58.000      .005      .303      .000      .000
    26.015   -32.151    26.405     -.676    25.925     -.023      .000      .303
    40.000      .005      .005      .000      .005      .010      .000      .000
      .153      .075      .076      .032      .002      .000      .000      .000
      .000      .000      .000      .000      .000      .000      .000      .000
      .000      .000      .000      .000
      .000      .020      .050      .100      .200
      .040      .042      .044      .046      .048      .050      .055      .060
      .065      .070      .075      .080      .085      .090      .095      .100
      .110      .120      .130      .140      .150      .160      .170      .180
      .190      .200      .220      .240      .260      .280      .300      .320
      .340      .360      .380      .400      .420      .440      .460      .480
      .500      .550      .600      .650      .700      .750      .800      .850
      .900      .950     1.000     1.100     1.200     1.300     1.400     1.500
     1.600     1.700     1.800     1.900     2.000     2.200     2.400     2.600
     2.800     3.000     3.200     3.400      .000      .000      .000      .000
      .000      .000      .000      .000      .000      .000      .000      .000
      .000      .000      .000      .000      .000      .000      .000      .000
      .000      .000      .000      .000      .000      .000      .000      .000
      .000      .000      .000      .000
Fourier amplitude spectra in in/sec.
  .291E+00  .117E+00  .213E+00  .403E+00  .841E+00  .155E+01  .788E+00  .117E+01
  .703E+00  .108E+01  .351E+00  .146E+01  .290E+00  .193E+01  .980E+00  .411E+00
  .549E+00  .202E+01  .610E+00  .189E+00  .937E+00  .718E+00  .215E+01  .277E+01
  .111E+01  .144E+01  .137E+01  .177E+01  .144E+01  .781E+00  .460E+00  .916E+00
  .104E+00  .579E-01  .137E+00  .342E+00  .294E+00  .291E+00  .247E+00  .304E+00
  .152E+00  .146E+00  .749E-01  .249E+00  .974E-01  .111E+00  .654E-01  .134E+00
  .112E+00  .585E-01  .455E-01  .199E-01  .684E-01  .864E-01  .646E-01  .515E-01
  .572E-01  .430E-01  .262E-01  .342E-01  .165E-01  .254E-01  .270E-01  .103E-01
  .602E-02  .520E-02  .499E-02  .251E-02  .000E+00  .000E+00  .000E+00  .000E+00
  .000E+00  .000E+00  .000E+00  .000E+00  .000E+00  .000E+00  .000E+00  .000E+00
  .000E+00  .000E+00  .000E+00  .000E+00  .000E+00  .000E+00  .000E+00  .000E+00
  .000E+00  .000E+00  .000E+00  .000E+00  .000E+00  .000E+00  .000E+00  .000E+00
  .000E+00  .000E+00  .000E+00  .000E+00
Damping =  .00. Data of Sd,Sv,Sa,Pssv,ttSd,ttSv,ttSa :
  .207E-02  .220E-02  .232E-02  .455E-02  .734E-02  .124E-01  .744E-02  .117E-01
  .105E-01  .150E-01  .133E-01  .200E-01  .189E-01  .295E-01  .152E-01  .233E-01
  .201E-01  .461E-01  .201E-01  .115E-01  .275E-01  .268E-01  .614E-01  .941E-01
  .411E-01  .544E-01  .666E-01  .762E-01  .668E-01  .466E-01  .370E-01  .468E-01
  .187E-01  .172E-01  .166E-01  .261E-01  .234E-01  .205E-01  .230E-01  .278E-01
  .172E-01  .139E-01  .133E-01  .279E-01  .167E-01  .182E-01  .199E-01  .207E-01
  .206E-01  .198E-01  .181E-01  .161E-01  .177E-01  .185E-01  .159E-01  .168E-01
  .151E-01  .152E-01  .152E-01  .141E-01  .128E-01  .125E-01  .118E-01  .120E-01
  .116E-01  .118E-01  .110E-01  .106E-01  .000E+00  .000E+00  .000E+00  .000E+00
  .000E+00  .000E+00  .000E+00  .000E+00  .000E+00  .000E+00  .000E+00  .000E+00
  .000E+00  .000E+00  .000E+00  .000E+00  .000E+00  .000E+00  .000E+00  .000E+00
  .000E+00  .000E+00  .000E+00  .000E+00  .000E+00  .000E+00  .000E+00  .000E+00
  .000E+00  .000E+00  .000E+00  .000E+00
  .299E+00  .291E+00  .309E+00  .545E+00  .955E+00  .150E+01  .831E+00  .122E+01
  .991E+00  .125E+01  .105E+01  .155E+01  .134E+01  .208E+01  .100E+01  .139E+01
  .119E+01  .240E+01  .982E+00  .545E+00  .115E+01  .994E+00  .226E+01  .336E+01
  .136E+01  .171E+01  .199E+01  .200E+01  .162E+01  .113E+01  .923E+00  .921E+00
  .468E+00  .392E+00  .436E+00  .456E+00  .459E+00  .403E+00  .370E+00  .379E+00
  .388E+00  .352E+00  .302E+00  .303E+00  .347E+00  .348E+00  .319E+00  .333E+00
  .338E+00  .332E+00  .323E+00  .327E+00  .317E+00  .310E+00  .303E+00  .298E+00
  .292E+00  .289E+00  .286E+00  .282E+00  .279E+00  .272E+00  .268E+00  .265E+00
  .263E+00  .261E+00  .261E+00  .262E+00  .000E+00  .000E+00  .000E+00  .000E+00
  .000E+00  .000E+00  .000E+00  .000E+00  .000E+00  .000E+00  .000E+00  .000E+00
  .000E+00  .000E+00  .000E+00  .000E+00  .000E+00  .000E+00  .000E+00  .000E+00
  .000E+00  .000E+00  .000E+00  .000E+00  .000E+00  .000E+00  .000E+00  .000E+00
  .000E+00  .000E+00  .000E+00  .000E+00
  .132E+00  .128E+00  .123E+00  .220E+00  .326E+00  .509E+00  .251E+00  .333E+00
  .253E+00  .314E+00  .241E+00  .319E+00  .268E+00  .372E+00  .173E+00  .239E+00
  .170E+00  .327E+00  .122E+00  .600E-01  .125E+00  .107E+00  .217E+00  .297E+00
  .116E+00  .139E+00  .141E+00  .135E+00  .101E+00  .607E-01  .420E-01  .468E-01
  .166E-01  .136E-01  .117E-01  .167E-01  .136E-01  .108E-01  .111E-01  .124E-01
  .704E-02  .471E-02  .377E-02  .676E-02  .348E-02  .331E-02  .318E-02  .294E-02
  .260E-02  .224E-02  .185E-02  .136E-02  .126E-02  .112E-02  .828E-03  .766E-03
  .603E-03  .538E-03  .479E-03  .399E-03  .328E-03  .264E-03  .210E-03  .181E-03
  .152E-03  .134E-03  .109E-03  .935E-04  .000E+00  .000E+00  .000E+00  .000E+00
  .000E+00  .000E+00  .000E+00  .000E+00  .000E+00  .000E+00  .000E+00  .000E+00
  .000E+00  .000E+00  .000E+00  .000E+00  .000E+00  .000E+00  .000E+00  .000E+00
  .000E+00  .000E+00  .000E+00  .000E+00  .000E+00  .000E+00  .000E+00  .000E+00
  .000E+00  .000E+00  .000E+00  .000E+00
  .325E+00  .329E+00  .332E+00  .622E+00  .960E+00  .156E+01  .850E+00  .123E+01
  .101E+01  .135E+01  .111E+01  .157E+01  .140E+01  .206E+01  .101E+01  .147E+01
  .115E+01  .241E+01  .971E+00  .516E+00  .115E+01  .105E+01  .227E+01  .328E+01
  .136E+01  .171E+01  .190E+01  .200E+01  .161E+01  .104E+01  .775E+00  .920E+00
  .346E+00  .300E+00  .274E+00  .411E+00  .351E+00  .292E+00  .314E+00  .364E+00
  .216E+00  .159E+00  .139E+00  .270E+00  .149E+00  .153E+00  .156E+00  .153E+00
  .144E+00  .131E+00  .114E+00  .922E-01  .926E-01  .896E-01  .712E-01  .706E-01
  .593E-01  .562E-01  .530E-01  .465E-01  .403E-01  .357E-01  .309E-01  .290E-01
  .261E-01  .248E-01  .215E-01  .195E-01  .000E+00  .000E+00  .000E+00  .000E+00
  .000E+00  .000E+00  .000E+00  .000E+00  .000E+00  .000E+00  .000E+00  .000E+00
  .000E+00  .000E+00  .000E+00  .000E+00  .000E+00  .000E+00  .000E+00  .000E+00
  .000E+00  .000E+00  .000E+00  .000E+00  .000E+00  .000E+00  .000E+00  .000E+00
  .000E+00  .000E+00  .000E+00  .000E+00
  .274E+02  .271E+02  .261E+02  .264E+02  .277E+02  .292E+02  .281E+02  .299E+02
  .260E+02  .264E+02  .259E+02  .284E+02  .267E+02  .281E+02  .446E+02  .266E+02
  .259E+02  .283E+02  .265E+02  .258E+02  .270E+02  .265E+02  .280E+02  .275E+02
  .420E+02  .329E+02  .270E+02  .344E+02  .299E+02  .266E+02  .265E+02  .533E+02
  .260E+02  .260E+02  .260E+02  .287E+02  .326E+02  .556E+02  .304E+02  .348E+02
  .264E+02  .437E+02  .261E+02  .389E+02  .266E+02  .267E+02  .264E+02  .264E+02
  .264E+02  .264E+02  .264E+02  .266E+02  .328E+02  .340E+02  .296E+02  .284E+02
  .285E+02  .279E+02  .279E+02  .279E+02  .272E+02  .263E+02  .263E+02  .266E+02
  .266E+02  .267E+02  .267E+02  .267E+02  .000E+00  .000E+00  .000E+00  .000E+00
  .000E+00  .000E+00  .000E+00  .000E+00  .000E+00  .000E+00  .000E+00  .000E+00
  .000E+00  .000E+00  .000E+00  .000E+00  .000E+00  .000E+00  .000E+00  .000E+00
  .000E+00  .000E+00  .000E+00  .000E+00  .000E+00  .000E+00  .000E+00  .000E+00
  .000E+00  .000E+00  .000E+00  .000E+00
  .275E+02  .271E+02  .261E+02  .265E+02  .277E+02  .431E+02  .281E+02  .320E+02
  .260E+02  .265E+02  .259E+02  .284E+02  .268E+02  .272E+02  .346E+02  .266E+02
  .260E+02  .282E+02  .265E+02  .258E+02  .270E+02  .265E+02  .280E+02  .275E+02
  .420E+02  .326E+02  .271E+02  .343E+02  .299E+02  .267E+02  .266E+02  .534E+02
  .264E+02  .260E+02  .260E+02  .265E+02  .265E+02  .265E+02  .265E+02  .347E+02
  .264E+02  .264E+02  .259E+02  .265E+02  .265E+02  .265E+02  .265E+02  .267E+02
  .267E+02  .267E+02  .264E+02  .264E+02  .264E+02  .264E+02  .264E+02  .264E+02
  .264E+02  .264E+02  .264E+02  .264E+02  .264E+02  .264E+02  .264E+02  .264E+02
  .264E+02  .264E+02  .264E+02  .264E+02  .000E+00  .000E+00  .000E+00  .000E+00
  .000E+00  .000E+00  .000E+00  .000E+00  .000E+00  .000E+00  .000E+00  .000E+00
  .000E+00  .000E+00  .000E+00  .000E+00  .000E+00  .000E+00  .000E+00  .000E+00
  .000E+00  .000E+00  .000E+00  .000E+00  .000E+00  .000E+00  .000E+00  .000E+00
  .000E+00  .000E+00  .000E+00  .000E+00
  .274E+02  .271E+02  .261E+02  .264E+02  .277E+02  .292E+02  .281E+02  .299E+02
  .260E+02  .264E+02  .259E+02  .284E+02  .267E+02  .281E+02  .446E+02  .266E+02
  .259E+02  .283E+02  .265E+02  .258E+02  .270E+02  .265E+02  .280E+02  .275E+02
  .420E+02  .329E+02  .270E+02  .344E+02  .299E+02  .266E+02  .265E+02  .533E+02
  .260E+02  .260E+02  .260E+02  .287E+02  .326E+02  .556E+02  .304E+02  .348E+02
  .264E+02  .437E+02  .261E+02  .389E+02  .266E+02  .267E+02  .264E+02  .264E+02
  .264E+02  .264E+02  .264E+02  .266E+02  .328E+02  .340E+02  .296E+02  .284E+02
  .285E+02  .279E+02  .279E+02  .279E+02  .272E+02  .263E+02  .263E+02  .266E+02
  .266E+02  .267E+02  .267E+02  .267E+02  .000E+00  .000E+00  .000E+00  .000E+00
  .000E+00  .000E+00  .000E+00  .000E+00  .000E+00  .000E+00  .000E+00  .000E+00
  .000E+00  .000E+00  .000E+00  .000E+00  .000E+00  .000E+00  .000E+00  .000E+00
  .000E+00  .000E+00  .000E+00  .000E+00  .000E+00  .000E+00  .000E+00  .000E+00
  .000E+00  .000E+00  .000E+00  .000E+00
Damping =  .02. Data of Sd,Sv,Sa,Pssv,ttSd,ttSv,ttSa :
  .131E-02  .163E-02  .172E-02  .246E-02  .336E-02  .439E-02  .354E-02  .493E-02
  .761E-02  .859E-02  .114E-01  .117E-01  .112E-01  .132E-01  .882E-02  .132E-01
  .166E-01  .208E-01  .153E-01  .106E-01  .169E-01  .198E-01  .334E-01  .493E-01
  .320E-01  .313E-01  .508E-01  .532E-01  .473E-01  .403E-01  .318E-01  .259E-01
  .176E-01  .162E-01  .151E-01  .170E-01  .166E-01  .174E-01  .174E-01  .173E-01
  .159E-01  .118E-01  .122E-01  .142E-01  .149E-01  .162E-01  .186E-01  .196E-01
  .196E-01  .189E-01  .175E-01  .150E-01  .143E-01  .132E-01  .134E-01  .150E-01
  .137E-01  .138E-01  .140E-01  .132E-01  .124E-01  .122E-01  .117E-01  .116E-01
  .114E-01  .114E-01  .108E-01  .105E-01  .000E+00  .000E+00  .000E+00  .000E+00
  .000E+00  .000E+00  .000E+00  .000E+00  .000E+00  .000E+00  .000E+00  .000E+00
  .000E+00  .000E+00  .000E+00  .000E+00  .000E+00  .000E+00  .000E+00  .000E+00
  .000E+00  .000E+00  .000E+00  .000E+00  .000E+00  .000E+00  .000E+00  .000E+00
  .000E+00  .000E+00  .000E+00  .000E+00
  .145E+00  .202E+00  .225E+00  .268E+00  .396E+00  .519E+00  .418E+00  .487E+00
  .701E+00  .704E+00  .878E+00  .870E+00  .738E+00  .934E+00  .595E+00  .856E+00
  .964E+00  .105E+01  .785E+00  .503E+00  .665E+00  .772E+00  .120E+01  .176E+01
  .117E+01  .110E+01  .150E+01  .152E+01  .132E+01  .101E+01  .828E+00  .623E+00
  .430E+00  .376E+00  .403E+00  .426E+00  .432E+00  .396E+00  .364E+00  .346E+00
  .363E+00  .338E+00  .296E+00  .298E+00  .335E+00  .336E+00  .314E+00  .321E+00
  .327E+00  .323E+00  .316E+00  .320E+00  .314E+00  .307E+00  .301E+00  .296E+00
  .292E+00  .288E+00  .285E+00  .282E+00  .279E+00  .273E+00  .268E+00  .266E+00
  .263E+00  .262E+00  .261E+00  .262E+00  .000E+00  .000E+00  .000E+00  .000E+00
  .000E+00  .000E+00  .000E+00  .000E+00  .000E+00  .000E+00  .000E+00  .000E+00
  .000E+00  .000E+00  .000E+00  .000E+00  .000E+00  .000E+00  .000E+00  .000E+00
  .000E+00  .000E+00  .000E+00  .000E+00  .000E+00  .000E+00  .000E+00  .000E+00
  .000E+00  .000E+00  .000E+00  .000E+00
  .839E-01  .943E-01  .904E-01  .119E+00  .150E+00  .180E+00  .121E+00  .141E+00
  .183E+00  .179E+00  .207E+00  .188E+00  .159E+00  .166E+00  .100E+00  .135E+00
  .141E+00  .148E+00  .931E-01  .551E-01  .768E-01  .789E-01  .118E+00  .156E+00
  .909E-01  .801E-01  .108E+00  .945E-01  .715E-01  .526E-01  .361E-01  .259E-01
  .156E-01  .128E-01  .107E-01  .109E-01  .967E-02  .922E-02  .844E-02  .767E-02
  .653E-02  .400E-02  .351E-02  .346E-02  .313E-02  .297E-02  .300E-02  .281E-02
  .251E-02  .217E-02  .182E-02  .128E-02  .103E-02  .802E-03  .704E-03  .690E-03
  .553E-03  .498E-03  .452E-03  .383E-03  .325E-03  .266E-03  .215E-03  .186E-03
  .166E-03  .148E-03  .127E-03  .111E-03  .000E+00  .000E+00  .000E+00  .000E+00
  .000E+00  .000E+00  .000E+00  .000E+00  .000E+00  .000E+00  .000E+00  .000E+00
  .000E+00  .000E+00  .000E+00  .000E+00  .000E+00  .000E+00  .000E+00  .000E+00
  .000E+00  .000E+00  .000E+00  .000E+00  .000E+00  .000E+00  .000E+00  .000E+00
  .000E+00  .000E+00  .000E+00  .000E+00
  .205E+00  .244E+00  .245E+00  .335E+00  .440E+00  .551E+00  .404E+00  .516E+00
  .735E+00  .771E+00  .957E+00  .919E+00  .831E+00  .921E+00  .583E+00  .832E+00
  .947E+00  .109E+01  .741E+00  .474E+00  .707E+00  .776E+00  .123E+01  .172E+01
  .106E+01  .984E+00  .145E+01  .139E+01  .114E+01  .905E+00  .666E+00  .509E+00
  .325E+00  .284E+00  .250E+00  .268E+00  .249E+00  .248E+00  .237E+00  .226E+00
  .199E+00  .135E+00  .128E+00  .138E+00  .134E+00  .136E+00  .146E+00  .145E+00
  .137E+00  .125E+00  .110E+00  .857E-01  .747E-01  .639E-01  .600E-01  .629E-01
  .537E-01  .510E-01  .488E-01  .435E-01  .389E-01  .349E-01  .306E-01  .280E-01
  .255E-01  .238E-01  .213E-01  .194E-01  .000E+00  .000E+00  .000E+00  .000E+00
  .000E+00  .000E+00  .000E+00  .000E+00  .000E+00  .000E+00  .000E+00  .000E+00
  .000E+00  .000E+00  .000E+00  .000E+00  .000E+00  .000E+00  .000E+00  .000E+00
  .000E+00  .000E+00  .000E+00  .000E+00  .000E+00  .000E+00  .000E+00  .000E+00
  .000E+00  .000E+00  .000E+00  .000E+00
  .260E+02  .260E+02  .261E+02  .264E+02  .264E+02  .262E+02  .262E+02  .260E+02
  .260E+02  .258E+02  .259E+02  .260E+02  .264E+02  .272E+02  .261E+02  .259E+02
  .259E+02  .268E+02  .265E+02  .258E+02  .268E+02  .265E+02  .268E+02  .271E+02
  .272E+02  .270E+02  .269E+02  .267E+02  .267E+02  .266E+02  .265E+02  .264E+02
  .264E+02  .260E+02  .259E+02  .265E+02  .264E+02  .264E+02  .264E+02  .293E+02
  .264E+02  .263E+02  .258E+02  .265E+02  .266E+02  .267E+02  .264E+02  .264E+02
  .264E+02  .264E+02  .264E+02  .266E+02  .266E+02  .288E+02  .284E+02  .284E+02
  .284E+02  .279E+02  .279E+02  .279E+02  .263E+02  .263E+02  .263E+02  .266E+02
  .266E+02  .267E+02  .267E+02  .267E+02  .000E+00  .000E+00  .000E+00  .000E+00
  .000E+00  .000E+00  .000E+00  .000E+00  .000E+00  .000E+00  .000E+00  .000E+00
  .000E+00  .000E+00  .000E+00  .000E+00  .000E+00  .000E+00  .000E+00  .000E+00
  .000E+00  .000E+00  .000E+00  .000E+00  .000E+00  .000E+00  .000E+00  .000E+00
  .000E+00  .000E+00  .000E+00  .000E+00
  .260E+02  .261E+02  .261E+02  .263E+02  .263E+02  .262E+02  .261E+02  .260E+02
  .260E+02  .258E+02  .259E+02  .259E+02  .261E+02  .273E+02  .260E+02  .260E+02
  .260E+02  .268E+02  .265E+02  .258E+02  .270E+02  .265E+02  .270E+02  .272E+02
  .271E+02  .271E+02  .269E+02  .268E+02  .267E+02  .267E+02  .265E+02  .265E+02
  .264E+02  .260E+02  .260E+02  .265E+02  .265E+02  .265E+02  .265E+02  .264E+02
  .264E+02  .264E+02  .259E+02  .265E+02  .265E+02  .265E+02  .265E+02  .267E+02
  .267E+02  .267E+02  .264E+02  .264E+02  .264E+02  .264E+02  .264E+02  .264E+02
  .264E+02  .264E+02  .264E+02  .264E+02  .264E+02  .264E+02  .264E+02  .264E+02
  .264E+02  .264E+02  .264E+02  .264E+02  .000E+00  .000E+00  .000E+00  .000E+00
  .000E+00  .000E+00  .000E+00  .000E+00  .000E+00  .000E+00  .000E+00  .000E+00
  .000E+00  .000E+00  .000E+00  .000E+00  .000E+00  .000E+00  .000E+00  .000E+00
  .000E+00  .000E+00  .000E+00  .000E+00  .000E+00  .000E+00  .000E+00  .000E+00
  .000E+00  .000E+00  .000E+00  .000E+00
  .260E+02  .260E+02  .261E+02  .264E+02  .264E+02  .262E+02  .262E+02  .260E+02
  .260E+02  .258E+02  .259E+02  .260E+02  .264E+02  .272E+02  .261E+02  .259E+02
  .259E+02  .268E+02  .265E+02  .258E+02  .268E+02  .265E+02  .272E+02  .271E+02
  .272E+02  .270E+02  .269E+02  .267E+02  .267E+02  .266E+02  .265E+02  .264E+02
  .264E+02  .260E+02  .259E+02  .265E+02  .264E+02  .264E+02  .264E+02  .293E+02
  .264E+02  .263E+02  .258E+02  .265E+02  .266E+02  .267E+02  .264E+02  .264E+02
  .264E+02  .264E+02  .264E+02  .266E+02  .266E+02  .288E+02  .284E+02  .284E+02
  .284E+02  .279E+02  .279E+02  .279E+02  .271E+02  .263E+02  .263E+02  .265E+02
  .267E+02  .267E+02  .267E+02  .267E+02  .000E+00  .000E+00  .000E+00  .000E+00
  .000E+00  .000E+00  .000E+00  .000E+00  .000E+00  .000E+00  .000E+00  .000E+00
  .000E+00  .000E+00  .000E+00  .000E+00  .000E+00  .000E+00  .000E+00  .000E+00
  .000E+00  .000E+00  .000E+00  .000E+00  .000E+00  .000E+00  .000E+00  .000E+00
  .000E+00  .000E+00  .000E+00  .000E+00
Damping =  .05. Data of Sd,Sv,Sa,Pssv,ttSd,ttSv,ttSa :
  .116E-02  .136E-02  .137E-02  .172E-02  .227E-02  .274E-02  .315E-02  .412E-02
  .527E-02  .635E-02  .837E-02  .846E-02  .739E-02  .783E-02  .830E-02  .106E-01
  .130E-01  .131E-01  .120E-01  .101E-01  .131E-01  .152E-01  .242E-01  .306E-01
  .279E-01  .272E-01  .368E-01  .415E-01  .372E-01  .331E-01  .262E-01  .220E-01
  .171E-01  .148E-01  .137E-01  .147E-01  .152E-01  .160E-01  .160E-01  .157E-01
