Response and Fourier amplitude spectra (68 periods,  .04 -  3.4 sec)   for      
Corrected accelerogram   24207-M0150-11244.01       Chan  6:  Radl       from   
Uncorrected Accelerogram Data             Processed: 03/04/14, CGS  jh001       
Rcrd of Thu Sep  1, 2011 13:46:46.0 PDT               (Avol1 v0.5, 2/14 CSMIP)  
CSMIP Preliminary Processing            (Origin:  To be determined)             
24207-M0150-11244.01                 Start time:  9/01/11, 20:46:46.0 UTC (GPS) 
Station No. 24207   34.335N, 118.397W    MtWtny  s/n  150 (17 Chns of 17 at Sta)
Sylmar - Pacoima Dam                      CGS   Data: Acceleration              
Chan  6:  Radl                      Location: 80% Height: Right 1/3-length Point
Rcrd of Thu Sep  1, 2011 13:46:46.0 PDT    Thu Sep  1, 2011 13:46:46.0 PDT      
Hypocenter:  To be determined.               ML:  To be determined.
Instr Period =  .0104 sec,  Damping =  .660,  Sensitivity =  .63 v/g
                        Record length = 58.000 sec.
                                     Uncor Max  =  -.011 g , at  26.245 sec.
RMS accel of (uncor) record  =        .   Chn. metadata effective date: 09/02/99
Accelerogram bandpass filtered with 3 dB pts at   .30 and 40.00 cyc/sec
                 instrument- and baseline-corrected





Rcrd of Thu Sep  1, 2011 13:46:46.0 PDT    Thu Sep  1, 2011 13:46:46.0 PDT

24207-M0150-11244.01      Sylmar - Pacoima Dam    Chan  6:  Radl

24207-M0150-11244.01      Sylmar - Pacoima Dam    Chan  6:  Radl

Units for spectra are inches and sec, except Sa is in fraction of g.

    6  100    6   18   17  200    1    3    1   24   13  150    024207    5    0
   20   46   46    0  244    9    1 2011   10    3  70011600   39   20   74   -1
11600    0  100    3  150    1    1  580    2    0    0    0    0    0    0    0
    0    0    3    011600    1  222    1   18    4    0    0    3    1    011600
    311600    4   68    5   17    5    0    0    0    0    0    1    3    1    2
    2    2    4    0   68   99    0   10    0    0    0    1    0    0   68  222
    1    0    6    0
      .010      .660    58.000      .001      .000   627.000     -.011    26.245
    96.400      .298      .475      .000     5.000  -999.000     4.000      .000
     2.500    -7.843     2.500  2016.000    25.000    30.000  -999.000      .000
     -.001     -.001     2.000    15.000    34.335  -118.397      .020      .073
     3.722     -.005      .003   594.000    25.800    27.800    12.800   118.940
     1.000     1.089      .000  -999.000  -999.000  -999.000  -999.000      .000
      .100      .500     6.300   980.665      .005    58.000    15.343      .000
      .000    40.000      .000    58.000      .005      .303      .000      .000
    26.240   -10.539    26.210      .356    26.255      .012      .000      .303
    40.000      .005      .005      .000      .005      .004      .000      .000
      .043      .180      .033      .014      .001      .000      .000      .000
      .000      .000      .000      .000      .000      .000      .000      .000
      .000      .000      .000      .000
      .000      .020      .050      .100      .200
      .040      .042      .044      .046      .048      .050      .055      .060
      .065      .070      .075      .080      .085      .090      .095      .100
      .110      .120      .130      .140      .150      .160      .170      .180
      .190      .200      .220      .240      .260      .280      .300      .320
      .340      .360      .380      .400      .420      .440      .460      .480
      .500      .550      .600      .650      .700      .750      .800      .850
      .900      .950     1.000     1.100     1.200     1.300     1.400     1.500
     1.600     1.700     1.800     1.900     2.000     2.200     2.400     2.600
     2.800     3.000     3.200     3.400      .000      .000      .000      .000
      .000      .000      .000      .000      .000      .000      .000      .000
      .000      .000      .000      .000      .000      .000      .000      .000
      .000      .000      .000      .000      .000      .000      .000      .000
      .000      .000      .000      .000
Fourier amplitude spectra in in/sec.
  .907E-02  .310E-01  .461E-01  .441E-01  .695E-01  .178E+00  .266E+00  .165E+00
  .191E+00  .164E+00  .260E+00  .181E+00  .657E-01  .182E+00  .189E+00  .178E+00
  .117E+00  .530E+00  .329E+00  .378E+00  .536E+00  .489E+00  .207E+00  .774E+00
  .874E+00  .841E+00  .244E+00  .792E+00  .486E+00  .334E+00  .339E+00  .411E+00
  .180E+00  .120E+00  .119E+00  .292E+00  .448E-01  .579E-01  .627E-01  .161E+00
  .175E+00  .195E+00  .554E-01  .155E+00  .306E-01  .901E-01  .297E-01  .112E+00
  .103E+00  .958E-02  .368E-01  .236E-01  .553E-01  .487E-01  .415E-01  .391E-01
  .482E-01  .502E-01  .206E-01  .199E-01  .137E-01  .167E-01  .223E-01  .175E-01
  .828E-02  .828E-02  .471E-02  .456E-02  .000E+00  .000E+00  .000E+00  .000E+00
  .000E+00  .000E+00  .000E+00  .000E+00  .000E+00  .000E+00  .000E+00  .000E+00
  .000E+00  .000E+00  .000E+00  .000E+00  .000E+00  .000E+00  .000E+00  .000E+00
  .000E+00  .000E+00  .000E+00  .000E+00  .000E+00  .000E+00  .000E+00  .000E+00
  .000E+00  .000E+00  .000E+00  .000E+00
Damping =  .00. Data of Sd,Sv,Sa,Pssv,ttSd,ttSv,ttSa :
  .233E-03  .364E-03  .536E-03  .452E-03  .720E-03  .144E-02  .236E-02  .165E-02
  .214E-02  .226E-02  .350E-02  .281E-02  .280E-02  .456E-02  .326E-02  .417E-02
  .314E-02  .122E-01  .801E-02  .104E-01  .171E-01  .130E-01  .181E-01  .274E-01
  .300E-01  .296E-01  .213E-01  .312E-01  .208E-01  .168E-01  .176E-01  .213E-01
  .113E-01  .887E-02  .901E-02  .215E-01  .962E-02  .874E-02  .766E-02  .160E-01
  .159E-01  .174E-01  .116E-01  .195E-01  .818E-02  .115E-01  .108E-01  .154E-01
  .159E-01  .934E-02  .697E-02  .647E-02  .142E-01  .120E-01  .118E-01  .120E-01
  .124E-01  .136E-01  .106E-01  .951E-02  .926E-02  .904E-02  .912E-02  .766E-02
  .696E-02  .622E-02  .719E-02  .634E-02  .000E+00  .000E+00  .000E+00  .000E+00
  .000E+00  .000E+00  .000E+00  .000E+00  .000E+00  .000E+00  .000E+00  .000E+00
  .000E+00  .000E+00  .000E+00  .000E+00  .000E+00  .000E+00  .000E+00  .000E+00
  .000E+00  .000E+00  .000E+00  .000E+00  .000E+00  .000E+00  .000E+00  .000E+00
  .000E+00  .000E+00  .000E+00  .000E+00
  .233E-01  .377E-01  .597E-01  .523E-01  .872E-01  .181E+00  .268E+00  .171E+00
  .205E+00  .189E+00  .278E+00  .212E+00  .202E+00  .313E+00  .204E+00  .244E+00
  .157E+00  .635E+00  .391E+00  .470E+00  .720E+00  .510E+00  .652E+00  .956E+00
  .984E+00  .926E+00  .632E+00  .817E+00  .503E+00  .427E+00  .377E+00  .417E+00
  .272E+00  .235E+00  .191E+00  .338E+00  .217E+00  .230E+00  .209E+00  .211E+00
  .203E+00  .204E+00  .188E+00  .188E+00  .149E+00  .143E+00  .133E+00  .130E+00
  .132E+00  .133E+00  .132E+00  .126E+00  .128E+00  .132E+00  .133E+00  .135E+00
  .135E+00  .136E+00  .139E+00  .139E+00  .142E+00  .142E+00  .145E+00  .144E+00
  .145E+00  .143E+00  .143E+00  .145E+00  .000E+00  .000E+00  .000E+00  .000E+00
  .000E+00  .000E+00  .000E+00  .000E+00  .000E+00  .000E+00  .000E+00  .000E+00
  .000E+00  .000E+00  .000E+00  .000E+00  .000E+00  .000E+00  .000E+00  .000E+00
  .000E+00  .000E+00  .000E+00  .000E+00  .000E+00  .000E+00  .000E+00  .000E+00
  .000E+00  .000E+00  .000E+00  .000E+00
  .149E-01  .211E-01  .283E-01  .218E-01  .320E-01  .589E-01  .799E-01  .470E-01
  .519E-01  .471E-01  .636E-01  .450E-01  .396E-01  .576E-01  .369E-01  .426E-01
  .265E-01  .868E-01  .485E-01  .543E-01  .776E-01  .519E-01  .639E-01  .866E-01
  .850E-01  .757E-01  .450E-01  .554E-01  .315E-01  .219E-01  .200E-01  .212E-01
  .100E-01  .700E-02  .638E-02  .138E-01  .558E-02  .462E-02  .370E-02  .708E-02
  .652E-02  .588E-02  .330E-02  .471E-02  .171E-02  .210E-02  .173E-02  .218E-02
  .200E-02  .106E-02  .713E-03  .547E-03  .101E-02  .727E-03  .616E-03  .546E-03
  .494E-03  .482E-03  .335E-03  .269E-03  .237E-03  .191E-03  .162E-03  .116E-03
  .907E-04  .706E-04  .718E-04  .561E-04  .000E+00  .000E+00  .000E+00  .000E+00
  .000E+00  .000E+00  .000E+00  .000E+00  .000E+00  .000E+00  .000E+00  .000E+00
  .000E+00  .000E+00  .000E+00  .000E+00  .000E+00  .000E+00  .000E+00  .000E+00
  .000E+00  .000E+00  .000E+00  .000E+00  .000E+00  .000E+00  .000E+00  .000E+00
  .000E+00  .000E+00  .000E+00  .000E+00
  .366E-01  .544E-01  .765E-01  .617E-01  .942E-01  .181E+00  .270E+00  .173E+00
  .207E+00  .202E+00  .293E+00  .221E+00  .207E+00  .318E+00  .216E+00  .262E+00
  .179E+00  .640E+00  .387E+00  .467E+00  .716E+00  .510E+00  .667E+00  .957E+00
  .992E+00  .930E+00  .609E+00  .817E+00  .503E+00  .376E+00  .368E+00  .418E+00
  .209E+00  .155E+00  .149E+00  .338E+00  .144E+00  .125E+00  .105E+00  .209E+00
  .200E+00  .199E+00  .121E+00  .188E+00  .734E-01  .967E-01  .849E-01  .114E+00
  .111E+00  .618E-01  .438E-01  .370E-01  .746E-01  .581E-01  .530E-01  .503E-01
  .486E-01  .504E-01  .370E-01  .314E-01  .291E-01  .258E-01  .239E-01  .185E-01
  .156E-01  .130E-01  .141E-01  .117E-01  .000E+00  .000E+00  .000E+00  .000E+00
  .000E+00  .000E+00  .000E+00  .000E+00  .000E+00  .000E+00  .000E+00  .000E+00
  .000E+00  .000E+00  .000E+00  .000E+00  .000E+00  .000E+00  .000E+00  .000E+00
  .000E+00  .000E+00  .000E+00  .000E+00  .000E+00  .000E+00  .000E+00  .000E+00
  .000E+00  .000E+00  .000E+00  .000E+00
  .262E+02  .262E+02  .262E+02  .278E+02  .277E+02  .273E+02  .377E+02  .318E+02
  .276E+02  .277E+02  .277E+02  .262E+02  .267E+02  .272E+02  .277E+02  .277E+02
  .261E+02  .285E+02  .280E+02  .280E+02  .275E+02  .430E+02  .264E+02  .289E+02
  .275E+02  .299E+02  .268E+02  .338E+02  .400E+02  .263E+02  .315E+02  .442E+02
  .364E+02  .385E+02  .388E+02  .378E+02  .263E+02  .263E+02  .327E+02  .342E+02
  .392E+02  .506E+02  .276E+02  .352E+02  .262E+02  .513E+02  .289E+02  .515E+02
  .462E+02  .302E+02  .260E+02  .268E+02  .365E+02  .333E+02  .284E+02  .284E+02
  .558E+02  .558E+02  .279E+02  .279E+02  .281E+02  .274E+02  .467E+02  .274E+02
  .263E+02  .263E+02  .263E+02  .263E+02  .000E+00  .000E+00  .000E+00  .000E+00
  .000E+00  .000E+00  .000E+00  .000E+00  .000E+00  .000E+00  .000E+00  .000E+00
  .000E+00  .000E+00  .000E+00  .000E+00  .000E+00  .000E+00  .000E+00  .000E+00
  .000E+00  .000E+00  .000E+00  .000E+00  .000E+00  .000E+00  .000E+00  .000E+00
  .000E+00  .000E+00  .000E+00  .000E+00
  .260E+02  .261E+02  .261E+02  .275E+02  .273E+02  .273E+02  .376E+02  .318E+02
  .282E+02  .277E+02  .269E+02  .275E+02  .269E+02  .273E+02  .276E+02  .276E+02
  .261E+02  .285E+02  .279E+02  .279E+02  .275E+02  .430E+02  .265E+02  .289E+02
  .275E+02  .299E+02  .268E+02  .337E+02  .399E+02  .263E+02  .263E+02  .441E+02
  .262E+02  .262E+02  .262E+02  .378E+02  .262E+02  .262E+02  .262E+02  .343E+02
  .316E+02  .318E+02  .262E+02  .354E+02  .261E+02  .261E+02  .261E+02  .263E+02
  .263E+02  .263E+02  .263E+02  .263E+02  .262E+02  .262E+02  .262E+02  .262E+02
  .262E+02  .262E+02  .262E+02  .262E+02  .262E+02  .262E+02  .262E+02  .262E+02
  .262E+02  .262E+02  .262E+02  .262E+02  .000E+00  .000E+00  .000E+00  .000E+00
  .000E+00  .000E+00  .000E+00  .000E+00  .000E+00  .000E+00  .000E+00  .000E+00
  .000E+00  .000E+00  .000E+00  .000E+00  .000E+00  .000E+00  .000E+00  .000E+00
  .000E+00  .000E+00  .000E+00  .000E+00  .000E+00  .000E+00  .000E+00  .000E+00
  .000E+00  .000E+00  .000E+00  .000E+00
  .262E+02  .262E+02  .262E+02  .278E+02  .277E+02  .273E+02  .377E+02  .318E+02
  .276E+02  .277E+02  .277E+02  .262E+02  .267E+02  .272E+02  .277E+02  .277E+02
  .261E+02  .285E+02  .280E+02  .280E+02  .275E+02  .430E+02  .264E+02  .289E+02
  .275E+02  .299E+02  .268E+02  .338E+02  .400E+02  .263E+02  .315E+02  .442E+02
  .364E+02  .385E+02  .388E+02  .378E+02  .263E+02  .263E+02  .327E+02  .342E+02
  .392E+02  .506E+02  .276E+02  .352E+02  .262E+02  .513E+02  .289E+02  .515E+02
  .462E+02  .302E+02  .260E+02  .268E+02  .365E+02  .333E+02  .284E+02  .284E+02
  .558E+02  .558E+02  .279E+02  .279E+02  .281E+02  .274E+02  .467E+02  .274E+02
  .263E+02  .263E+02  .263E+02  .263E+02  .000E+00  .000E+00  .000E+00  .000E+00
  .000E+00  .000E+00  .000E+00  .000E+00  .000E+00  .000E+00  .000E+00  .000E+00
  .000E+00  .000E+00  .000E+00  .000E+00  .000E+00  .000E+00  .000E+00  .000E+00
  .000E+00  .000E+00  .000E+00  .000E+00  .000E+00  .000E+00  .000E+00  .000E+00
  .000E+00  .000E+00  .000E+00  .000E+00
Damping =  .02. Data of Sd,Sv,Sa,Pssv,ttSd,ttSv,ttSa :
  .204E-03  .222E-03  .272E-03  .401E-03  .570E-03  .768E-03  .107E-02  .111E-02
  .113E-02  .152E-02  .215E-02  .225E-02  .240E-02  .266E-02  .279E-02  .269E-02
  .301E-02  .524E-02  .482E-02  .700E-02  .936E-02  .852E-02  .139E-01  .182E-01
  .177E-01  .153E-01  .160E-01  .174E-01  .156E-01  .150E-01  .133E-01  .123E-01
  .964E-02  .788E-02  .689E-02  .873E-02  .863E-02  .809E-02  .678E-02  .893E-02
  .115E-01  .109E-01  .899E-02  .110E-01  .785E-02  .652E-02  .884E-02  .104E-01
  .101E-01  .774E-02  .669E-02  .637E-02  .868E-02  .929E-02  .106E-01  .109E-01
  .101E-01  .100E-01  .960E-02  .888E-02  .822E-02  .856E-02  .844E-02  .745E-02
  .691E-02  .646E-02  .687E-02  .635E-02  .000E+00  .000E+00  .000E+00  .000E+00
  .000E+00  .000E+00  .000E+00  .000E+00  .000E+00  .000E+00  .000E+00  .000E+00
  .000E+00  .000E+00  .000E+00  .000E+00  .000E+00  .000E+00  .000E+00  .000E+00
  .000E+00  .000E+00  .000E+00  .000E+00  .000E+00  .000E+00  .000E+00  .000E+00
  .000E+00  .000E+00  .000E+00  .000E+00
  .156E-01  .230E-01  .284E-01  .414E-01  .539E-01  .724E-01  .925E-01  .978E-01
  .103E+00  .131E+00  .164E+00  .148E+00  .132E+00  .141E+00  .145E+00  .148E+00
  .155E+00  .262E+00  .224E+00  .304E+00  .384E+00  .326E+00  .503E+00  .636E+00
  .589E+00  .495E+00  .475E+00  .479E+00  .401E+00  .390E+00  .350E+00  .301E+00
  .263E+00  .230E+00  .198E+00  .191E+00  .209E+00  .217E+00  .205E+00  .190E+00
  .186E+00  .193E+00  .184E+00  .160E+00  .144E+00  .140E+00  .132E+00  .126E+00
  .130E+00  .130E+00  .129E+00  .125E+00  .128E+00  .131E+00  .133E+00  .134E+00
  .135E+00  .136E+00  .138E+00  .139E+00  .140E+00  .142E+00  .144E+00  .143E+00
  .144E+00  .143E+00  .143E+00  .144E+00  .000E+00  .000E+00  .000E+00  .000E+00
  .000E+00  .000E+00  .000E+00  .000E+00  .000E+00  .000E+00  .000E+00  .000E+00
  .000E+00  .000E+00  .000E+00  .000E+00  .000E+00  .000E+00  .000E+00  .000E+00
  .000E+00  .000E+00  .000E+00  .000E+00  .000E+00  .000E+00  .000E+00  .000E+00
  .000E+00  .000E+00  .000E+00  .000E+00
  .131E-01  .128E-01  .144E-01  .194E-01  .253E-01  .313E-01  .360E-01  .317E-01
  .273E-01  .318E-01  .393E-01  .360E-01  .340E-01  .337E-01  .316E-01  .276E-01
  .255E-01  .371E-01  .292E-01  .364E-01  .426E-01  .340E-01  .491E-01  .575E-01
  .502E-01  .392E-01  .340E-01  .310E-01  .237E-01  .195E-01  .152E-01  .123E-01
  .852E-02  .622E-02  .488E-02  .559E-02  .502E-02  .429E-02  .328E-02  .397E-02
  .471E-02  .369E-02  .256E-02  .265E-02  .165E-02  .119E-02  .141E-02  .148E-02
  .128E-02  .878E-03  .689E-03  .544E-03  .617E-03  .563E-03  .552E-03  .499E-03
  .402E-03  .356E-03  .303E-03  .252E-03  .219E-03  .183E-03  .152E-03  .118E-03
  .986E-04  .819E-04  .771E-04  .646E-04  .000E+00  .000E+00  .000E+00  .000E+00
  .000E+00  .000E+00  .000E+00  .000E+00  .000E+00  .000E+00  .000E+00  .000E+00
  .000E+00  .000E+00  .000E+00  .000E+00  .000E+00  .000E+00  .000E+00  .000E+00
  .000E+00  .000E+00  .000E+00  .000E+00  .000E+00  .000E+00  .000E+00  .000E+00
  .000E+00  .000E+00  .000E+00  .000E+00
  .321E-01  .331E-01  .388E-01  .548E-01  .746E-01  .966E-01  .122E+00  .116E+00
  .109E+00  .137E+00  .180E+00  .176E+00  .178E+00  .186E+00  .185E+00  .169E+00
  .172E+00  .274E+00  .233E+00  .314E+00  .392E+00  .334E+00  .513E+00  .637E+00
  .585E+00  .480E+00  .458E+00  .457E+00  .378E+00  .336E+00  .279E+00  .242E+00
  .178E+00  .137E+00  .114E+00  .137E+00  .129E+00  .115E+00  .927E-01  .117E+00
  .145E+00  .124E+00  .942E-01  .106E+00  .704E-01  .546E-01  .695E-01  .771E-01
  .709E-01  .512E-01  .420E-01  .364E-01  .454E-01  .449E-01  .474E-01  .458E-01
  .395E-01  .370E-01  .335E-01  .294E-01  .258E-01  .245E-01  .221E-01  .180E-01
  .155E-01  .135E-01  .135E-01  .117E-01  .000E+00  .000E+00  .000E+00  .000E+00
  .000E+00  .000E+00  .000E+00  .000E+00  .000E+00  .000E+00  .000E+00  .000E+00
  .000E+00  .000E+00  .000E+00  .000E+00  .000E+00  .000E+00  .000E+00  .000E+00
  .000E+00  .000E+00  .000E+00  .000E+00  .000E+00  .000E+00  .000E+00  .000E+00
  .000E+00  .000E+00  .000E+00  .000E+00
  .262E+02  .262E+02  .261E+02  .262E+02  .262E+02  .262E+02  .262E+02  .260E+02
  .258E+02  .259E+02  .260E+02  .262E+02  .262E+02  .263E+02  .263E+02  .263E+02
  .277E+02  .278E+02  .278E+02  .278E+02  .270E+02  .264E+02  .264E+02  .264E+02
  .271E+02  .278E+02  .267E+02  .265E+02  .263E+02  .263E+02  .262E+02  .262E+02
  .263E+02  .263E+02  .271E+02  .291E+02  .263E+02  .263E+02  .261E+02  .292E+02
  .292E+02  .288E+02  .276E+02  .310E+02  .262E+02  .263E+02  .289E+02  .286E+02
  .286E+02  .287E+02  .260E+02  .260E+02  .323E+02  .295E+02  .284E+02  .284E+02
  .285E+02  .278E+02  .279E+02  .279E+02  .263E+02  .274E+02  .274E+02  .274E+02
  .263E+02  .263E+02  .263E+02  .263E+02  .000E+00  .000E+00  .000E+00  .000E+00
  .000E+00  .000E+00  .000E+00  .000E+00  .000E+00  .000E+00  .000E+00  .000E+00
  .000E+00  .000E+00  .000E+00  .000E+00  .000E+00  .000E+00  .000E+00  .000E+00
  .000E+00  .000E+00  .000E+00  .000E+00  .000E+00  .000E+00  .000E+00  .000E+00
  .000E+00  .000E+00  .000E+00  .000E+00
  .260E+02  .260E+02  .261E+02  .261E+02  .261E+02  .261E+02  .262E+02  .260E+02
  .259E+02  .259E+02  .260E+02  .262E+02  .262E+02  .263E+02  .263E+02  .276E+02
  .277E+02  .279E+02  .279E+02  .279E+02  .270E+02  .264E+02  .264E+02  .264E+02
  .269E+02  .269E+02  .268E+02  .264E+02  .264E+02  .263E+02  .263E+02  .262E+02
  .262E+02  .262E+02  .262E+02  .262E+02  .262E+02  .262E+02  .262E+02  .262E+02
  .262E+02  .262E+02  .262E+02  .262E+02  .261E+02  .261E+02  .261E+02  .263E+02
  .263E+02  .263E+02  .263E+02  .263E+02  .262E+02  .262E+02  .262E+02  .262E+02
  .262E+02  .262E+02  .262E+02  .262E+02  .262E+02  .262E+02  .262E+02  .262E+02
  .262E+02  .262E+02  .262E+02  .262E+02  .000E+00  .000E+00  .000E+00  .000E+00
  .000E+00  .000E+00  .000E+00  .000E+00  .000E+00  .000E+00  .000E+00  .000E+00
  .000E+00  .000E+00  .000E+00  .000E+00  .000E+00  .000E+00  .000E+00  .000E+00
  .000E+00  .000E+00  .000E+00  .000E+00  .000E+00  .000E+00  .000E+00  .000E+00
  .000E+00  .000E+00  .000E+00  .000E+00
  .262E+02  .262E+02  .261E+02  .262E+02  .262E+02  .262E+02  .262E+02  .260E+02
  .258E+02  .259E+02  .260E+02  .262E+02  .262E+02  .262E+02  .263E+02  .263E+02
  .277E+02  .278E+02  .278E+02  .278E+02  .270E+02  .264E+02  .264E+02  .264E+02
  .271E+02  .278E+02  .267E+02  .265E+02  .263E+02  .263E+02  .262E+02  .262E+02
  .263E+02  .263E+02  .271E+02  .291E+02  .262E+02  .263E+02  .261E+02  .292E+02
  .292E+02  .288E+02  .276E+02  .310E+02  .262E+02  .263E+02  .289E+02  .286E+02
  .286E+02  .287E+02  .260E+02  .260E+02  .323E+02  .295E+02  .283E+02  .284E+02
  .285E+02  .278E+02  .279E+02  .279E+02  .262E+02  .274E+02  .274E+02  .262E+02
  .262E+02  .262E+02  .262E+02  .262E+02  .000E+00  .000E+00  .000E+00  .000E+00
  .000E+00  .000E+00  .000E+00  .000E+00  .000E+00  .000E+00  .000E+00  .000E+00
  .000E+00  .000E+00  .000E+00  .000E+00  .000E+00  .000E+00  .000E+00  .000E+00
  .000E+00  .000E+00  .000E+00  .000E+00  .000E+00  .000E+00  .000E+00  .000E+00
  .000E+00  .000E+00  .000E+00  .000E+00
Damping =  .05. Data of Sd,Sv,Sa,Pssv,ttSd,ttSv,ttSa :
  .198E-03  .213E-03  .253E-03  .348E-03  .464E-03  .578E-03  .791E-03  .800E-03
  .833E-03  .109E-02  .138E-02  .166E-02  .203E-02  .225E-02  .241E-02  .239E-02
  .247E-02  .370E-02  .373E-02  .463E-02  .647E-02  .805E-02  .111E-01  .136E-01
  .135E-01  .125E-01  .134E-01  .141E-01  .139E-01  .130E-01  .119E-01  .110E-01
  .933E-02  .796E-02  .725E-02  .746E-02  .780E-02  .747E-02  .671E-02  .718E-02
