Response and Fourier amplitude spectra (68 periods,  .04 -  3.4 sec)   for      
Corrected accelerogram   24207-M0150-11244.01       Chan 13:  Up         from   
Uncorrected Accelerogram Data             Processed: 03/04/14, CGS  jh001       
Rcrd of Thu Sep  1, 2011 13:46:46.0 PDT               (Avol1 v0.5, 2/14 CSMIP)  
CSMIP Preliminary Processing            (Origin:  To be determined)             
24207-M0150-11244.01                 Start time:  9/01/11, 20:46:46.0 UTC (GPS) 
Station No. 24207   34.335N, 118.397W    MtWtny  s/n  150 (17 Chns of 17 at Sta)
Sylmar - Pacoima Dam                      CGS   Data: Acceleration              
Chan 13:  Up                        Location: Right (North) Abutment            
Rcrd of Thu Sep  1, 2011 13:46:46.0 PDT    Thu Sep  1, 2011 13:46:46.0 PDT      
Hypocenter:  To be determined.               ML:  To be determined.
Instr Period =  .0103 sec,  Damping =  .660,  Sensitivity =  .63 v/g
                        Record length = 58.000 sec.
                                     Uncor Max  =  -.005 g , at  25.490 sec.
RMS accel of (uncor) record  =        .   Chn. metadata effective date: 09/02/99
Accelerogram bandpass filtered with 3 dB pts at   .30 and 40.00 cyc/sec
                 instrument- and baseline-corrected





Rcrd of Thu Sep  1, 2011 13:46:46.0 PDT    Thu Sep  1, 2011 13:46:46.0 PDT

24207-M0150-11244.01      Sylmar - Pacoima Dam    Chan 13:  Up

24207-M0150-11244.01      Sylmar - Pacoima Dam    Chan 13:  Up

Units for spectra are inches and sec, except Sa is in fraction of g.

   13  100   13   18   17  200    1    3    1   24   13  150    024207    5    0
   20   46   46    0  244    9    1 2011   10    3  50011600   39   20   74   -1
11600    0  100    3  150    1    1  580    2    0    0    0    0    0    0    0
    0    0    3    011600    1  222    1   18    4    0    0    3    1    011600
    311600    4   68    5   17    5    0    0    0    0    0    1    3    1    2
    2    2    4    0   68   99    0   10    0    0    0    1    0    0   68  222
    1    0    6    0
      .010      .660    58.000      .000      .000   626.000     -.005    25.490
    97.100      .298      .476      .000     5.000  -999.000     4.000      .000
     2.500    25.737     2.500  2016.000    25.000    30.000  -999.000      .007
     -.001     -.008     2.000    15.000    34.335  -118.397      .029      .035
     1.184     -.013     -.004   594.000    25.800    27.800    12.800   118.940
     1.000    -1.094      .000  -999.000  -999.000  -999.000  -999.000      .000
      .100      .500     6.300   980.665      .005    58.000    15.454      .000
      .000    40.000      .000    58.000      .005      .303      .000      .000
    25.490    -4.610    25.505     -.204    25.610     -.016      .000      .303
    40.000      .005      .005      .000      .005      .002      .000      .000
      .022      .085      .008      .005      .001      .000      .000      .000
      .000      .000      .000      .000      .000      .000      .000      .000
      .000      .000      .000      .000
      .000      .020      .050      .100      .200
      .040      .042      .044      .046      .048      .050      .055      .060
      .065      .070      .075      .080      .085      .090      .095      .100
      .110      .120      .130      .140      .150      .160      .170      .180
      .190      .200      .220      .240      .260      .280      .300      .320
      .340      .360      .380      .400      .420      .440      .460      .480
      .500      .550      .600      .650      .700      .750      .800      .850
      .900      .950     1.000     1.100     1.200     1.300     1.400     1.500
     1.600     1.700     1.800     1.900     2.000     2.200     2.400     2.600
     2.800     3.000     3.200     3.400      .000      .000      .000      .000
      .000      .000      .000      .000      .000      .000      .000      .000
      .000      .000      .000      .000      .000      .000      .000      .000
      .000      .000      .000      .000      .000      .000      .000      .000
      .000      .000      .000      .000
Fourier amplitude spectra in in/sec.
  .290E-01  .117E+00  .134E+00  .157E+00  .102E+00  .218E+00  .304E-01  .229E+00
  .126E+00  .131E+00  .182E+00  .202E+00  .266E+00  .536E+00  .351E+00  .196E+00
  .172E+00  .870E-01  .844E-01  .168E+00  .135E+00  .188E+00  .877E-01  .238E+00
  .329E+00  .146E+00  .662E-01  .181E+00  .544E-01  .123E+00  .212E+00  .226E+00
  .647E-01  .134E+00  .167E+00  .175E+00  .257E+00  .124E+00  .777E-01  .124E+00
  .353E-01  .421E-01  .165E+00  .140E+00  .108E+00  .593E-01  .130E+00  .142E+00
  .115E+00  .882E-01  .679E-01  .819E-01  .105E+00  .576E-01  .545E-01  .354E-01
  .339E-01  .302E-01  .497E-01  .324E-01  .255E-01  .227E-01  .174E-01  .758E-02
  .101E-01  .191E-01  .828E-02  .934E-02  .000E+00  .000E+00  .000E+00  .000E+00
  .000E+00  .000E+00  .000E+00  .000E+00  .000E+00  .000E+00  .000E+00  .000E+00
  .000E+00  .000E+00  .000E+00  .000E+00  .000E+00  .000E+00  .000E+00  .000E+00
  .000E+00  .000E+00  .000E+00  .000E+00  .000E+00  .000E+00  .000E+00  .000E+00
  .000E+00  .000E+00  .000E+00  .000E+00
Damping =  .00. Data of Sd,Sv,Sa,Pssv,ttSd,ttSv,ttSa :
  .373E-03  .930E-03  .969E-03  .119E-02  .923E-03  .170E-02  .101E-02  .230E-02
  .177E-02  .160E-02  .231E-02  .332E-02  .371E-02  .788E-02  .535E-02  .353E-02
  .405E-02  .248E-02  .249E-02  .417E-02  .331E-02  .586E-02  .514E-02  .848E-02
  .113E-01  .674E-02  .441E-02  .745E-02  .474E-02  .694E-02  .116E-01  .127E-01
  .803E-02  .932E-02  .121E-01  .134E-01  .178E-01  .111E-01  .103E-01  .105E-01
  .847E-02  .100E-01  .176E-01  .163E-01  .124E-01  .139E-01  .192E-01  .211E-01
  .186E-01  .154E-01  .166E-01  .158E-01  .213E-01  .156E-01  .152E-01  .119E-01
  .109E-01  .106E-01  .153E-01  .117E-01  .992E-02  .965E-02  .973E-02  .920E-02
  .870E-02  .911E-02  .882E-02  .885E-02  .000E+00  .000E+00  .000E+00  .000E+00
  .000E+00  .000E+00  .000E+00  .000E+00  .000E+00  .000E+00  .000E+00  .000E+00
  .000E+00  .000E+00  .000E+00  .000E+00  .000E+00  .000E+00  .000E+00  .000E+00
  .000E+00  .000E+00  .000E+00  .000E+00  .000E+00  .000E+00  .000E+00  .000E+00
  .000E+00  .000E+00  .000E+00  .000E+00
  .525E-01  .135E+00  .137E+00  .161E+00  .120E+00  .219E+00  .116E+00  .240E+00
  .163E+00  .144E+00  .193E+00  .253E+00  .275E+00  .547E+00  .355E+00  .221E+00
  .230E+00  .140E+00  .120E+00  .186E+00  .145E+00  .225E+00  .181E+00  .298E+00
  .375E+00  .214E+00  .140E+00  .195E+00  .116E+00  .162E+00  .245E+00  .249E+00
  .154E+00  .172E+00  .202E+00  .205E+00  .265E+00  .177E+00  .153E+00  .150E+00
  .131E+00  .135E+00  .184E+00  .158E+00  .128E+00  .112E+00  .153E+00  .157E+00
  .140E+00  .129E+00  .109E+00  .106E+00  .111E+00  .884E-01  .808E-01  .789E-01
  .800E-01  .819E-01  .821E-01  .833E-01  .810E-01  .840E-01  .836E-01  .852E-01
  .836E-01  .828E-01  .826E-01  .831E-01  .000E+00  .000E+00  .000E+00  .000E+00
  .000E+00  .000E+00  .000E+00  .000E+00  .000E+00  .000E+00  .000E+00  .000E+00
  .000E+00  .000E+00  .000E+00  .000E+00  .000E+00  .000E+00  .000E+00  .000E+00
  .000E+00  .000E+00  .000E+00  .000E+00  .000E+00  .000E+00  .000E+00  .000E+00
  .000E+00  .000E+00  .000E+00  .000E+00
  .238E-01  .539E-01  .512E-01  .574E-01  .410E-01  .695E-01  .343E-01  .653E-01
  .429E-01  .335E-01  .420E-01  .530E-01  .525E-01  .995E-01  .607E-01  .361E-01
  .343E-01  .176E-01  .151E-01  .217E-01  .150E-01  .234E-01  .182E-01  .268E-01
  .320E-01  .172E-01  .931E-02  .132E-01  .717E-02  .906E-02  .132E-01  .127E-01
  .710E-02  .736E-02  .854E-02  .854E-02  .103E-01  .587E-02  .498E-02  .466E-02
  .346E-02  .339E-02  .499E-02  .393E-02  .258E-02  .254E-02  .307E-02  .298E-02
  .234E-02  .175E-02  .169E-02  .133E-02  .151E-02  .947E-03  .794E-03  .540E-03
  .435E-03  .376E-03  .483E-03  .331E-03  .254E-03  .204E-03  .173E-03  .139E-03
  .113E-03  .104E-03  .881E-04  .783E-04  .000E+00  .000E+00  .000E+00  .000E+00
  .000E+00  .000E+00  .000E+00  .000E+00  .000E+00  .000E+00  .000E+00  .000E+00
  .000E+00  .000E+00  .000E+00  .000E+00  .000E+00  .000E+00  .000E+00  .000E+00
  .000E+00  .000E+00  .000E+00  .000E+00  .000E+00  .000E+00  .000E+00  .000E+00
  .000E+00  .000E+00  .000E+00  .000E+00
  .585E-01  .139E+00  .138E+00  .162E+00  .121E+00  .214E+00  .116E+00  .241E+00
  .171E+00  .144E+00  .194E+00  .261E+00  .274E+00  .550E+00  .354E+00  .222E+00
  .232E+00  .130E+00  .121E+00  .187E+00  .139E+00  .230E+00  .190E+00  .296E+00
  .373E+00  .212E+00  .126E+00  .195E+00  .115E+00  .156E+00  .243E+00  .250E+00
  .148E+00  .163E+00  .199E+00  .210E+00  .266E+00  .159E+00  .141E+00  .137E+00
  .106E+00  .115E+00  .184E+00  .157E+00  .111E+00  .117E+00  .151E+00  .156E+00
  .130E+00  .102E+00  .104E+00  .902E-01  .111E+00  .756E-01  .683E-01  .498E-01
  .427E-01  .392E-01  .534E-01  .387E-01  .312E-01  .276E-01  .255E-01  .222E-01
  .195E-01  .191E-01  .173E-01  .164E-01  .000E+00  .000E+00  .000E+00  .000E+00
  .000E+00  .000E+00  .000E+00  .000E+00  .000E+00  .000E+00  .000E+00  .000E+00
  .000E+00  .000E+00  .000E+00  .000E+00  .000E+00  .000E+00  .000E+00  .000E+00
  .000E+00  .000E+00  .000E+00  .000E+00  .000E+00  .000E+00  .000E+00  .000E+00
  .000E+00  .000E+00  .000E+00  .000E+00
  .260E+02  .261E+02  .295E+02  .310E+02  .273E+02  .285E+02  .252E+02  .290E+02
  .270E+02  .264E+02  .303E+02  .260E+02  .353E+02  .286E+02  .424E+02  .279E+02
  .276E+02  .271E+02  .296E+02  .311E+02  .430E+02  .270E+02  .264E+02  .270E+02
  .275E+02  .261E+02  .273E+02  .341E+02  .268E+02  .268E+02  .279E+02  .335E+02
  .263E+02  .262E+02  .276E+02  .287E+02  .481E+02  .294E+02  .266E+02  .348E+02
  .259E+02  .293E+02  .329E+02  .385E+02  .433E+02  .266E+02  .339E+02  .297E+02
  .290E+02  .273E+02  .269E+02  .270E+02  .476E+02  .287E+02  .345E+02  .276E+02
  .262E+02  .262E+02  .497E+02  .367E+02  .323E+02  .256E+02  .256E+02  .256E+02
  .256E+02  .583E+02  .256E+02  .256E+02  .000E+00  .000E+00  .000E+00  .000E+00
  .000E+00  .000E+00  .000E+00  .000E+00  .000E+00  .000E+00  .000E+00  .000E+00
  .000E+00  .000E+00  .000E+00  .000E+00  .000E+00  .000E+00  .000E+00  .000E+00
  .000E+00  .000E+00  .000E+00  .000E+00  .000E+00  .000E+00  .000E+00  .000E+00
  .000E+00  .000E+00  .000E+00  .000E+00
  .260E+02  .261E+02  .293E+02  .310E+02  .273E+02  .285E+02  .252E+02  .291E+02
  .270E+02  .265E+02  .304E+02  .260E+02  .353E+02  .286E+02  .424E+02  .279E+02
  .276E+02  .271E+02  .286E+02  .312E+02  .270E+02  .278E+02  .264E+02  .270E+02
  .274E+02  .260E+02  .272E+02  .339E+02  .267E+02  .267E+02  .278E+02  .334E+02
  .261E+02  .263E+02  .275E+02  .272E+02  .480E+02  .267E+02  .265E+02  .265E+02
  .265E+02  .259E+02  .336E+02  .387E+02  .267E+02  .272E+02  .341E+02  .299E+02
  .270E+02  .270E+02  .272E+02  .269E+02  .425E+02  .264E+02  .258E+02  .255E+02
  .255E+02  .255E+02  .255E+02  .255E+02  .255E+02  .255E+02  .255E+02  .255E+02
  .255E+02  .255E+02  .255E+02  .255E+02  .000E+00  .000E+00  .000E+00  .000E+00
  .000E+00  .000E+00  .000E+00  .000E+00  .000E+00  .000E+00  .000E+00  .000E+00
  .000E+00  .000E+00  .000E+00  .000E+00  .000E+00  .000E+00  .000E+00  .000E+00
  .000E+00  .000E+00  .000E+00  .000E+00  .000E+00  .000E+00  .000E+00  .000E+00
  .000E+00  .000E+00  .000E+00  .000E+00
  .260E+02  .261E+02  .295E+02  .310E+02  .273E+02  .285E+02  .252E+02  .290E+02
  .270E+02  .264E+02  .303E+02  .260E+02  .353E+02  .286E+02  .424E+02  .279E+02
  .276E+02  .271E+02  .296E+02  .311E+02  .430E+02  .270E+02  .264E+02  .270E+02
  .275E+02  .261E+02  .273E+02  .341E+02  .268E+02  .268E+02  .279E+02  .335E+02
  .263E+02  .262E+02  .276E+02  .287E+02  .481E+02  .294E+02  .266E+02  .348E+02
  .259E+02  .293E+02  .329E+02  .385E+02  .433E+02  .266E+02  .339E+02  .297E+02
  .290E+02  .273E+02  .269E+02  .270E+02  .476E+02  .287E+02  .345E+02  .276E+02
  .262E+02  .262E+02  .497E+02  .367E+02  .323E+02  .256E+02  .256E+02  .256E+02
  .256E+02  .583E+02  .256E+02  .256E+02  .000E+00  .000E+00  .000E+00  .000E+00
  .000E+00  .000E+00  .000E+00  .000E+00  .000E+00  .000E+00  .000E+00  .000E+00
  .000E+00  .000E+00  .000E+00  .000E+00  .000E+00  .000E+00  .000E+00  .000E+00
  .000E+00  .000E+00  .000E+00  .000E+00  .000E+00  .000E+00  .000E+00  .000E+00
  .000E+00  .000E+00  .000E+00  .000E+00
Damping =  .02. Data of Sd,Sv,Sa,Pssv,ttSd,ttSv,ttSa :
  .201E-03  .361E-03  .456E-03  .568E-03  .542E-03  .605E-03  .499E-03  .739E-03
  .709E-03  .795E-03  .103E-02  .177E-02  .228E-02  .276E-02  .284E-02  .200E-02
  .205E-02  .145E-02  .158E-02  .199E-02  .204E-02  .311E-02  .376E-02  .475E-02
  .600E-02  .463E-02  .340E-02  .441E-02  .460E-02  .584E-02  .696E-02  .589E-02
  .651E-02  .745E-02  .811E-02  .935E-02  .901E-02  .840E-02  .825E-02  .786E-02
  .777E-02  .838E-02  .102E-01  .111E-01  .113E-01  .119E-01  .115E-01  .137E-01
  .130E-01  .136E-01  .143E-01  .140E-01  .133E-01  .126E-01  .117E-01  .112E-01
  .107E-01  .102E-01  .986E-02  .974E-02  .979E-02  .964E-02  .957E-02  .916E-02
  .871E-02  .862E-02  .873E-02  .872E-02  .000E+00  .000E+00  .000E+00  .000E+00
  .000E+00  .000E+00  .000E+00  .000E+00  .000E+00  .000E+00  .000E+00  .000E+00
  .000E+00  .000E+00  .000E+00  .000E+00  .000E+00  .000E+00  .000E+00  .000E+00
  .000E+00  .000E+00  .000E+00  .000E+00  .000E+00  .000E+00  .000E+00  .000E+00
  .000E+00  .000E+00  .000E+00  .000E+00
  .287E-01  .478E-01  .608E-01  .734E-01  .648E-01  .742E-01  .562E-01  .684E-01
  .626E-01  .693E-01  .873E-01  .137E+00  .168E+00  .195E+00  .192E+00  .130E+00
  .122E+00  .836E-01  .746E-01  .853E-01  .103E+00  .116E+00  .140E+00  .161E+00
  .219E+00  .148E+00  .106E+00  .115E+00  .117E+00  .142E+00  .163E+00  .132E+00
  .132E+00  .134E+00  .138E+00  .158E+00  .161E+00  .141E+00  .126E+00  .128E+00
  .118E+00  .125E+00  .125E+00  .107E+00  .112E+00  .101E+00  .125E+00  .133E+00
  .126E+00  .115E+00  .943E-01  .935E-01  .994E-01  .843E-01  .790E-01  .785E-01
  .792E-01  .803E-01  .811E-01  .817E-01  .812E-01  .831E-01  .831E-01  .840E-01
  .831E-01  .824E-01  .823E-01  .826E-01  .000E+00  .000E+00  .000E+00  .000E+00
  .000E+00  .000E+00  .000E+00  .000E+00  .000E+00  .000E+00  .000E+00  .000E+00
  .000E+00  .000E+00  .000E+00  .000E+00  .000E+00  .000E+00  .000E+00  .000E+00
  .000E+00  .000E+00  .000E+00  .000E+00  .000E+00  .000E+00  .000E+00  .000E+00
  .000E+00  .000E+00  .000E+00  .000E+00
  .129E-01  .209E-01  .240E-01  .276E-01  .240E-01  .245E-01  .169E-01  .212E-01
  .172E-01  .166E-01  .186E-01  .282E-01  .322E-01  .346E-01  .321E-01  .205E-01
  .173E-01  .103E-01  .955E-02  .104E-01  .927E-02  .125E-01  .133E-01  .150E-01
  .170E-01  .118E-01  .719E-02  .785E-02  .698E-02  .763E-02  .793E-02  .589E-02
  .576E-02  .588E-02  .574E-02  .599E-02  .524E-02  .444E-02  .399E-02  .349E-02
  .318E-02  .283E-02  .289E-02  .268E-02  .236E-02  .217E-02  .184E-02  .195E-02
  .164E-02  .155E-02  .147E-02  .119E-02  .946E-03  .764E-03  .612E-03  .512E-03
  .428E-03  .361E-03  .313E-03  .277E-03  .252E-03  .204E-03  .171E-03  .139E-03
  .114E-03  .985E-04  .879E-04  .779E-04  .000E+00  .000E+00  .000E+00  .000E+00
  .000E+00  .000E+00  .000E+00  .000E+00  .000E+00  .000E+00  .000E+00  .000E+00
  .000E+00  .000E+00  .000E+00  .000E+00  .000E+00  .000E+00  .000E+00  .000E+00
  .000E+00  .000E+00  .000E+00  .000E+00  .000E+00  .000E+00  .000E+00  .000E+00
  .000E+00  .000E+00  .000E+00  .000E+00
  .316E-01  .539E-01  .651E-01  .776E-01  .709E-01  .761E-01  .570E-01  .774E-01
  .685E-01  .713E-01  .860E-01  .139E+00  .169E+00  .192E+00  .188E+00  .126E+00
  .117E+00  .757E-01  .762E-01  .894E-01  .855E-01  .122E+00  .139E+00  .166E+00
  .198E+00  .146E+00  .972E-01  .115E+00  .111E+00  .131E+00  .146E+00  .116E+00
  .120E+00  .130E+00  .134E+00  .147E+00  .135E+00  .120E+00  .113E+00  .103E+00
  .977E-01  .957E-01  .107E+00  .107E+00  .101E+00  .997E-01  .903E-01  .102E+00
  .906E-01  .902E-01  .901E-01  .800E-01  .696E-01  .608E-01  .525E-01  .469E-01
  .419E-01  .375E-01  .344E-01  .322E-01  .308E-01  .275E-01  .251E-01  .221E-01
  .195E-01  .181E-01  .171E-01  .161E-01  .000E+00  .000E+00  .000E+00  .000E+00
  .000E+00  .000E+00  .000E+00  .000E+00  .000E+00  .000E+00  .000E+00  .000E+00
  .000E+00  .000E+00  .000E+00  .000E+00  .000E+00  .000E+00  .000E+00  .000E+00
  .000E+00  .000E+00  .000E+00  .000E+00  .000E+00  .000E+00  .000E+00  .000E+00
  .000E+00  .000E+00  .000E+00  .000E+00
  .241E+02  .260E+02  .261E+02  .261E+02  .264E+02  .264E+02  .249E+02  .270E+02
  .244E+02  .245E+02  .247E+02  .245E+02  .245E+02  .273E+02  .272E+02  .271E+02
  .271E+02  .262E+02  .266E+02  .278E+02  .270E+02  .270E+02  .265E+02  .270E+02
  .271E+02  .261E+02  .271E+02  .268E+02  .268E+02  .268E+02  .267E+02  .271E+02
  .260E+02  .260E+02  .270E+02  .271E+02  .269E+02  .266E+02  .266E+02  .259E+02
  .259E+02  .257E+02  .258E+02  .258E+02  .258E+02  .266E+02  .283E+02  .293E+02
  .290E+02  .264E+02  .269E+02  .265E+02  .290E+02  .267E+02  .261E+02  .261E+02
  .262E+02  .262E+02  .256E+02  .256E+02  .256E+02  .256E+02  .256E+02  .256E+02
  .256E+02  .256E+02  .256E+02  .256E+02  .000E+00  .000E+00  .000E+00  .000E+00
  .000E+00  .000E+00  .000E+00  .000E+00  .000E+00  .000E+00  .000E+00  .000E+00
  .000E+00  .000E+00  .000E+00  .000E+00  .000E+00  .000E+00  .000E+00  .000E+00
  .000E+00  .000E+00  .000E+00  .000E+00  .000E+00  .000E+00  .000E+00  .000E+00
  .000E+00  .000E+00  .000E+00  .000E+00
  .242E+02  .261E+02  .261E+02  .261E+02  .262E+02  .264E+02  .248E+02  .270E+02
  .245E+02  .245E+02  .247E+02  .245E+02  .245E+02  .272E+02  .272E+02  .271E+02
  .271E+02  .271E+02  .266E+02  .278E+02  .270E+02  .270E+02  .264E+02  .270E+02
  .270E+02  .261E+02  .272E+02  .267E+02  .267E+02  .267E+02  .271E+02  .265E+02
  .261E+02  .263E+02  .269E+02  .272E+02  .270E+02  .267E+02  .265E+02  .265E+02
  .258E+02  .259E+02  .259E+02  .269E+02  .267E+02  .261E+02  .265E+02  .265E+02
  .265E+02  .270E+02  .271E+02  .269E+02  .269E+02  .264E+02  .258E+02  .255E+02
  .255E+02  .255E+02  .255E+02  .255E+02  .255E+02  .255E+02  .255E+02  .255E+02
  .255E+02  .255E+02  .255E+02  .255E+02  .000E+00  .000E+00  .000E+00  .000E+00
  .000E+00  .000E+00  .000E+00  .000E+00  .000E+00  .000E+00  .000E+00  .000E+00
  .000E+00  .000E+00  .000E+00  .000E+00  .000E+00  .000E+00  .000E+00  .000E+00
  .000E+00  .000E+00  .000E+00  .000E+00  .000E+00  .000E+00  .000E+00  .000E+00
  .000E+00  .000E+00  .000E+00  .000E+00
  .241E+02  .260E+02  .261E+02  .261E+02  .264E+02  .264E+02  .249E+02  .270E+02
  .244E+02  .245E+02  .247E+02  .245E+02  .245E+02  .273E+02  .273E+02  .271E+02
  .271E+02  .262E+02  .266E+02  .278E+02  .270E+02  .270E+02  .265E+02  .270E+02
  .271E+02  .261E+02  .271E+02  .268E+02  .268E+02  .268E+02  .267E+02  .271E+02
  .260E+02  .260E+02  .270E+02  .271E+02  .269E+02  .266E+02  .266E+02  .259E+02
  .259E+02  .257E+02  .258E+02  .258E+02  .258E+02  .266E+02  .283E+02  .293E+02
  .290E+02  .264E+02  .269E+02  .265E+02  .290E+02  .267E+02  .261E+02  .261E+02
  .261E+02  .261E+02  .256E+02  .256E+02  .256E+02  .256E+02  .256E+02  .256E+02
  .256E+02  .256E+02  .255E+02  .255E+02  .000E+00  .000E+00  .000E+00  .000E+00
  .000E+00  .000E+00  .000E+00  .000E+00  .000E+00  .000E+00  .000E+00  .000E+00
  .000E+00  .000E+00  .000E+00  .000E+00  .000E+00  .000E+00  .000E+00  .000E+00
  .000E+00  .000E+00  .000E+00  .000E+00  .000E+00  .000E+00  .000E+00  .000E+00
  .000E+00  .000E+00  .000E+00  .000E+00
Damping =  .05. Data of Sd,Sv,Sa,Pssv,ttSd,ttSv,ttSa :
  .168E-03  .252E-03  .320E-03  .373E-03  .388E-03  .400E-03  .405E-03  .533E-03
  .535E-03  .661E-03  .899E-03  .131E-02  .157E-02  .171E-02  .179E-02  .155E-02
  .134E-02  .115E-02  .132E-02  .136E-02  .161E-02  .209E-02  .253E-02  .294E-02
  .352E-02  .326E-02  .300E-02  .372E-02  .399E-02  .471E-02  .492E-02  .447E-02
  .539E-02  .585E-02  .574E-02  .660E-02  .635E-02  .669E-02  .689E-02  .689E-02
