CORRECTED ACCELEROGRAM   24207-C0157-94019.02       CHAN 10: UP          FROM   
UNCORRECTED ACCELEROGRAM DATA              PROCESSED: 06/16/94, CDMG QN94207A   
NORTHRIDGE EARTHQUAKE                                                           
JANUARY 17, 1994 04:31 PST              (ORIGIN(CIT): 01/17/94, 12:30:55.4 GMT) 
24207-C0157-94019.02                                                            
STATION NO. 24207   34.334N, 118.396W     CRA-1  S/N 0157 (11 CHNS OF 20 AT STA)
PACOIMA RESERVOIR - PACOIMA DAM                                                 
CHAN 10: UP       (STA CHN: 10)     LOCATION: DAM BASE                          
NORTHRIDGE EARTHQUAKE     JANUARY 17, 1994 04:31 PST                            
HYPOCENTER(CIT): 34.215N, 118.538W, H=18KM. ML=6.6, MW=6.7(CIT); MS=6.7(NEIC)   
INSTR PERIOD =  .0190 SEC,  DAMPING =  .640,  SENSITIVITY = 1.70 CM/G.          
                        RECORD LENGTH = 11.000 SEC.                             
                                     UNCOR MAX  =  -.411 G, AT   4.003 SEC.     
RMS ACCEL OF (UNCOR) RECORD  =  .051 G.                                         
ACCELEROGRAM BANDPASS FILTERED WITH RAMPS AT  .080- .160 AND 23.00-25.00 CYC/SEC
   551 POINTS OF INSTRUMENT- AND BASELINE-CORRECTED ACCEL, VELOC AND DISPL DATA 
AT EQUALLY-SPACED INTERVALS OF    .020  SEC.                                    
PEAK ACCELERATION =  -398.751    CM/SEC/SEC  AT    4.000   SEC.                 
PEAK   VELOCITY   =    15.497      CM/SEC    AT    3.340   SEC.                 
PEAK DISPLACEMENT =     2.777        CM      AT    4.000   SEC.                 
INITIAL VELOCITY  =      .696   CM/SEC;   INITIAL DISPLACEMENT =     .486   CM  
NORTHRIDGE EARTHQUAKE     JANUARY 17, 1994 04:31 PST                            
                                                                                
24207-C0157-94019.02      PACOIMA RESERVOIR - PACOIMA DAM   CHAN 10: UP         
                                                                                
   10    1   10   11   20    0    1    1    1 2048    0    0    0    0    0    0
    0    0    0    0    0    0    0    0    0    0  500 2227   21   31   52    0
    0    0    0    0    0    0    0    0    0    0    0    0    0    0    0    0
    0    0 2227 2227  551    4   10   10    0    0   52   76   10   10    0  551
    0  551    0    0    0    0    0    0    0    0    0    0    0    0    0    0
    0    0    0    0    0    0    0    0    0    0    0    0    0    0    0    0
    0    0    0    0
      .019      .640    11.000      .051     1.000     1.700     -.411     4.003
    52.700    50.000     2.941    50.000     4.939      .118     4.745     5.152
      .000      .000      .000      .000      .000      .000      .000      .000
      .000      .000      .000      .000      .000      .000      .000      .000
      .000      .000      .000      .000      .000      .000      .000      .000
      .000      .000      .000      .000      .000      .000      .000      .000
      .000      .000      .000    98.066      .005    11.000   331.124      .000
      .000    25.000     2.000    11.000      .020      .160      .080      .000
     4.000  -398.751     3.340    15.497     4.000     2.777      .696      .160
    23.000      .020      .020      .486      .000      .000      .000      .000
      .000      .000      .000      .000      .000      .000      .000      .000
      .000      .000      .000      .000      .000      .000      .000      .000
      .000      .000      .000      .000
  551 POINTS OF ACCEL DATA EQUALLY SPACED AT  .020 SEC.  (UNITS: CM/SEC/SEC)    
    -3.635    -8.811   -11.293   -14.865   -13.346   -20.857   -30.942   -27.851
    -1.393    50.651    64.741    62.587    36.681     7.340    -6.865   -31.573
   -77.008  -102.891   -72.437    -1.751    57.688    94.111    98.153    44.854
    20.947   -11.991   -11.782   -17.614   -21.514   -37.229   -53.003   -22.384
    -1.178    13.030   -11.407   -16.739     2.958    10.884    11.189     8.615
   -16.311   -18.063    -9.266    -7.962     6.260     4.244   -18.907   -13.875
    12.842    39.266    44.393    12.403      .634    -3.496     -.550   -19.985
   -44.615   -44.619   -17.228    17.993    26.374    40.201    15.959     5.803
     2.299    21.411    22.928    13.827      .252   -19.998   -30.964   -49.471
   -16.123    15.085    21.698   -14.571   -33.004   -36.314     1.764    25.668
     5.551   -32.237   -36.330     7.426     7.993    21.371    17.049   -11.194
    -3.034     -.647    33.202    44.756    16.222    11.314     5.810    36.469
    27.199   -21.558   -29.821   -42.333   -41.725   -54.076   -38.719    -1.040
    39.463    69.041    42.162    23.085   -16.818   -29.481   -36.236   -26.674
     -.076   -11.694    32.961    40.987    50.259    51.739     5.606    -2.555
   -35.389   -52.775   -39.071   -40.646   -15.448    19.743    11.380    -5.003
   -28.591    -1.904    26.023    17.076      .135   -18.291   -10.564     7.008
    28.410    12.189   -19.431   -10.653   -11.594   -15.347    -8.061   -11.951
     5.695    11.343    12.914     1.486   -10.127     9.646    23.470    51.227
    49.537    44.657    53.807    63.641    73.213    73.021    65.197    49.467
    37.263    37.433    39.628    57.864    64.480    64.017    53.157     3.484
   -44.833   -85.773  -103.504  -114.321  -104.216  -109.723  -110.620   -97.232
   -90.646   -83.664   -54.690   -51.295   -40.811    28.953    43.078   101.400
   128.935   145.053   151.291   127.351   125.768   137.727   -24.479   -45.300
   -83.165   -83.818   -27.533  -172.349    16.781    57.857    89.522  -231.492
  -398.751  -240.639  -222.999   -37.482   139.422   205.590   175.991   173.472
   155.092   150.961   107.486    53.976   -36.584    58.623    13.321   -60.747
   -89.673  -163.690  -191.721  -158.589   -48.718   -63.716    14.942   -59.711
     7.124    36.478    34.656    35.141    28.104    31.734    36.277    52.927
    23.262    50.626    68.692   102.997    95.551    44.861   -32.563   -50.338
   -39.828   -47.435   -55.218   -54.438   -52.220   -37.196   -22.832    -5.407
    19.801    24.815    11.906   -12.263   -15.426   -15.121   -38.358   -51.889
   -58.733   -37.768   -18.620   -16.860    -9.774   -18.477   -14.937    12.870
    33.294    41.216    42.763    41.572    52.499    59.868    38.055    17.073
    -3.566   -20.092   -12.307    -1.145   -10.796   -16.858   -21.056   -28.036
   -17.007   -11.359     6.195    18.177     7.400    -7.595   -19.370     5.439
    31.657    31.453    15.586     2.749     -.975    -4.633   -10.432    -3.144
    -1.237   -13.029    -3.175   -10.687    -5.411    -6.266    -7.813     6.310
     7.781    15.740    17.307    18.478    18.772    19.580     8.174    -4.018
     1.707     3.737     3.942    13.798    16.490    13.066    15.916    16.907
    -1.916    -6.430    -3.646    12.751    17.091     6.653     2.950    -3.898
    14.105    39.592    39.181    28.281    21.560    11.391    10.307    22.596
    31.376    14.155   -17.493   -45.356   -57.673   -50.681   -41.368   -18.787
    -1.102   -22.418   -26.188   -19.312   -24.393   -39.975   -62.092   -73.703
   -58.875   -34.918   -35.376   -13.161    19.145    36.210    51.274    51.601
    46.793    33.278    24.015    34.536    34.674    31.390    26.296    18.408
     5.322    -6.372   -20.350   -18.837   -16.907   -25.901   -31.298   -42.215
   -50.477   -43.398   -15.938     1.709    -4.143    -5.948    -2.684     4.272
     1.172   -26.385   -33.711   -31.455    -9.706    19.268    50.711    72.942
    69.178    71.889    68.625    50.167    32.605    31.093    29.402    19.948
    17.743    19.224    20.487    14.879    -1.170    -7.836    -4.726   -13.692
   -13.882    -2.212     1.851    17.150    26.501    17.852    16.138    17.428
    14.049    -9.889   -30.264   -36.121   -45.572   -45.395   -50.699   -41.528
   -31.768   -34.417   -34.806   -36.366   -39.012   -42.215   -36.017   -30.368
   -22.846   -10.203      .621     5.166     7.076    15.281    20.405    21.768
    12.640     2.055     6.434    17.697    30.553    32.482    24.726    16.401
    17.372    15.917    18.121    17.399     5.038     -.600    -5.211    -7.252
    -4.729     1.747     2.494     -.647   -13.570   -22.131   -25.724   -24.917
   -19.335   -18.805    -6.650     4.766    12.390    11.849     3.860    -6.641
   -12.388    -9.635    -8.423   -13.338    -9.526    -2.416     -.663     2.254
    -2.232    -8.925   -12.667   -13.252   -13.444   -14.541   -14.096   -14.902
    -9.908     1.441    10.392    13.557     9.273     5.445     4.983      .851
    -1.925    -5.305    -3.462    -2.127    -6.381    -5.274    -3.862    -8.172
   -10.475    -9.897    -8.658    -2.410    -1.376     1.163     2.328     4.113
    10.733    17.487    20.341    23.952    26.866    28.359    26.427    22.384
    12.803     3.788     4.485     8.036    12.684    13.060     8.247     3.280
     -.194    -3.097    -3.958    -5.011    -1.666     2.971     3.401     1.908
     4.200     5.520     5.851     -.559    -4.680    -3.943    -4.832    -7.357
    -7.393    -4.224    -5.721    -5.772    -3.503     1.694     4.646
