CORRECTED ACCELEROGRAM   24207-C0157-94019.02       CHAN  8: RAD         FROM   
UNCORRECTED ACCELEROGRAM DATA              PROCESSED: 06/16/94, CDMG QN94207A   
NORTHRIDGE EARTHQUAKE                                                           
JANUARY 17, 1994 04:31 PST              (ORIGIN(CIT): 01/17/94, 12:30:55.4 GMT) 
24207-C0157-94019.02                                                            
STATION NO. 24207   34.334N, 118.396W     CRA-1  S/N 0157 (11 CHNS OF 20 AT STA)
PACOIMA RESERVOIR - PACOIMA DAM                                                 
CHAN  8: RAD      (STA CHN:  8)     LOCATION: 80% HEIGHT: LEFT 1/4-LENGTH POINT 
NORTHRIDGE EARTHQUAKE     JANUARY 17, 1994 04:31 PST                            
HYPOCENTER(CIT): 34.215N, 118.538W, H=18KM. ML=6.6, MW=6.7(CIT); MS=6.7(NEIC)   
INSTR PERIOD =  .0194 SEC,  DAMPING =  .620,  SENSITIVITY = 1.72 CM/G.          
                        RECORD LENGTH = 11.000 SEC.                             
                                     UNCOR MAX  = -1.540 G, AT   4.256 SEC.     
RMS ACCEL OF (UNCOR) RECORD  =  .153 G.                                         
ACCELEROGRAM BANDPASS FILTERED WITH RAMPS AT  .080- .160 AND 23.00-25.00 CYC/SEC
   551 POINTS OF INSTRUMENT- AND BASELINE-CORRECTED ACCEL, VELOC AND DISPL DATA 
AT EQUALLY-SPACED INTERVALS OF    .020  SEC.                                    
PEAK ACCELERATION = -1282.774    CM/SEC/SEC  AT    4.260   SEC.                 
PEAK   VELOCITY   =    70.786      CM/SEC    AT    4.180   SEC.                 
PEAK DISPLACEMENT =     8.022        CM      AT    4.260   SEC.                 
INITIAL VELOCITY  =    -1.428   CM/SEC;   INITIAL DISPLACEMENT =     .956   CM  
NORTHRIDGE EARTHQUAKE     JANUARY 17, 1994 04:31 PST                            
                                                                                
24207-C0157-94019.02      PACOIMA RESERVOIR - PACOIMA DAM   CHAN  8: RAD        
                                                                                
    8    1    8   11   20    0    1    1    1 2048    0    0    0    0    0    0
    0    0    0    0    0    0    0    0    0    0  700 2226   21   31   52    0
    0    0    0    0    0    0    0    0    0    0    0    0    0    0    0    0
    0    0 2226 2226  551    4   10   10    0    0   52   76   10   10    0  551
    0  551    0    0    0    0    0    0    0    0    0    0    0    0    0    0
    0    0    0    0    0    0    0    0    0    0    0    0    0    0    0    0
    0    0    0    0
      .019      .620    11.000      .153     1.000     1.720    -1.540     4.256
    51.500    50.000     2.907    50.000     4.941      .155     4.677     9.686
      .000      .000      .000      .000      .000      .000      .000      .000
      .000      .000      .000      .000      .000      .000      .000      .000
      .000      .000      .000      .000      .000      .000      .000      .000
      .000      .000      .000      .000      .000      .000      .000      .000
      .000      .000      .000    98.066      .005    11.000   330.694      .000
      .000    25.000     2.000    11.000      .020      .160      .080      .000
     4.260 -1282.774     4.180    70.786     4.260     8.022    -1.428      .160
    23.000      .020      .020      .956      .000      .000      .000      .000
      .000      .000      .000      .000      .000      .000      .000      .000
      .000      .000      .000      .000      .000      .000      .000      .000
      .000      .000      .000      .000
  551 POINTS OF ACCEL DATA EQUALLY SPACED AT  .020 SEC.  (UNITS: CM/SEC/SEC)    
   -10.176    -6.004    -3.470     3.180     9.139     9.563     5.734      .012
    -5.122    -9.110     6.439    10.946     4.675   -11.678   -24.468   -18.307
    -2.636     9.693    23.270    40.706    39.604    33.615    12.738   -36.824
  -105.896   -82.669   -43.080    -9.886    50.175   108.782   123.093    75.556
    40.057   -38.426  -130.135  -147.334   -91.023   -17.039    64.006   110.776
    86.181    20.859    24.155    10.238   -71.614   -68.979   -15.446     4.138
    23.287    22.939    10.597    16.438   -17.670   -52.996   -34.947    20.529
    41.662    47.517    63.091    60.479    26.319   -49.784  -112.560  -124.637
   -49.699     8.647    48.541    95.759   111.865    90.691     4.156   -59.408
   -71.364   -81.538   -74.016   -17.055    25.844    38.272     8.224    44.853
    76.476     5.010   -35.506   -14.478   -18.011   -41.159    -7.564    -1.435
   -12.041    17.096    -1.439   -51.535   -40.489    13.177    59.978    67.741
    39.984    16.246    -5.423   -47.140   -70.686   -48.082    -8.628    37.360
    53.368    54.393    35.746   -36.528   -71.801   -58.887   -23.116    -5.174
    34.108   109.022    92.902    58.253    -2.633   -75.563  -100.720  -128.652
  -102.931   -33.473    51.722   138.082   155.063   126.654    81.010   -33.319
  -133.876  -154.288  -148.932   -99.787    31.154   112.311    90.579    81.239
    83.790     8.723   -82.923   -85.587   -29.435   -18.008    20.197    66.169
    49.013    47.873    38.550    -5.189   -61.813   -61.321   -21.750   -11.765
    23.158    36.042    11.873    17.733    -4.874   -38.116   -33.930   -18.959
   -12.778     7.020    32.820    35.372    48.963    46.373    20.227   -16.353
   -58.915   -48.062   -18.643    -3.566    -1.649     8.737     5.478   -32.676
   -39.996   -49.771   -49.692   -63.597   -48.989   -36.644    87.354   257.476
   340.442   344.891   189.330   -32.341  -409.057  -503.430  -284.070  -154.372
    22.521    26.781   -71.934    46.300   145.626   135.745    -8.424    30.115
    -7.087   171.662   315.182   423.247   551.229   659.532   576.174   633.097
   359.526  -101.723  -758.183 -1162.304  -776.768 -1282.774  -679.441   344.032
   564.488   136.277  -221.016   -43.894   201.573   178.892   -88.294  -216.548
  -329.817  -228.792  -167.740    -2.005   146.214   213.889   367.884   274.419
   154.584   138.146    61.733  -113.000  -235.110  -178.057   -98.832    11.922
    62.249    21.131   -64.212   -43.789   -31.381   -91.162   -17.280   124.337
   192.766   153.012   114.958    66.889   -19.169  -110.065  -186.333  -225.124
  -164.275   -62.346   -63.292   -51.460     5.504     8.968    12.730    59.385
    90.975    56.440    -6.192   -50.064   -67.355   -35.586    11.115    40.930
    72.125   111.265   134.023   124.054    91.423    55.698    19.933    11.548
    11.226     5.147   -13.077   -14.745   -10.934   -13.756     9.076     4.779
     4.552    12.909    12.811    -4.361    -5.399     2.557     -.641     5.243
   -12.759   -79.942  -117.310   -89.770   -91.569   -90.381   -78.867   -52.460
   -13.269    31.810    92.679   135.331   150.588   106.232    32.340   -77.389
  -162.114  -135.293   -74.026   -81.139   -66.453   -37.278   -17.859      .235
    35.887    76.421    57.055    11.788   -27.934   -41.645   -36.329    -2.460
    22.536    46.848    92.324   128.049   157.667   187.138   165.391   107.774
    31.117   -53.411  -101.931   -68.476     4.265    22.045    55.068    76.358
   122.945   170.826   201.781   237.937   202.535   124.144    54.645   -38.007
  -179.565  -217.215  -215.118  -265.239  -301.271  -270.049  -275.805  -275.390
  -199.351   -91.249    22.211    88.148   127.018   152.615   176.668   190.582
   199.070   181.666    82.734   -27.879  -127.740  -219.461  -199.912  -137.822
   -99.781   -42.964    13.705    51.892    66.617    57.598   110.349   175.695
   160.868   111.070    67.017    62.755    56.352    28.930     9.270   -39.884
   -90.313  -123.629  -125.610   -66.038    13.749    59.541    71.346   133.425
   138.757   185.256   193.025    99.154   -23.911  -162.032  -207.756  -152.762
   -73.320   -69.960   -62.064   -27.894    14.141    21.358    31.845    94.389
   139.613   107.987    65.775    29.962   -24.738  -108.845  -153.163  -135.336
   -83.177   -27.745    15.757    34.328    44.985    50.202    42.223    36.130
      .162   -57.305   -63.328   -38.257   -28.751   -29.880   -28.960    -4.732
    22.806    62.544    82.495    67.965    24.663   -23.897   -75.527  -120.594
  -135.036  -124.984   -95.123   -49.292    -9.229    21.711    60.268    84.486
   115.946   125.646   102.339    51.441   -37.036  -108.211  -123.556   -90.620
   -64.830   -33.086    -3.534    51.281    89.129   112.284   119.718    68.801
     2.483   -71.906   -84.840   -74.814   -70.865   -66.564   -45.362     4.266
    42.535    74.526   100.318    82.306    50.237    29.618    13.633     5.857
   -17.998   -47.077   -49.563   -37.081   -12.607     9.294    22.726    16.913
      .839    -3.157     5.562    16.508    16.307    20.310    24.389    20.821
    15.961    10.727      .233   -27.417   -67.844   -98.450   -89.614   -60.023
   -40.200   -24.056    -3.373    30.393    59.491    69.924    45.075     8.900
   -17.057   -25.333   -24.613   -27.883   -26.105   -18.461     8.711    37.754
    50.372    35.654     5.648   -15.532   -19.004   -26.673   -44.084   -42.615
   -19.344     4.103    17.331    23.075    32.332    37.158    32.292     1.622
   -25.208   -17.061      .023    15.186    24.041    28.426    26.417
