RESPONSE AND FOURIER AMPLITUDE SPECTRA (83 PERIODS,  .04 -  8.5 SEC)   FOR      
CORRECTED ACCELEROGRAM   24207-C0157-94019.02       CHAN  9: RAD         FROM   
UNCORRECTED ACCELEROGRAM DATA              PROCESSED: 06/16/94, CDMG QN94207A   
NORTHRIDGE EARTHQUAKE                                                           
JANUARY 17, 1994 04:31 PST              (ORIGIN(CIT): 01/17/94, 12:30:55.4 GMT) 
24207-C0157-94019.02                                                            
STATION NO. 24207   34.334N, 118.396W     CRA-1  S/N 0157 (11 CHNS OF 20 AT STA)
PACOIMA RESERVOIR - PACOIMA DAM                                                 
CHAN  9: RAD      (STA CHN:  9)     LOCATION: DAM BASE                          
NORTHRIDGE EARTHQUAKE     JANUARY 17, 1994 04:31 PST                            
HYPOCENTER(CIT): 34.215N, 118.538W, H=18KM. ML=6.6, MW=6.7(CIT); MS=6.7(NEIC)   
INSTR PERIOD =  .0195 SEC,  DAMPING =  .670,  SENSITIVITY = 1.83 CM/G.          
                        RECORD LENGTH = 11.000 SEC.                             
                                     UNCOR MAX  =   .471 G, AT   3.964 SEC.     
RMS ACCEL OF (UNCOR) RECORD  =  .058 G.                                         
ACCELEROGRAM BANDPASS FILTERED WITH RAMPS AT  .080- .160 AND 23.00-25.00 CYC/SEC
                 INSTRUMENT- AND BASELINE-CORRECTED                             
                                                                                
                                                                                
                                                                                
                                                                                
                                                                                
NORTHRIDGE EARTHQUAKE     JANUARY 17, 1994 04:31 PST                            
                                                                                
24207-C0157-94019.02      PACOIMA RESERVOIR - PACOIMA DAM   CHAN  9: RAD        
                                                                                
24207-C0157-94019.02      PACOIMA RESERVOIR - PACOIMA DAM   CHAN  9: RAD        
                                                                                
UNITS FOR SPECTRA ARE INCHES AND SEC, EXCEPT SA IS IN FRACTION OF G.            
                                                                                
    9    1    9   11   20    0    1    1    1 2048    0    0    0    0    0    0
    0    0    0    0    0    0    0    0    0    0  700 2227   21   31   52    0
    0    0    0    0    0    0    0    0    0    0    0    0    0    0    0    0
    0    0 2227 2227  551    4   10   10    0    0   52   76   10   10    0  551
    0  551   77   83    5    0    0    0    0    0    0    0    0    0    0    0
    0    0    0    0    0    0    0    0    0    0    0    0    0    0    0    0
    0    0    0    0
      .019      .670    11.000      .058     1.000     1.830      .471     3.964
    51.400    50.000     2.732    50.000     4.939      .115     4.745     5.132
      .000      .000      .000      .000      .000      .000      .000      .000
      .000      .000      .000      .000      .000      .000      .000      .000
      .000      .000      .000      .000      .000      .000      .000      .000
      .000      .000      .000      .000      .000      .000      .000      .000
      .000      .000      .000    98.066      .005    11.000   330.694      .000
      .000    25.000     2.000    11.000      .020      .160      .080      .000
     3.960   429.355     4.020    31.525     6.620    -4.560      .140      .160
    23.000      .020      .020     -.147      .000      .000      .000      .000
      .000      .000      .000      .000      .000      .000      .000      .000
      .000      .000      .000      .000      .000      .000      .000      .000
      .000      .000      .000      .000
      .000      .020      .050      .100      .200
      .040      .042      .044      .046      .048      .050      .055      .060
      .065      .070      .075      .080      .085      .090      .095      .100
      .110      .120      .130      .140      .150      .160      .170      .180
      .190      .200      .220      .240      .260      .280      .300      .320
      .340      .360      .380      .400      .420      .440      .460      .480
      .500      .550      .600      .650      .700      .750      .800      .850
      .900      .950     1.000     1.100     1.200     1.300     1.400     1.500
     1.600     1.700     1.800     1.900     2.000     2.200     2.400     2.600
     2.800     3.000     3.200     3.400     3.600     3.800     4.000     4.200
     4.400     4.600     4.800     5.000     5.500     6.000     6.500     7.000
     7.500     8.000     8.500     9.000     9.500    10.000    11.000    12.000
    13.000    14.000    15.000      .000      .000      .000      .000      .000
      .000      .000      .000      .000
FOURIER AMPLITUDE SPECTRA IN IN/SEC.                                            
  .661E-01  .809E+00  .363E+00  .138E+01  .739E+00  .115E+01  .103E+01  .595E+00
  .921E+00  .236E+01  .696E+00  .115E+01  .257E+01  .154E+01  .169E+01  .633E+00
  .255E+01  .261E+01  .276E+01  .366E+01  .235E+01  .351E+01  .419E+01  .108E+02
  .130E+02  .138E+02  .174E+02  .103E+02  .205E+02  .202E+02  .236E+02  .160E+02
  .314E+02  .234E+02  .340E+02  .108E+02  .277E+02  .243E+02  .235E+02  .381E+02
  .333E+02  .297E+02  .265E+02  .257E+02  .341E+02  .222E+02  .128E+01  .160E+02
  .275E+02  .349E+02  .360E+02  .249E+02  .184E+02  .246E+02  .292E+02  .256E+02
  .166E+02  .705E+01  .647E+00  .446E+01  .649E+01  .782E+01  .873E+01  .959E+01
  .101E+02  .104E+02  .104E+02  .101E+02  .951E+01  .870E+01  .776E+01  .675E+01
  .576E+01  .482E+01  .397E+01  .321E+01  .174E+01  .802E+00  .332E+00  .355E+00
  .484E+00  .557E+00  .582E+00  .000E+00  .000E+00  .000E+00  .000E+00  .000E+00
  .000E+00  .000E+00  .000E+00  .000E+00  .000E+00  .000E+00  .000E+00  .000E+00
  .000E+00  .000E+00  .000E+00  .000E+00
DAMPING =  .00. DATA OF SD,SV,SA,PSSV,TTSD,TTSV,TTSA :                          
  .724E-02  .967E-02  .107E-01  .137E-01  .117E-01  .154E-01  .177E-01  .162E-01
  .244E-01  .362E-01  .324E-01  .394E-01  .494E-01  .427E-01  .454E-01  .473E-01
  .627E-01  .736E-01  .112E+00  .136E+00  .153E+00  .192E+00  .247E+00  .362E+00
  .482E+00  .623E+00  .720E+00  .647E+00  .102E+01  .949E+00  .119E+01  .120E+01
  .174E+01  .160E+01  .210E+01  .175E+01  .214E+01  .203E+01  .216E+01  .303E+01
  .299E+01  .324E+01  .256E+01  .270E+01  .419E+01  .283E+01  .254E+01  .255E+01
  .435E+01  .535E+01  .571E+01  .471E+01  .428E+01  .536E+01  .649E+01  .611E+01
  .464E+01  .360E+01  .285E+01  .292E+01  .293E+01  .310E+01  .426E+01  .482E+01
  .572E+01  .635E+01  .626E+01  .567E+01  .549E+01  .530E+01  .493E+01  .451E+01
  .403E+01  .394E+01  .384E+01  .370E+01  .328E+01  .288E+01  .253E+01  .227E+01
  .208E+01  .193E+01  .183E+01  .000E+00  .000E+00  .000E+00  .000E+00  .000E+00
  .000E+00  .000E+00  .000E+00  .000E+00  .000E+00  .000E+00  .000E+00  .000E+00
  .000E+00  .000E+00  .000E+00  .000E+00
  .454E+00  .861E+00  .836E+00  .143E+01  .132E+01  .117E+01  .115E+01  .621E+00
  .146E+01  .256E+01  .133E+01  .174E+01  .285E+01  .225E+01  .194E+01  .196E+01
  .272E+01  .280E+01  .356E+01  .408E+01  .477E+01  .639E+01  .754E+01  .118E+02
  .151E+02  .182E+02  .198E+02  .164E+02  .245E+02  .211E+02  .237E+02  .229E+02
  .318E+02  .266E+02  .347E+02  .262E+02  .323E+02  .287E+02  .297E+02  .396E+02
  .375E+02  .348E+02  .268E+02  .260E+02  .380E+02  .224E+02  .191E+02  .185E+02
  .299E+02  .353E+02  .358E+02  .269E+02  .217E+02  .260E+02  .291E+02  .256E+02
  .199E+02  .188E+02  .158E+02  .120E+02  .110E+02  .111E+02  .135E+02  .150E+02
  .146E+02  .132E+02  .155E+02  .166E+02  .168E+02  .164E+02  .156E+02  .147E+02
  .140E+02  .140E+02  .140E+02  .139E+02  .138E+02  .136E+02  .135E+02  .134E+02
  .133E+02  .132E+02  .131E+02  .000E+00  .000E+00  .000E+00  .000E+00  .000E+00
  .000E+00  .000E+00  .000E+00  .000E+00  .000E+00  .000E+00  .000E+00  .000E+00
  .000E+00  .000E+00  .000E+00  .000E+00
  .463E+00  .561E+00  .566E+00  .664E+00  .519E+00  .630E+00  .598E+00  .462E+00
  .592E+00  .755E+00  .589E+00  .630E+00  .699E+00  .539E+00  .515E+00  .483E+00
  .530E+00  .523E+00  .680E+00  .710E+00  .696E+00  .765E+00  .873E+00  .114E+01
  .136E+01  .159E+01  .152E+01  .115E+01  .155E+01  .124E+01  .136E+01  .120E+01
  .154E+01  .126E+01  .149E+01  .112E+01  .124E+01  .107E+01  .104E+01  .134E+01
  .123E+01  .110E+01  .728E+00  .654E+00  .875E+00  .514E+00  .406E+00  .362E+00
  .550E+00  .606E+00  .584E+00  .398E+00  .304E+00  .324E+00  .339E+00  .278E+00
  .185E+00  .127E+00  .899E-01  .828E-01  .748E-01  .655E-01  .756E-01  .729E-01
  .747E-01  .722E-01  .626E-01  .502E-01  .433E-01  .375E-01  .315E-01  .261E-01
  .213E-01  .190E-01  .170E-01  .151E-01  .111E-01  .817E-02  .614E-02  .474E-02
  .377E-02  .309E-02  .259E-02  .000E+00  .000E+00  .000E+00  .000E+00  .000E+00
  .000E+00  .000E+00  .000E+00  .000E+00  .000E+00  .000E+00  .000E+00  .000E+00
  .000E+00  .000E+00  .000E+00  .000E+00
  .114E+01  .145E+01  .153E+01  .188E+01  .153E+01  .194E+01  .202E+01  .170E+01
  .236E+01  .325E+01  .271E+01  .310E+01  .365E+01  .298E+01  .300E+01  .297E+01
  .358E+01  .385E+01  .543E+01  .611E+01  .641E+01  .752E+01  .911E+01  .126E+02
  .159E+02  .196E+02  .205E+02  .169E+02  .247E+02  .213E+02  .250E+02  .235E+02
  .321E+02  .279E+02  .347E+02  .275E+02  .320E+02  .290E+02  .295E+02  .397E+02
  .376E+02  .370E+02  .268E+02  .261E+02  .376E+02  .237E+02  .200E+02  .189E+02
  .304E+02  .354E+02  .359E+02  .269E+02  .224E+02  .259E+02  .291E+02  .256E+02
  .182E+02  .133E+02  .994E+01  .966E+01  .920E+01  .886E+01  .112E+02  .116E+02
  .128E+02  .133E+02  .123E+02  .105E+02  .958E+01  .877E+01  .775E+01  .675E+01
  .575E+01  .538E+01  .503E+01  .465E+01  .375E+01  .301E+01  .245E+01  .204E+01
  .174E+01  .152E+01  .135E+01  .000E+00  .000E+00  .000E+00  .000E+00  .000E+00
  .000E+00  .000E+00  .000E+00  .000E+00  .000E+00  .000E+00  .000E+00  .000E+00
  .000E+00  .000E+00  .000E+00  .000E+00
  .396E+01  .396E+01  .397E+01  .708E+01  .397E+01  .397E+01  .397E+01  .396E+01
  .397E+01  .711E+01  .409E+01  .410E+01  .709E+01  .709E+01  .369E+01  .369E+01
  .406E+01  .407E+01  .409E+01  .394E+01  .396E+01  .397E+01  .407E+01  .409E+01
  .714E+01  .432E+01  .590E+01  .510E+01  .686E+01  .958E+01  .712E+01  .684E+01
  .102E+02  .704E+01  .102E+02  .418E+01  .778E+01  .422E+01  .424E+01  .980E+01
  .752E+01  .708E+01  .106E+02  .107E+02  .762E+01  .778E+01  .608E+01  .662E+01
  .772E+01  .107E+02  .109E+02  .856E+01  .866E+01  .878E+01  .132E+02  .137E+02
  .710E+01  .714E+01  .662E+01  .592E+01  .598E+01  .964E+01  .780E+01  .796E+01
  .706E+01  .710E+01  .714E+01  .720E+01  .942E+01  .964E+01  .119E+02  .122E+02
  .125E+02  .654E+01  .656E+01  .658E+01  .660E+01  .662E+01  .662E+01  .662E+01
  .662E+01  .662E+01  .662E+01  .000E+00  .000E+00  .000E+00  .000E+00  .000E+00
  .000E+00  .000E+00  .000E+00  .000E+00  .000E+00  .000E+00  .000E+00  .000E+00
  .000E+00  .000E+00  .000E+00  .000E+00
  .426E+01  .446E+01  .414E+01  .771E+01  .439E+01  .465E+01  .455E+01  .399E+01
  .480E+01  .803E+01  .411E+01  .412E+01  .567E+01  .473E+01  .567E+01  .415E+01
  .810E+01  .403E+01  .413E+01  .919E+01  .401E+01  .402E+01  .402E+01  .720E+01
  .719E+01  .716E+01  .584E+01  .504E+01  .692E+01  .952E+01  .720E+01  .692E+01
  .105E+02  .694E+01  .784E+01  .428E+01  .768E+01  .412E+01  .412E+01  .992E+01
  .740E+01  .750E+01  .107E+02  .105E+02  .780E+01  .106E+02  .590E+01  .784E+01
  .930E+01  .994E+01  .106E+02  .882E+01  .838E+01  .846E+01  .135E+02  .125E+02
  .686E+01  .690E+01  .694E+01  .696E+01  .400E+01  .400E+01  .724E+01  .742E+01
  .752E+01  .688E+01  .688E+01  .690E+01  .692E+01  .694E+01  .694E+01  .696E+01
  .400E+01  .400E+01  .400E+01  .400E+01  .400E+01  .400E+01  .400E+01  .400E+01
  .400E+01  .400E+01  .400E+01  .000E+00  .000E+00  .000E+00  .000E+00  .000E+00
  .000E+00  .000E+00  .000E+00  .000E+00  .000E+00  .000E+00  .000E+00  .000E+00
  .000E+00  .000E+00  .000E+00  .000E+00
  .396E+01  .396E+01  .397E+01  .708E+01  .397E+01  .397E+01  .397E+01  .396E+01
  .397E+01  .711E+01  .409E+01  .410E+01  .709E+01  .709E+01  .369E+01  .369E+01
  .406E+01  .407E+01  .409E+01  .394E+01  .396E+01  .397E+01  .407E+01  .409E+01
  .714E+01  .432E+01  .590E+01  .510E+01  .686E+01  .958E+01  .712E+01  .684E+01
  .102E+02  .704E+01  .102E+02  .418E+01  .778E+01  .422E+01  .424E+01  .980E+01
  .752E+01  .708E+01  .106E+02  .107E+02  .762E+01  .778E+01  .608E+01  .662E+01
  .772E+01  .107E+02  .109E+02  .856E+01  .866E+01  .878E+01  .132E+02  .137E+02
  .710E+01  .714E+01  .662E+01  .592E+01  .598E+01  .964E+01  .780E+01  .796E+01
  .706E+01  .710E+01  .714E+01  .720E+01  .942E+01  .964E+01  .119E+02  .122E+02
  .125E+02  .654E+01  .656E+01  .658E+01  .660E+01  .662E+01  .662E+01  .662E+01
  .662E+01  .662E+01  .662E+01  .000E+00  .000E+00  .000E+00  .000E+00  .000E+00
  .000E+00  .000E+00  .000E+00  .000E+00  .000E+00  .000E+00  .000E+00  .000E+00
  .000E+00  .000E+00  .000E+00  .000E+00
DAMPING =  .02. DATA OF SD,SV,SA,PSSV,TTSD,TTSV,TTSA :                          
  .775E-02  .930E-02  .101E-01  .105E-01  .118E-01  .134E-01  .159E-01  .176E-01
  .221E-01  .260E-01  .285E-01  .363E-01  .431E-01  .426E-01  .415E-01  .462E-01
  .502E-01  .685E-01  .845E-01  .116E+00  .140E+00  .176E+00  .240E+00  .331E+00
  .410E+00  .487E+00  .511E+00  .495E+00  .579E+00  .680E+00  .776E+00  .863E+00
  .110E+01  .129E+01  .148E+01  .160E+01  .172E+01  .184E+01  .193E+01  .199E+01
  .203E+01  .209E+01  .207E+01  .194E+01  .306E+01  .218E+01  .213E+01  .213E+01
  .356E+01  .433E+01  .444E+01  .399E+01  .382E+01  .442E+01  .482E+01  .450E+01
  .415E+01  .331E+01  .255E+01  .265E+01  .265E+01  .277E+01  .374E+01  .417E+01
  .527E+01  .585E+01  .580E+01  .530E+01  .472E+01  .460E+01  .420E+01  .371E+01
  .372E+01  .371E+01  .365E+01  .354E+01  .319E+01  .283E+01  .252E+01  .227E+01
  .209E+01  .195E+01  .185E+01  .000E+00  .000E+00  .000E+00  .000E+00  .000E+00
  .000E+00  .000E+00  .000E+00  .000E+00  .000E+00  .000E+00  .000E+00  .000E+00
  .000E+00  .000E+00  .000E+00  .000E+00
  .378E+00  .478E+00  .535E+00  .651E+00  .765E+00  .669E+00  .810E+00  .781E+00
  .110E+01  .981E+00  .970E+00  .145E+01  .207E+01  .215E+01  .210E+01  .224E+01
  .229E+01  .253E+01  .240E+01  .303E+01  .405E+01  .562E+01  .728E+01  .926E+01
  .120E+02  .145E+02  .141E+02  .124E+02  .136E+02  .148E+02  .164E+02  .172E+02
  .203E+02  .218E+02  .232E+02  .240E+02  .250E+02  .267E+02  .275E+02  .277E+02
  .271E+02  .235E+02  .226E+02  .194E+02  .267E+02  .167E+02  .163E+02  .153E+02
  .233E+02  .271E+02  .277E+02  .230E+02  .199E+02  .221E+02  .227E+02  .207E+02
  .179E+02  .171E+02  .147E+02  .115E+02  .110E+02  .111E+02  .126E+02  .137E+02
  .134E+02  .126E+02  .146E+02  .157E+02  .160E+02  .157E+02  .151E+02  .144E+02
  .139E+02  .139E+02  .139E+02  .138E+02  .137E+02  .136E+02  .134E+02  .133E+02
  .132E+02  .131E+02  .131E+02  .000E+00  .000E+00  .000E+00  .000E+00  .000E+00
  .000E+00  .000E+00  .000E+00  .000E+00  .000E+00  .000E+00  .000E+00  .000E+00
  .000E+00  .000E+00  .000E+00  .000E+00
  .496E+00  .539E+00  .533E+00  .506E+00  .522E+00  .548E+00  .540E+00  .500E+00
  .534E+00  .542E+00  .518E+00  .580E+00  .611E+00  .539E+00  .471E+00  .471E+00
  .423E+00  .486E+00  .512E+00  .603E+00  .636E+00  .701E+00  .848E+00  .105E+01
  .117E+01  .124E+01  .109E+01  .873E+00  .874E+00  .888E+00  .886E+00  .863E+00
  .975E+00  .102E+01  .105E+01  .103E+01  .999E+00  .969E+00  .930E+00  .883E+00
  .828E+00  .709E+00  .586E+00  .469E+00  .641E+00  .397E+00  .341E+00  .301E+00
  .450E+00  .490E+00  .454E+00  .337E+00  .272E+00  .268E+00  .252E+00  .205E+00
  .166E+00  .118E+00  .807E-01  .751E-01  .678E-01  .586E-01  .664E-01  .631E-01
  .690E-01  .667E-01  .581E-01  .470E-01  .373E-01  .326E-01  .268E-01  .215E-01
  .197E-01  .180E-01  .163E-01  .145E-01  .108E-01  .809E-02  .615E-02  .480E-02
  .385E-02  .317E-02  .267E-02  .000E+00  .000E+00  .000E+00  .000E+00  .000E+00
  .000E+00  .000E+00  .000E+00  .000E+00  .000E+00  .000E+00  .000E+00  .000E+00
  .000E+00  .000E+00  .000E+00  .000E+00
  .122E+01  .139E+01  .144E+01  .143E+01  .154E+01  .168E+01  .182E+01  .184E+01
  .213E+01  .234E+01  .239E+01  .285E+01  .319E+01  .297E+01  .275E+01  .290E+01
  .287E+01  .359E+01  .408E+01  .519E+01  .587E+01  .691E+01  .887E+01  .116E+02
  .136E+02  .153E+02  .146E+02  .130E+02  .140E+02  .153E+02  .163E+02  .169E+02
  .203E+02  .224E+02  .245E+02  .252E+02  .257E+02  .262E+02  .264E+02  .261E+02
  .255E+02  .239E+02  .216E+02  .187E+02  .275E+02  .183E+02  .168E+02  .157E+02
  .248E+02  .286E+02  .279E+02  .228E+02  .200E+02  .214E+02  .216E+02  .189E+02
  .163E+02  .123E+02  .890E+01  .875E+01  .832E+01  .790E+01  .979E+01  .101E+02
  .118E+02  .122E+02  .114E+02  .979E+01  .824E+01  .760E+01  .659E+01  .555E+01
  .531E+01  .507E+01  .477E+01  .445E+01  .364E+01  .296E+01  .243E+01  .204E+01
  .175E+01  .153E+01  .137E+01  .000E+00  .000E+00  .000E+00  .000E+00  .000E+00
  .000E+00  .000E+00  .000E+00  .000E+00  .000E+00  .000E+00  .000E+00  .000E+00
  .000E+00  .000E+00  .000E+00  .000E+00
  .396E+01  .396E+01  .397E+01  .397E+01  .397E+01  .396E+01  .397E+01  .397E+01
  .397E+01  .409E+01  .409E+01  .410E+01  .411E+01  .411E+01  .412E+01  .398E+01
  .406E+01  .407E+01  .409E+01  .394E+01  .396E+01  .397E+01  .408E+01  .409E+01
  .410E+01  .432E+01  .434E+01  .450E+01  .452E+01  .454E+01  .458E+01  .414E+01
  .416E+01  .416E+01  .418E+01  .418E+01  .420E+01  .422E+01  .424E+01  .426E+01
  .428E+01  .460E+01  .468E+01  .442E+01  .726E+01  .774E+01  .608E+01  .766E+01
  .772E+01  .780E+01  .788E+01  .856E+01  .866E+01  .814E+01  .826E+01  .768E+01
  .710E+01  .712E+01  .586E+01  .592E+01  .598E+01  .764E+01  .780E+01  .794E+01
  .706E+01  .710E+01  .714E+01  .718E+01  .940E+01  .960E+01  .974E+01  .121E+02
  .652E+01  .654E+01  .654E+01  .656E+01  .658E+01  .660E+01  .660E+01  .662E+01
  .662E+01  .660E+01  .660E+01  .000E+00  .000E+00  .000E+00  .000E+00  .000E+00
  .000E+00  .000E+00  .000E+00  .000E+00  .000E+00  .000E+00  .000E+00  .000E+00
  .000E+00  .000E+00  .000E+00  .000E+00
  .426E+01  .446E+01  .414E+01  .426E+01  .438E+01  .398E+01  .399E+01  .399E+01
  .399E+01  .400E+01  .399E+01  .412E+01  .413E+01  .414E+01  .415E+01  .415E+01
  .402E+01  .403E+01  .414E+01  .390E+01  .401E+01  .402E+01  .403E+01  .414E+01
  .416E+01  .426E+01  .440E+01  .444E+01  .458E+01  .462E+01  .464E+01  .422E+01
  .424E+01  .424E+01  .426E+01  .410E+01  .412E+01  .412E+01  .412E+01  .414E+01
  .414E+01  .448E+01  .452E+01  .400E+01  .744E+01  .618E+01  .590E+01  .786E+01
  .748E+01  .804E+01  .764E+01  .770E+01  .838E+01  .846E+01  .724E+01  .732E+01
  .686E+01  .690E+01  .692E+01  .694E+01  .400E+01  .400E+01  .724E+01  .742E+01
  .746E+01  .400E+01  .688E+01  .690E+01  .690E+01  .692E+01  .694E+01  .694E+01
  .400E+01  .400E+01  .400E+01  .400E+01  .400E+01  .400E+01  .400E+01  .400E+01
  .400E+01  .400E+01  .400E+01  .000E+00  .000E+00  .000E+00  .000E+00  .000E+00
  .000E+00  .000E+00  .000E+00  .000E+00  .000E+00  .000E+00  .000E+00  .000E+00
  .000E+00  .000E+00  .000E+00  .000E+00
  .396E+01  .396E+01  .397E+01  .397E+01  .397E+01  .396E+01  .397E+01  .397E+01
  .397E+01  .409E+01  .409E+01  .410E+01  .411E+01  .411E+01  .412E+01  .398E+01
  .406E+01  .407E+01  .409E+01  .394E+01  .396E+01  .397E+01  .408E+01  .409E+01
  .410E+01  .432E+01  .434E+01  .450E+01  .452E+01  .454E+01  .456E+01  .414E+01
  .414E+01  .416E+01  .418E+01  .418E+01  .420E+01  .422E+01  .424E+01  .424E+01
  .428E+01  .460E+01  .466E+01  .442E+01  .726E+01  .774E+01  .608E+01  .766E+01
