RESPONSE AND FOURIER AMPLITUDE SPECTRA (83 PERIODS,  .04 -  8.5 SEC)   FOR      
CORRECTED ACCELEROGRAM   24207-C0157-94019.02       CHAN 11: TAN         FROM   
UNCORRECTED ACCELEROGRAM DATA              PROCESSED: 06/16/94, CDMG QN94207A   
NORTHRIDGE EARTHQUAKE                                                           
JANUARY 17, 1994 04:31 PST              (ORIGIN(CIT): 01/17/94, 12:30:55.4 GMT) 
24207-C0157-94019.02                                                            
STATION NO. 24207   34.334N, 118.396W     CRA-1  S/N 0157 (11 CHNS OF 20 AT STA)
PACOIMA RESERVOIR - PACOIMA DAM                                                 
CHAN 11: TAN      (STA CHN: 11)     LOCATION: DAM BASE                          
NORTHRIDGE EARTHQUAKE     JANUARY 17, 1994 04:31 PST                            
HYPOCENTER(CIT): 34.215N, 118.538W, H=18KM. ML=6.6, MW=6.7(CIT); MS=6.7(NEIC)   
INSTR PERIOD =  .0187 SEC,  DAMPING =  .730,  SENSITIVITY = 1.78 CM/G.          
                        RECORD LENGTH = 11.000 SEC.                             
                                     UNCOR MAX  =   .540 G, AT   3.756 SEC.     
RMS ACCEL OF (UNCOR) RECORD  =  .087 G.                                         
ACCELEROGRAM BANDPASS FILTERED WITH RAMPS AT  .080- .160 AND 23.00-25.00 CYC/SEC
                 INSTRUMENT- AND BASELINE-CORRECTED                             
                                                                                
                                                                                
                                                                                
                                                                                
                                                                                
NORTHRIDGE EARTHQUAKE     JANUARY 17, 1994 04:31 PST                            
                                                                                
24207-C0157-94019.02      PACOIMA RESERVOIR - PACOIMA DAM   CHAN 11: TAN        
                                                                                
24207-C0157-94019.02      PACOIMA RESERVOIR - PACOIMA DAM   CHAN 11: TAN        
                                                                                
UNITS FOR SPECTRA ARE INCHES AND SEC, EXCEPT SA IS IN FRACTION OF G.            
                                                                                
   11    1   11   11   20    0    1    1    1 2048    0    0    0    0    0    0
    0    0    0    0    0    0    0    0    0    0  800 2227   21   31   52    0
    0    0    0    0    0    0    0    0    0    0    0    0    0    0    0    0
    0    0 2227 2227  551    4   10   10    0    0   52   76   10   10    0  551
    0  551   77   83    5    0    0    0    0    0    0    0    0    0    0    0
    0    0    0    0    0    0    0    0    0    0    0    0    0    0    0    0
    0    0    0    0
      .019      .730    11.000      .087     1.000     1.780      .540     3.756
    53.500    50.000     2.809    50.000     4.939      .116     4.745     5.152
      .000      .000      .000      .000      .000      .000      .000      .000
      .000      .000      .000      .000      .000      .000      .000      .000
      .000      .000      .000      .000      .000      .000      .000      .000
      .000      .000      .000      .000      .000      .000      .000      .000
      .000      .000      .000    98.066      .005    11.000   336.150      .000
      .000    25.000     2.000    11.000      .020      .160      .080      .000
     3.760   518.433     3.620   -49.007     3.460     6.472    -2.072      .160
    23.000      .020      .020      .596      .000      .000      .000      .000
      .000      .000      .000      .000      .000      .000      .000      .000
      .000      .000      .000      .000      .000      .000      .000      .000
      .000      .000      .000      .000
      .000      .020      .050      .100      .200
      .040      .042      .044      .046      .048      .050      .055      .060
      .065      .070      .075      .080      .085      .090      .095      .100
      .110      .120      .130      .140      .150      .160      .170      .180
      .190      .200      .220      .240      .260      .280      .300      .320
      .340      .360      .380      .400      .420      .440      .460      .480
      .500      .550      .600      .650      .700      .750      .800      .850
      .900      .950     1.000     1.100     1.200     1.300     1.400     1.500
     1.600     1.700     1.800     1.900     2.000     2.200     2.400     2.600
     2.800     3.000     3.200     3.400     3.600     3.800     4.000     4.200
     4.400     4.600     4.800     5.000     5.500     6.000     6.500     7.000
     7.500     8.000     8.500     9.000     9.500    10.000    11.000    12.000
    13.000    14.000    15.000      .000      .000      .000      .000      .000
      .000      .000      .000      .000
FOURIER AMPLITUDE SPECTRA IN IN/SEC.                                            
  .347E-01  .293E+00  .126E+01  .729E+00  .531E+00  .152E+01  .251E+00  .106E+01
  .485E+00  .688E+00  .327E+01  .195E+01  .262E+01  .133E+01  .103E+01  .581E+00
  .410E+01  .555E+01  .431E+01  .301E+01  .940E+00  .176E+01  .491E+01  .782E+01
  .123E+01  .538E+01  .484E+01  .109E+02  .135E+02  .163E+02  .354E+02  .392E+02
  .316E+02  .327E+02  .550E+02  .467E+02  .752E+02  .722E+02  .707E+02  .732E+02
  .716E+02  .411E+02  .422E+02  .312E+02  .283E+02  .539E+01  .292E+02  .285E+02
  .821E+01  .144E+02  .290E+02  .359E+02  .169E+02  .703E+01  .190E+02  .204E+02
  .186E+02  .166E+02  .136E+02  .940E+01  .508E+01  .907E+01  .172E+02  .224E+02
  .245E+02  .243E+02  .225E+02  .198E+02  .166E+02  .134E+02  .103E+02  .756E+01
  .513E+01  .308E+01  .141E+01  .620E+00  .266E+01  .390E+01  .442E+01  .450E+01
  .433E+01  .404E+01  .369E+01  .000E+00  .000E+00  .000E+00  .000E+00  .000E+00
  .000E+00  .000E+00  .000E+00  .000E+00  .000E+00  .000E+00  .000E+00  .000E+00
  .000E+00  .000E+00  .000E+00  .000E+00
DAMPING =  .00. DATA OF SD,SV,SA,PSSV,TTSD,TTSV,TTSA :                          
  .850E-02  .102E-01  .123E-01  .127E-01  .127E-01  .160E-01  .171E-01  .247E-01
  .257E-01  .289E-01  .485E-01  .478E-01  .469E-01  .480E-01  .592E-01  .686E-01
  .957E-01  .119E+00  .121E+00  .148E+00  .167E+00  .178E+00  .233E+00  .318E+00
  .279E+00  .340E+00  .449E+00  .643E+00  .747E+00  .109E+01  .169E+01  .207E+01
  .243E+01  .269E+01  .339E+01  .382E+01  .537E+01  .533E+01  .555E+01  .598E+01
  .630E+01  .521E+01  .410E+01  .356E+01  .366E+01  .345E+01  .427E+01  .395E+01
  .300E+01  .331E+01  .483E+01  .629E+01  .363E+01  .344E+01  .425E+01  .585E+01
  .626E+01  .533E+01  .391E+01  .368E+01  .372E+01  .403E+01  .660E+01  .939E+01
  .111E+02  .118E+02  .114E+02  .107E+02  .953E+01  .810E+01  .659E+01  .600E+01
  .584E+01  .561E+01  .532E+01  .498E+01  .440E+01  .435E+01  .460E+01  .505E+01
  .522E+01  .519E+01  .504E+01  .000E+00  .000E+00  .000E+00  .000E+00  .000E+00
  .000E+00  .000E+00  .000E+00  .000E+00  .000E+00  .000E+00  .000E+00  .000E+00
  .000E+00  .000E+00  .000E+00  .000E+00
  .477E+00  .710E+00  .147E+01  .108E+01  .123E+01  .154E+01  .112E+01  .138E+01
  .101E+01  .124E+01  .353E+01  .283E+01  .264E+01  .180E+01  .206E+01  .224E+01
  .523E+01  .593E+01  .554E+01  .463E+01  .334E+01  .309E+01  .554E+01  .787E+01
  .407E+01  .531E+01  .797E+01  .144E+02  .145E+02  .229E+02  .353E+02  .404E+02
  .424E+02  .448E+02  .556E+02  .592E+02  .797E+02  .756E+02  .758E+02  .760E+02
  .780E+02  .576E+02  .434E+02  .369E+02  .341E+02  .344E+02  .346E+02  .329E+02
  .302E+02  .279E+02  .331E+02  .362E+02  .231E+02  .218E+02  .202E+02  .248E+02
  .256E+02  .233E+02  .208E+02  .209E+02  .210E+02  .212E+02  .215E+02  .237E+02
  .246E+02  .243E+02  .233E+02  .228E+02  .230E+02  .230E+02  .231E+02  .231E+02
  .231E+02  .230E+02  .230E+02  .229E+02  .227E+02  .224E+02  .222E+02  .219E+02
  .217E+02  .215E+02  .213E+02  .000E+00  .000E+00  .000E+00  .000E+00  .000E+00
  .000E+00  .000E+00  .000E+00  .000E+00  .000E+00  .000E+00  .000E+00  .000E+00
  .000E+00  .000E+00  .000E+00  .000E+00
  .544E+00  .592E+00  .651E+00  .613E+00  .566E+00  .655E+00  .579E+00  .702E+00
  .623E+00  .603E+00  .882E+00  .763E+00  .663E+00  .607E+00  .671E+00  .702E+00
  .809E+00  .847E+00  .730E+00  .773E+00  .758E+00  .712E+00  .825E+00  .100E+01
  .790E+00  .870E+00  .950E+00  .114E+01  .113E+01  .142E+01  .192E+01  .207E+01
  .215E+01  .213E+01  .240E+01  .244E+01  .311E+01  .282E+01  .268E+01  .265E+01
  .258E+01  .176E+01  .117E+01  .862E+00  .763E+00  .626E+00  .682E+00  .559E+00
  .379E+00  .375E+00  .494E+00  .532E+00  .258E+00  .208E+00  .222E+00  .266E+00
  .250E+00  .189E+00  .123E+00  .104E+00  .951E-01  .851E-01  .117E+00  .142E+00
  .145E+00  .134E+00  .114E+00  .946E-01  .752E-01  .574E-01  .421E-01  .348E-01
  .309E-01  .271E-01  .236E-01  .204E-01  .149E-01  .123E-01  .111E-01  .105E-01
  .949E-02  .830E-02  .714E-02  .000E+00  .000E+00  .000E+00  .000E+00  .000E+00
  .000E+00  .000E+00  .000E+00  .000E+00  .000E+00  .000E+00  .000E+00  .000E+00
  .000E+00  .000E+00  .000E+00  .000E+00
  .134E+01  .153E+01  .176E+01  .173E+01  .167E+01  .201E+01  .196E+01  .259E+01
  .249E+01  .259E+01  .406E+01  .375E+01  .346E+01  .335E+01  .392E+01  .431E+01
  .547E+01  .625E+01  .583E+01  .665E+01  .699E+01  .700E+01  .862E+01  .111E+02
  .922E+01  .107E+02  .128E+02  .168E+02  .181E+02  .244E+02  .354E+02  .407E+02
  .449E+02  .470E+02  .560E+02  .600E+02  .803E+02  .761E+02  .758E+02  .783E+02
  .792E+02  .595E+02  .430E+02  .344E+02  .328E+02  .289E+02  .335E+02  .292E+02
  .210E+02  .219E+02  .304E+02  .359E+02  .190E+02  .166E+02  .191E+02  .245E+02
  .246E+02  .197E+02  .136E+02  .122E+02  .117E+02  .115E+02  .173E+02  .227E+02
  .249E+02  .246E+02  .225E+02  .198E+02  .166E+02  .134E+02  .104E+02  .897E+01
  .834E+01  .766E+01  .696E+01  .625E+01  .502E+01  .455E+01  .445E+01  .453E+01
  .437E+01  .408E+01  .373E+01  .000E+00  .000E+00  .000E+00  .000E+00  .000E+00
  .000E+00  .000E+00  .000E+00  .000E+00  .000E+00  .000E+00  .000E+00  .000E+00
  .000E+00  .000E+00  .000E+00  .000E+00
  .375E+01  .393E+01  .442E+01  .376E+01  .375E+01  .439E+01  .374E+01  .374E+01
  .376E+01  .377E+01  .709E+01  .411E+01  .373E+01  .373E+01  .375E+01  .376E+01
  .797E+01  .805E+01  .405E+01  .369E+01  .370E+01  .370E+01  .369E+01  .370E+01
  .372E+01  .370E+01  .372E+01  .388E+01  .390E+01  .392E+01  .964E+01  .986E+01
  .414E+01  .416E+01  .101E+02  .702E+01  .864E+01  .514E+01  .520E+01  .718E+01
  .756E+01  .710E+01  .946E+01  .390E+01  .806E+01  .394E+01  .806E+01  .782E+01
  .498E+01  .650E+01  .822E+01  .129E+02  .762E+01  .552E+01  .100E+02  .746E+01
  .758E+01  .770E+01  .107E+02  .372E+01  .372E+01  .758E+01  .904E+01  .932E+01
  .958E+01  .986E+01  .118E+02  .105E+02  .108E+02  .110E+02  .113E+02  .612E+01
  .618E+01  .626E+01  .632E+01  .638E+01  .466E+01  .468E+01  .185E+02  .230E+02
  .167E+02  .135E+02  .267E+02  .000E+00  .000E+00  .000E+00  .000E+00  .000E+00
  .000E+00  .000E+00  .000E+00  .000E+00  .000E+00  .000E+00  .000E+00  .000E+00
  .000E+00  .000E+00  .000E+00  .000E+00
  .392E+01  .399E+01  .452E+01  .438E+01  .400E+01  .755E+01  .407E+01  .443E+01
  .424E+01  .451E+01  .693E+01  .429E+01  .475E+01  .802E+01  .435E+01  .379E+01
  .800E+01  .958E+01  .688E+01  .384E+01  .365E+01  .799E+01  .880E+01  .914E+01
  .366E+01  .110E+02  .640E+01  .382E+01  .816E+01  .470E+01  .105E+02  .994E+01
  .422E+01  .424E+01  .102E+02  .692E+01  .854E+01  .502E+01  .486E+01  .730E+01
  .744E+01  .696E+01  .402E+01  .404E+01  .378E+01  .380E+01  .380E+01  .380E+01
  .382E+01  .382E+01  .798E+01  .104E+02  .382E+01  .382E+01  .382E+01  .778E+01
  .728E+01  .732E+01  .360E+01  .360E+01  .360E+01  .360E+01  .360E+01  .732E+01
  .103E+02  .166E+02  .936E+01  .360E+01  .360E+01  .360E+01  .360E+01  .360E+01
  .360E+01  .360E+01  .360E+01  .360E+01  .360E+01  .360E+01  .360E+01  .360E+01
  .360E+01  .360E+01  .360E+01  .000E+00  .000E+00  .000E+00  .000E+00  .000E+00
  .000E+00  .000E+00  .000E+00  .000E+00  .000E+00  .000E+00  .000E+00  .000E+00
  .000E+00  .000E+00  .000E+00  .000E+00
  .375E+01  .393E+01  .442E+01  .376E+01  .375E+01  .439E+01  .374E+01  .374E+01
  .376E+01  .377E+01  .709E+01  .411E+01  .373E+01  .373E+01  .375E+01  .376E+01
  .797E+01  .805E+01  .405E+01  .369E+01  .370E+01  .370E+01  .369E+01  .370E+01
  .372E+01  .370E+01  .372E+01  .388E+01  .390E+01  .392E+01  .964E+01  .986E+01
  .414E+01  .416E+01  .101E+02  .702E+01  .864E+01  .514E+01  .520E+01  .718E+01
  .756E+01  .710E+01  .946E+01  .390E+01  .806E+01  .394E+01  .806E+01  .782E+01
  .498E+01  .650E+01  .822E+01  .129E+02  .762E+01  .552E+01  .100E+02  .746E+01
  .758E+01  .770E+01  .107E+02  .372E+01  .372E+01  .758E+01  .904E+01  .932E+01
  .958E+01  .986E+01  .118E+02  .105E+02  .108E+02  .110E+02  .113E+02  .612E+01
  .618E+01  .626E+01  .632E+01  .638E+01  .466E+01  .468E+01  .185E+02  .230E+02
  .167E+02  .135E+02  .267E+02  .000E+00  .000E+00  .000E+00  .000E+00  .000E+00
  .000E+00  .000E+00  .000E+00  .000E+00  .000E+00  .000E+00  .000E+00  .000E+00
  .000E+00  .000E+00  .000E+00  .000E+00
DAMPING =  .02. DATA OF SD,SV,SA,PSSV,TTSD,TTSV,TTSA :                          
  .861E-02  .976E-02  .109E-01  .119E-01  .127E-01  .137E-01  .162E-01  .214E-01
  .254E-01  .286E-01  .307E-01  .395E-01  .412E-01  .459E-01  .526E-01  .591E-01
  .814E-01  .980E-01  .108E+00  .138E+00  .166E+00  .196E+00  .233E+00  .292E+00
  .309E+00  .350E+00  .436E+00  .576E+00  .693E+00  .949E+00  .122E+01  .155E+01
  .207E+01  .243E+01  .292E+01  .328E+01  .369E+01  .409E+01  .434E+01  .441E+01
  .433E+01  .368E+01  .342E+01  .337E+01  .325E+01  .326E+01  .320E+01  .295E+01
  .267E+01  .265E+01  .352E+01  .472E+01  .299E+01  .305E+01  .331E+01  .494E+01
  .531E+01  .463E+01  .358E+01  .362E+01  .366E+01  .378E+01  .580E+01  .795E+01
  .935E+01  .986E+01  .975E+01  .929E+01  .823E+01  .720E+01  .601E+01  .558E+01
  .545E+01  .524E+01  .498E+01  .468E+01  .422E+01  .419E+01  .409E+01  .447E+01
  .461E+01  .459E+01  .454E+01  .000E+00  .000E+00  .000E+00  .000E+00  .000E+00
  .000E+00  .000E+00  .000E+00  .000E+00  .000E+00  .000E+00  .000E+00  .000E+00
  .000E+00  .000E+00  .000E+00  .000E+00
  .409E+00  .599E+00  .839E+00  .936E+00  .112E+01  .111E+01  .892E+00  .949E+00
  .798E+00  .111E+01  .175E+01  .214E+01  .167E+01  .140E+01  .165E+01  .195E+01
  .279E+01  .430E+01  .475E+01  .404E+01  .356E+01  .382E+01  .455E+01  .556E+01
  .506E+01  .570E+01  .763E+01  .121E+02  .136E+02  .177E+02  .228E+02  .283E+02
  .353E+02  .393E+02  .453E+02  .489E+02  .529E+02  .571E+02  .585E+02  .573E+02
  .549E+02  .451E+02  .404E+02  .353E+02  .335E+02  .332E+02  .332E+02  .318E+02
  .296E+02  .275E+02  .259E+02  .279E+02  .228E+02  .215E+02  .201E+02  .204E+02
  .222E+02  .208E+02  .205E+02  .206E+02  .208E+02  .210E+02  .213E+02  .219E+02
  .221E+02  .222E+02  .224E+02  .226E+02  .227E+02  .228E+02  .229E+02  .229E+02
  .229E+02  .229E+02  .228E+02  .228E+02  .226E+02  .223E+02  .221E+02  .219E+02
  .217E+02  .215E+02  .213E+02  .000E+00  .000E+00  .000E+00  .000E+00  .000E+00
  .000E+00  .000E+00  .000E+00  .000E+00  .000E+00  .000E+00  .000E+00  .000E+00
  .000E+00  .000E+00  .000E+00  .000E+00
  .550E+00  .566E+00  .575E+00  .573E+00  .564E+00  .557E+00  .546E+00  .606E+00
  .616E+00  .598E+00  .557E+00  .632E+00  .583E+00  .580E+00  .596E+00  .605E+00
  .686E+00  .700E+00  .657E+00  .720E+00  .758E+00  .785E+00  .828E+00  .923E+00
  .874E+00  .891E+00  .921E+00  .102E+01  .105E+01  .123E+01  .139E+01  .154E+01
  .183E+01  .192E+01  .206E+01  .210E+01  .214E+01  .216E+01  .210E+01  .195E+01
  .178E+01  .125E+01  .973E+00  .818E+00  .678E+00  .595E+00  .512E+00  .417E+00
  .337E+00  .301E+00  .360E+00  .400E+00  .212E+00  .184E+00  .173E+00  .225E+00
  .212E+00  .164E+00  .113E+00  .103E+00  .940E-01  .800E-01  .103E+00  .120E+00
  .122E+00  .112E+00  .975E-01  .823E-01  .650E-01  .511E-01  .385E-01  .324E-01
  .288E-01  .254E-01  .221E-01  .192E-01  .144E-01  .120E-01  .993E-02  .934E-02
  .840E-02  .735E-02  .644E-02  .000E+00  .000E+00  .000E+00  .000E+00  .000E+00
  .000E+00  .000E+00  .000E+00  .000E+00  .000E+00  .000E+00  .000E+00  .000E+00
  .000E+00  .000E+00  .000E+00  .000E+00
  .135E+01  .146E+01  .155E+01  .162E+01  .166E+01  .172E+01  .185E+01  .224E+01
  .246E+01  .257E+01  .257E+01  .310E+01  .304E+01  .320E+01  .348E+01  .372E+01
  .465E+01  .513E+01  .524E+01  .620E+01  .697E+01  .771E+01  .863E+01  .102E+02
  .102E+02  .110E+02  .125E+02  .151E+02  .167E+02  .213E+02  .256E+02  .304E+02
  .383E+02  .425E+02  .482E+02  .515E+02  .552E+02  .584E+02  .593E+02  .577E+02
  .545E+02  .420E+02  .358E+02  .326E+02  .292E+02  .273E+02  .251E+02  .218E+02
  .186E+02  .175E+02  .221E+02  .270E+02  .157E+02  .147E+02  .148E+02  .207E+02
  .209E+02  .171E+02  .125E+02  .120E+02  .115E+02  .108E+02  .152E+02  .192E+02
  .210E+02  .207E+02  .191E+02  .172E+02  .144E+02  .119E+02  .945E+01  .835E+01
  .778E+01  .716E+01  .652E+01  .588E+01  .482E+01  .439E+01  .395E+01  .402E+01
  .387E+01  .360E+01  .335E+01  .000E+00  .000E+00  .000E+00  .000E+00  .000E+00
  .000E+00  .000E+00  .000E+00  .000E+00  .000E+00  .000E+00  .000E+00  .000E+00
  .000E+00  .000E+00  .000E+00  .000E+00
  .375E+01  .375E+01  .375E+01  .376E+01  .376E+01  .394E+01  .374E+01  .375E+01
  .376E+01  .377E+01  .377E+01  .411E+01  .372E+01  .373E+01  .375E+01  .376E+01
  .395E+01  .396E+01  .369E+01  .369E+01  .369E+01  .370E+01  .370E+01  .371E+01
  .372E+01  .372E+01  .372E+01  .374E+01  .390E+01  .392E+01  .392E+01  .412E+01
  .414E+01  .416E+01  .418E+01  .420E+01  .444E+01  .470E+01  .474E+01  .478E+01
  .480E+01  .464E+01  .388E+01  .390E+01  .392E+01  .392E+01  .394E+01  .396E+01
  .368E+01  .368E+01  .776E+01  .742E+01  .756E+01  .370E+01  .438E+01  .746E+01
  .758E+01  .768E+01  .372E+01  .372E+01  .372E+01  .760E+01  .772E+01  .934E+01
  .958E+01  .986E+01  .860E+01  .874E+01  .892E+01  .724E+01  .728E+01  .608E+01
  .616E+01  .624E+01  .630E+01  .634E+01  .466E+01  .468E+01  .120E+02  .124E+02
  .129E+02  .134E+02  .100E+02  .000E+00  .000E+00  .000E+00  .000E+00  .000E+00
  .000E+00  .000E+00  .000E+00  .000E+00  .000E+00  .000E+00  .000E+00  .000E+00
  .000E+00  .000E+00  .000E+00  .000E+00
  .388E+01  .399E+01  .400E+01  .400E+01  .400E+01  .401E+01  .407E+01  .440E+01
  .378E+01  .379E+01  .453E+01  .409E+01  .410E+01  .362E+01  .363E+01  .380E+01
  .381E+01  .400E+01  .402E+01  .384E+01  .364E+01  .365E+01  .365E+01  .366E+01
  .366E+01  .366E+01  .380E+01  .382E+01  .382E+01  .384E+01  .402E+01  .402E+01
  .404E+01  .406E+01  .408E+01  .430E+01  .434E+01  .458E+01  .462E+01  .466E+01
  .468E+01  .450E+01  .400E+01  .378E+01  .378E+01  .380E+01  .380E+01  .380E+01
  .380E+01  .380E+01  .382E+01  .770E+01  .382E+01  .382E+01  .382E+01  .776E+01
  .728E+01  .730E+01  .360E+01  .360E+01  .360E+01  .360E+01  .360E+01  .732E+01
  .734E+01  .360E+01  .360E+01  .360E+01  .360E+01  .360E+01  .360E+01  .360E+01
  .360E+01  .360E+01  .360E+01  .360E+01  .360E+01  .360E+01  .360E+01  .360E+01
  .360E+01  .360E+01  .360E+01  .000E+00  .000E+00  .000E+00  .000E+00  .000E+00
  .000E+00  .000E+00  .000E+00  .000E+00  .000E+00  .000E+00  .000E+00  .000E+00
  .000E+00  .000E+00  .000E+00  .000E+00
  .375E+01  .375E+01  .375E+01  .376E+01  .376E+01  .394E+01  .374E+01  .375E+01
  .376E+01  .377E+01  .377E+01  .411E+01  .372E+01  .373E+01  .375E+01  .376E+01
  .395E+01  .396E+01  .368E+01  .369E+01  .369E+01  .370E+01  .370E+01  .371E+01
  .372E+01  .370E+01  .372E+01  .374E+01  .390E+01  .392E+01  .392E+01  .412E+01
  .414E+01  .416E+01  .418E+01  .420E+01  .444E+01  .470E+01  .474E+01  .478E+01
  .480E+01  .462E+01  .388E+01  .390E+01  .392E+01  .392E+01  .394E+01  .396E+01
