RESPONSE AND FOURIER AMPLITUDE SPECTRA (83 PERIODS,  .04 -  8.5 SEC)   FOR      
CORRECTED ACCELEROGRAM   24207-C0157-94019.02       CHAN  8: RAD         FROM   
UNCORRECTED ACCELEROGRAM DATA              PROCESSED: 06/16/94, CDMG QN94207A   
NORTHRIDGE EARTHQUAKE                                                           
JANUARY 17, 1994 04:31 PST              (ORIGIN(CIT): 01/17/94, 12:30:55.4 GMT) 
24207-C0157-94019.02                                                            
STATION NO. 24207   34.334N, 118.396W     CRA-1  S/N 0157 (11 CHNS OF 20 AT STA)
PACOIMA RESERVOIR - PACOIMA DAM                                                 
CHAN  8: RAD      (STA CHN:  8)     LOCATION: 80% HEIGHT: LEFT 1/4-LENGTH POINT 
NORTHRIDGE EARTHQUAKE     JANUARY 17, 1994 04:31 PST                            
HYPOCENTER(CIT): 34.215N, 118.538W, H=18KM. ML=6.6, MW=6.7(CIT); MS=6.7(NEIC)   
INSTR PERIOD =  .0194 SEC,  DAMPING =  .620,  SENSITIVITY = 1.72 CM/G.          
                        RECORD LENGTH = 11.000 SEC.                             
                                     UNCOR MAX  = -1.540 G, AT   4.256 SEC.     
RMS ACCEL OF (UNCOR) RECORD  =  .153 G.                                         
ACCELEROGRAM BANDPASS FILTERED WITH RAMPS AT  .080- .160 AND 23.00-25.00 CYC/SEC
                 INSTRUMENT- AND BASELINE-CORRECTED                             
                                                                                
                                                                                
                                                                                
                                                                                
                                                                                
NORTHRIDGE EARTHQUAKE     JANUARY 17, 1994 04:31 PST                            
                                                                                
24207-C0157-94019.02      PACOIMA RESERVOIR - PACOIMA DAM   CHAN  8: RAD        
                                                                                
24207-C0157-94019.02      PACOIMA RESERVOIR - PACOIMA DAM   CHAN  8: RAD        
                                                                                
UNITS FOR SPECTRA ARE INCHES AND SEC, EXCEPT SA IS IN FRACTION OF G.            
                                                                                
    8    1    8   11   20    0    1    1    1 2048    0    0    0    0    0    0
    0    0    0    0    0    0    0    0    0    0  700 2226   21   31   52    0
    0    0    0    0    0    0    0    0    0    0    0    0    0    0    0    0
    0    0 2226 2226  551    4   10   10    0    0   52   76   10   10    0  551
    0  551   77   83    5    0    0    0    0    0    0    0    0    0    0    0
    0    0    0    0    0    0    0    0    0    0    0    0    0    0    0    0
    0    0    0    0
      .019      .620    11.000      .153     1.000     1.720    -1.540     4.256
    51.500    50.000     2.907    50.000     4.941      .155     4.677     9.686
      .000      .000      .000      .000      .000      .000      .000      .000
      .000      .000      .000      .000      .000      .000      .000      .000
      .000      .000      .000      .000      .000      .000      .000      .000
      .000      .000      .000      .000      .000      .000      .000      .000
      .000      .000      .000    98.066      .005    11.000   330.694      .000
      .000    25.000     2.000    11.000      .020      .160      .080      .000
     4.260 -1282.774     4.180    70.786     4.260     8.022    -1.428      .160
    23.000      .020      .020      .956      .000      .000      .000      .000
      .000      .000      .000      .000      .000      .000      .000      .000
      .000      .000      .000      .000      .000      .000      .000      .000
      .000      .000      .000      .000
      .000      .020      .050      .100      .200
      .040      .042      .044      .046      .048      .050      .055      .060
      .065      .070      .075      .080      .085      .090      .095      .100
      .110      .120      .130      .140      .150      .160      .170      .180
      .190      .200      .220      .240      .260      .280      .300      .320
      .340      .360      .380      .400      .420      .440      .460      .480
      .500      .550      .600      .650      .700      .750      .800      .850
      .900      .950     1.000     1.100     1.200     1.300     1.400     1.500
     1.600     1.700     1.800     1.900     2.000     2.200     2.400     2.600
     2.800     3.000     3.200     3.400     3.600     3.800     4.000     4.200
     4.400     4.600     4.800     5.000     5.500     6.000     6.500     7.000
     7.500     8.000     8.500     9.000     9.500    10.000    11.000    12.000
    13.000    14.000    15.000      .000      .000      .000      .000      .000
      .000      .000      .000      .000
FOURIER AMPLITUDE SPECTRA IN IN/SEC.                                            
  .110E+00  .164E+01  .284E+01  .219E+01  .240E+01  .449E+01  .472E+01  .303E+01
  .614E+01  .741E+01  .105E+02  .133E+02  .127E+02  .884E+01  .112E+02  .133E+02
  .999E+01  .237E+02  .151E+02  .261E+02  .239E+02  .291E+02  .262E+02  .149E+02
  .283E+02  .331E+02  .619E+02  .487E+02  .578E+02  .878E+02  .916E+02  .480E+02
  .345E+02  .874E+02  .117E+02  .778E+02  .709E+02  .312E+02  .717E+02  .640E+02
  .397E+02  .500E+02  .215E+02  .427E+02  .513E+02  .385E+02  .179E+02  .297E+02
  .426E+02  .456E+02  .378E+02  .111E+02  .174E+02  .297E+02  .349E+02  .283E+02
  .156E+02  .445E+01  .613E+01  .985E+01  .110E+02  .993E+01  .839E+01  .742E+01
  .677E+01  .672E+01  .728E+01  .805E+01  .870E+01  .911E+01  .927E+01  .925E+01
  .908E+01  .881E+01  .848E+01  .810E+01  .709E+01  .608E+01  .516E+01  .435E+01
  .367E+01  .311E+01  .264E+01  .000E+00  .000E+00  .000E+00  .000E+00  .000E+00
  .000E+00  .000E+00  .000E+00  .000E+00  .000E+00  .000E+00  .000E+00  .000E+00
  .000E+00  .000E+00  .000E+00  .000E+00
DAMPING =  .00. DATA OF SD,SV,SA,PSSV,TTSD,TTSV,TTSA :                          
  .232E-01  .346E-01  .387E-01  .372E-01  .489E-01  .498E-01  .594E-01  .543E-01
  .888E-01  .103E+00  .144E+00  .177E+00  .210E+00  .170E+00  .211E+00  .265E+00
  .363E+00  .525E+00  .368E+00  .646E+00  .818E+00  .891E+00  .752E+00  .891E+00
  .125E+01  .163E+01  .237E+01  .264E+01  .242E+01  .391E+01  .440E+01  .301E+01
  .261E+01  .538E+01  .352E+01  .519E+01  .504E+01  .435E+01  .521E+01  .530E+01
  .428E+01  .498E+01  .396E+01  .452E+01  .636E+01  .467E+01  .494E+01  .475E+01
  .644E+01  .701E+01  .601E+01  .344E+01  .415E+01  .664E+01  .779E+01  .678E+01
  .549E+01  .439E+01  .395E+01  .389E+01  .383E+01  .398E+01  .378E+01  .398E+01
  .474E+01  .558E+01  .584E+01  .569E+01  .535E+01  .579E+01  .597E+01  .625E+01
  .642E+01  .651E+01  .652E+01  .637E+01  .618E+01  .587E+01  .566E+01  .514E+01
  .494E+01  .498E+01  .497E+01  .000E+00  .000E+00  .000E+00  .000E+00  .000E+00
  .000E+00  .000E+00  .000E+00  .000E+00  .000E+00  .000E+00  .000E+00  .000E+00
  .000E+00  .000E+00  .000E+00  .000E+00
  .152E+01  .297E+01  .358E+01  .329E+01  .438E+01  .509E+01  .560E+01  .444E+01
  .718E+01  .867E+01  .114E+02  .136E+02  .145E+02  .114E+02  .136E+02  .156E+02
  .135E+02  .267E+02  .163E+02  .276E+02  .330E+02  .344E+02  .269E+02  .254E+02
  .395E+02  .481E+02  .669E+02  .686E+02  .587E+02  .877E+02  .927E+02  .603E+02
  .496E+02  .942E+02  .593E+02  .846E+02  .780E+02  .622E+02  .721E+02  .725E+02
  .549E+02  .570E+02  .430E+02  .442E+02  .555E+02  .419E+02  .355E+02  .369E+02
  .458E+02  .474E+02  .389E+02  .260E+02  .260E+02  .331E+02  .349E+02  .284E+02
  .271E+02  .272E+02  .271E+02  .269E+02  .267E+02  .265E+02  .264E+02  .265E+02
  .267E+02  .270E+02  .271E+02  .273E+02  .273E+02  .274E+02  .274E+02  .273E+02
  .273E+02  .273E+02  .272E+02  .272E+02  .271E+02  .271E+02  .271E+02  .271E+02
  .271E+02  .271E+02  .271E+02  .000E+00  .000E+00  .000E+00  .000E+00  .000E+00
  .000E+00  .000E+00  .000E+00  .000E+00  .000E+00  .000E+00  .000E+00  .000E+00
  .000E+00  .000E+00  .000E+00  .000E+00
  .148E+01  .201E+01  .205E+01  .180E+01  .217E+01  .204E+01  .201E+01  .154E+01
  .215E+01  .214E+01  .262E+01  .283E+01  .297E+01  .215E+01  .239E+01  .271E+01
  .307E+01  .373E+01  .223E+01  .337E+01  .372E+01  .356E+01  .266E+01  .281E+01
  .355E+01  .417E+01  .500E+01  .469E+01  .366E+01  .510E+01  .500E+01  .300E+01
  .231E+01  .425E+01  .250E+01  .332E+01  .292E+01  .230E+01  .252E+01  .235E+01
  .175E+01  .169E+01  .112E+01  .109E+01  .133E+01  .849E+00  .789E+00  .673E+00
  .813E+00  .795E+00  .615E+00  .291E+00  .295E+00  .402E+00  .406E+00  .308E+00
  .219E+00  .156E+00  .125E+00  .110E+00  .980E-01  .841E-01  .671E-01  .602E-01
  .618E-01  .634E-01  .583E-01  .504E-01  .422E-01  .410E-01  .381E-01  .362E-01
  .339E-01  .314E-01  .289E-01  .260E-01  .209E-01  .167E-01  .137E-01  .107E-01
  .898E-02  .796E-02  .704E-02  .000E+00  .000E+00  .000E+00  .000E+00  .000E+00
  .000E+00  .000E+00  .000E+00  .000E+00  .000E+00  .000E+00  .000E+00  .000E+00
  .000E+00  .000E+00  .000E+00  .000E+00
  .364E+01  .518E+01  .553E+01  .508E+01  .640E+01  .626E+01  .679E+01  .569E+01
  .859E+01  .921E+01  .121E+02  .139E+02  .155E+02  .119E+02  .140E+02  .166E+02
  .207E+02  .275E+02  .178E+02  .290E+02  .342E+02  .350E+02  .278E+02  .311E+02
  .415E+02  .512E+02  .676E+02  .691E+02  .585E+02  .877E+02  .922E+02  .590E+02
  .483E+02  .939E+02  .583E+02  .815E+02  .754E+02  .621E+02  .712E+02  .694E+02
  .538E+02  .569E+02  .415E+02  .437E+02  .571E+02  .391E+02  .388E+02  .351E+02
  .449E+02  .464E+02  .378E+02  .197E+02  .217E+02  .321E+02  .350E+02  .284E+02
  .216E+02  .162E+02  .138E+02  .129E+02  .120E+02  .114E+02  .989E+01  .962E+01
  .106E+02  .117E+02  .115E+02  .105E+02  .934E+01  .957E+01  .937E+01  .935E+01
  .917E+01  .889E+01  .853E+01  .800E+01  .706E+01  .615E+01  .547E+01  .462E+01
  .414E+01  .391E+01  .368E+01  .000E+00  .000E+00  .000E+00  .000E+00  .000E+00
  .000E+00  .000E+00  .000E+00  .000E+00  .000E+00  .000E+00  .000E+00  .000E+00
  .000E+00  .000E+00  .000E+00  .000E+00
  .421E+01  .426E+01  .427E+01  .427E+01  .427E+01  .427E+01  .430E+01  .431E+01
  .432E+01  .663E+01  .713E+01  .103E+02  .447E+01  .551E+01  .500E+01  .448E+01
  .423E+01  .894E+01  .460E+01  .845E+01  .463E+01  .602E+01  .910E+01  .409E+01
  .367E+01  .434E+01  .626E+01  .478E+01  .105E+02  .109E+02  .105E+02  .910E+01
  .446E+01  .934E+01  .432E+01  .796E+01  .748E+01  .678E+01  .108E+02  .750E+01
  .666E+01  .746E+01  .474E+01  .746E+01  .730E+01  .784E+01  .612E+01  .666E+01
  .908E+01  .107E+02  .110E+02  .464E+01  .860E+01  .880E+01  .132E+02  .137E+02
  .716E+01  .662E+01  .666E+01  .596E+01  .600E+01  .956E+01  .768E+01  .794E+01
  .708E+01  .710E+01  .712E+01  .714E+01  .938E+01  .962E+01  .119E+02  .121E+02
  .124E+02  .127E+02  .202E+02  .108E+02  .112E+02  .892E+01  .894E+01  .896E+01
  .662E+01  .664E+01  .664E+01  .000E+00  .000E+00  .000E+00  .000E+00  .000E+00
  .000E+00  .000E+00  .000E+00  .000E+00  .000E+00  .000E+00  .000E+00  .000E+00
  .000E+00  .000E+00  .000E+00  .000E+00
  .428E+01  .428E+01  .428E+01  .428E+01  .428E+01  .428E+01  .429E+01  .429E+01
  .433E+01  .672E+01  .809E+01  .103E+02  .470E+01  .553E+01  .488E+01  .451E+01
  .420E+01  .891E+01  .502E+01  .848E+01  .467E+01  .606E+01  .906E+01  .405E+01
  .362E+01  .438E+01  .620E+01  .484E+01  .106E+02  .109E+02  .106E+02  .918E+01
  .454E+01  .942E+01  .442E+01  .806E+01  .738E+01  .668E+01  .103E+02  .738E+01
  .678E+01  .758E+01  .490E+01  .102E+02  .746E+01  .620E+01  .594E+01  .738E+01
  .794E+01  .904E+01  .822E+01  .414E+01  .416E+01  .916E+01  .136E+02  .126E+02
  .416E+01  .416E+01  .416E+01  .416E+01  .416E+01  .416E+01  .416E+01  .416E+01
  .416E+01  .416E+01  .416E+01  .416E+01  .416E+01  .416E+01  .416E+01  .416E+01
  .416E+01  .416E+01  .416E+01  .416E+01  .416E+01  .416E+01  .416E+01  .416E+01
  .416E+01  .416E+01  .416E+01  .000E+00  .000E+00  .000E+00  .000E+00  .000E+00
  .000E+00  .000E+00  .000E+00  .000E+00  .000E+00  .000E+00  .000E+00  .000E+00
  .000E+00  .000E+00  .000E+00  .000E+00
  .421E+01  .426E+01  .427E+01  .427E+01  .427E+01  .427E+01  .430E+01  .431E+01
  .432E+01  .663E+01  .713E+01  .103E+02  .447E+01  .551E+01  .500E+01  .448E+01
  .423E+01  .894E+01  .460E+01  .845E+01  .463E+01  .602E+01  .910E+01  .409E+01
  .367E+01  .434E+01  .626E+01  .478E+01  .105E+02  .109E+02  .105E+02  .910E+01
  .446E+01  .934E+01  .432E+01  .796E+01  .748E+01  .678E+01  .108E+02  .750E+01
  .666E+01  .746E+01  .474E+01  .746E+01  .730E+01  .784E+01  .612E+01  .666E+01
  .908E+01  .107E+02  .110E+02  .464E+01  .860E+01  .880E+01  .132E+02  .137E+02
  .716E+01  .662E+01  .666E+01  .596E+01  .600E+01  .956E+01  .768E+01  .794E+01
  .708E+01  .710E+01  .712E+01  .714E+01  .938E+01  .962E+01  .119E+02  .121E+02
  .124E+02  .127E+02  .202E+02  .108E+02  .112E+02  .892E+01  .894E+01  .896E+01
  .662E+01  .664E+01  .664E+01  .000E+00  .000E+00  .000E+00  .000E+00  .000E+00
  .000E+00  .000E+00  .000E+00  .000E+00  .000E+00  .000E+00  .000E+00  .000E+00
  .000E+00  .000E+00  .000E+00  .000E+00
DAMPING =  .02. DATA OF SD,SV,SA,PSSV,TTSD,TTSV,TTSA :                          
  .249E-01  .313E-01  .351E-01  .370E-01  .431E-01  .466E-01  .501E-01  .555E-01
  .830E-01  .921E-01  .111E+00  .128E+00  .145E+00  .150E+00  .187E+00  .205E+00
  .291E+00  .351E+00  .324E+00  .434E+00  .566E+00  .663E+00  .581E+00  .589E+00
  .636E+00  .135E+01  .165E+01  .209E+01  .181E+01  .171E+01  .183E+01  .206E+01
  .245E+01  .289E+01  .323E+01  .343E+01  .355E+01  .353E+01  .342E+01  .340E+01
  .334E+01  .353E+01  .355E+01  .343E+01  .453E+01  .368E+01  .394E+01  .366E+01
  .492E+01  .526E+01  .443E+01  .331E+01  .351E+01  .527E+01  .546E+01  .556E+01
  .487E+01  .385E+01  .352E+01  .357E+01  .353E+01  .326E+01  .326E+01  .351E+01
  .438E+01  .517E+01  .545E+01  .536E+01  .504E+01  .511E+01  .523E+01  .526E+01
  .540E+01  .548E+01  .553E+01  .567E+01  .552E+01  .549E+01  .535E+01  .491E+01
  .479E+01  .484E+01  .485E+01  .000E+00  .000E+00  .000E+00  .000E+00  .000E+00
  .000E+00  .000E+00  .000E+00  .000E+00  .000E+00  .000E+00  .000E+00  .000E+00
  .000E+00  .000E+00  .000E+00  .000E+00
  .180E+01  .246E+01  .298E+01  .304E+01  .365E+01  .428E+01  .474E+01  .442E+01
  .633E+01  .710E+01  .844E+01  .951E+01  .102E+02  .950E+01  .113E+02  .112E+02
  .975E+01  .172E+02  .141E+02  .159E+02  .245E+02  .256E+02  .207E+02  .197E+02
  .194E+02  .401E+02  .487E+02  .542E+02  .445E+02  .385E+02  .376E+02  .423E+02
  .442E+02  .500E+02  .528E+02  .539E+02  .553E+02  .548E+02  .522E+02  .497E+02
  .482E+02  .444E+02  .402E+02  .367E+02  .394E+02  .325E+02  .294E+02  .287E+02
  .325E+02  .361E+02  .327E+02  .257E+02  .257E+02  .285E+02  .290E+02  .265E+02
  .267E+02  .268E+02  .268E+02  .267E+02  .265E+02  .263E+02  .263E+02  .264E+02
  .266E+02  .268E+02  .270E+02  .271E+02  .272E+02  .272E+02  .272E+02  .272E+02
  .272E+02  .272E+02  .271E+02  .271E+02  .271E+02  .270E+02  .270E+02  .270E+02
  .270E+02  .270E+02  .271E+02  .000E+00  .000E+00  .000E+00  .000E+00  .000E+00
  .000E+00  .000E+00  .000E+00  .000E+00  .000E+00  .000E+00  .000E+00  .000E+00
  .000E+00  .000E+00  .000E+00  .000E+00
  .159E+01  .182E+01  .186E+01  .179E+01  .191E+01  .191E+01  .171E+01  .157E+01
  .201E+01  .193E+01  .203E+01  .206E+01  .206E+01  .190E+01  .214E+01  .210E+01
  .245E+01  .250E+01  .197E+01  .226E+01  .259E+01  .263E+01  .207E+01  .186E+01
  .181E+01  .346E+01  .350E+01  .373E+01  .273E+01  .223E+01  .208E+01  .205E+01
  .216E+01  .229E+01  .228E+01  .220E+01  .206E+01  .186E+01  .166E+01  .151E+01
  .137E+01  .119E+01  .101E+01  .832E+00  .945E+00  .670E+00  .629E+00  .518E+00
  .623E+00  .598E+00  .453E+00  .280E+00  .249E+00  .319E+00  .285E+00  .253E+00
  .195E+00  .137E+00  .111E+00  .101E+00  .905E-01  .689E-01  .581E-01  .531E-01
  .573E-01  .590E-01  .547E-01  .477E-01  .400E-01  .363E-01  .335E-01  .305E-01
  .285E-01  .265E-01  .246E-01  .233E-01  .187E-01  .157E-01  .130E-01  .104E-01
  .882E-02  .785E-02  .698E-02  .000E+00  .000E+00  .000E+00  .000E+00  .000E+00
  .000E+00  .000E+00  .000E+00  .000E+00  .000E+00  .000E+00  .000E+00  .000E+00
  .000E+00  .000E+00  .000E+00  .000E+00
  .391E+01  .469E+01  .501E+01  .506E+01  .564E+01  .586E+01  .573E+01  .581E+01
  .802E+01  .826E+01  .932E+01  .101E+02  .107E+02  .104E+02  .124E+02  .129E+02
  .166E+02  .184E+02  .157E+02  .195E+02  .237E+02  .260E+02  .215E+02  .206E+02
  .210E+02  .424E+02  .473E+02  .548E+02  .437E+02  .384E+02  .383E+02  .404E+02
  .453E+02  .505E+02  .535E+02  .539E+02  .531E+02  .505E+02  .467E+02  .445E+02
  .419E+02  .403E+02  .371E+02  .331E+02  .407E+02  .309E+02  .310E+02  .270E+02
  .343E+02  .348E+02  .278E+02  .189E+02  .184E+02  .255E+02  .245E+02  .233E+02
  .191E+02  .142E+02  .123E+02  .118E+02  .111E+02  .931E+01  .853E+01  .847E+01
  .983E+01  .108E+02  .107E+02  .991E+01  .879E+01  .845E+01  .822E+01  .787E+01
  .771E+01  .748E+01  .724E+01  .713E+01  .631E+01  .575E+01  .517E+01  .441E+01
  .401E+01  .380E+01  .358E+01  .000E+00  .000E+00  .000E+00  .000E+00  .000E+00
  .000E+00  .000E+00  .000E+00  .000E+00  .000E+00  .000E+00  .000E+00  .000E+00
  .000E+00  .000E+00  .000E+00  .000E+00
  .426E+01  .426E+01  .427E+01  .427E+01  .427E+01  .427E+01  .430E+01  .431E+01
  .432E+01  .432E+01  .432E+01  .441E+01  .446E+01  .447E+01  .447E+01  .448E+01
  .423E+01  .450E+01  .459E+01  .423E+01  .434E+01  .435E+01  .435E+01  .435E+01
  .409E+01  .434E+01  .460E+01  .476E+01  .480E+01  .470E+01  .516E+01  .430E+01
  .430E+01  .430E+01  .432E+01  .432E+01  .434E+01  .436E+01  .436E+01  .438E+01
  .438E+01  .470E+01  .474E+01  .478E+01  .730E+01  .564E+01  .612E+01  .620E+01
  .728E+01  .784E+01  .794E+01  .462E+01  .862E+01  .814E+01  .904E+01  .710E+01
  .714E+01  .662E+01  .592E+01  .596E+01  .598E+01  .620E+01  .768E+01  .540E+01
  .708E+01  .710E+01  .712E+01  .714E+01  .716E+01  .962E+01  .970E+01  .994E+01
  .124E+02  .127E+02  .106E+02  .108E+02  .112E+02  .892E+01  .894E+01  .896E+01
  .662E+01  .664E+01  .664E+01  .000E+00  .000E+00  .000E+00  .000E+00  .000E+00
  .000E+00  .000E+00  .000E+00  .000E+00  .000E+00  .000E+00  .000E+00  .000E+00
  .000E+00  .000E+00  .000E+00  .000E+00
  .428E+01  .428E+01  .428E+01  .428E+01  .428E+01  .428E+01  .429E+01  .430E+01
  .434E+01  .433E+01  .434E+01  .439E+01  .444E+01  .445E+01  .445E+01  .446E+01
  .420E+01  .453E+01  .456E+01  .456E+01  .437E+01  .438E+01  .432E+01  .439E+01
  .440E+01  .430E+01  .432E+01  .470E+01  .474E+01  .476E+01  .524E+01  .452E+01
  .438E+01  .440E+01  .440E+01  .442E+01  .426E+01  .426E+01  .426E+01  .426E+01
  .428E+01  .428E+01  .428E+01  .464E+01  .744E+01  .620E+01  .552E+01  .602E+01
  .794E+01  .718E+01  .722E+01  .414E+01  .416E+01  .722E+01  .724E+01  .416E+01
  .416E+01  .416E+01  .416E+01  .416E+01  .416E+01  .416E+01  .416E+01  .416E+01
  .416E+01  .416E+01  .416E+01  .416E+01  .416E+01  .416E+01  .416E+01  .416E+01
  .416E+01  .416E+01  .416E+01  .416E+01  .416E+01  .416E+01  .416E+01  .416E+01
  .416E+01  .416E+01  .416E+01  .000E+00  .000E+00  .000E+00  .000E+00  .000E+00
  .000E+00  .000E+00  .000E+00  .000E+00  .000E+00  .000E+00  .000E+00  .000E+00
  .000E+00  .000E+00  .000E+00  .000E+00
  .426E+01  .426E+01  .426E+01  .427E+01  .427E+01  .427E+01  .430E+01  .431E+01
  .432E+01  .431E+01  .432E+01  .441E+01  .446E+01  .447E+01  .447E+01  .448E+01
  .423E+01  .450E+01  .459E+01  .423E+01  .433E+01  .435E+01  .435E+01  .435E+01
  .435E+01  .434E+01  .460E+01  .476E+01  .480E+01  .512E+01  .516E+01  .428E+01
  .430E+01  .430E+01  .432E+01  .432E+01  .434E+01  .436E+01  .436E+01  .438E+01
  .438E+01  .470E+01  .474E+01  .478E+01  .730E+01  .564E+01  .612E+01  .618E+01
