CORRECTED ACCELEROGRAM   24207-C0157-94019.02       CHAN 11: TAN         FROM   
UNCORRECTED ACCELEROGRAM DATA              PROCESSED: 06/16/94, CDMG QN94207A   
NORTHRIDGE EARTHQUAKE                                                           
JANUARY 17, 1994 04:31 PST              (ORIGIN(CIT): 01/17/94, 12:30:55.4 GMT) 
24207-C0157-94019.02                                                            
STATION NO. 24207   34.334N, 118.396W     CRA-1  S/N 0157 (11 CHNS OF 20 AT STA)
PACOIMA RESERVOIR - PACOIMA DAM                                                 
CHAN 11: TAN      (STA CHN: 11)     LOCATION: DAM BASE                          
NORTHRIDGE EARTHQUAKE     JANUARY 17, 1994 04:31 PST                            
HYPOCENTER(CIT): 34.215N, 118.538W, H=18KM. ML=6.6, MW=6.7(CIT); MS=6.7(NEIC)   
INSTR PERIOD =  .0187 SEC,  DAMPING =  .730,  SENSITIVITY = 1.78 CM/G.          
                        RECORD LENGTH = 11.000 SEC.                             
                                     UNCOR MAX  =   .540 G, AT   3.756 SEC.     
RMS ACCEL OF (UNCOR) RECORD  =  .087 G.                                         
ACCELEROGRAM BANDPASS FILTERED WITH RAMPS AT  .080- .160 AND 23.00-25.00 CYC/SEC
   551 POINTS OF INSTRUMENT- AND BASELINE-CORRECTED ACCEL, VELOC AND DISPL DATA 
AT EQUALLY-SPACED INTERVALS OF    .020  SEC.                                    
PEAK ACCELERATION =   518.433    CM/SEC/SEC  AT    3.760   SEC.                 
PEAK   VELOCITY   =   -49.007      CM/SEC    AT    3.620   SEC.                 
PEAK DISPLACEMENT =     6.472        CM      AT    3.460   SEC.                 
INITIAL VELOCITY  =    -2.072   CM/SEC;   INITIAL DISPLACEMENT =     .596   CM  
NORTHRIDGE EARTHQUAKE     JANUARY 17, 1994 04:31 PST                            
                                                                                
24207-C0157-94019.02      PACOIMA RESERVOIR - PACOIMA DAM   CHAN 11: TAN        
                                                                                
   11    1   11   11   20    0    1    1    1 2048    0    0    0    0    0    0
    0    0    0    0    0    0    0    0    0    0  800 2227   21   31   52    0
    0    0    0    0    0    0    0    0    0    0    0    0    0    0    0    0
    0    0 2227 2227  551    4   10   10    0    0   52   76   10   10    0  551
    0  551    0    0    0    0    0    0    0    0    0    0    0    0    0    0
    0    0    0    0    0    0    0    0    0    0    0    0    0    0    0    0
    0    0    0    0
      .019      .730    11.000      .087     1.000     1.780      .540     3.756
    53.500    50.000     2.809    50.000     4.939      .116     4.745     5.152
      .000      .000      .000      .000      .000      .000      .000      .000
      .000      .000      .000      .000      .000      .000      .000      .000
      .000      .000      .000      .000      .000      .000      .000      .000
      .000      .000      .000      .000      .000      .000      .000      .000
      .000      .000      .000    98.066      .005    11.000   336.150      .000
      .000    25.000     2.000    11.000      .020      .160      .080      .000
     3.760   518.433     3.620   -49.007     3.460     6.472    -2.072      .160
    23.000      .020      .020      .596      .000      .000      .000      .000
      .000      .000      .000      .000      .000      .000      .000      .000
      .000      .000      .000      .000      .000      .000      .000      .000
      .000      .000      .000      .000
  551 POINTS OF ACCEL DATA EQUALLY SPACED AT  .020 SEC.  (UNITS: CM/SEC/SEC)    
     -.556      .221     -.390     3.755     5.260     3.238     3.764     2.346
     3.682     4.258    -1.808    -5.769   -12.207   -16.229   -17.730   -14.049
    -1.808     9.848    19.024    25.945    24.976    21.896     3.345   -18.032
   -22.410   -27.928   -20.304   -10.097     3.991     1.603     8.658    15.002
     9.809    13.720    13.824    17.713    15.424    12.201     3.938   -11.939
   -19.119   -11.196    -8.834   -11.169    -5.615     -.238     -.399     -.851
     -.487     1.715     3.654    -2.213    -2.455     4.722    13.688     8.930
     1.648     1.887     8.525    12.001     3.583     1.887     -.281    -6.557
    -5.169     6.837     9.460    14.449     3.932     1.854     8.060    14.934
    15.151     5.179    10.181     5.951      .853    -1.740     6.160     -.017
    -8.162     3.908     9.224    -3.401    -2.742    -3.056    -4.719    -1.020
    -4.800    -9.398    -7.760     3.366     3.868     2.029    -6.318   -13.219
    -5.549    -3.266      .780     8.731    12.436    21.759    28.001    23.979
    18.001     9.796     3.969    -5.590   -11.603   -10.196   -13.146     4.703
    15.146     8.239    18.117     8.540     1.302     2.140    -1.581     3.451
     6.243    15.613    14.808    10.793    12.232     6.295     7.236    11.042
     3.256    -1.235    -7.331    -8.320   -11.597   -12.980    -3.398    -8.030
    -6.367     6.506    15.131    16.488     7.055     4.802     2.057    -9.148
     1.630     8.067     2.470     3.899     7.670     -.150   -12.835   -11.218
   -17.611   -16.762   -14.885   -21.212   -15.342    -3.352     -.008     8.744
    17.903    25.155    39.219    50.711    54.409    49.805    38.393    20.632
    -4.590   -49.350  -101.848  -152.167  -192.189  -249.616  -290.574  -320.812
  -339.894  -359.478  -358.676  -348.872  -223.801   -17.439   140.319   294.487
   406.590   472.318   469.587   502.540   518.433   426.206   211.400    24.645
  -112.214  -105.833  -272.556  -286.879  -327.957  -398.901  -302.779  -320.869
   -51.198    55.841    53.143    77.107   187.125   211.172   185.692   195.372
   153.481   149.685   121.794   133.421    79.991    89.649    -4.770    50.209
    23.722  -111.000   -70.357  -123.350  -179.498  -177.414  -161.725  -147.561
  -133.117  -140.198   -53.517    31.513    33.726    44.428   100.697   105.499
    99.627   109.299    86.425    85.318    87.902    71.111    52.585    -9.337
   -39.430   -32.562   -33.268   -34.931   -23.349   -12.394    19.739    33.384
    21.494    22.103    10.185     4.412     9.446    -1.034   -13.731   -12.733
   -14.497    -4.415    13.377    29.320    53.829    68.963    72.687    61.580
    37.955    29.578    14.952     2.169    -8.040   -10.858    -7.078    -4.179
    -8.579   -21.775   -28.966   -33.226   -39.957   -41.367   -35.127   -25.503
   -21.129   -12.159     -.875      .346      .138    -2.203    -9.092   -16.510
    -6.915     7.628    23.229    39.096    50.228    52.994    39.952    25.928
    17.453     4.359   -30.022   -47.239   -43.957   -47.254   -42.599   -34.806
    -9.540     5.733    -4.815   -18.476   -22.377   -19.656   -17.271   -11.546
   -10.684   -16.687   -18.334    -7.566   -11.668   -20.621   -22.023   -28.055
   -31.271   -38.447   -42.752   -39.587   -31.964   -27.973   -40.138   -43.978
   -39.055   -28.115   -16.146   -15.842   -22.608   -38.755   -53.706   -61.337
   -61.412   -58.687   -58.403   -62.281   -65.032   -63.881   -53.794   -32.265
   -23.110   -12.250     3.662    12.825    33.159    41.493    26.334    18.210
    44.832    80.618   112.661   135.263   132.546   126.616   125.898   125.105
   122.930   106.475    94.913    97.533    86.728    54.546    25.758      .172
   -12.788   -30.779   -52.942   -67.682   -77.630   -71.707   -52.187   -22.146
   -21.800   -34.605   -28.769    -6.160      .516   -10.145   -28.245   -46.185
   -46.998   -31.473   -11.529     7.267    29.237    42.593    51.514    50.837
    52.091    59.741    74.652    72.408    77.880    86.026    78.939    61.324
    19.385   -21.734   -63.213   -87.424   -93.883   -74.890   -44.356   -28.924
   -18.783    -8.009    -2.042     2.977    14.256    30.261    43.745    56.260
    65.519    58.089    43.415    35.561    28.493    20.736    16.900    11.794
    -1.898   -11.983   -15.206   -12.246   -14.583   -25.578   -35.284   -42.170
   -35.591   -27.500   -30.990   -42.615   -48.007   -46.199   -42.758   -30.096
   -17.014    -5.131     5.050    15.036    18.218    10.673     4.507     -.920
      .463      .093    -3.256    -4.532    -1.712     2.019     1.564    -1.443
    -5.079   -11.874   -13.662    -9.698   -13.129   -15.892   -24.481   -27.087
   -18.114    -6.673     1.301    -5.232    -7.916     -.080     8.718    14.509
    19.999    24.525    23.216    23.714    25.475    25.641    18.519     -.003
   -20.078   -30.062   -31.843   -29.130   -21.765   -16.634    -7.243     1.533
     5.384    10.941    16.557    19.384    22.868    21.275    15.872    17.050
    19.452    12.758     3.674    -4.108   -14.891   -22.642   -22.927   -18.837
   -16.295   -22.123   -28.216   -27.356   -22.726   -16.166   -12.471    -3.658
     4.340    15.696    23.882    22.748    22.049    18.541    10.331     1.435
    -3.790    -4.665    -2.944    -3.622     -.834    -1.198    -7.317   -11.902
   -12.151   -10.847    -5.107     1.462     1.337     2.581     5.559     6.559
     4.121     6.248     8.779     2.508    -3.950    -5.674    -4.602    -1.600
     3.098     5.052     5.716     1.868    -2.119    -5.565   -10.006
