RESPONSE AND FOURIER AMPLITUDE SPECTRA (83 PERIODS,  .04 -  8.5 SEC)   FOR      
CORRECTED ACCELEROGRAM   24207-C0157-94019.02       CHAN 10: UP          FROM   
UNCORRECTED ACCELEROGRAM DATA              PROCESSED: 06/16/94, CDMG QN94207A   
NORTHRIDGE EARTHQUAKE                                                           
JANUARY 17, 1994 04:31 PST              (ORIGIN(CIT): 01/17/94, 12:30:55.4 GMT) 
24207-C0157-94019.02                                                            
STATION NO. 24207   34.334N, 118.396W     CRA-1  S/N 0157 (11 CHNS OF 20 AT STA)
PACOIMA RESERVOIR - PACOIMA DAM                                                 
CHAN 10: UP       (STA CHN: 10)     LOCATION: DAM BASE                          
NORTHRIDGE EARTHQUAKE     JANUARY 17, 1994 04:31 PST                            
HYPOCENTER(CIT): 34.215N, 118.538W, H=18KM. ML=6.6, MW=6.7(CIT); MS=6.7(NEIC)   
INSTR PERIOD =  .0190 SEC,  DAMPING =  .640,  SENSITIVITY = 1.70 CM/G.          
                        RECORD LENGTH = 11.000 SEC.                             
                                     UNCOR MAX  =  -.411 G, AT   4.003 SEC.     
RMS ACCEL OF (UNCOR) RECORD  =  .051 G.                                         
ACCELEROGRAM BANDPASS FILTERED WITH RAMPS AT  .080- .160 AND 23.00-25.00 CYC/SEC
                 INSTRUMENT- AND BASELINE-CORRECTED                             
                                                                                
                                                                                
                                                                                
                                                                                
                                                                                
NORTHRIDGE EARTHQUAKE     JANUARY 17, 1994 04:31 PST                            
                                                                                
24207-C0157-94019.02      PACOIMA RESERVOIR - PACOIMA DAM   CHAN 10: UP         
                                                                                
24207-C0157-94019.02      PACOIMA RESERVOIR - PACOIMA DAM   CHAN 10: UP         
                                                                                
UNITS FOR SPECTRA ARE INCHES AND SEC, EXCEPT SA IS IN FRACTION OF G.            
                                                                                
   10    1   10   11   20    0    1    1    1 2048    0    0    0    0    0    0
    0    0    0    0    0    0    0    0    0    0  500 2227   21   31   52    0
    0    0    0    0    0    0    0    0    0    0    0    0    0    0    0    0
    0    0 2227 2227  551    4   10   10    0    0   52   76   10   10    0  551
    0  551   77   83    5    0    0    0    0    0    0    0    0    0    0    0
    0    0    0    0    0    0    0    0    0    0    0    0    0    0    0    0
    0    0    0    0
      .019      .640    11.000      .051     1.000     1.700     -.411     4.003
    52.700    50.000     2.941    50.000     4.939      .118     4.745     5.152
      .000      .000      .000      .000      .000      .000      .000      .000
      .000      .000      .000      .000      .000      .000      .000      .000
      .000      .000      .000      .000      .000      .000      .000      .000
      .000      .000      .000      .000      .000      .000      .000      .000
      .000      .000      .000    98.066      .005    11.000   331.124      .000
      .000    25.000     2.000    11.000      .020      .160      .080      .000
     4.000  -398.751     3.340    15.497     4.000     2.777      .696      .160
    23.000      .020      .020      .486      .000      .000      .000      .000
      .000      .000      .000      .000      .000      .000      .000      .000
      .000      .000      .000      .000      .000      .000      .000      .000
      .000      .000      .000      .000
      .000      .020      .050      .100      .200
      .040      .042      .044      .046      .048      .050      .055      .060
      .065      .070      .075      .080      .085      .090      .095      .100
      .110      .120      .130      .140      .150      .160      .170      .180
      .190      .200      .220      .240      .260      .280      .300      .320
      .340      .360      .380      .400      .420      .440      .460      .480
      .500      .550      .600      .650      .700      .750      .800      .850
      .900      .950     1.000     1.100     1.200     1.300     1.400     1.500
     1.600     1.700     1.800     1.900     2.000     2.200     2.400     2.600
     2.800     3.000     3.200     3.400     3.600     3.800     4.000     4.200
     4.400     4.600     4.800     5.000     5.500     6.000     6.500     7.000
     7.500     8.000     8.500     9.000     9.500    10.000    11.000    12.000
    13.000    14.000    15.000      .000      .000      .000      .000      .000
      .000      .000      .000      .000
FOURIER AMPLITUDE SPECTRA IN IN/SEC.                                            
  .158E+00  .409E+00  .169E+01  .112E+01  .238E+01  .192E+01  .571E+00  .180E+01
  .244E+01  .745E+00  .204E+01  .333E+01  .486E+01  .270E+01  .501E+01  .435E+01
  .851E+01  .651E+01  .949E+01  .390E+01  .565E+01  .130E+02  .102E+02  .788E+01
  .896E+01  .158E+02  .147E+02  .895E+01  .140E+02  .141E+02  .701E+01  .595E+01
  .788E+01  .592E+01  .228E+02  .277E+02  .286E+02  .284E+02  .319E+02  .324E+02
  .387E+02  .161E+02  .239E+02  .279E+01  .192E+02  .572E+01  .181E+02  .250E+02
  .100E+02  .467E+01  .905E+01  .415E+01  .154E+02  .747E+01  .837E+01  .129E+02
  .110E+02  .790E+01  .590E+01  .392E+01  .190E+01  .580E+01  .880E+01  .855E+01
  .639E+01  .387E+01  .287E+01  .401E+01  .538E+01  .630E+01  .670E+01  .669E+01
  .638E+01  .588E+01  .527E+01  .461E+01  .302E+01  .176E+01  .915E+00  .591E+00
  .686E+00  .835E+00  .925E+00  .000E+00  .000E+00  .000E+00  .000E+00  .000E+00
  .000E+00  .000E+00  .000E+00  .000E+00  .000E+00  .000E+00  .000E+00  .000E+00
  .000E+00  .000E+00  .000E+00  .000E+00
DAMPING =  .00. DATA OF SD,SV,SA,PSSV,TTSD,TTSV,TTSA :                          
  .912E-02  .125E-01  .151E-01  .154E-01  .224E-01  .218E-01  .120E-01  .213E-01
  .288E-01  .245E-01  .440E-01  .553E-01  .956E-01  .797E-01  .952E-01  .688E-01
  .151E+00  .132E+00  .220E+00  .149E+00  .195E+00  .339E+00  .311E+00  .291E+00
  .347E+00  .543E+00  .556E+00  .479E+00  .751E+00  .752E+00  .487E+00  .538E+00
  .532E+00  .100E+01  .140E+01  .204E+01  .207E+01  .215E+01  .275E+01  .304E+01
  .324E+01  .237E+01  .250E+01  .199E+01  .237E+01  .158E+01  .229E+01  .344E+01
  .205E+01  .172E+01  .164E+01  .174E+01  .293E+01  .153E+01  .186E+01  .309E+01
  .344E+01  .289E+01  .220E+01  .147E+01  .164E+01  .203E+01  .336E+01  .354E+01
  .321E+01  .324E+01  .337E+01  .359E+01  .359E+01  .381E+01  .428E+01  .449E+01
  .448E+01  .435E+01  .412E+01  .372E+01  .300E+01  .250E+01  .236E+01  .227E+01
  .222E+01  .216E+01  .208E+01  .000E+00  .000E+00  .000E+00  .000E+00  .000E+00
  .000E+00  .000E+00  .000E+00  .000E+00  .000E+00  .000E+00  .000E+00  .000E+00
  .000E+00  .000E+00  .000E+00  .000E+00
  .769E+00  .115E+01  .182E+01  .151E+01  .255E+01  .213E+01  .118E+01  .204E+01
  .255E+01  .133E+01  .280E+01  .385E+01  .572E+01  .444E+01  .517E+01  .430E+01
  .848E+01  .674E+01  .101E+02  .507E+01  .716E+01  .130E+02  .112E+02  .998E+01
  .101E+02  .165E+02  .152E+02  .114E+02  .178E+02  .163E+02  .946E+01  .938E+01
  .909E+01  .165E+02  .228E+02  .316E+02  .306E+02  .306E+02  .370E+02  .394E+02
  .405E+02  .274E+02  .261E+02  .238E+02  .207E+02  .137E+02  .179E+02  .254E+02
  .152E+02  .122E+02  .121E+02  .110E+02  .154E+02  .990E+01  .904E+01  .130E+02
  .142E+02  .123E+02  .101E+02  .103E+02  .104E+02  .104E+02  .102E+02  .992E+01
  .970E+01  .947E+01  .923E+01  .896E+01  .867E+01  .836E+01  .805E+01  .775E+01
  .746E+01  .719E+01  .707E+01  .711E+01  .716E+01  .716E+01  .713E+01  .709E+01
  .704E+01  .698E+01  .693E+01  .000E+00  .000E+00  .000E+00  .000E+00  .000E+00
  .000E+00  .000E+00  .000E+00  .000E+00  .000E+00  .000E+00  .000E+00  .000E+00
  .000E+00  .000E+00  .000E+00  .000E+00
  .583E+00  .724E+00  .799E+00  .746E+00  .993E+00  .892E+00  .407E+00  .605E+00
  .697E+00  .511E+00  .800E+00  .884E+00  .135E+01  .101E+01  .108E+01  .704E+00
  .127E+01  .939E+00  .133E+01  .775E+00  .889E+00  .135E+01  .110E+01  .919E+00
  .982E+00  .139E+01  .117E+01  .851E+00  .114E+01  .981E+00  .554E+00  .537E+00
  .471E+00  .789E+00  .991E+00  .131E+01  .120E+01  .114E+01  .133E+01  .135E+01
  .133E+01  .803E+00  .709E+00  .483E+00  .494E+00  .287E+00  .367E+00  .487E+00
  .258E+00  .195E+00  .168E+00  .147E+00  .208E+00  .924E-01  .970E-01  .140E+00
  .138E+00  .102E+00  .695E-01  .417E-01  .419E-01  .428E-01  .597E-01  .536E-01
  .419E-01  .369E-01  .336E-01  .318E-01  .283E-01  .270E-01  .273E-01  .260E-01
  .237E-01  .210E-01  .183E-01  .152E-01  .101E-01  .711E-02  .572E-02  .475E-02
  .404E-02  .345E-02  .295E-02  .000E+00  .000E+00  .000E+00  .000E+00  .000E+00
  .000E+00  .000E+00  .000E+00  .000E+00  .000E+00  .000E+00  .000E+00  .000E+00
  .000E+00  .000E+00  .000E+00  .000E+00
  .143E+01  .187E+01  .216E+01  .211E+01  .293E+01  .274E+01  .137E+01  .223E+01
  .278E+01  .220E+01  .368E+01  .434E+01  .707E+01  .556E+01  .630E+01  .432E+01
  .860E+01  .692E+01  .106E+02  .667E+01  .819E+01  .133E+02  .115E+02  .102E+02
  .115E+02  .171E+02  .159E+02  .125E+02  .181E+02  .169E+02  .102E+02  .106E+02
  .983E+01  .174E+02  .231E+02  .321E+02  .310E+02  .307E+02  .375E+02  .398E+02
  .407E+02  .271E+02  .261E+02  .193E+02  .213E+02  .132E+02  .180E+02  .254E+02
  .143E+02  .114E+02  .103E+02  .994E+01  .154E+02  .738E+01  .834E+01  .129E+02
  .135E+02  .107E+02  .768E+01  .487E+01  .514E+01  .578E+01  .880E+01  .857E+01
  .720E+01  .679E+01  .661E+01  .664E+01  .626E+01  .630E+01  .672E+01  .671E+01
  .640E+01  .594E+01  .539E+01  .468E+01  .343E+01  .262E+01  .229E+01  .204E+01
  .186E+01  .169E+01  .154E+01  .000E+00  .000E+00  .000E+00  .000E+00  .000E+00
  .000E+00  .000E+00  .000E+00  .000E+00  .000E+00  .000E+00  .000E+00  .000E+00
  .000E+00  .000E+00  .000E+00  .000E+00
  .399E+01  .399E+01  .399E+01  .400E+01  .434E+01  .436E+01  .394E+01  .469E+01
  .438E+01  .400E+01  .399E+01  .400E+01  .401E+01  .402E+01  .401E+01  .103E+02
  .101E+02  .782E+01  .402E+01  .411E+01  .411E+01  .484E+01  .440E+01  .440E+01
  .369E+01  .744E+01  .418E+01  .348E+01  .418E+01  .726E+01  .722E+01  .390E+01
  .458E+01  .456E+01  .103E+02  .684E+01  .886E+01  .752E+01  .494E+01  .498E+01
  .856E+01  .598E+01  .796E+01  .416E+01  .850E+01  .628E+01  .109E+02  .952E+01
  .718E+01  .370E+01  .976E+01  .720E+01  .129E+02  .108E+02  .135E+02  .110E+02
  .896E+01  .914E+01  .848E+01  .452E+01  .456E+01  .117E+02  .109E+02  .113E+02
  .784E+01  .792E+01  .682E+01  .692E+01  .700E+01  .113E+02  .116E+02  .119E+02
  .123E+02  .103E+02  .105E+02  .107E+02  .858E+01  .634E+01  .398E+01  .398E+01
  .434E+01  .434E+01  .434E+01  .000E+00  .000E+00  .000E+00  .000E+00  .000E+00
  .000E+00  .000E+00  .000E+00  .000E+00  .000E+00  .000E+00  .000E+00  .000E+00
  .000E+00  .000E+00  .000E+00  .000E+00
  .398E+01  .398E+01  .514E+01  .406E+01  .459E+01  .434E+01  .393E+01  .528E+01
  .440E+01  .419E+01  .420E+01  .542E+01  .403E+01  .404E+01  .955E+01  .107E+02
  .978E+01  .965E+01  .503E+01  .415E+01  .536E+01  .106E+02  .444E+01  .445E+01
  .364E+01  .740E+01  .424E+01  .354E+01  .424E+01  .734E+01  .730E+01  .396E+01
  .448E+01  .448E+01  .102E+02  .694E+01  .896E+01  .764E+01  .506E+01  .488E+01
  .768E+01  .584E+01  .812E+01  .404E+01  .974E+01  .380E+01  .107E+02  .932E+01
  .738E+01  .356E+01  .358E+01  .358E+01  .132E+02  .360E+01  .360E+01  .106E+02
  .862E+01  .870E+01  .404E+01  .404E+01  .404E+01  .404E+01  .404E+01  .404E+01
  .404E+01  .404E+01  .404E+01  .404E+01  .404E+01  .404E+01  .404E+01  .404E+01
  .404E+01  .404E+01  .332E+01  .332E+01  .332E+01  .332E+01  .332E+01  .332E+01
  .332E+01  .332E+01  .332E+01  .000E+00  .000E+00  .000E+00  .000E+00  .000E+00
  .000E+00  .000E+00  .000E+00  .000E+00  .000E+00  .000E+00  .000E+00  .000E+00
  .000E+00  .000E+00  .000E+00  .000E+00
  .399E+01  .399E+01  .399E+01  .400E+01  .434E+01  .436E+01  .394E+01  .469E+01
  .438E+01  .400E+01  .399E+01  .400E+01  .401E+01  .402E+01  .401E+01  .103E+02
  .101E+02  .782E+01  .402E+01  .411E+01  .411E+01  .484E+01  .440E+01  .440E+01
  .369E+01  .744E+01  .418E+01  .348E+01  .418E+01  .726E+01  .722E+01  .390E+01
  .458E+01  .456E+01  .103E+02  .684E+01  .886E+01  .752E+01  .494E+01  .498E+01
  .856E+01  .598E+01  .796E+01  .416E+01  .850E+01  .628E+01  .109E+02  .952E+01
  .718E+01  .370E+01  .976E+01  .720E+01  .129E+02  .108E+02  .135E+02  .110E+02
  .896E+01  .914E+01  .848E+01  .452E+01  .456E+01  .117E+02  .109E+02  .113E+02
  .784E+01  .792E+01  .682E+01  .692E+01  .700E+01  .113E+02  .116E+02  .119E+02
  .123E+02  .103E+02  .105E+02  .107E+02  .858E+01  .634E+01  .398E+01  .398E+01
  .434E+01  .434E+01  .434E+01  .000E+00  .000E+00  .000E+00  .000E+00  .000E+00
  .000E+00  .000E+00  .000E+00  .000E+00  .000E+00  .000E+00  .000E+00  .000E+00
  .000E+00  .000E+00  .000E+00  .000E+00
DAMPING =  .02. DATA OF SD,SV,SA,PSSV,TTSD,TTSV,TTSA :                          
  .908E-02  .111E-01  .135E-01  .148E-01  .163E-01  .168E-01  .111E-01  .177E-01
  .250E-01  .283E-01  .396E-01  .532E-01  .664E-01  .742E-01  .814E-01  .779E-01
  .830E-01  .967E-01  .144E+00  .157E+00  .212E+00  .257E+00  .266E+00  .302E+00
  .309E+00  .444E+00  .422E+00  .280E+00  .447E+00  .388E+00  .458E+00  .431E+00
  .528E+00  .811E+00  .103E+01  .134E+01  .144E+01  .166E+01  .208E+01  .225E+01
  .217E+01  .179E+01  .172E+01  .171E+01  .154E+01  .127E+01  .147E+01  .214E+01
  .156E+01  .158E+01  .148E+01  .137E+01  .197E+01  .135E+01  .150E+01  .234E+01
  .277E+01  .237E+01  .193E+01  .137E+01  .153E+01  .175E+01  .268E+01  .277E+01
  .281E+01  .283E+01  .306E+01  .326E+01  .327E+01  .312E+01  .352E+01  .371E+01
  .370E+01  .380E+01  .362E+01  .327E+01  .278E+01  .238E+01  .232E+01  .224E+01
  .216E+01  .211E+01  .204E+01  .000E+00  .000E+00  .000E+00  .000E+00  .000E+00
  .000E+00  .000E+00  .000E+00  .000E+00  .000E+00  .000E+00  .000E+00  .000E+00
  .000E+00  .000E+00  .000E+00  .000E+00
  .781E+00  .960E+00  .112E+01  .119E+01  .139E+01  .146E+01  .975E+00  .108E+01
  .149E+01  .141E+01  .201E+01  .281E+01  .351E+01  .378E+01  .402E+01  .369E+01
  .384E+01  .424E+01  .578E+01  .554E+01  .741E+01  .848E+01  .873E+01  .888E+01
  .843E+01  .125E+02  .114E+02  .688E+01  .103E+02  .849E+01  .876E+01  .797E+01
  .925E+01  .135E+02  .167E+02  .208E+02  .211E+02  .232E+02  .279E+02  .298E+02
  .277E+02  .221E+02  .196E+02  .213E+02  .180E+02  .135E+02  .122E+02  .162E+02
  .114E+02  .114E+02  .114E+02  .107E+02  .104E+02  .961E+01  .887E+01  .101E+02
  .118E+02  .106E+02  .980E+01  .100E+02  .102E+02  .102E+02  .100E+02  .981E+01
  .961E+01  .940E+01  .917E+01  .891E+01  .864E+01  .835E+01  .806E+01  .777E+01
  .750E+01  .724E+01  .701E+01  .703E+01  .708E+01  .709E+01  .708E+01  .704E+01
  .700E+01  .695E+01  .690E+01  .000E+00  .000E+00  .000E+00  .000E+00  .000E+00
  .000E+00  .000E+00  .000E+00  .000E+00  .000E+00  .000E+00  .000E+00  .000E+00
  .000E+00  .000E+00  .000E+00  .000E+00
  .580E+00  .647E+00  .712E+00  .716E+00  .723E+00  .684E+00  .374E+00  .504E+00
  .605E+00  .589E+00  .717E+00  .854E+00  .941E+00  .934E+00  .926E+00  .803E+00
  .702E+00  .691E+00  .868E+00  .822E+00  .960E+00  .102E+01  .940E+00  .955E+00
  .872E+00  .114E+01  .893E+00  .500E+00  .682E+00  .510E+00  .520E+00  .433E+00
  .469E+00  .642E+00  .731E+00  .857E+00  .834E+00  .882E+00  .101E+01  .100E+01
  .890E+00  .606E+00  .491E+00  .414E+00  .321E+00  .232E+00  .235E+00  .303E+00
  .197E+00  .179E+00  .151E+00  .115E+00  .140E+00  .815E-01  .784E-01  .106E+00
  .111E+00  .841E-01  .610E-01  .388E-01  .391E-01  .370E-01  .476E-01  .419E-01
  .368E-01  .322E-01  .306E-01  .289E-01  .259E-01  .221E-01  .225E-01  .215E-01
  .196E-01  .184E-01  .161E-01  .134E-01  .943E-02  .691E-02  .578E-02  .484E-02
  .407E-02  .349E-02  .301E-02  .000E+00  .000E+00  .000E+00  .000E+00  .000E+00
  .000E+00  .000E+00  .000E+00  .000E+00  .000E+00  .000E+00  .000E+00  .000E+00
  .000E+00  .000E+00  .000E+00  .000E+00
  .143E+01  .166E+01  .192E+01  .202E+01  .213E+01  .211E+01  .126E+01  .186E+01
  .242E+01  .254E+01  .332E+01  .417E+01  .491E+01  .518E+01  .538E+01  .489E+01
  .474E+01  .506E+01  .694E+01  .706E+01  .889E+01  .101E+02  .984E+01  .105E+02
  .102E+02  .139E+02  .121E+02  .732E+01  .108E+02  .870E+01  .959E+01  .847E+01
  .975E+01  .141E+02  .170E+02  .210E+02  .216E+02  .238E+02  .284E+02  .294E+02
  .273E+02  .204E+02  .180E+02  .165E+02  .138E+02  .106E+02  .115E+02  .158E+02
  .109E+02  .104E+02  .930E+01  .780E+01  .103E+02  .650E+01  .673E+01  .980E+01
  .109E+02  .876E+01  .674E+01  .453E+01  .480E+01  .499E+01  .702E+01  .669E+01
  .631E+01  .593E+01  .601E+01  .603E+01  .570E+01  .516E+01  .554E+01  .554E+01
  .529E+01  .519E+01  .474E+01  .411E+01  .317E+01  .249E+01  .224E+01  .201E+01
  .181E+01  .166E+01  .151E+01  .000E+00  .000E+00  .000E+00  .000E+00  .000E+00
  .000E+00  .000E+00  .000E+00  .000E+00  .000E+00  .000E+00  .000E+00  .000E+00
  .000E+00  .000E+00  .000E+00  .000E+00
  .399E+01  .399E+01  .399E+01  .400E+01  .400E+01  .401E+01  .401E+01  .399E+01
  .400E+01  .400E+01  .400E+01  .400E+01  .401E+01  .401E+01  .401E+01  .401E+01
  .402E+01  .409E+01  .410E+01  .411E+01  .412E+01  .413E+01  .414E+01  .414E+01
  .415E+01  .414E+01  .418E+01  .418E+01  .420E+01  .532E+01  .438E+01  .438E+01
  .438E+01  .438E+01  .440E+01  .462E+01  .466E+01  .490E+01  .494E+01  .498E+01
  .478E+01  .434E+01  .412E+01  .416E+01  .394E+01  .396E+01  .936E+01  .910E+01
  .368E+01  .370E+01  .372E+01  .720E+01  .105E+02  .107E+02  .107E+02  .882E+01
  .896E+01  .836E+01  .844E+01  .452E+01  .456E+01  .460E+01  .109E+02  .113E+02
  .782E+01  .790E+01  .682E+01  .692E+01  .698E+01  .113E+02  .116E+02  .119E+02
  .122E+02  .103E+02  .104E+02  .106E+02  .856E+01  .632E+01  .398E+01  .398E+01
  .434E+01  .434E+01  .434E+01  .000E+00  .000E+00  .000E+00  .000E+00  .000E+00
  .000E+00  .000E+00  .000E+00  .000E+00  .000E+00  .000E+00  .000E+00  .000E+00
  .000E+00  .000E+00  .000E+00  .000E+00
  .398E+01  .398E+01  .398E+01  .406E+01  .406E+01  .407E+01  .393E+01  .429E+01
  .408E+01  .408E+01  .402E+01  .402E+01  .403E+01  .403E+01  .404E+01  .404E+01
  .439E+01  .406E+01  .406E+01  .407E+01  .408E+01  .409E+01  .444E+01  .445E+01
  .410E+01  .420E+01  .422E+01  .424E+01  .426E+01  .512E+01  .446E+01  .448E+01
  .448E+01  .448E+01  .450E+01  .452E+01  .454E+01  .502E+01  .482E+01  .486E+01
  .490E+01  .422E+01  .402E+01  .404E+01  .406E+01  .378E+01  .378E+01  .930E+01
  .382E+01  .354E+01  .356E+01  .358E+01  .902E+01  .360E+01  .360E+01  .916E+01
  .862E+01  .868E+01  .404E+01  .404E+01  .404E+01  .404E+01  .404E+01  .404E+01
  .404E+01  .404E+01  .404E+01  .404E+01  .404E+01  .404E+01  .404E+01  .404E+01
  .404E+01  .404E+01  .404E+01  .332E+01  .332E+01  .332E+01  .332E+01  .332E+01
  .332E+01  .332E+01  .332E+01  .000E+00  .000E+00  .000E+00  .000E+00  .000E+00
  .000E+00  .000E+00  .000E+00  .000E+00  .000E+00  .000E+00  .000E+00  .000E+00
  .000E+00  .000E+00  .000E+00  .000E+00
  .399E+01  .399E+01  .399E+01  .400E+01  .400E+01  .401E+01  .401E+01  .399E+01
  .400E+01  .400E+01  .400E+01  .400E+01  .401E+01  .401E+01  .401E+01  .401E+01
  .402E+01  .409E+01  .410E+01  .411E+01  .411E+01  .413E+01  .414E+01  .414E+01
  .415E+01  .414E+01  .416E+01  .418E+01  .418E+01  .532E+01  .438E+01  .438E+01
  .438E+01  .438E+01  .440E+01  .462E+01  .466E+01  .490E+01  .494E+01  .498E+01
  .478E+01  .434E+01  .412E+01  .416E+01  .394E+01  .396E+01  .936E+01  .910E+01
