Response and Fourier amplitude spectra (91 periods,  .04 - 15.0 sec)   for      
Corrected accelerogram   24207-M0150-01010.01       Chan  6:  Radl       from   
Uncorrected Accelerogram Data             Processed: 03/04/11, CGS  207fa001    
Record of Sat Jan 13, 2001 18:26:11.0 PST             (Avol1 v8.9,05/09 CSMIP)  
CSMIP Preliminary Processing            (Origin:  To be determined)             
24207-M0150-01010.01                 Start time:  1/14/01, 02:26:11.0 UTC (GPS) 
Station No. 24207   34.334N, 118.396W    MtWtny  s/n  150 (17 Chns of 17 at Sta)
Sylmar - Pacoima Dam                      CGS                                   
Chan  6:  Radl                      Location: 80% Height: Right 1/3-length Point
Record of Sat Jan 13, 2001 18:26:11.0 PST    Sat Jan 13, 2001 18:26:11.0 PST    
Hypocenter:  To be determined.               ML:  To be determined.
Instr Period =  .0104 sec,  Damping =  .660,  Sensitivity =  .63  v/g
                        Record length = 41.000 sec.
                                     Uncor Max  =   .046 g , at   6.925 sec.
RMS accel of (uncor) record  =        .   Chn. metadata effective date: 09/02/99
Accelerogram bandpass filtered with 3 dB pts at   .50 and 40.00 cyc/sec
                 instrument- and baseline-corrected





Record of Sat Jan 13, 2001 18:26:11.0 PST    Sat Jan 13, 2001 18:26:11.0 PST

24207-M0150-01010.01      Sylmar - Pacoima Dam    Chan  6:  Radl

24207-M0150-01010.01      Sylmar - Pacoima Dam    Chan  6:  Radl

Units for spectra are inches and sec, except Sa is in fraction of g.

    6  100    6   18   17  200    1    3    1   24   13  150    024207    5    0
    2   26   11    0   14    1   14 2001   10    3  700 8200   41   20   76   -1
 8200    0  100    3  150    1    1  410    2    0    0    0    0    0    0    0
    0    4    0    0 8200    1  212    1   18    4    0    0    3    1    0 8200
    3 8200    1   91    5   17    5    0    0    0    0    0    0    3    1    2
    2    2    4    0   68   99    0    1    0    0    0    1    0    0    0  222
    1    0    2    0
      .010      .660    41.000      .003      .000   627.000      .046     6.925
    96.400      .298      .475      .000     5.000      .000     4.000      .000
     2.500    -5.416     2.500  2016.000     5.000    30.000      .000      .000
      .000      .000     2.000    15.000    34.334  -118.396      .007      .065
     9.176     -.003      .004   594.000     5.400     9.900    12.700   100.040
     1.000    -1.009      .000      .000      .000      .000      .000      .000
     7.200     8.900     5.800   980.665      .005    41.000    15.343      .000
      .000    40.000      .000    41.000      .005      .500      .000      .000
     6.920    45.390     6.855    -1.955     6.790      .124      .000      .500
    40.000      .005      .005      .000      .005      .012      .000      .000
      .142      .220      .141      .096      .006      .001      .000      .000
      .000      .000      .000      .000      .000      .000      .000      .000
      .000      .000      .000      .000
      .000      .020      .050      .100      .200
      .040      .042      .044      .046      .048      .050      .055      .060
      .065      .070      .075      .080      .085      .090      .095      .100
      .110      .120      .130      .140      .150      .160      .170      .180
      .190      .200      .220      .240      .260      .280      .300      .320
      .340      .360      .380      .400      .420      .440      .460      .480
      .500      .550      .600      .650      .700      .750      .800      .850
      .900      .950     1.000     1.100     1.200     1.300     1.400     1.500
     1.600     1.700     1.800     1.900     2.000     2.200     2.400     2.600
     2.800     3.000     3.200     3.400     3.600     3.800     4.000     4.200
     4.400     4.600     4.800     5.000     5.500     6.000     6.500     7.000
     7.500     8.000     8.500     9.000     9.500    10.000    11.000    12.000
    13.000    14.000    15.000      .000      .000      .000      .000      .000
      .000      .000      .000      .000
Fourier amplitude spectra in in/sec.
  .197E-01  .237E-01  .403E-01  .235E-01  .417E-01  .289E-01  .123E-01  .104E+00
  .163E+00  .871E-01  .631E+00  .283E+00  .600E-01  .553E-01  .355E+00  .184E+00
  .183E+00  .234E+00  .152E+00  .717E-01  .730E+00  .125E+01  .126E+01  .183E+01
  .334E+01  .264E+01  .196E+01  .184E+01  .189E+01  .289E+01  .305E+01  .213E+01
  .219E+01  .181E+01  .123E+01  .109E+01  .344E+00  .112E+01  .130E+01  .109E+01
  .136E+01  .458E+00  .141E+01  .819E+00  .734E+00  .354E+00  .564E+00  .474E+00
  .285E+00  .434E+00  .444E+00  .298E+00  .160E+00  .342E-01  .735E-01  .110E+00
  .113E+00  .104E+00  .676E-01  .573E-01  .574E-01  .255E-01  .209E-01  .161E-01
  .139E-01  .869E-02  .556E-02  .319E-02  .248E-02  .169E-02  .134E-02  .674E-03
  .437E-03  .433E-03  .305E-03  .158E-03  .217E-03  .727E-04  .720E-04  .300E-04
  .419E-04  .446E-04  .354E-04  .357E-04  .340E-04  .261E-04  .232E-04  .314E-04
  .293E-04  .261E-04  .279E-04  .000E+00  .000E+00  .000E+00  .000E+00  .000E+00
  .000E+00  .000E+00  .000E+00  .000E+00
Damping =  .00. Data of Sd,Sv,Sa,Pssv,ttSd,ttSv,ttSa :
  .855E-03  .926E-03  .125E-02  .111E-02  .134E-02  .128E-02  .176E-02  .248E-02
  .426E-02  .383E-02  .785E-02  .615E-02  .523E-02  .519E-02  .597E-02  .752E-02
  .955E-02  .114E-01  .143E-01  .193E-01  .295E-01  .405E-01  .445E-01  .666E-01
  .109E+00  .108E+00  .947E-01  .103E+00  .102E+00  .136E+00  .151E+00  .139E+00
  .134E+00  .114E+00  .110E+00  .104E+00  .976E-01  .976E-01  .101E+00  .108E+00
  .112E+00  .948E-01  .139E+00  .109E+00  .890E-01  .825E-01  .772E-01  .715E-01
  .648E-01  .657E-01  .718E-01  .612E-01  .594E-01  .594E-01  .591E-01  .588E-01
  .588E-01  .588E-01  .589E-01  .589E-01  .588E-01  .584E-01  .575E-01  .565E-01
  .554E-01  .543E-01  .535E-01  .527E-01  .521E-01  .516E-01  .512E-01  .509E-01
  .507E-01  .504E-01  .502E-01  .501E-01  .498E-01  .496E-01  .494E-01  .493E-01
  .492E-01  .491E-01  .491E-01  .490E-01  .490E-01  .489E-01  .489E-01  .489E-01
  .488E-01  .488E-01  .488E-01  .000E+00  .000E+00  .000E+00  .000E+00  .000E+00
  .000E+00  .000E+00  .000E+00  .000E+00
  .465E-01  .386E-01  .691E-01  .556E-01  .840E-01  .713E-01  .940E-01  .139E+00
  .279E+00  .219E+00  .650E+00  .366E+00  .285E+00  .263E+00  .375E+00  .302E+00
  .332E+00  .404E+00  .512E+00  .678E+00  .102E+01  .146E+01  .152E+01  .223E+01
  .357E+01  .336E+01  .271E+01  .265E+01  .246E+01  .303E+01  .314E+01  .274E+01
  .249E+01  .209E+01  .207E+01  .198E+01  .189E+01  .181E+01  .170E+01  .156E+01
  .141E+01  .136E+01  .146E+01  .134E+01  .129E+01  .122E+01  .116E+01  .112E+01
  .110E+01  .107E+01  .105E+01  .100E+01  .960E+00  .925E+00  .899E+00  .880E+00
  .865E+00  .852E+00  .841E+00  .831E+00  .823E+00  .808E+00  .798E+00  .790E+00
  .785E+00  .782E+00  .779E+00  .777E+00  .776E+00  .775E+00  .774E+00  .774E+00
  .773E+00  .773E+00  .773E+00  .772E+00  .772E+00  .771E+00  .771E+00  .771E+00
  .770E+00  .770E+00  .770E+00  .770E+00  .770E+00  .770E+00  .770E+00  .770E+00
  .769E+00  .769E+00  .769E+00  .000E+00  .000E+00  .000E+00  .000E+00  .000E+00
  .000E+00  .000E+00  .000E+00  .000E+00
  .547E-01  .537E-01  .661E-01  .538E-01  .594E-01  .525E-01  .594E-01  .706E-01
  .103E+00  .800E-01  .143E+00  .982E-01  .740E-01  .656E-01  .676E-01  .769E-01
  .807E-01  .812E-01  .863E-01  .101E+00  .134E+00  .162E+00  .157E+00  .210E+00
  .310E+00  .275E+00  .200E+00  .183E+00  .154E+00  .177E+00  .171E+00  .139E+00
  .119E+00  .899E-01  .779E-01  .663E-01  .566E-01  .515E-01  .489E-01  .478E-01
  .459E-01  .321E-01  .396E-01  .265E-01  .186E-01  .150E-01  .123E-01  .101E-01
  .819E-02  .745E-02  .735E-02  .517E-02  .422E-02  .360E-02  .308E-02  .267E-02
  .235E-02  .208E-02  .186E-02  .167E-02  .150E-02  .123E-02  .102E-02  .854E-03
  .722E-03  .617E-03  .534E-03  .466E-03  .411E-03  .366E-03  .328E-03  .295E-03
  .268E-03  .244E-03  .223E-03  .205E-03  .168E-03  .141E-03  .120E-03  .103E-03
  .895E-04  .785E-04  .695E-04  .619E-04  .555E-04  .501E-04  .413E-04  .347E-04
  .295E-04  .255E-04  .222E-04  .000E+00  .000E+00  .000E+00  .000E+00  .000E+00
  .000E+00  .000E+00  .000E+00  .000E+00
  .134E+00  .138E+00  .179E+00  .152E+00  .175E+00  .161E+00  .201E+00  .260E+00
  .412E+00  .344E+00  .658E+00  .483E+00  .386E+00  .363E+00  .395E+00  .472E+00
  .545E+00  .598E+00  .689E+00  .866E+00  .123E+01  .159E+01  .164E+01  .232E+01
  .361E+01  .338E+01  .270E+01  .269E+01  .247E+01  .304E+01  .316E+01  .273E+01
  .248E+01  .199E+01  .182E+01  .163E+01  .146E+01  .139E+01  .138E+01  .141E+01
  .141E+01  .108E+01  .146E+01  .106E+01  .798E+00  .691E+00  .606E+00  .528E+00
  .453E+00  .435E+00  .451E+00  .349E+00  .311E+00  .287E+00  .265E+00  .246E+00
  .231E+00  .217E+00  .206E+00  .195E+00  .185E+00  .167E+00  .151E+00  .136E+00
  .124E+00  .114E+00  .105E+00  .974E-01  .910E-01  .854E-01  .805E-01  .762E-01
  .723E-01  .689E-01  .658E-01  .629E-01  .569E-01  .519E-01  .478E-01  .442E-01
  .412E-01  .386E-01  .363E-01  .342E-01  .324E-01  .308E-01  .279E-01  .256E-01
  .236E-01  .219E-01  .204E-01  .000E+00  .000E+00  .000E+00  .000E+00  .000E+00
  .000E+00  .000E+00  .000E+00  .000E+00
  .680E+01  .692E+01  .692E+01  .691E+01  .681E+01  .691E+01  .692E+01  .691E+01
  .692E+01  .681E+01  .882E+01  .678E+01  .688E+01  .688E+01  .680E+01  .678E+01
  .680E+01  .680E+01  .680E+01  .690E+01  .691E+01  .701E+01  .738E+01  .740E+01
  .963E+01  .865E+01  .718E+01  .720E+01  .723E+01  .112E+02  .112E+02  .795E+01
  .988E+01  .844E+01  .703E+01  .705E+01  .705E+01  .689E+01  .690E+01  .954E+01
  .107E+02  .691E+01  .207E+02  .985E+01  .118E+02  .737E+01  .738E+01  .740E+01
  .928E+01  .398E+02  .320E+02  .109E+02  .678E+01  .678E+01  .678E+01  .678E+01
  .678E+01  .678E+01  .678E+01  .678E+01  .678E+01  .678E+01  .678E+01  .678E+01
  .678E+01  .678E+01  .678E+01  .678E+01  .678E+01  .678E+01  .678E+01  .678E+01
  .678E+01  .678E+01  .678E+01  .678E+01  .678E+01  .678E+01  .678E+01  .678E+01
  .678E+01  .678E+01  .678E+01  .678E+01  .678E+01  .678E+01  .678E+01  .678E+01
  .678E+01  .678E+01  .678E+01  .000E+00  .000E+00  .000E+00  .000E+00  .000E+00
  .000E+00  .000E+00  .000E+00  .000E+00
  .685E+01  .705E+01  .705E+01  .684E+01  .706E+01  .684E+01  .694E+01  .684E+01
  .694E+01  .705E+01  .885E+01  .641E+01  .686E+01  .686E+01  .165E+02  .675E+01
  .684E+01  .773E+01  .685E+01  .686E+01  .696E+01  .697E+01  .734E+01  .745E+01
  .967E+01  .860E+01  .723E+01  .726E+01  .716E+01  .957E+01  .113E+02  .803E+01
  .980E+01  .695E+01  .696E+01  .696E+01  .696E+01  .697E+01  .697E+01  .698E+01
  .684E+01  .684E+01  .215E+02  .684E+01  .685E+01  .685E+01  .685E+01  .685E+01
  .685E+01  .685E+01  .685E+01  .685E+01  .685E+01  .685E+01  .685E+01  .685E+01
  .685E+01  .685E+01  .685E+01  .685E+01  .685E+01  .685E+01  .685E+01  .685E+01
  .685E+01  .685E+01  .685E+01  .685E+01  .685E+01  .685E+01  .685E+01  .685E+01
  .685E+01  .685E+01  .685E+01  .685E+01  .685E+01  .685E+01  .685E+01  .685E+01
  .685E+01  .685E+01  .685E+01  .685E+01  .685E+01  .685E+01  .685E+01  .685E+01
  .685E+01  .685E+01  .685E+01  .000E+00  .000E+00  .000E+00  .000E+00  .000E+00
  .000E+00  .000E+00  .000E+00  .000E+00
  .680E+01  .692E+01  .692E+01  .691E+01  .681E+01  .691E+01  .692E+01  .691E+01
  .692E+01  .681E+01  .882E+01  .678E+01  .688E+01  .688E+01  .680E+01  .678E+01
  .680E+01  .680E+01  .680E+01  .690E+01  .691E+01  .701E+01  .738E+01  .740E+01
  .963E+01  .865E+01  .718E+01  .720E+01  .723E+01  .112E+02  .112E+02  .795E+01
  .988E+01  .844E+01  .703E+01  .705E+01  .705E+01  .689E+01  .690E+01  .954E+01
  .107E+02  .691E+01  .207E+02  .985E+01  .118E+02  .737E+01  .738E+01  .740E+01
  .928E+01  .398E+02  .320E+02  .109E+02  .678E+01  .678E+01  .678E+01  .678E+01
  .678E+01  .678E+01  .678E+01  .678E+01  .678E+01  .678E+01  .678E+01  .678E+01
  .678E+01  .678E+01  .678E+01  .678E+01  .678E+01  .678E+01  .678E+01  .678E+01
  .678E+01  .678E+01  .678E+01  .678E+01  .678E+01  .678E+01  .678E+01  .678E+01
  .678E+01  .678E+01  .678E+01  .678E+01  .678E+01  .678E+01  .678E+01  .678E+01
  .678E+01  .678E+01  .678E+01  .000E+00  .000E+00  .000E+00  .000E+00  .000E+00
  .000E+00  .000E+00  .000E+00  .000E+00
Damping =  .02. Data of Sd,Sv,Sa,Pssv,ttSd,ttSv,ttSa :
  .782E-03  .911E-03  .104E-02  .112E-02  .119E-02  .126E-02  .170E-02  .202E-02
  .327E-02  .373E-02  .445E-02  .421E-02  .500E-02  .506E-02  .520E-02  .612E-02
  .843E-02  .106E-01  .134E-01  .188E-01  .265E-01  .340E-01  .378E-01  .500E-01
  .630E-01  .686E-01  .815E-01  .882E-01  .885E-01  .918E-01  .108E+00  .107E+00
  .101E+00  .103E+00  .101E+00  .960E-01  .902E-01  .931E-01  .959E-01  .969E-01
  .960E-01  .919E-01  .895E-01  .847E-01  .767E-01  .758E-01  .720E-01  .670E-01
  .608E-01  .537E-01  .550E-01  .572E-01  .582E-01  .584E-01  .582E-01  .581E-01
  .581E-01  .581E-01  .582E-01  .582E-01  .582E-01  .578E-01  .571E-01  .561E-01
  .551E-01  .542E-01  .534E-01  .527E-01  .521E-01  .516E-01  .512E-01  .509E-01
  .507E-01  .505E-01  .503E-01  .501E-01  .498E-01  .496E-01  .494E-01  .493E-01
  .492E-01  .491E-01  .491E-01  .490E-01  .490E-01  .489E-01  .489E-01  .488E-01
  .488E-01  .488E-01  .489E-01  .000E+00  .000E+00  .000E+00  .000E+00  .000E+00
  .000E+00  .000E+00  .000E+00  .000E+00
  .271E-01  .287E-01  .426E-01  .521E-01  .570E-01  .566E-01  .707E-01  .921E-01
  .192E+00  .249E+00  .331E+00  .253E+00  .275E+00  .231E+00  .196E+00  .231E+00
  .281E+00  .332E+00  .489E+00  .665E+00  .871E+00  .119E+01  .131E+01  .167E+01
  .206E+01  .212E+01  .227E+01  .230E+01  .220E+01  .218E+01  .225E+01  .217E+01
  .193E+01  .197E+01  .196E+01  .189E+01  .181E+01  .173E+01  .162E+01  .150E+01
  .136E+01  .133E+01  .132E+01  .131E+01  .126E+01  .121E+01  .116E+01  .112E+01
  .109E+01  .107E+01  .104E+01  .100E+01  .960E+00  .927E+00  .902E+00  .883E+00
  .867E+00  .854E+00  .843E+00  .834E+00  .825E+00  .811E+00  .801E+00  .793E+00
  .788E+00  .784E+00  .781E+00  .779E+00  .778E+00  .777E+00  .776E+00  .775E+00
  .775E+00  .774E+00  .774E+00  .773E+00  .773E+00  .772E+00  .772E+00  .771E+00
  .771E+00  .771E+00  .771E+00  .771E+00  .770E+00  .770E+00  .770E+00  .770E+00
  .770E+00  .770E+00  .770E+00  .000E+00  .000E+00  .000E+00  .000E+00  .000E+00
  .000E+00  .000E+00  .000E+00  .000E+00
  .500E-01  .529E-01  .547E-01  .539E-01  .529E-01  .514E-01  .576E-01  .575E-01
  .792E-01  .779E-01  .805E-01  .671E-01  .705E-01  .638E-01  .590E-01  .627E-01
  .712E-01  .751E-01  .814E-01  .982E-01  .120E+00  .136E+00  .134E+00  .158E+00
  .179E+00  .175E+00  .172E+00  .157E+00  .134E+00  .120E+00  .123E+00  .107E+00
  .890E-01  .814E-01  .717E-01  .614E-01  .523E-01  .492E-01  .464E-01  .431E-01
  .394E-01  .311E-01  .255E-01  .206E-01  .161E-01  .138E-01  .115E-01  .950E-02
  .770E-02  .612E-02  .565E-02  .486E-02  .416E-02  .356E-02  .306E-02  .267E-02
  .235E-02  .208E-02  .186E-02  .168E-02  .151E-02  .125E-02  .104E-02  .874E-03
  .744E-03  .640E-03  .557E-03  .490E-03  .435E-03  .389E-03  .351E-03  .318E-03
  .290E-03  .266E-03  .246E-03  .227E-03  .190E-03  .162E-03  .141E-03  .123E-03
  .109E-03  .981E-04  .886E-04  .805E-04  .738E-04  .679E-04  .584E-04  .510E-04
  .452E-04  .405E-04  .366E-04  .000E+00  .000E+00  .000E+00  .000E+00  .000E+00
  .000E+00  .000E+00  .000E+00  .000E+00
  .123E+00  .136E+00  .148E+00  .152E+00  .156E+00  .158E+00  .195E+00  .211E+00
  .316E+00  .335E+00  .373E+00  .331E+00  .369E+00  .353E+00  .344E+00  .384E+00
  .481E+00  .554E+00  .649E+00  .846E+00  .111E+01  .134E+01  .140E+01  .175E+01
  .208E+01  .215E+01  .233E+01  .231E+01  .214E+01  .206E+01  .226E+01  .210E+01
  .186E+01  .180E+01  .167E+01  .151E+01  .135E+01  .133E+01  .131E+01  .127E+01
  .121E+01  .105E+01  .937E+00  .819E+00  .688E+00  .635E+00  .565E+00  .495E+00
  .425E+00  .355E+00  .345E+00  .327E+00  .305E+00  .282E+00  .261E+00  .243E+00
  .228E+00  .215E+00  .203E+00  .193E+00  .183E+00  .165E+00  .149E+00  .136E+00
  .124E+00  .113E+00  .105E+00  .973E-01  .909E-01  .854E-01  .805E-01  .762E-01
  .724E-01  .689E-01  .658E-01  .630E-01  .569E-01  .519E-01  .478E-01  .443E-01
  .412E-01  .386E-01  .363E-01  .342E-01  .324E-01  .307E-01  .279E-01  .256E-01
  .236E-01  .219E-01  .205E-01  .000E+00  .000E+00  .000E+00  .000E+00  .000E+00
  .000E+00  .000E+00  .000E+00  .000E+00
  .692E+01  .692E+01  .692E+01  .692E+01  .692E+01  .692E+01  .692E+01  .692E+01
  .692E+01  .693E+01  .709E+01  .688E+01  .689E+01  .689E+01  .678E+01  .678E+01
  .680E+01  .680E+01  .681E+01  .690E+01  .691E+01  .692E+01  .703E+01  .713E+01
  .753E+01  .755E+01  .718E+01  .720E+01  .723E+01  .711E+01  .759E+01  .763E+01
  .701E+01  .702E+01  .703E+01  .704E+01  .705E+01  .689E+01  .690E+01  .690E+01
  .691E+01  .691E+01  .692E+01  .692E+01  .693E+01  .737E+01  .738E+01  .739E+01
  .740E+01  .677E+01  .677E+01  .677E+01  .678E+01  .678E+01  .678E+01  .678E+01
  .678E+01  .678E+01  .678E+01  .678E+01  .678E+01  .678E+01  .678E+01  .678E+01
  .678E+01  .678E+01  .678E+01  .678E+01  .678E+01  .678E+01  .678E+01  .678E+01
  .678E+01  .678E+01  .678E+01  .678E+01  .678E+01  .678E+01  .678E+01  .678E+01
  .678E+01  .678E+01  .678E+01  .678E+01  .678E+01  .678E+01  .678E+01  .678E+01
  .678E+01  .678E+01  .678E+01  .000E+00  .000E+00  .000E+00  .000E+00  .000E+00
  .000E+00  .000E+00  .000E+00  .000E+00
  .685E+01  .705E+01  .705E+01  .705E+01  .706E+01  .684E+01  .694E+01  .694E+01
  .694E+01  .706E+01  .707E+01  .724E+01  .686E+01  .687E+01  .675E+01  .675E+01
  .676E+01  .676E+01  .686E+01  .686E+01  .696E+01  .697E+01  .708E+01  .709E+01
  .748E+01  .761E+01  .713E+01  .714E+01  .716E+01  .705E+01  .706E+01  .755E+01
  .694E+01  .695E+01  .695E+01  .696E+01  .696E+01  .697E+01  .697E+01  .697E+01
  .698E+01  .684E+01  .684E+01  .684E+01  .684E+01  .685E+01  .685E+01  .685E+01
  .685E+01  .685E+01  .685E+01  .685E+01  .685E+01  .685E+01  .685E+01  .685E+01
  .685E+01  .685E+01  .685E+01  .685E+01  .685E+01  .685E+01  .685E+01  .685E+01
  .685E+01  .685E+01  .685E+01  .685E+01  .685E+01  .685E+01  .685E+01  .685E+01
  .685E+01  .685E+01  .685E+01  .685E+01  .685E+01  .685E+01  .685E+01  .685E+01
  .685E+01  .685E+01  .685E+01  .685E+01  .685E+01  .685E+01  .685E+01  .685E+01
  .685E+01  .685E+01  .685E+01  .000E+00  .000E+00  .000E+00  .000E+00  .000E+00
  .000E+00  .000E+00  .000E+00  .000E+00
  .692E+01  .692E+01  .692E+01  .692E+01  .692E+01  .692E+01  .692E+01  .692E+01
  .692E+01  .693E+01  .709E+01  .688E+01  .689E+01  .689E+01  .678E+01  .678E+01
  .680E+01  .680E+01  .680E+01  .690E+01  .691E+01  .692E+01  .703E+01  .713E+01
  .752E+01  .755E+01  .718E+01  .720E+01  .722E+01  .711E+01  .759E+01  .763E+01
  .701E+01  .702E+01  .703E+01  .704E+01  .705E+01  .689E+01  .689E+01  .690E+01
  .690E+01  .691E+01  .691E+01  .692E+01  .692E+01  .736E+01  .738E+01  .739E+01
  .740E+01  .676E+01  .676E+01  .677E+01  .677E+01  .677E+01  .677E+01  .677E+01
  .677E+01  .677E+01  .677E+01  .677E+01  .677E+01  .677E+01  .677E+01  .677E+01
  .677E+01  .677E+01  .677E+01  .676E+01  .676E+01  .676E+01  .676E+01  .676E+01
  .676E+01  .676E+01  .676E+01  .676E+01  .676E+01  .675E+01  .675E+01  .675E+01
  .675E+01  .675E+01  .675E+01  .674E+01  .674E+01  .674E+01  .674E+01  .674E+01
  .674E+01  .674E+01  .674E+01  .000E+00  .000E+00  .000E+00  .000E+00  .000E+00
  .000E+00  .000E+00  .000E+00  .000E+00
Damping =  .05. Data of Sd,Sv,Sa,Pssv,ttSd,ttSv,ttSa :
  .789E-03  .896E-03  .100E-02  .110E-02  .119E-02  .129E-02  .168E-02  .208E-02
  .278E-02  .331E-02  .365E-02  .369E-02  .424E-02  .460E-02  .499E-02  .572E-02
  .768E-02  .979E-02  .125E-01  .173E-01  .233E-01  .290E-01  .337E-01  .416E-01
  .491E-01  .550E-01  .667E-01  .736E-01  .766E-01  .791E-01  .832E-01  .880E-01
  .904E-01  .916E-01  .899E-01  .857E-01  .838E-01  .868E-01  .890E-01  .900E-01
