Response and Fourier amplitude spectra (91 periods,  .04 - 15.0 sec)   for      
Corrected accelerogram   24207-M0150-01010.01       Chan  4:  Tang       from   
Uncorrected Accelerogram Data             Processed: 03/04/11, CGS  207fa001    
Record of Sat Jan 13, 2001 18:26:11.0 PST             (Avol1 v8.9,05/09 CSMIP)  
CSMIP Preliminary Processing            (Origin:  To be determined)             
24207-M0150-01010.01                 Start time:  1/14/01, 02:26:11.0 UTC (GPS) 
Station No. 24207   34.334N, 118.396W    MtWtny  s/n  150 (17 Chns of 17 at Sta)
Sylmar - Pacoima Dam                      CGS                                   
Chan  4:  Tang                      Location: Crest: Center                     
Record of Sat Jan 13, 2001 18:26:11.0 PST    Sat Jan 13, 2001 18:26:11.0 PST    
Hypocenter:  To be determined.               ML:  To be determined.
Instr Period =  .0106 sec,  Damping =  .660,  Sensitivity =  .63  v/g
                        Record length = 41.000 sec.
                                     Uncor Max  =   .039 g , at   7.015 sec.
RMS accel of (uncor) record  =        .   Chn. metadata effective date: 09/02/99
Accelerogram bandpass filtered with 3 dB pts at   .50 and 40.00 cyc/sec
                 instrument- and baseline-corrected





Record of Sat Jan 13, 2001 18:26:11.0 PST    Sat Jan 13, 2001 18:26:11.0 PST

24207-M0150-01010.01      Sylmar - Pacoima Dam    Chan  4:  Tang

24207-M0150-01010.01      Sylmar - Pacoima Dam    Chan  4:  Tang

Units for spectra are inches and sec, except Sa is in fraction of g.

    4  100    4   18   17  200    1    3    1   24   13  150    024207    5    0
    2   26   11    0   14    1   14 2001   10    3 1000 8200   41   20   76   -1
 8200    0  100    3  150    1    1  410    2    0    0    0    0    0    0    0
    0    4    0    0 8200    1  212    1   18    4    0    0    3    1    0 8200
    3 8200    1   91    5   17    5    0    0    0    0    0    0    3    1    2
    2    2    4    0   68   99    0    1    0    0    0    1    0    0    0  222
    1    0    2    0
      .011      .660    41.000      .003      .000   625.000      .039     7.015
    94.400      .298      .477      .000     5.000      .000     4.000      .000
     2.500   -16.271     2.500  2016.000     5.000    30.000      .000      .000
      .000      .000     2.000    15.000    34.334  -118.396      .011      .062
     5.724     -.003      .004   594.000     5.400     9.900    12.700   100.040
     1.000     1.004      .000      .000      .000      .000      .000      .000
     7.200     8.900     5.800   980.665      .005    41.000    15.024      .000
      .000    40.000      .000    41.000      .005      .500      .000      .000
     7.015    37.854     6.835     1.260     6.770     -.083      .000      .500
    40.000      .005      .005      .000      .005      .010      .000      .000
      .172      .190      .162      .062      .005      .001      .000      .000
      .000      .000      .000      .000      .000      .000      .000      .000
      .000      .000      .000      .000
      .000      .020      .050      .100      .200
      .040      .042      .044      .046      .048      .050      .055      .060
      .065      .070      .075      .080      .085      .090      .095      .100
      .110      .120      .130      .140      .150      .160      .170      .180
      .190      .200      .220      .240      .260      .280      .300      .320
      .340      .360      .380      .400      .420      .440      .460      .480
      .500      .550      .600      .650      .700      .750      .800      .850
      .900      .950     1.000     1.100     1.200     1.300     1.400     1.500
     1.600     1.700     1.800     1.900     2.000     2.200     2.400     2.600
     2.800     3.000     3.200     3.400     3.600     3.800     4.000     4.200
     4.400     4.600     4.800     5.000     5.500     6.000     6.500     7.000
     7.500     8.000     8.500     9.000     9.500    10.000    11.000    12.000
    13.000    14.000    15.000      .000      .000      .000      .000      .000
      .000      .000      .000      .000
Fourier amplitude spectra in in/sec.
  .129E+00  .150E+00  .142E+00  .363E+00  .446E+00  .319E+00  .199E+00  .237E+00
  .838E-01  .203E+00  .322E+00  .101E+01  .551E+00  .505E+00  .318E+00  .195E+00
  .354E+00  .602E+00  .777E+00  .126E+01  .304E+00  .672E+00  .926E+00  .219E+01
  .405E+01  .379E+01  .305E+01  .250E+01  .127E+01  .979E+00  .649E+00  .828E+00
  .103E+01  .902E+00  .955E+00  .936E+00  .879E+00  .613E+00  .764E+00  .725E+00
  .616E+00  .669E+00  .567E+00  .600E+00  .553E+00  .408E+00  .497E+00  .333E+00
  .212E+00  .349E+00  .402E+00  .123E+00  .179E+00  .128E+00  .856E-01  .787E-01
  .883E-01  .583E-01  .252E-01  .465E-01  .531E-01  .417E-01  .272E-01  .171E-01
  .895E-02  .358E-02  .161E-02  .158E-02  .142E-02  .150E-02  .793E-03  .557E-03
  .520E-03  .486E-03  .442E-03  .341E-03  .296E-03  .124E-03  .132E-03  .372E-04
  .556E-04  .647E-04  .369E-04  .302E-04  .412E-04  .442E-04  .433E-04  .415E-04
  .349E-04  .349E-04  .417E-04  .000E+00  .000E+00  .000E+00  .000E+00  .000E+00
  .000E+00  .000E+00  .000E+00  .000E+00
Damping =  .00. Data of Sd,Sv,Sa,Pssv,ttSd,ttSv,ttSa :
  .187E-02  .168E-02  .184E-02  .321E-02  .438E-02  .321E-02  .356E-02  .296E-02
  .301E-02  .427E-02  .101E-01  .183E-01  .103E-01  .112E-01  .739E-02  .759E-02
  .168E-01  .148E-01  .240E-01  .319E-01  .264E-01  .305E-01  .467E-01  .701E-01
  .129E+00  .138E+00  .118E+00  .105E+00  .699E-01  .685E-01  .662E-01  .591E-01
  .592E-01  .657E-01  .677E-01  .646E-01  .602E-01  .602E-01  .632E-01  .657E-01
  .664E-01  .653E-01  .648E-01  .648E-01  .655E-01  .594E-01  .656E-01  .596E-01
  .513E-01  .534E-01  .648E-01  .474E-01  .451E-01  .439E-01  .432E-01  .425E-01
  .421E-01  .420E-01  .419E-01  .418E-01  .415E-01  .407E-01  .398E-01  .389E-01
  .379E-01  .371E-01  .363E-01  .357E-01  .352E-01  .348E-01  .345E-01  .342E-01
  .340E-01  .338E-01  .337E-01  .336E-01  .333E-01  .332E-01  .331E-01  .330E-01
  .329E-01  .329E-01  .328E-01  .328E-01  .328E-01  .327E-01  .327E-01  .327E-01
  .327E-01  .326E-01  .326E-01  .000E+00  .000E+00  .000E+00  .000E+00  .000E+00
  .000E+00  .000E+00  .000E+00  .000E+00
  .210E+00  .175E+00  .189E+00  .392E+00  .499E+00  .372E+00  .322E+00  .276E+00
  .235E+00  .286E+00  .690E+00  .131E+01  .662E+00  .605E+00  .401E+00  .313E+00
  .781E+00  .775E+00  .115E+01  .134E+01  .959E+00  .103E+01  .166E+01  .237E+01
  .424E+01  .432E+01  .337E+01  .274E+01  .192E+01  .170E+01  .170E+01  .149E+01
  .137E+01  .131E+01  .128E+01  .130E+01  .129E+01  .127E+01  .123E+01  .116E+01
  .107E+01  .894E+00  .915E+00  .921E+00  .892E+00  .843E+00  .800E+00  .768E+00
  .745E+00  .726E+00  .707E+00  .667E+00  .630E+00  .602E+00  .582E+00  .567E+00
  .556E+00  .548E+00  .540E+00  .534E+00  .528E+00  .517E+00  .510E+00  .505E+00
  .502E+00  .500E+00  .499E+00  .498E+00  .497E+00  .497E+00  .497E+00  .496E+00
  .496E+00  .496E+00  .496E+00  .496E+00  .496E+00  .496E+00  .496E+00  .495E+00
  .495E+00  .495E+00  .495E+00  .495E+00  .495E+00  .495E+00  .495E+00  .495E+00
  .495E+00  .495E+00  .495E+00  .000E+00  .000E+00  .000E+00  .000E+00  .000E+00
  .000E+00  .000E+00  .000E+00  .000E+00
  .119E+00  .974E-01  .974E-01  .155E+00  .194E+00  .131E+00  .120E+00  .842E-01
  .727E-01  .890E-01  .184E+00  .292E+00  .146E+00  .141E+00  .838E-01  .776E-01
  .142E+00  .105E+00  .145E+00  .167E+00  .120E+00  .122E+00  .165E+00  .221E+00
  .365E+00  .352E+00  .249E+00  .186E+00  .106E+00  .894E-01  .752E-01  .590E-01
  .524E-01  .518E-01  .480E-01  .413E-01  .349E-01  .318E-01  .306E-01  .291E-01
  .272E-01  .221E-01  .184E-01  .157E-01  .137E-01  .108E-01  .105E-01  .844E-02
  .647E-02  .605E-02  .663E-02  .401E-02  .320E-02  .265E-02  .225E-02  .193E-02
  .168E-02  .149E-02  .132E-02  .118E-02  .106E-02  .860E-03  .707E-03  .588E-03
  .495E-03  .421E-03  .363E-03  .316E-03  .278E-03  .246E-03  .220E-03  .198E-03
  .180E-03  .163E-03  .150E-03  .137E-03  .113E-03  .943E-04  .801E-04  .689E-04
  .599E-04  .525E-04  .465E-04  .414E-04  .371E-04  .335E-04  .276E-04  .232E-04
  .198E-04  .170E-04  .148E-04  .000E+00  .000E+00  .000E+00  .000E+00  .000E+00
  .000E+00  .000E+00  .000E+00  .000E+00
  .293E+00  .251E+00  .263E+00  .438E+00  .573E+00  .403E+00  .407E+00  .310E+00
  .290E+00  .383E+00  .846E+00  .143E+01  .761E+00  .780E+00  .489E+00  .477E+00
  .957E+00  .775E+00  .116E+01  .143E+01  .111E+01  .120E+01  .173E+01  .245E+01
  .426E+01  .432E+01  .337E+01  .274E+01  .169E+01  .154E+01  .139E+01  .116E+01
  .109E+01  .115E+01  .112E+01  .102E+01  .901E+00  .859E+00  .864E+00  .859E+00
  .835E+00  .747E+00  .679E+00  .626E+00  .588E+00  .498E+00  .515E+00  .441E+00
  .358E+00  .353E+00  .407E+00  .271E+00  .236E+00  .212E+00  .194E+00  .178E+00
  .165E+00  .155E+00  .146E+00  .138E+00  .130E+00  .116E+00  .104E+00  .939E-01
  .851E-01  .777E-01  .714E-01  .660E-01  .614E-01  .575E-01  .541E-01  .512E-01
  .485E-01  .462E-01  .441E-01  .422E-01  .381E-01  .348E-01  .320E-01  .296E-01
  .276E-01  .258E-01  .243E-01  .229E-01  .217E-01  .206E-01  .187E-01  .171E-01
  .158E-01  .147E-01  .137E-01  .000E+00  .000E+00  .000E+00  .000E+00  .000E+00
  .000E+00  .000E+00  .000E+00  .000E+00
  .701E+01  .708E+01  .709E+01  .709E+01  .710E+01  .711E+01  .707E+01  .732E+01
  .691E+01  .708E+01  .709E+01  .699E+01  .701E+01  .709E+01  .711E+01  .699E+01
  .709E+01  .783E+01  .749E+01  .719E+01  .688E+01  .689E+01  .729E+01  .729E+01
  .827E+01  .903E+01  .759E+01  .860E+01  .719E+01  .709E+01  .710E+01  .698E+01
  .699E+01  .699E+01  .700E+01  .701E+01  .701E+01  .729E+01  .688E+01  .688E+01
  .688E+01  .689E+01  .690E+01  .105E+02  .178E+02  .850E+01  .198E+02  .133E+02
  .709E+01  .361E+02  .280E+02  .709E+01  .138E+02  .676E+01  .676E+01  .676E+01
  .676E+01  .676E+01  .676E+01  .676E+01  .676E+01  .676E+01  .676E+01  .676E+01
  .676E+01  .676E+01  .676E+01  .676E+01  .676E+01  .676E+01  .676E+01  .676E+01
  .676E+01  .676E+01  .676E+01  .676E+01  .676E+01  .676E+01  .676E+01  .676E+01
  .676E+01  .676E+01  .676E+01  .676E+01  .676E+01  .676E+01  .676E+01  .676E+01
  .676E+01  .676E+01  .676E+01  .000E+00  .000E+00  .000E+00  .000E+00  .000E+00
  .000E+00  .000E+00  .000E+00  .000E+00
  .702E+01  .755E+01  .714E+01  .882E+01  .704E+01  .771E+01  .697E+01  .761E+01
  .693E+01  .655E+01  .707E+01  .697E+01  .767E+01  .706E+01  .713E+01  .736E+01
  .712E+01  .780E+01  .752E+01  .779E+01  .684E+01  .694E+01  .724E+01  .725E+01
  .822E+01  .898E+01  .753E+01  .866E+01  .713E+01  .714E+01  .704E+01  .705E+01
  .705E+01  .705E+01  .694E+01  .694E+01  .695E+01  .695E+01  .695E+01  .695E+01
  .695E+01  .682E+01  .682E+01  .682E+01  .683E+01  .683E+01  .683E+01  .683E+01
  .683E+01  .683E+01  .683E+01  .683E+01  .683E+01  .683E+01  .683E+01  .683E+01
  .683E+01  .683E+01  .705E+01  .705E+01  .705E+01  .705E+01  .683E+01  .683E+01
  .683E+01  .683E+01  .683E+01  .683E+01  .683E+01  .683E+01  .683E+01  .683E+01
  .683E+01  .683E+01  .683E+01  .683E+01  .683E+01  .683E+01  .683E+01  .683E+01
  .683E+01  .683E+01  .683E+01  .683E+01  .683E+01  .683E+01  .683E+01  .683E+01
  .683E+01  .683E+01  .683E+01  .000E+00  .000E+00  .000E+00  .000E+00  .000E+00
  .000E+00  .000E+00  .000E+00  .000E+00
  .701E+01  .708E+01  .709E+01  .709E+01  .710E+01  .711E+01  .707E+01  .732E+01
  .691E+01  .708E+01  .709E+01  .699E+01  .701E+01  .709E+01  .711E+01  .699E+01
  .709E+01  .783E+01  .749E+01  .719E+01  .688E+01  .689E+01  .729E+01  .729E+01
  .827E+01  .903E+01  .759E+01  .860E+01  .719E+01  .709E+01  .710E+01  .698E+01
  .699E+01  .699E+01  .700E+01  .701E+01  .701E+01  .729E+01  .688E+01  .688E+01
  .688E+01  .689E+01  .690E+01  .105E+02  .178E+02  .850E+01  .198E+02  .133E+02
  .709E+01  .361E+02  .280E+02  .709E+01  .138E+02  .676E+01  .676E+01  .676E+01
  .676E+01  .676E+01  .676E+01  .676E+01  .676E+01  .676E+01  .676E+01  .676E+01
  .676E+01  .676E+01  .676E+01  .676E+01  .676E+01  .676E+01  .676E+01  .676E+01
  .676E+01  .676E+01  .676E+01  .676E+01  .676E+01  .676E+01  .676E+01  .676E+01
  .676E+01  .676E+01  .676E+01  .676E+01  .676E+01  .676E+01  .676E+01  .676E+01
  .676E+01  .676E+01  .676E+01  .000E+00  .000E+00  .000E+00  .000E+00  .000E+00
  .000E+00  .000E+00  .000E+00  .000E+00
Damping =  .02. Data of Sd,Sv,Sa,Pssv,ttSd,ttSv,ttSa :
  .126E-02  .147E-02  .172E-02  .227E-02  .261E-02  .264E-02  .251E-02  .232E-02
  .282E-02  .301E-02  .517E-02  .716E-02  .637E-02  .700E-02  .623E-02  .645E-02
  .106E-01  .117E-01  .201E-01  .259E-01  .221E-01  .265E-01  .414E-01  .589E-01
  .814E-01  .908E-01  .913E-01  .764E-01  .637E-01  .630E-01  .595E-01  .563E-01
  .570E-01  .610E-01  .623E-01  .599E-01  .560E-01  .569E-01  .600E-01  .621E-01
  .631E-01  .628E-01  .619E-01  .584E-01  .521E-01  .490E-01  .494E-01  .477E-01
  .489E-01  .494E-01  .490E-01  .458E-01  .433E-01  .431E-01  .425E-01  .420E-01
  .417E-01  .416E-01  .415E-01  .413E-01  .411E-01  .404E-01  .396E-01  .387E-01
  .378E-01  .370E-01  .363E-01  .357E-01  .353E-01  .349E-01  .345E-01  .343E-01
  .341E-01  .339E-01  .337E-01  .336E-01  .334E-01  .332E-01  .331E-01  .330E-01
  .330E-01  .329E-01  .329E-01  .328E-01  .328E-01  .328E-01  .327E-01  .327E-01
  .327E-01  .327E-01  .327E-01  .000E+00  .000E+00  .000E+00  .000E+00  .000E+00
  .000E+00  .000E+00  .000E+00  .000E+00
  .118E+00  .146E+00  .173E+00  .244E+00  .294E+00  .296E+00  .214E+00  .159E+00
  .209E+00  .173E+00  .284E+00  .474E+00  .356E+00  .351E+00  .282E+00  .255E+00
  .424E+00  .462E+00  .840E+00  .102E+01  .803E+00  .902E+00  .143E+01  .198E+01
  .261E+01  .283E+01  .267E+01  .213E+01  .180E+01  .159E+01  .157E+01  .142E+01
  .131E+01  .122E+01  .121E+01  .123E+01  .123E+01  .121E+01  .117E+01  .111E+01
  .104E+01  .867E+00  .888E+00  .893E+00  .868E+00  .829E+00  .792E+00  .762E+00
  .740E+00  .721E+00  .703E+00  .666E+00  .632E+00  .605E+00  .585E+00  .570E+00
  .559E+00  .550E+00  .542E+00  .535E+00  .529E+00  .519E+00  .512E+00  .508E+00
  .504E+00  .502E+00  .500E+00  .499E+00  .499E+00  .498E+00  .498E+00  .497E+00
  .497E+00  .497E+00  .497E+00  .497E+00  .496E+00  .496E+00  .496E+00  .496E+00
  .496E+00  .496E+00  .496E+00  .496E+00  .495E+00  .495E+00  .495E+00  .495E+00
  .495E+00  .495E+00  .495E+00  .000E+00  .000E+00  .000E+00  .000E+00  .000E+00
  .000E+00  .000E+00  .000E+00  .000E+00
  .805E-01  .853E-01  .907E-01  .109E+00  .115E+00  .108E+00  .844E-01  .664E-01
  .681E-01  .630E-01  .941E-01  .115E+00  .906E-01  .883E-01  .709E-01  .659E-01
  .895E-01  .830E-01  .122E+00  .135E+00  .101E+00  .106E+00  .147E+00  .187E+00
  .231E+00  .232E+00  .193E+00  .136E+00  .966E-01  .822E-01  .677E-01  .563E-01
  .506E-01  .482E-01  .442E-01  .384E-01  .325E-01  .301E-01  .290E-01  .276E-01
  .258E-01  .213E-01  .176E-01  .142E-01  .109E-01  .892E-02  .791E-02  .679E-02
  .621E-02  .564E-02  .505E-02  .391E-02  .310E-02  .263E-02  .224E-02  .193E-02
  .169E-02  .149E-02  .133E-02  .119E-02  .107E-02  .875E-03  .724E-03  .607E-03
  .515E-03  .442E-03  .384E-03  .337E-03  .299E-03  .267E-03  .241E-03  .219E-03
  .200E-03  .184E-03  .169E-03  .157E-03  .132E-03  .113E-03  .981E-04  .864E-04
  .770E-04  .693E-04  .627E-04  .573E-04  .527E-04  .486E-04  .420E-04  .369E-04
  .328E-04  .296E-04  .268E-04  .000E+00  .000E+00  .000E+00  .000E+00  .000E+00
  .000E+00  .000E+00  .000E+00  .000E+00
  .198E+00  .220E+00  .246E+00  .310E+00  .342E+00  .331E+00  .287E+00  .243E+00
  .272E+00  .271E+00  .433E+00  .563E+00  .471E+00  .489E+00  .412E+00  .405E+00
  .604E+00  .612E+00  .972E+00  .116E+01  .926E+00  .104E+01  .153E+01  .206E+01
  .269E+01  .285E+01  .261E+01  .200E+01  .154E+01  .141E+01  .125E+01  .111E+01
  .105E+01  .106E+01  .103E+01  .940E+00  .838E+00  .812E+00  .819E+00  .813E+00
  .793E+00  .717E+00  .648E+00  .565E+00  .467E+00  .410E+00  .388E+00  .352E+00
  .341E+00  .327E+00  .308E+00  .262E+00  .227E+00  .208E+00  .191E+00  .176E+00
  .164E+00  .154E+00  .145E+00  .137E+00  .129E+00  .115E+00  .104E+00  .935E-01
  .849E-01  .776E-01  .713E-01  .661E-01  .615E-01  .576E-01  .542E-01  .513E-01
  .486E-01  .463E-01  .442E-01  .422E-01  .381E-01  .348E-01  .320E-01  .296E-01
  .276E-01  .258E-01  .243E-01  .229E-01  .217E-01  .206E-01  .187E-01  .171E-01
  .158E-01  .147E-01  .137E-01  .000E+00  .000E+00  .000E+00  .000E+00  .000E+00
  .000E+00  .000E+00  .000E+00  .000E+00
  .701E+01  .702E+01  .709E+01  .702E+01  .703E+01  .698E+01  .699E+01  .699E+01
  .691E+01  .707E+01  .709E+01  .699E+01  .676E+01  .677E+01  .678E+01  .699E+01
  .709E+01  .709E+01  .710E+01  .719E+01  .688E+01  .719E+01  .720E+01  .720E+01
  .732E+01  .744E+01  .748E+01  .717E+01  .707E+01  .709E+01  .709E+01  .698E+01
  .699E+01  .699E+01  .700E+01  .701E+01  .701E+01  .687E+01  .688E+01  .688E+01
  .688E+01  .689E+01  .690E+01  .690E+01  .691E+01  .739E+01  .740E+01  .708E+01
  .709E+01  .709E+01  .709E+01  .709E+01  .676E+01  .676E+01  .676E+01  .676E+01
  .676E+01  .676E+01  .676E+01  .676E+01  .676E+01  .676E+01  .676E+01  .676E+01
  .676E+01  .676E+01  .676E+01  .676E+01  .676E+01  .676E+01  .676E+01  .676E+01
  .676E+01  .676E+01  .676E+01  .676E+01  .676E+01  .676E+01  .676E+01  .676E+01
  .676E+01  .676E+01  .676E+01  .676E+01  .676E+01  .676E+01  .676E+01  .676E+01
  .676E+01  .676E+01  .676E+01  .000E+00  .000E+00  .000E+00  .000E+00  .000E+00
  .000E+00  .000E+00  .000E+00  .000E+00
  .702E+01  .703E+01  .703E+01  .703E+01  .704E+01  .704E+01  .697E+01  .697E+01
  .693E+01  .655E+01  .707E+01  .685E+01  .674E+01  .674E+01  .713E+01  .697E+01
  .712E+01  .713E+01  .713E+01  .715E+01  .684E+01  .723E+01  .724E+01  .725E+01
  .737E+01  .749E+01  .742E+01  .712E+01  .713E+01  .703E+01  .704E+01  .705E+01
  .705E+01  .705E+01  .694E+01  .694E+01  .695E+01  .695E+01  .695E+01  .695E+01
  .695E+01  .682E+01  .682E+01  .682E+01  .683E+01  .683E+01  .683E+01  .683E+01
  .683E+01  .683E+01  .683E+01  .683E+01  .683E+01  .683E+01  .683E+01  .683E+01
  .683E+01  .683E+01  .683E+01  .683E+01  .683E+01  .683E+01  .683E+01  .683E+01
  .683E+01  .683E+01  .683E+01  .683E+01  .683E+01  .683E+01  .683E+01  .683E+01
  .683E+01  .683E+01  .683E+01  .683E+01  .683E+01  .683E+01  .683E+01  .683E+01
  .683E+01  .683E+01  .683E+01  .683E+01  .683E+01  .683E+01  .683E+01  .683E+01
  .683E+01  .683E+01  .683E+01  .000E+00  .000E+00  .000E+00  .000E+00  .000E+00
  .000E+00  .000E+00  .000E+00  .000E+00
  .701E+01  .702E+01  .709E+01  .702E+01  .703E+01  .698E+01  .699E+01  .699E+01
  .691E+01  .707E+01  .709E+01  .699E+01  .676E+01  .677E+01  .677E+01  .699E+01
  .709E+01  .709E+01  .710E+01  .719E+01  .688E+01  .719E+01  .720E+01  .720E+01
  .732E+01  .744E+01  .747E+01  .717E+01  .707E+01  .709E+01  .709E+01  .698E+01
  .698E+01  .699E+01  .700E+01  .700E+01  .701E+01  .686E+01  .687E+01  .688E+01
  .688E+01  .689E+01  .689E+01  .690E+01  .690E+01  .738E+01  .740E+01  .707E+01
  .708E+01  .708E+01  .708E+01  .709E+01  .675E+01  .675E+01  .675E+01  .675E+01
  .675E+01  .675E+01  .675E+01  .675E+01  .675E+01  .675E+01  .675E+01  .675E+01
  .675E+01  .674E+01  .674E+01  .674E+01  .674E+01  .674E+01  .674E+01  .674E+01
  .674E+01  .674E+01  .674E+01  .674E+01  .673E+01  .673E+01  .673E+01  .673E+01
  .673E+01  .673E+01  .673E+01  .672E+01  .672E+01  .672E+01  .672E+01  .672E+01
  .672E+01  .672E+01  .672E+01  .000E+00  .000E+00  .000E+00  .000E+00  .000E+00
  .000E+00  .000E+00  .000E+00  .000E+00
Damping =  .05. Data of Sd,Sv,Sa,Pssv,ttSd,ttSv,ttSa :
  .110E-02  .131E-02  .152E-02  .179E-02  .197E-02  .216E-02  .216E-02  .208E-02
  .237E-02  .272E-02  .381E-02  .467E-02  .521E-02  .565E-02  .557E-02  .559E-02
  .877E-02  .115E-01  .168E-01  .205E-01  .199E-01  .254E-01  .358E-01  .482E-01
  .604E-01  .656E-01  .681E-01  .637E-01  .576E-01  .558E-01  .518E-01  .523E-01
  .533E-01  .552E-01  .556E-01  .538E-01  .504E-01  .532E-01  .557E-01  .576E-01
