Response and Fourier amplitude spectra (91 periods,  .04 - 15.0 sec)   for      
Corrected accelerogram   24207-M0150-01010.01       Chan 12: 270 Deg     from   
Uncorrected Accelerogram Data             Processed: 03/04/11, CGS  207fa001    
Record of Sat Jan 13, 2001 18:26:11.0 PST             (Avol1 v8.9,05/09 CSMIP)  
CSMIP Preliminary Processing            (Origin:  To be determined)             
24207-M0150-01010.01                 Start time:  1/14/01, 02:26:11.0 UTC (GPS) 
Station No. 24207   34.334N, 118.396W    MtWtny  s/n  150 (17 Chns of 17 at Sta)
Sylmar - Pacoima Dam                      CGS                                   
Chan 12: 270 DegR                   Location: Right (North) Abutment            
Record of Sat Jan 13, 2001 18:26:11.0 PST    Sat Jan 13, 2001 18:26:11.0 PST    
Hypocenter:  To be determined.               ML:  To be determined.
Instr Period =  .0103 sec,  Damping =  .660,  Sensitivity =  .63  v/g
                        Record length = 41.000 sec.
                                     Uncor Max  =  -.035 g , at   6.780 sec.
RMS accel of (uncor) record  =        .   Chn. metadata effective date: 09/02/99
Accelerogram bandpass filtered with 3 dB pts at   .50 and 40.00 cyc/sec
                 instrument- and baseline-corrected





Record of Sat Jan 13, 2001 18:26:11.0 PST    Sat Jan 13, 2001 18:26:11.0 PST

24207-M0150-01010.01      Sylmar - Pacoima Dam    Chan 12: 270 Deg

24207-M0150-01010.01      Sylmar - Pacoima Dam    Chan 12: 270 Deg

Units for spectra are inches and sec, except Sa is in fraction of g.

   12  100   12   18   17  200    1    3    1   24   13  150    024207    5    0
    2   26   11    0   14    1   14 2001   10    3  270 8200   41   20   76   -1
 8200    0  100    3  150    1    1  410    2    0    0    0    0    0    0    0
    0    4    0    0 8200    1  212    1   18    4    0    0    3    1    0 8200
    3 8200    1   91    5   17    5    0    0    0    0    0    0    3    1    2
    2    2    4    0   68   99    0    1    0    0    0    1    0    0    0  222
    1    0    2    0
      .010      .660    41.000      .002      .000   625.000     -.035     6.780
    97.100      .298      .477      .000     5.000      .000     4.000      .000
     2.500    -1.226     2.500  2016.000     5.000    30.000      .000     -.001
     -.001     -.001     2.000    15.000    34.334  -118.396      .007      .060
     8.820     -.004      .002   594.000     5.400     9.900    12.700   100.040
     1.000    -1.004      .000      .000      .000      .000      .000      .000
     7.200     8.900     5.800   980.665      .005    41.000    15.454      .000
      .000    40.000      .000    41.000      .005      .500      .000      .000
     6.780   -33.988     6.735     1.156     6.785      .089      .000      .500
    40.000      .005      .005      .000      .005      .009      .000      .000
      .105      .130      .061      .051      .004      .001      .000      .000
      .000      .000      .000      .000      .000      .000      .000      .000
      .000      .000      .000      .000
      .000      .020      .050      .100      .200
      .040      .042      .044      .046      .048      .050      .055      .060
      .065      .070      .075      .080      .085      .090      .095      .100
      .110      .120      .130      .140      .150      .160      .170      .180
      .190      .200      .220      .240      .260      .280      .300      .320
      .340      .360      .380      .400      .420      .440      .460      .480
      .500      .550      .600      .650      .700      .750      .800      .850
      .900      .950     1.000     1.100     1.200     1.300     1.400     1.500
     1.600     1.700     1.800     1.900     2.000     2.200     2.400     2.600
     2.800     3.000     3.200     3.400     3.600     3.800     4.000     4.200
     4.400     4.600     4.800     5.000     5.500     6.000     6.500     7.000
     7.500     8.000     8.500     9.000     9.500    10.000    11.000    12.000
    13.000    14.000    15.000      .000      .000      .000      .000      .000
      .000      .000      .000      .000
Fourier amplitude spectra in in/sec.
  .205E-01  .454E-01  .136E-01  .164E-01  .187E+00  .313E+00  .107E+00  .375E+00
  .423E+00  .205E+00  .107E+01  .792E+00  .205E+00  .216E+00  .498E+00  .578E+00
  .492E+00  .727E+00  .120E+01  .191E+01  .162E+01  .967E+00  .317E+00  .526E+00
  .106E+01  .118E+01  .102E+01  .487E+00  .951E+00  .147E+01  .181E+01  .141E+01
  .149E+01  .102E+01  .831E+00  .647E+00  .590E+00  .116E+01  .125E+01  .978E+00
  .984E+00  .466E+00  .144E+01  .501E+00  .509E+00  .831E-01  .477E+00  .481E+00
  .244E+00  .357E+00  .361E+00  .316E+00  .124E+00  .211E-01  .584E-01  .835E-01
  .913E-01  .890E-01  .681E-01  .473E-01  .431E-01  .125E-01  .125E-01  .110E-01
  .125E-01  .851E-02  .491E-02  .344E-02  .221E-02  .161E-02  .112E-02  .784E-03
  .532E-03  .277E-03  .203E-03  .172E-03  .103E-03  .299E-04  .272E-04  .148E-04
  .287E-04  .259E-04  .112E-04  .100E-04  .149E-04  .160E-04  .202E-04  .227E-04
  .186E-04  .148E-04  .160E-04  .000E+00  .000E+00  .000E+00  .000E+00  .000E+00
  .000E+00  .000E+00  .000E+00  .000E+00
Damping =  .00. Data of Sd,Sv,Sa,Pssv,ttSd,ttSv,ttSa :
  .701E-03  .107E-02  .123E-02  .132E-02  .245E-02  .281E-02  .200E-02  .465E-02
  .567E-02  .438E-02  .129E-01  .124E-01  .816E-02  .996E-02  .843E-02  .138E-01
  .990E-02  .176E-01  .330E-01  .426E-01  .388E-01  .331E-01  .259E-01  .303E-01
  .359E-01  .396E-01  .365E-01  .433E-01  .495E-01  .710E-01  .915E-01  .882E-01
  .941E-01  .721E-01  .711E-01  .686E-01  .664E-01  .825E-01  .958E-01  .923E-01
  .859E-01  .808E-01  .143E+00  .876E-01  .666E-01  .636E-01  .632E-01  .663E-01
  .614E-01  .640E-01  .597E-01  .615E-01  .434E-01  .433E-01  .429E-01  .427E-01
  .427E-01  .429E-01  .430E-01  .430E-01  .429E-01  .424E-01  .417E-01  .408E-01
  .400E-01  .393E-01  .387E-01  .382E-01  .377E-01  .374E-01  .371E-01  .369E-01
  .367E-01  .365E-01  .364E-01  .363E-01  .360E-01  .359E-01  .358E-01  .357E-01
  .356E-01  .355E-01  .355E-01  .355E-01  .354E-01  .354E-01  .354E-01  .353E-01
  .353E-01  .353E-01  .353E-01  .000E+00  .000E+00  .000E+00  .000E+00  .000E+00
  .000E+00  .000E+00  .000E+00  .000E+00
  .832E-01  .114E+00  .108E+00  .144E+00  .252E+00  .307E+00  .157E+00  .446E+00
  .519E+00  .319E+00  .108E+01  .969E+00  .573E+00  .666E+00  .556E+00  .858E+00
  .507E+00  .793E+00  .155E+01  .191E+01  .162E+01  .131E+01  .882E+00  .984E+00
  .119E+01  .122E+01  .105E+01  .112E+01  .115E+01  .158E+01  .190E+01  .176E+01
  .174E+01  .124E+01  .117E+01  .115E+01  .113E+01  .117E+01  .130E+01  .122E+01
  .107E+01  .968E+00  .150E+01  .876E+00  .809E+00  .757E+00  .715E+00  .684E+00
  .664E+00  .648E+00  .632E+00  .599E+00  .571E+00  .547E+00  .530E+00  .518E+00
  .508E+00  .499E+00  .491E+00  .484E+00  .478E+00  .468E+00  .464E+00  .464E+00
  .464E+00  .463E+00  .462E+00  .462E+00  .461E+00  .460E+00  .460E+00  .459E+00
  .459E+00  .458E+00  .458E+00  .457E+00  .457E+00  .456E+00  .456E+00  .456E+00
  .455E+00  .455E+00  .455E+00  .455E+00  .455E+00  .455E+00  .454E+00  .454E+00
  .454E+00  .454E+00  .454E+00  .000E+00  .000E+00  .000E+00  .000E+00  .000E+00
  .000E+00  .000E+00  .000E+00  .000E+00
  .448E-01  .618E-01  .651E-01  .640E-01  .109E+00  .115E+00  .677E-01  .132E+00
  .137E+00  .913E-01  .235E+00  .199E+00  .115E+00  .126E+00  .956E-01  .141E+00
  .837E-01  .125E+00  .199E+00  .222E+00  .176E+00  .132E+00  .915E-01  .956E-01
  .102E+00  .101E+00  .771E-01  .768E-01  .748E-01  .927E-01  .104E+00  .881E-01
  .832E-01  .569E-01  .504E-01  .439E-01  .385E-01  .436E-01  .463E-01  .410E-01
  .351E-01  .273E-01  .405E-01  .212E-01  .139E-01  .116E-01  .101E-01  .939E-02
  .775E-02  .725E-02  .611E-02  .520E-02  .308E-02  .262E-02  .224E-02  .194E-02
  .171E-02  .152E-02  .136E-02  .122E-02  .110E-02  .896E-03  .740E-03  .618E-03
  .522E-03  .446E-03  .386E-03  .338E-03  .298E-03  .265E-03  .237E-03  .214E-03
  .194E-03  .176E-03  .161E-03  .148E-03  .122E-03  .102E-03  .866E-04  .744E-04
  .647E-04  .568E-04  .503E-04  .448E-04  .401E-04  .362E-04  .299E-04  .251E-04
  .214E-04  .184E-04  .160E-04  .000E+00  .000E+00  .000E+00  .000E+00  .000E+00
  .000E+00  .000E+00  .000E+00  .000E+00
  .110E+00  .159E+00  .176E+00  .181E+00  .320E+00  .353E+00  .229E+00  .487E+00
  .548E+00  .393E+00  .108E+01  .976E+00  .603E+00  .695E+00  .558E+00  .869E+00
  .566E+00  .920E+00  .159E+01  .191E+01  .162E+01  .130E+01  .955E+00  .106E+01
  .119E+01  .125E+01  .104E+01  .113E+01  .120E+01  .159E+01  .192E+01  .173E+01
  .174E+01  .126E+01  .118E+01  .108E+01  .994E+00  .118E+01  .131E+01  .121E+01
  .108E+01  .923E+00  .149E+01  .846E+00  .598E+00  .533E+00  .497E+00  .490E+00
  .428E+00  .423E+00  .375E+00  .351E+00  .227E+00  .209E+00  .192E+00  .179E+00
  .168E+00  .158E+00  .150E+00  .142E+00  .135E+00  .121E+00  .109E+00  .986E-01
  .898E-01  .823E-01  .759E-01  .705E-01  .659E-01  .618E-01  .583E-01  .552E-01
  .524E-01  .499E-01  .476E-01  .456E-01  .412E-01  .376E-01  .346E-01  .320E-01
  .298E-01  .279E-01  .262E-01  .248E-01  .234E-01  .222E-01  .202E-01  .185E-01
  .171E-01  .158E-01  .148E-01  .000E+00  .000E+00  .000E+00  .000E+00  .000E+00
  .000E+00  .000E+00  .000E+00  .000E+00
  .676E+01  .679E+01  .688E+01  .680E+01  .688E+01  .676E+01  .677E+01  .688E+01
  .706E+01  .676E+01  .122E+02  .698E+01  .703E+01  .659E+01  .155E+02  .776E+01
  .738E+01  .679E+01  .714E+01  .148E+02  .208E+02  .691E+01  .692E+01  .692E+01
  .961E+01  .864E+01  .960E+01  .721E+01  .723E+01  .839E+01  .112E+02  .892E+01
  .989E+01  .863E+01  .705E+01  .707E+01  .707E+01  .107E+02  .946E+01  .931E+01
  .107E+02  .803E+01  .189E+02  .984E+01  .736E+01  .738E+01  .283E+02  .313E+02
  .888E+01  .893E+01  .116E+02  .164E+02  .677E+01  .677E+01  .678E+01  .678E+01
  .678E+01  .678E+01  .678E+01  .678E+01  .678E+01  .678E+01  .678E+01  .678E+01
  .678E+01  .678E+01  .678E+01  .678E+01  .678E+01  .678E+01  .678E+01  .678E+01
  .678E+01  .678E+01  .678E+01  .678E+01  .678E+01  .678E+01  .678E+01  .678E+01
  .678E+01  .678E+01  .678E+01  .678E+01  .678E+01  .678E+01  .678E+01  .678E+01
  .678E+01  .678E+01  .678E+01  .000E+00  .000E+00  .000E+00  .000E+00  .000E+00
  .000E+00  .000E+00  .000E+00  .000E+00
  .593E+01  .703E+01  .686E+01  .686E+01  .715E+01  .235E+02  .694E+01  .690E+01
  .707E+01  .674E+01  .123E+02  .700E+01  .701E+01  .661E+01  .155E+02  .778E+01
  .741E+01  .682E+01  .717E+01  .148E+02  .767E+01  .694E+01  .688E+01  .688E+01
  .956E+01  .860E+01  .724E+01  .726E+01  .717E+01  .832E+01  .113E+02  .788E+01
  .997E+01  .835E+01  .698E+01  .698E+01  .699E+01  .108E+02  .957E+01  .943E+01
  .108E+02  .763E+01  .188E+02  .903E+01  .685E+01  .685E+01  .685E+01  .685E+01
  .685E+01  .685E+01  .685E+01  .685E+01  .685E+01  .685E+01  .685E+01  .685E+01
  .685E+01  .685E+01  .685E+01  .685E+01  .685E+01  .685E+01  .673E+01  .673E+01
  .673E+01  .673E+01  .673E+01  .673E+01  .673E+01  .673E+01  .673E+01  .673E+01
  .673E+01  .673E+01  .673E+01  .673E+01  .673E+01  .673E+01  .673E+01  .673E+01
  .673E+01  .673E+01  .673E+01  .673E+01  .673E+01  .673E+01  .673E+01  .673E+01
  .673E+01  .673E+01  .673E+01  .000E+00  .000E+00  .000E+00  .000E+00  .000E+00
  .000E+00  .000E+00  .000E+00  .000E+00
  .676E+01  .679E+01  .688E+01  .680E+01  .688E+01  .676E+01  .677E+01  .688E+01
  .706E+01  .676E+01  .122E+02  .698E+01  .703E+01  .659E+01  .155E+02  .776E+01
  .738E+01  .679E+01  .714E+01  .148E+02  .208E+02  .691E+01  .692E+01  .692E+01
  .961E+01  .864E+01  .960E+01  .721E+01  .723E+01  .839E+01  .112E+02  .892E+01
  .989E+01  .863E+01  .705E+01  .707E+01  .707E+01  .107E+02  .946E+01  .931E+01
  .107E+02  .803E+01  .189E+02  .984E+01  .736E+01  .738E+01  .283E+02  .313E+02
  .888E+01  .893E+01  .116E+02  .164E+02  .677E+01  .677E+01  .678E+01  .678E+01
  .678E+01  .678E+01  .678E+01  .678E+01  .678E+01  .678E+01  .678E+01  .678E+01
  .678E+01  .678E+01  .678E+01  .678E+01  .678E+01  .678E+01  .678E+01  .678E+01
  .678E+01  .678E+01  .678E+01  .678E+01  .678E+01  .678E+01  .678E+01  .678E+01
  .678E+01  .678E+01  .678E+01  .678E+01  .678E+01  .678E+01  .678E+01  .678E+01
  .678E+01  .678E+01  .678E+01  .000E+00  .000E+00  .000E+00  .000E+00  .000E+00
  .000E+00  .000E+00  .000E+00  .000E+00
Damping =  .02. Data of Sd,Sv,Sa,Pssv,ttSd,ttSv,ttSa :
  .712E-03  .785E-03  .808E-03  .953E-03  .141E-02  .149E-02  .156E-02  .239E-02
  .359E-02  .368E-02  .648E-02  .848E-02  .838E-02  .716E-02  .849E-02  .912E-02
  .109E-01  .160E-01  .250E-01  .268E-01  .253E-01  .281E-01  .257E-01  .271E-01
  .270E-01  .284E-01  .303E-01  .374E-01  .427E-01  .509E-01  .629E-01  .663E-01
  .603E-01  .640E-01  .645E-01  .627E-01  .604E-01  .603E-01  .604E-01  .593E-01
  .636E-01  .660E-01  .714E-01  .631E-01  .605E-01  .588E-01  .550E-01  .501E-01
  .507E-01  .530E-01  .467E-01  .439E-01  .427E-01  .427E-01  .424E-01  .423E-01
  .423E-01  .424E-01  .425E-01  .425E-01  .424E-01  .420E-01  .414E-01  .406E-01
  .399E-01  .392E-01  .386E-01  .382E-01  .378E-01  .374E-01  .371E-01  .369E-01
  .367E-01  .365E-01  .364E-01  .363E-01  .361E-01  .359E-01  .358E-01  .357E-01
  .356E-01  .356E-01  .355E-01  .355E-01  .355E-01  .354E-01  .354E-01  .353E-01
  .353E-01  .353E-01  .354E-01  .000E+00  .000E+00  .000E+00  .000E+00  .000E+00
  .000E+00  .000E+00  .000E+00  .000E+00
  .593E-01  .660E-01  .585E-01  .735E-01  .112E+00  .131E+00  .116E+00  .185E+00
  .308E+00  .299E+00  .487E+00  .632E+00  .588E+00  .484E+00  .526E+00  .567E+00
  .482E+00  .700E+00  .118E+01  .121E+01  .110E+01  .109E+01  .875E+00  .902E+00
  .904E+00  .903E+00  .889E+00  .939E+00  .102E+01  .113E+01  .132E+01  .128E+01
  .117E+01  .105E+01  .108E+01  .108E+01  .106E+01  .103E+01  .991E+00  .934E+00
  .915E+00  .874E+00  .854E+00  .832E+00  .793E+00  .749E+00  .711E+00  .682E+00
  .662E+00  .645E+00  .630E+00  .599E+00  .572E+00  .550E+00  .533E+00  .520E+00
  .510E+00  .501E+00  .494E+00  .487E+00  .481E+00  .471E+00  .464E+00  .461E+00
  .461E+00  .461E+00  .460E+00  .460E+00  .459E+00  .459E+00  .458E+00  .458E+00
  .457E+00  .457E+00  .457E+00  .456E+00  .456E+00  .455E+00  .455E+00  .455E+00
  .455E+00  .454E+00  .454E+00  .454E+00  .454E+00  .454E+00  .454E+00  .454E+00
  .454E+00  .454E+00  .454E+00  .000E+00  .000E+00  .000E+00  .000E+00  .000E+00
  .000E+00  .000E+00  .000E+00  .000E+00
  .455E-01  .456E-01  .427E-01  .460E-01  .628E-01  .611E-01  .526E-01  .679E-01
  .875E-01  .763E-01  .118E+00  .135E+00  .119E+00  .910E-01  .959E-01  .938E-01
  .921E-01  .114E+00  .151E+00  .140E+00  .115E+00  .113E+00  .906E-01  .859E-01
  .766E-01  .727E-01  .641E-01  .664E-01  .646E-01  .665E-01  .716E-01  .663E-01
  .534E-01  .505E-01  .458E-01  .402E-01  .351E-01  .319E-01  .292E-01  .263E-01
  .260E-01  .223E-01  .203E-01  .153E-01  .127E-01  .107E-01  .880E-02  .711E-02
  .640E-02  .602E-02  .478E-02  .371E-02  .306E-02  .261E-02  .224E-02  .195E-02
  .172E-02  .153E-02  .137E-02  .123E-02  .111E-02  .916E-03  .762E-03  .642E-03
  .548E-03  .472E-03  .412E-03  .364E-03  .324E-03  .291E-03  .263E-03  .239E-03
  .219E-03  .202E-03  .186E-03  .173E-03  .146E-03  .125E-03  .109E-03  .963E-04
  .859E-04  .774E-04  .704E-04  .643E-04  .592E-04  .547E-04  .474E-04  .417E-04
  .372E-04  .335E-04  .305E-04  .000E+00  .000E+00  .000E+00  .000E+00  .000E+00
  .000E+00  .000E+00  .000E+00  .000E+00
  .112E+00  .117E+00  .115E+00  .130E+00  .185E+00  .187E+00  .178E+00  .250E+00
  .347E+00  .330E+00  .543E+00  .666E+00  .619E+00  .500E+00  .561E+00  .573E+00
  .620E+00  .839E+00  .121E+01  .120E+01  .106E+01  .110E+01  .949E+00  .946E+00
  .893E+00  .891E+00  .865E+00  .980E+00  .103E+01  .114E+01  .132E+01  .130E+01
  .112E+01  .112E+01  .107E+01  .985E+00  .904E+00  .862E+00  .825E+00  .776E+00
  .799E+00  .754E+00  .747E+00  .610E+00  .543E+00  .493E+00  .432E+00  .370E+00
  .354E+00  .351E+00  .294E+00  .251E+00  .223E+00  .206E+00  .190E+00  .177E+00
  .166E+00  .157E+00  .148E+00  .141E+00  .133E+00  .120E+00  .108E+00  .982E-01
  .895E-01  .822E-01  .759E-01  .705E-01  .659E-01  .619E-01  .583E-01  .552E-01
  .524E-01  .499E-01  .477E-01  .456E-01  .412E-01  .376E-01  .346E-01  .320E-01
  .298E-01  .279E-01  .263E-01  .248E-01  .235E-01  .222E-01  .202E-01  .185E-01
  .171E-01  .159E-01  .148E-01  .000E+00  .000E+00  .000E+00  .000E+00  .000E+00
  .000E+00  .000E+00  .000E+00  .000E+00
  .688E+01  .679E+01  .688E+01  .688E+01  .688E+01  .688E+01  .677E+01  .688E+01
  .696E+01  .711E+01  .697E+01  .698E+01  .698E+01  .698E+01  .705E+01  .736E+01
  .678E+01  .680E+01  .714E+01  .738E+01  .741E+01  .691E+01  .692E+01  .692E+01
  .693E+01  .754E+01  .718E+01  .721E+01  .723E+01  .755E+01  .759E+01  .763E+01
  .767E+01  .704E+01  .705E+01  .706E+01  .707E+01  .689E+01  .689E+01  .690E+01
  .769E+01  .750E+01  .905E+01  .887E+01  .736E+01  .737E+01  .738E+01  .739E+01
  .888E+01  .893E+01  .898E+01  .109E+02  .677E+01  .677E+01  .677E+01  .678E+01
  .678E+01  .678E+01  .678E+01  .678E+01  .678E+01  .678E+01  .678E+01  .678E+01
  .678E+01  .678E+01  .678E+01  .678E+01  .678E+01  .678E+01  .678E+01  .678E+01
  .678E+01  .678E+01  .678E+01  .678E+01  .678E+01  .678E+01  .678E+01  .678E+01
  .678E+01  .678E+01  .678E+01  .678E+01  .678E+01  .678E+01  .678E+01  .678E+01
  .678E+01  .678E+01  .678E+01  .000E+00  .000E+00  .000E+00  .000E+00  .000E+00
  .000E+00  .000E+00  .000E+00  .000E+00
  .690E+01  .674E+01  .656E+01  .686E+01  .686E+01  .689E+01  .690E+01  .690E+01
  .708E+01  .709E+01  .699E+01  .700E+01  .700E+01  .701E+01  .701E+01  .733E+01
  .682E+01  .682E+01  .711E+01  .713E+01  .694E+01  .694E+01  .688E+01  .688E+01
  .689E+01  .689E+01  .724E+01  .726E+01  .717E+01  .719E+01  .752E+01  .771E+01
  .709E+01  .711E+01  .698E+01  .698E+01  .699E+01  .699E+01  .700E+01  .701E+01
  .684E+01  .684E+01  .684E+01  .684E+01  .685E+01  .685E+01  .685E+01  .685E+01
  .685E+01  .685E+01  .685E+01  .685E+01  .685E+01  .685E+01  .685E+01  .685E+01
  .685E+01  .685E+01  .685E+01  .685E+01  .685E+01  .685E+01  .685E+01  .673E+01
  .673E+01  .673E+01  .673E+01  .673E+01  .673E+01  .673E+01  .673E+01  .673E+01
  .673E+01  .673E+01  .673E+01  .673E+01  .673E+01  .673E+01  .673E+01  .673E+01
  .673E+01  .673E+01  .673E+01  .673E+01  .673E+01  .673E+01  .673E+01  .673E+01
  .673E+01  .673E+01  .673E+01  .000E+00  .000E+00  .000E+00  .000E+00  .000E+00
  .000E+00  .000E+00  .000E+00  .000E+00
  .688E+01  .679E+01  .688E+01  .688E+01  .688E+01  .688E+01  .677E+01  .688E+01
  .696E+01  .711E+01  .697E+01  .698E+01  .698E+01  .698E+01  .705E+01  .736E+01
  .678E+01  .679E+01  .714E+01  .738E+01  .741E+01  .691E+01  .692E+01  .692E+01
  .692E+01  .754E+01  .718E+01  .721E+01  .723E+01  .755E+01  .759E+01  .763E+01
  .767E+01  .704E+01  .705E+01  .706E+01  .707E+01  .688E+01  .689E+01  .690E+01
  .768E+01  .749E+01  .905E+01  .759E+01  .735E+01  .737E+01  .738E+01  .738E+01
  .888E+01  .892E+01  .897E+01  .109E+02  .677E+01  .677E+01  .677E+01  .677E+01
  .677E+01  .677E+01  .677E+01  .677E+01  .676E+01  .676E+01  .676E+01  .676E+01
  .676E+01  .676E+01  .676E+01  .676E+01  .676E+01  .676E+01  .676E+01  .676E+01
  .675E+01  .675E+01  .675E+01  .675E+01  .675E+01  .675E+01  .675E+01  .675E+01
  .675E+01  .674E+01  .674E+01  .674E+01  .674E+01  .674E+01  .674E+01  .674E+01
  .674E+01  .674E+01  .674E+01  .000E+00  .000E+00  .000E+00  .000E+00  .000E+00
  .000E+00  .000E+00  .000E+00  .000E+00
Damping =  .05. Data of Sd,Sv,Sa,Pssv,ttSd,ttSv,ttSa :
  .649E-03  .670E-03  .764E-03  .935E-03  .118E-02  .133E-02  .144E-02  .200E-02
  .284E-02  .347E-02  .517E-02  .655E-02  .690E-02  .673E-02  .692E-02  .723E-02
  .105E-01  .142E-01  .174E-01  .188E-01  .215E-01  .236E-01  .235E-01  .241E-01
  .244E-01  .245E-01  .244E-01  .303E-01  .349E-01  .397E-01  .454E-01  .476E-01
  .521E-01  .554E-01  .561E-01  .549E-01  .552E-01  .559E-01  .558E-01  .549E-01
