Response and Fourier amplitude spectra (91 periods,  .04 - 15.0 sec)   for      
Corrected accelerogram   24207-M0150-01010.01       Chan 17: 360 Deg     from   
Uncorrected Accelerogram Data             Processed: 03/04/11, CGS  207fa001    
Record of Sat Jan 13, 2001 18:26:11.0 PST             (Avol1 v8.9,05/09 CSMIP)  
CSMIP Preliminary Processing            (Origin:  To be determined)             
24207-M0150-01010.01                 Start time:  1/14/01, 02:26:11.0 UTC (GPS) 
Station No. 24207   34.334N, 118.396W    MtWtny  s/n  150 (17 Chns of 17 at Sta)
Sylmar - Pacoima Dam                      CGS                                   
Chan 17: 360 DegR                   Location: Left (South) Abutment             
Record of Sat Jan 13, 2001 18:26:11.0 PST    Sat Jan 13, 2001 18:26:11.0 PST    
Hypocenter:  To be determined.               ML:  To be determined.
Instr Period =  .0110 sec,  Damping =  .660,  Sensitivity =  .63  v/g
                        Record length = 41.000 sec.
                                     Uncor Max  =   .097 g , at   6.780 sec.
RMS accel of (uncor) record  =        .   Chn. metadata effective date: 09/02/99
Accelerogram bandpass filtered with 3 dB pts at   .50 and 40.00 cyc/sec
                 instrument- and baseline-corrected





Record of Sat Jan 13, 2001 18:26:11.0 PST    Sat Jan 13, 2001 18:26:11.0 PST

24207-M0150-01010.01      Sylmar - Pacoima Dam    Chan 17: 360 Deg

24207-M0150-01010.01      Sylmar - Pacoima Dam    Chan 17: 360 Deg

Units for spectra are inches and sec, except Sa is in fraction of g.

   17  100   17   18   17  200    1    3    1   24   13  150    024207    5    0
    2   26   11    0   14    1   14 2001   10    3  360 8200   41   20   76   -1
 8200    0  100    3  150    1    1  410    2    0    0    0    0    0    0    0
    0    4    0    0 8200    1  212    1   18    4    0    0    3    1    0 8200
    3 8200    1   91    5   17    5    0    0    0    0    0    0    3    1    2
    2    2    4    0   68   99    0    1    0    0    0    1    0    0    0  222
    1    0    2    0
      .011      .660    41.000      .005      .000   627.000      .097     6.780
    90.600      .298      .475      .000     5.000      .000     4.000      .000
     2.500     9.703     2.500  2016.000     5.000    30.000      .000      .004
      .000     -.005     2.000    15.000    34.334  -118.396      .005      .076
    13.899     -.008     -.001   594.000     5.400     9.900    12.700   100.040
     1.000     1.002      .000      .000      .000      .000      .000      .000
     7.200     8.900     5.800   980.665      .005    41.000    14.419      .000
      .000    40.000      .000    41.000      .005      .500      .000      .000
     6.780    94.746     6.870     2.308     6.780     -.147      .000      .500
    40.000      .005      .005      .000      .210      .013      .000      .000
      .348      .080      .156      .104      .007      .001      .000      .000
      .000      .000      .000      .000      .000      .000      .000      .000
      .000      .000      .000      .000
      .000      .020      .050      .100      .200
      .040      .042      .044      .046      .048      .050      .055      .060
      .065      .070      .075      .080      .085      .090      .095      .100
      .110      .120      .130      .140      .150      .160      .170      .180
      .190      .200      .220      .240      .260      .280      .300      .320
      .340      .360      .380      .400      .420      .440      .460      .480
      .500      .550      .600      .650      .700      .750      .800      .850
      .900      .950     1.000     1.100     1.200     1.300     1.400     1.500
     1.600     1.700     1.800     1.900     2.000     2.200     2.400     2.600
     2.800     3.000     3.200     3.400     3.600     3.800     4.000     4.200
     4.400     4.600     4.800     5.000     5.500     6.000     6.500     7.000
     7.500     8.000     8.500     9.000     9.500    10.000    11.000    12.000
    13.000    14.000    15.000      .000      .000      .000      .000      .000
      .000      .000      .000      .000
Fourier amplitude spectra in in/sec.
  .194E+00  .955E-01  .293E-01  .207E+00  .409E+00  .145E+00  .882E+00  .669E+00
  .491E+00  .196E+01  .305E+01  .540E+01  .277E+01  .125E+01  .120E+01  .786E+00
  .269E+00  .268E+00  .111E+00  .130E+01  .138E+01  .172E+01  .805E+00  .250E+01
  .318E+01  .232E+01  .123E+01  .275E+01  .283E+01  .371E+01  .362E+01  .217E+01
  .184E+01  .207E+01  .135E+01  .114E+01  .119E+01  .115E+01  .109E+01  .879E+00
  .153E+01  .765E+00  .779E+00  .122E+01  .909E+00  .743E+00  .658E+00  .261E+00
  .276E+00  .405E+00  .447E+00  .181E+00  .224E+00  .126E+00  .978E-01  .121E+00
  .107E+00  .891E-01  .443E-01  .571E-01  .646E-01  .461E-01  .289E-01  .180E-01
  .110E-01  .526E-02  .304E-02  .262E-02  .201E-02  .206E-02  .129E-02  .646E-03
  .432E-03  .385E-03  .378E-03  .287E-03  .265E-03  .145E-03  .128E-03  .266E-04
  .107E-03  .832E-04  .268E-04  .571E-04  .729E-04  .593E-04  .362E-04  .594E-04
  .559E-04  .443E-04  .467E-04  .000E+00  .000E+00  .000E+00  .000E+00  .000E+00
  .000E+00  .000E+00  .000E+00  .000E+00
Damping =  .00. Data of Sd,Sv,Sa,Pssv,ttSd,ttSv,ttSa :
  .258E-02  .238E-02  .285E-02  .342E-02  .421E-02  .316E-02  .821E-02  .906E-02
  .132E-01  .263E-01  .433E-01  .782E-01  .420E-01  .324E-01  .272E-01  .224E-01
  .155E-01  .183E-01  .211E-01  .370E-01  .439E-01  .495E-01  .563E-01  .735E-01
  .975E-01  .811E-01  .977E-01  .117E+00  .140E+00  .171E+00  .177E+00  .146E+00
  .125E+00  .125E+00  .115E+00  .112E+00  .110E+00  .109E+00  .107E+00  .109E+00
  .122E+00  .101E+00  .988E-01  .128E+00  .121E+00  .104E+00  .917E-01  .756E-01
  .636E-01  .649E-01  .729E-01  .696E-01  .708E-01  .705E-01  .698E-01  .694E-01
  .693E-01  .692E-01  .691E-01  .690E-01  .689E-01  .684E-01  .674E-01  .662E-01
  .650E-01  .639E-01  .630E-01  .622E-01  .616E-01  .610E-01  .606E-01  .603E-01
  .600E-01  .598E-01  .596E-01  .594E-01  .591E-01  .588E-01  .587E-01  .585E-01
  .584E-01  .584E-01  .583E-01  .582E-01  .582E-01  .582E-01  .581E-01  .581E-01
  .580E-01  .580E-01  .580E-01  .000E+00  .000E+00  .000E+00  .000E+00  .000E+00
  .000E+00  .000E+00  .000E+00  .000E+00
  .252E+00  .252E+00  .212E+00  .242E+00  .454E+00  .331E+00  .903E+00  .872E+00
  .976E+00  .233E+01  .356E+01  .609E+01  .310E+01  .222E+01  .181E+01  .143E+01
  .871E+00  .985E+00  .104E+01  .160E+01  .175E+01  .201E+01  .199E+01  .256E+01
  .320E+01  .256E+01  .266E+01  .306E+01  .340E+01  .383E+01  .374E+01  .288E+01
  .250E+01  .226E+01  .208E+01  .202E+01  .199E+01  .197E+01  .193E+01  .183E+01
  .168E+01  .139E+01  .142E+01  .145E+01  .144E+01  .138E+01  .133E+01  .128E+01
  .125E+01  .123E+01  .121E+01  .117E+01  .112E+01  .108E+01  .105E+01  .103E+01
  .101E+01  .999E+00  .987E+00  .976E+00  .967E+00  .951E+00  .940E+00  .931E+00
  .925E+00  .921E+00  .918E+00  .916E+00  .915E+00  .914E+00  .913E+00  .912E+00
  .911E+00  .911E+00  .911E+00  .910E+00  .909E+00  .909E+00  .908E+00  .908E+00
  .908E+00  .908E+00  .907E+00  .907E+00  .907E+00  .907E+00  .907E+00  .907E+00
  .907E+00  .907E+00  .907E+00  .000E+00  .000E+00  .000E+00  .000E+00  .000E+00
  .000E+00  .000E+00  .000E+00  .000E+00
  .165E+00  .138E+00  .151E+00  .165E+00  .187E+00  .129E+00  .278E+00  .257E+00
  .320E+00  .548E+00  .788E+00  .125E+01  .595E+00  .409E+00  .308E+00  .229E+00
  .131E+00  .130E+00  .128E+00  .193E+00  .200E+00  .198E+00  .199E+00  .232E+00
  .276E+00  .207E+00  .206E+00  .207E+00  .212E+00  .223E+00  .201E+00  .146E+00
  .111E+00  .990E-01  .814E-01  .718E-01  .638E-01  .577E-01  .515E-01  .483E-01
  .501E-01  .342E-01  .281E-01  .310E-01  .252E-01  .189E-01  .146E-01  .107E-01
  .803E-02  .735E-02  .745E-02  .588E-02  .503E-02  .427E-02  .364E-02  .316E-02
  .277E-02  .245E-02  .218E-02  .196E-02  .176E-02  .144E-02  .120E-02  .100E-02
  .848E-03  .726E-03  .629E-03  .550E-03  .486E-03  .432E-03  .387E-03  .349E-03
  .317E-03  .289E-03  .264E-03  .243E-03  .200E-03  .167E-03  .142E-03  .122E-03
  .106E-03  .932E-04  .825E-04  .735E-04  .659E-04  .595E-04  .491E-04  .412E-04
  .351E-04  .303E-04  .264E-04  .000E+00  .000E+00  .000E+00  .000E+00  .000E+00
  .000E+00  .000E+00  .000E+00  .000E+00
  .405E+00  .356E+00  .407E+00  .467E+00  .551E+00  .397E+00  .938E+00  .949E+00
  .128E+01  .236E+01  .363E+01  .614E+01  .310E+01  .226E+01  .180E+01  .141E+01
  .883E+00  .956E+00  .102E+01  .166E+01  .184E+01  .194E+01  .208E+01  .257E+01
  .322E+01  .255E+01  .279E+01  .305E+01  .338E+01  .383E+01  .371E+01  .287E+01
  .231E+01  .219E+01  .190E+01  .176E+01  .165E+01  .156E+01  .146E+01  .142E+01
  .154E+01  .116E+01  .103E+01  .124E+01  .109E+01  .869E+00  .720E+00  .559E+00
  .444E+00  .429E+00  .458E+00  .397E+00  .371E+00  .341E+00  .313E+00  .291E+00
  .272E+00  .256E+00  .241E+00  .228E+00  .217E+00  .195E+00  .176E+00  .160E+00
  .146E+00  .134E+00  .124E+00  .115E+00  .107E+00  .101E+00  .952E-01  .902E-01
  .857E-01  .816E-01  .780E-01  .746E-01  .675E-01  .616E-01  .567E-01  .525E-01
  .490E-01  .458E-01  .431E-01  .407E-01  .385E-01  .365E-01  .332E-01  .304E-01
  .280E-01  .260E-01  .243E-01  .000E+00  .000E+00  .000E+00  .000E+00  .000E+00
  .000E+00  .000E+00  .000E+00  .000E+00
  .689E+01  .677E+01  .677E+01  .678E+01  .696E+01  .696E+01  .677E+01  .677E+01
  .677E+01  .709E+01  .713E+01  .747E+01  .836E+01  .693E+01  .680E+01  .680E+01
  .681E+01  .680E+01  .680E+01  .680E+01  .682E+01  .691E+01  .692E+01  .856E+01
  .808E+01  .774E+01  .718E+01  .866E+01  .764E+01  .112E+02  .908E+01  .747E+01
  .734E+01  .117E+02  .704E+01  .705E+01  .707E+01  .707E+01  .689E+01  .689E+01
  .369E+02  .690E+01  .691E+01  .313E+02  .906E+01  .884E+01  .169E+02  .823E+01
  .677E+01  .677E+01  .280E+02  .677E+01  .677E+01  .677E+01  .677E+01  .677E+01
  .677E+01  .677E+01  .677E+01  .677E+01  .677E+01  .677E+01  .677E+01  .677E+01
  .677E+01  .677E+01  .677E+01  .677E+01  .677E+01  .677E+01  .677E+01  .677E+01
  .677E+01  .677E+01  .677E+01  .677E+01  .677E+01  .677E+01  .677E+01  .677E+01
  .677E+01  .677E+01  .677E+01  .677E+01  .677E+01  .677E+01  .677E+01  .677E+01
  .677E+01  .677E+01  .677E+01  .000E+00  .000E+00  .000E+00  .000E+00  .000E+00
  .000E+00  .000E+00  .000E+00  .000E+00
  .698E+01  .692E+01  .676E+01  .571E+01  .695E+01  .591E+01  .965E+01  .565E+01
  .675E+01  .711E+01  .711E+01  .749E+01  .787E+01  .695E+01  .683E+01  .683E+01
  .684E+01  .683E+01  .683E+01  .684E+01  .694E+01  .695E+01  .695E+01  .178E+02
  .794E+01  .769E+01  .713E+01  .872E+01  .770E+01  .958E+01  .840E+01  .740E+01
  .742E+01  .711E+01  .711E+01  .698E+01  .698E+01  .698E+01  .698E+01  .698E+01
  .698E+01  .686E+01  .686E+01  .686E+01  .686E+01  .686E+01  .686E+01  .686E+01
  .686E+01  .686E+01  .686E+01  .686E+01  .686E+01  .686E+01  .686E+01  .686E+01
  .686E+01  .686E+01  .686E+01  .686E+01  .686E+01  .686E+01  .686E+01  .686E+01
  .686E+01  .686E+01  .686E+01  .686E+01  .686E+01  .686E+01  .686E+01  .686E+01
  .686E+01  .686E+01  .686E+01  .686E+01  .686E+01  .686E+01  .686E+01  .686E+01
  .686E+01  .686E+01  .686E+01  .686E+01  .686E+01  .686E+01  .686E+01  .686E+01
  .686E+01  .686E+01  .686E+01  .000E+00  .000E+00  .000E+00  .000E+00  .000E+00
  .000E+00  .000E+00  .000E+00  .000E+00
  .689E+01  .677E+01  .677E+01  .678E+01  .696E+01  .696E+01  .677E+01  .677E+01
  .677E+01  .709E+01  .713E+01  .747E+01  .836E+01  .693E+01  .680E+01  .680E+01
  .681E+01  .680E+01  .680E+01  .680E+01  .682E+01  .691E+01  .692E+01  .856E+01
  .808E+01  .774E+01  .718E+01  .866E+01  .764E+01  .112E+02  .908E+01  .747E+01
  .734E+01  .117E+02  .704E+01  .705E+01  .707E+01  .707E+01  .689E+01  .689E+01
  .369E+02  .690E+01  .691E+01  .313E+02  .906E+01  .884E+01  .169E+02  .823E+01
  .677E+01  .677E+01  .280E+02  .677E+01  .677E+01  .677E+01  .677E+01  .677E+01
  .677E+01  .677E+01  .677E+01  .677E+01  .677E+01  .677E+01  .677E+01  .677E+01
  .677E+01  .677E+01  .677E+01  .677E+01  .677E+01  .677E+01  .677E+01  .677E+01
  .677E+01  .677E+01  .677E+01  .677E+01  .677E+01  .677E+01  .677E+01  .677E+01
  .677E+01  .677E+01  .677E+01  .677E+01  .677E+01  .677E+01  .677E+01  .677E+01
  .677E+01  .677E+01  .677E+01  .000E+00  .000E+00  .000E+00  .000E+00  .000E+00
  .000E+00  .000E+00  .000E+00  .000E+00
Damping =  .02. Data of Sd,Sv,Sa,Pssv,ttSd,ttSv,ttSa :
  .178E-02  .214E-02  .240E-02  .280E-02  .322E-02  .381E-02  .465E-02  .576E-02
  .945E-02  .153E-01  .232E-01  .348E-01  .301E-01  .254E-01  .221E-01  .200E-01
  .154E-01  .171E-01  .223E-01  .336E-01  .394E-01  .446E-01  .529E-01  .635E-01
  .697E-01  .697E-01  .808E-01  .909E-01  .104E+00  .117E+00  .124E+00  .119E+00
  .107E+00  .104E+00  .106E+00  .104E+00  .102E+00  .100E+00  .101E+00  .103E+00
  .103E+00  .984E-01  .954E-01  .901E-01  .879E-01  .796E-01  .732E-01  .664E-01
  .627E-01  .639E-01  .654E-01  .681E-01  .694E-01  .694E-01  .690E-01  .687E-01
  .686E-01  .685E-01  .685E-01  .684E-01  .683E-01  .678E-01  .669E-01  .659E-01
  .648E-01  .638E-01  .629E-01  .622E-01  .616E-01  .611E-01  .607E-01  .603E-01
  .600E-01  .598E-01  .596E-01  .594E-01  .591E-01  .589E-01  .587E-01  .586E-01
  .585E-01  .584E-01  .584E-01  .582E-01  .583E-01  .581E-01  .581E-01  .579E-01
  .580E-01  .581E-01  .582E-01  .000E+00  .000E+00  .000E+00  .000E+00  .000E+00
  .000E+00  .000E+00  .000E+00  .000E+00
  .137E+00  .169E+00  .151E+00  .181E+00  .198E+00  .252E+00  .362E+00  .519E+00
  .630E+00  .128E+01  .187E+01  .268E+01  .224E+01  .176E+01  .145E+01  .124E+01
  .841E+00  .885E+00  .106E+01  .141E+01  .146E+01  .176E+01  .183E+01  .192E+01
  .194E+01  .199E+01  .227E+01  .243E+01  .246E+01  .268E+01  .273E+01  .240E+01
  .214E+01  .207E+01  .191E+01  .190E+01  .189E+01  .187E+01  .183E+01  .174E+01
  .163E+01  .134E+01  .138E+01  .141E+01  .139E+01  .135E+01  .131E+01  .127E+01
  .124E+01  .122E+01  .120E+01  .116E+01  .111E+01  .108E+01  .105E+01  .103E+01
  .101E+01  .999E+00  .987E+00  .977E+00  .968E+00  .953E+00  .941E+00  .933E+00
  .927E+00  .923E+00  .920E+00  .917E+00  .916E+00  .914E+00  .913E+00  .913E+00
  .912E+00  .912E+00  .911E+00  .911E+00  .910E+00  .909E+00  .909E+00  .908E+00
  .908E+00  .908E+00  .908E+00  .908E+00  .907E+00  .907E+00  .907E+00  .907E+00
  .907E+00  .907E+00  .907E+00  .000E+00  .000E+00  .000E+00  .000E+00  .000E+00
  .000E+00  .000E+00  .000E+00  .000E+00
  .114E+00  .124E+00  .127E+00  .135E+00  .143E+00  .156E+00  .158E+00  .164E+00
  .229E+00  .317E+00  .424E+00  .554E+00  .425E+00  .322E+00  .250E+00  .205E+00
  .130E+00  .121E+00  .136E+00  .176E+00  .180E+00  .179E+00  .187E+00  .201E+00
  .197E+00  .178E+00  .171E+00  .161E+00  .157E+00  .153E+00  .141E+00  .119E+00
  .951E-01  .825E-01  .748E-01  .663E-01  .591E-01  .530E-01  .492E-01  .460E-01
  .423E-01  .334E-01  .272E-01  .219E-01  .184E-01  .145E-01  .117E-01  .942E-02
  .800E-02  .732E-02  .677E-02  .583E-02  .500E-02  .427E-02  .367E-02  .320E-02
  .281E-02  .250E-02  .224E-02  .201E-02  .182E-02  .151E-02  .126E-02  .107E-02
  .912E-03  .792E-03  .695E-03  .615E-03  .550E-03  .495E-03  .449E-03  .410E-03
  .376E-03  .346E-03  .321E-03  .299E-03  .253E-03  .218E-03  .191E-03  .169E-03
  .151E-03  .136E-03  .123E-03  .113E-03  .104E-03  .964E-04  .837E-04  .737E-04
  .657E-04  .592E-04  .538E-04  .000E+00  .000E+00  .000E+00  .000E+00  .000E+00
  .000E+00  .000E+00  .000E+00  .000E+00
  .280E+00  .321E+00  .343E+00  .383E+00  .422E+00  .479E+00  .532E+00  .604E+00
  .913E+00  .137E+01  .194E+01  .273E+01  .222E+01  .177E+01  .146E+01  .125E+01
  .878E+00  .894E+00  .108E+01  .151E+01  .165E+01  .175E+01  .196E+01  .221E+01
  .230E+01  .219E+01  .231E+01  .238E+01  .251E+01  .262E+01  .260E+01  .234E+01
  .198E+01  .182E+01  .174E+01  .163E+01  .152E+01  .143E+01  .139E+01  .135E+01
  .129E+01  .112E+01  .999E+00  .871E+00  .789E+00  .667E+00  .575E+00  .491E+00
  .438E+00  .423E+00  .411E+00  .389E+00  .363E+00  .335E+00  .310E+00  .288E+00
  .269E+00  .253E+00  .239E+00  .226E+00  .215E+00  .194E+00  .175E+00  .159E+00
  .145E+00  .134E+00  .124E+00  .115E+00  .107E+00  .101E+00  .953E-01  .902E-01
  .857E-01  .817E-01  .780E-01  .747E-01  .675E-01  .616E-01  .567E-01  .526E-01
  .490E-01  .459E-01  .431E-01  .406E-01  .385E-01  .365E-01  .332E-01  .303E-01
  .280E-01  .261E-01  .244E-01  .000E+00  .000E+00  .000E+00  .000E+00  .000E+00
  .000E+00  .000E+00  .000E+00  .000E+00
  .690E+01  .677E+01  .677E+01  .677E+01  .678E+01  .678E+01  .677E+01  .689E+01
  .678E+01  .701E+01  .701E+01  .703E+01  .692E+01  .692E+01  .680E+01  .680E+01
  .681E+01  .680E+01  .680E+01  .680E+01  .682E+01  .691E+01  .692E+01  .692E+01
  .693E+01  .705E+01  .718E+01  .721E+01  .764E+01  .754E+01  .744E+01  .746E+01
  .734E+01  .702E+01  .703E+01  .705E+01  .706E+01  .707E+01  .689E+01  .689E+01
  .690E+01  .690E+01  .691E+01  .691E+01  .906E+01  .882E+01  .736E+01  .738E+01
  .677E+01  .677E+01  .677E+01  .677E+01  .677E+01  .677E+01  .677E+01  .677E+01
  .677E+01  .677E+01  .677E+01  .677E+01  .677E+01  .677E+01  .677E+01  .677E+01
  .677E+01  .677E+01  .677E+01  .677E+01  .677E+01  .677E+01  .677E+01  .677E+01
  .677E+01  .677E+01  .677E+01  .677E+01  .677E+01  .677E+01  .677E+01  .677E+01
  .677E+01  .677E+01  .677E+01  .677E+01  .677E+01  .677E+01  .677E+01  .678E+01
  .677E+01  .677E+01  .677E+01  .000E+00  .000E+00  .000E+00  .000E+00  .000E+00
  .000E+00  .000E+00  .000E+00  .000E+00
  .691E+01  .692E+01  .695E+01  .676E+01  .551E+01  .695E+01  .699E+01  .563E+01
  .680E+01  .703E+01  .703E+01  .701E+01  .694E+01  .695E+01  .682E+01  .683E+01
  .684E+01  .683E+01  .683E+01  .684E+01  .694E+01  .695E+01  .695E+01  .696E+01
  .690E+01  .700E+01  .702E+01  .715E+01  .757E+01  .762E+01  .751E+01  .739E+01
  .710E+01  .711E+01  .711E+01  .698E+01  .698E+01  .698E+01  .698E+01  .698E+01
  .698E+01  .686E+01  .686E+01  .686E+01  .686E+01  .686E+01  .686E+01  .686E+01
  .686E+01  .686E+01  .686E+01  .686E+01  .686E+01  .686E+01  .686E+01  .686E+01
  .686E+01  .686E+01  .686E+01  .686E+01  .686E+01  .686E+01  .686E+01  .686E+01
  .686E+01  .686E+01  .686E+01  .686E+01  .686E+01  .686E+01  .686E+01  .686E+01
  .686E+01  .686E+01  .686E+01  .686E+01  .686E+01  .686E+01  .686E+01  .686E+01
  .686E+01  .686E+01  .686E+01  .686E+01  .686E+01  .686E+01  .686E+01  .686E+01
  .686E+01  .686E+01  .686E+01  .000E+00  .000E+00  .000E+00  .000E+00  .000E+00
  .000E+00  .000E+00  .000E+00  .000E+00
  .690E+01  .677E+01  .677E+01  .677E+01  .678E+01  .678E+01  .677E+01  .689E+01
  .677E+01  .701E+01  .701E+01  .703E+01  .692E+01  .692E+01  .680E+01  .680E+01
  .681E+01  .680E+01  .680E+01  .680E+01  .681E+01  .691E+01  .692E+01  .692E+01
  .693E+01  .705E+01  .718E+01  .721E+01  .764E+01  .754E+01  .743E+01  .746E+01
  .734E+01  .702E+01  .703E+01  .705E+01  .706E+01  .707E+01  .689E+01  .689E+01
  .689E+01  .690E+01  .690E+01  .691E+01  .906E+01  .882E+01  .736E+01  .738E+01
  .676E+01  .676E+01  .676E+01  .676E+01  .676E+01  .676E+01  .676E+01  .676E+01
  .676E+01  .676E+01  .676E+01  .676E+01  .676E+01  .676E+01  .676E+01  .676E+01
  .676E+01  .676E+01  .676E+01  .676E+01  .676E+01  .676E+01  .676E+01  .676E+01
  .676E+01  .676E+01  .675E+01  .675E+01  .675E+01  .675E+01  .675E+01  .675E+01
  .675E+01  .675E+01  .675E+01  .675E+01  .675E+01  .675E+01  .675E+01  .675E+01
  .675E+01  .675E+01  .675E+01  .000E+00  .000E+00  .000E+00  .000E+00  .000E+00
  .000E+00  .000E+00  .000E+00  .000E+00
Damping =  .05. Data of Sd,Sv,Sa,Pssv,ttSd,ttSv,ttSa :
  .173E-02  .202E-02  .234E-02  .269E-02  .309E-02  .335E-02  .401E-02  .532E-02
  .787E-02  .116E-01  .168E-01  .217E-01  .224E-01  .200E-01  .191E-01  .182E-01
  .157E-01  .174E-01  .226E-01  .301E-01  .352E-01  .388E-01  .470E-01  .547E-01
  .598E-01  .612E-01  .659E-01  .735E-01  .799E-01  .861E-01  .939E-01  .902E-01
  .923E-01  .938E-01  .938E-01  .923E-01  .906E-01  .920E-01  .948E-01  .966E-01
