Response and Fourier amplitude spectra (91 periods,  .04 - 15.0 sec)   for      
Corrected accelerogram   24207-M0150-01010.01       Chan  8:  Radl       from   
Uncorrected Accelerogram Data             Processed: 03/04/11, CGS  207fa001    
Record of Sat Jan 13, 2001 18:26:11.0 PST             (Avol1 v8.9,05/09 CSMIP)  
CSMIP Preliminary Processing            (Origin:  To be determined)             
24207-M0150-01010.01                 Start time:  1/14/01, 02:26:11.0 UTC (GPS) 
Station No. 24207   34.334N, 118.396W    MtWtny  s/n  150 (17 Chns of 17 at Sta)
Sylmar - Pacoima Dam                      CGS                                   
Chan  8:  Radl                      Location: 80% Height: Left 1/4-length Point 
Record of Sat Jan 13, 2001 18:26:11.0 PST    Sat Jan 13, 2001 18:26:11.0 PST    
Hypocenter:  To be determined.               ML:  To be determined.
Instr Period =  .0107 sec,  Damping =  .640,  Sensitivity =  .63  v/g
                        Record length = 41.000 sec.
                                     Uncor Max  =   .350 g , at   6.990 sec.
RMS accel of (uncor) record  =        .   Chn. metadata effective date: 06/05/01
Accelerogram bandpass filtered with 3 dB pts at   .50 and 40.00 cyc/sec
                 instrument- and baseline-corrected





Record of Sat Jan 13, 2001 18:26:11.0 PST    Sat Jan 13, 2001 18:26:11.0 PST

24207-M0150-01010.01      Sylmar - Pacoima Dam    Chan  8:  Radl

24207-M0150-01010.01      Sylmar - Pacoima Dam    Chan  8:  Radl

Units for spectra are inches and sec, except Sa is in fraction of g.

    8  100    8   18   17  200    1    3    1   24   13  150    024207    5    0
    2   26   11    0   14    1   14 2001   10    3  700 8200   41   20   76   -1
 8200    0  100    3  150    1    1  410    2    0    0    0    0    0    0    0
    0    4    0    0 8200    1  212    1   18    4    0    0    3    1    0 8200
    3 8200    1   91    5   17    5    0    0    0    0    0    0    3    1    2
    2    2    4    0   68   99    0    1    0    0    0    1    0    0    0  222
    1    0    2    0
      .011      .640    41.000      .232      .000   625.000      .350     6.990
    93.800      .298      .477      .000     5.000      .000     4.000      .000
     2.500   -25.129     2.500  2016.000     5.000    30.000      .000     1.039
     -.095    -1.134     2.000    15.000    34.334  -118.396   231.917   232.044
     1.001   -32.936    30.668   594.000     5.400     9.900    12.700   100.040
     1.000    -1.023      .000      .000      .000      .000      .000      .000
     7.200     8.900     5.800   980.665      .005    41.000    14.929      .000
      .000    40.000      .000    41.000      .005      .500      .000      .000
     7.185    24.536     7.150    -1.087     7.090      .046      .009      .500
    40.000      .005      .005      .005      .005      .009      .000      .000
      .122      .200      .119      .072      .002      .000      .000      .000
      .000      .000      .000      .000      .000      .000      .000      .000
      .000      .000      .000      .000
      .000      .020      .050      .100      .200
      .040      .042      .044      .046      .048      .050      .055      .060
      .065      .070      .075      .080      .085      .090      .095      .100
      .110      .120      .130      .140      .150      .160      .170      .180
      .190      .200      .220      .240      .260      .280      .300      .320
      .340      .360      .380      .400      .420      .440      .460      .480
      .500      .550      .600      .650      .700      .750      .800      .850
      .900      .950     1.000     1.100     1.200     1.300     1.400     1.500
     1.600     1.700     1.800     1.900     2.000     2.200     2.400     2.600
     2.800     3.000     3.200     3.400     3.600     3.800     4.000     4.200
     4.400     4.600     4.800     5.000     5.500     6.000     6.500     7.000
     7.500     8.000     8.500     9.000     9.500    10.000    11.000    12.000
    13.000    14.000    15.000      .000      .000      .000      .000      .000
      .000      .000      .000      .000
Fourier amplitude spectra in in/sec.
  .187E-01  .212E-01  .174E-01  .191E-01  .244E-01  .385E-01  .375E-01  .108E+00
  .260E+00  .717E-01  .172E+00  .974E+00  .378E+00  .469E+00  .408E+00  .471E+00
  .213E+00  .226E+00  .137E+00  .884E-01  .555E+00  .562E+00  .728E+00  .128E+01
  .264E+01  .261E+01  .220E+01  .201E+01  .208E+01  .208E+01  .249E+01  .100E+01
  .725E+00  .897E+00  .222E+00  .325E+00  .127E+00  .550E+00  .250E+00  .500E+00
  .646E+00  .574E-01  .190E+00  .862E-01  .193E+00  .951E-01  .704E-01  .682E-01
  .412E-01  .843E-01  .225E+00  .173E+00  .361E-01  .618E-01  .841E-01  .789E-01
  .842E-01  .998E-01  .548E-01  .470E-01  .159E-01  .368E-01  .599E-01  .610E-01
  .290E-01  .155E-01  .261E-01  .152E-01  .359E-01  .237E-01  .317E-01  .216E-01
  .229E-01  .197E-01  .143E-01  .112E-01  .376E-02  .243E-02  .253E-02  .642E-02
  .804E-02  .426E-02  .395E-02  .755E-02  .818E-02  .635E-02  .319E-02  .509E-02
  .473E-02  .329E-02  .305E-02  .000E+00  .000E+00  .000E+00  .000E+00  .000E+00
  .000E+00  .000E+00  .000E+00  .000E+00
Damping =  .00. Data of Sd,Sv,Sa,Pssv,ttSd,ttSv,ttSa :
  .521E-03  .498E-03  .646E-03  .689E-03  .745E-03  .952E-03  .108E-02  .169E-02
  .380E-02  .452E-02  .772E-02  .155E-01  .936E-02  .927E-02  .953E-02  .104E-01
  .605E-02  .839E-02  .815E-02  .118E-01  .210E-01  .275E-01  .411E-01  .512E-01
  .832E-01  .924E-01  .855E-01  .861E-01  .908E-01  .109E+00  .128E+00  .854E-01
  .732E-01  .687E-01  .587E-01  .521E-01  .490E-01  .475E-01  .428E-01  .405E-01
  .604E-01  .298E-01  .284E-01  .277E-01  .258E-01  .247E-01  .227E-01  .215E-01
  .218E-01  .229E-01  .359E-01  .368E-01  .255E-01  .267E-01  .238E-01  .288E-01
  .280E-01  .273E-01  .212E-01  .186E-01  .175E-01  .274E-01  .320E-01  .307E-01
  .236E-01  .185E-01  .183E-01  .217E-01  .262E-01  .297E-01  .315E-01  .315E-01
  .301E-01  .283E-01  .261E-01  .235E-01  .178E-01  .161E-01  .150E-01  .166E-01
  .188E-01  .209E-01  .228E-01  .242E-01  .252E-01  .258E-01  .259E-01  .250E-01
  .235E-01  .217E-01  .199E-01  .000E+00  .000E+00  .000E+00  .000E+00  .000E+00
  .000E+00  .000E+00  .000E+00  .000E+00
  .458E-01  .423E-01  .535E-01  .527E-01  .475E-01  .612E-01  .845E-01  .137E+00
  .300E+00  .361E+00  .595E+00  .117E+01  .611E+00  .545E+00  .514E+00  .524E+00
  .244E+00  .282E+00  .258E+00  .418E+00  .735E+00  .880E+00  .133E+01  .162E+01
  .275E+01  .289E+01  .244E+01  .225E+01  .220E+01  .245E+01  .269E+01  .170E+01
  .160E+01  .138E+01  .129E+01  .113E+01  .992E+00  .878E+00  .848E+00  .807E+00
  .775E+00  .641E+00  .573E+00  .527E+00  .484E+00  .492E+00  .481E+00  .469E+00
  .458E+00  .448E+00  .445E+00  .463E+00  .467E+00  .483E+00  .487E+00  .486E+00
  .494E+00  .489E+00  .472E+00  .462E+00  .467E+00  .482E+00  .465E+00  .437E+00
  .426E+00  .431E+00  .441E+00  .446E+00  .446E+00  .441E+00  .435E+00  .428E+00
  .423E+00  .420E+00  .418E+00  .418E+00  .420E+00  .424E+00  .428E+00  .430E+00
  .431E+00  .431E+00  .430E+00  .429E+00  .428E+00  .427E+00  .426E+00  .424E+00
  .424E+00  .423E+00  .423E+00  .000E+00  .000E+00  .000E+00  .000E+00  .000E+00
  .000E+00  .000E+00  .000E+00  .000E+00
  .333E-01  .289E-01  .342E-01  .333E-01  .331E-01  .389E-01  .364E-01  .481E-01
  .921E-01  .944E-01  .140E+00  .248E+00  .132E+00  .117E+00  .108E+00  .106E+00
  .512E-01  .596E-01  .493E-01  .616E-01  .953E-01  .110E+00  .146E+00  .162E+00
  .236E+00  .236E+00  .181E+00  .153E+00  .137E+00  .142E+00  .146E+00  .853E-01
  .647E-01  .542E-01  .416E-01  .333E-01  .284E-01  .251E-01  .207E-01  .180E-01
  .247E-01  .101E-01  .806E-02  .670E-02  .538E-02  .450E-02  .363E-02  .304E-02
  .275E-02  .259E-02  .367E-02  .311E-02  .181E-02  .161E-02  .124E-02  .131E-02
  .112E-02  .965E-03  .670E-03  .526E-03  .448E-03  .578E-03  .567E-03  .464E-03
  .308E-03  .210E-03  .183E-03  .192E-03  .206E-03  .210E-03  .202E-03  .183E-03
  .159E-03  .137E-03  .116E-03  .963E-04  .600E-04  .458E-04  .362E-04  .346E-04
  .341E-04  .334E-04  .323E-04  .306E-04  .286E-04  .264E-04  .219E-04  .177E-04
  .142E-04  .113E-04  .903E-05  .000E+00  .000E+00  .000E+00  .000E+00  .000E+00
  .000E+00  .000E+00  .000E+00  .000E+00
  .818E-01  .745E-01  .923E-01  .941E-01  .975E-01  .120E+00  .123E+00  .177E+00
  .368E+00  .406E+00  .646E+00  .122E+01  .692E+00  .647E+00  .630E+00  .653E+00
  .346E+00  .439E+00  .394E+00  .529E+00  .878E+00  .108E+01  .152E+01  .179E+01
  .275E+01  .290E+01  .244E+01  .225E+01  .219E+01  .245E+01  .268E+01  .168E+01
  .135E+01  .120E+01  .971E+00  .818E+00  .733E+00  .678E+00  .584E+00  .530E+00
  .759E+00  .341E+00  .297E+00  .268E+00  .231E+00  .207E+00  .178E+00  .159E+00
  .152E+00  .151E+00  .226E+00  .210E+00  .134E+00  .129E+00  .107E+00  .120E+00
  .110E+00  .101E+00  .741E-01  .613E-01  .550E-01  .781E-01  .837E-01  .741E-01
  .530E-01  .387E-01  .359E-01  .401E-01  .457E-01  .491E-01  .495E-01  .472E-01
  .429E-01  .386E-01  .341E-01  .296E-01  .203E-01  .169E-01  .145E-01  .149E-01
  .157E-01  .164E-01  .169E-01  .169E-01  .167E-01  .162E-01  .148E-01  .131E-01
  .114E-01  .976E-02  .832E-02  .000E+00  .000E+00  .000E+00  .000E+00  .000E+00
  .000E+00  .000E+00  .000E+00  .000E+00
  .719E+01  .720E+01  .698E+01  .672E+01  .718E+01  .711E+01  .672E+01  .734E+01
  .717E+01  .660E+01  .699E+01  .730E+01  .709E+01  .697E+01  .718E+01  .720E+01
  .707E+01  .708E+01  .709E+01  .730E+01  .697E+01  .708E+01  .719E+01  .720E+01
  .184E+02  .914E+01  .149E+02  .750E+01  .157E+02  .868E+01  .107E+02  .778E+01
  .733E+01  .720E+01  .721E+01  .707E+01  .708E+01  .709E+01  .709E+01  .956E+01
  .117E+02  .695E+01  .696E+01  .696E+01  .696E+01  .697E+01  .697E+01  .697E+01
  .719E+01  .719E+01  .392E+02  .224E+02  .720E+01  .720E+01  .720E+01  .105E+02
  .106E+02  .271E+02  .708E+01  .708E+01  .885E+01  .887E+01  .708E+01  .709E+01
  .709E+01  .709E+01  .708E+01  .708E+01  .708E+01  .708E+01  .709E+01  .709E+01
  .709E+01  .733E+01  .733E+01  .733E+01  .733E+01  .660E+01  .709E+01  .709E+01
  .709E+01  .709E+01  .709E+01  .709E+01  .709E+01  .709E+01  .709E+01  .709E+01
  .709E+01  .709E+01  .709E+01  .000E+00  .000E+00  .000E+00  .000E+00  .000E+00
  .000E+00  .000E+00  .000E+00  .000E+00
  .714E+01  .715E+01  .715E+01  .670E+01  .657E+01  .725E+01  .674E+01  .675E+01
  .715E+01  .658E+01  .701E+01  .756E+01  .693E+01  .695E+01  .730E+01  .723E+01
  .830E+01  .705E+01  .666E+01  .692E+01  .693E+01  .704E+01  .714E+01  .725E+01
  .183E+02  .910E+01  .149E+02  .864E+01  .158E+02  .876E+01  .110E+02  .786E+01
  .726E+01  .713E+01  .714E+01  .714E+01  .714E+01  .701E+01  .702E+01  .702E+01
  .118E+02  .702E+01  .702E+01  .702E+01  .702E+01  .725E+01  .726E+01  .726E+01
  .726E+01  .726E+01  .714E+01  .714E+01  .714E+01  .714E+01  .714E+01  .714E+01
  .714E+01  .714E+01  .714E+01  .714E+01  .714E+01  .714E+01  .714E+01  .714E+01
  .714E+01  .714E+01  .714E+01  .714E+01  .714E+01  .714E+01  .714E+01  .714E+01
  .714E+01  .714E+01  .714E+01  .714E+01  .714E+01  .714E+01  .714E+01  .714E+01
  .714E+01  .714E+01  .714E+01  .714E+01  .714E+01  .714E+01  .714E+01  .714E+01
  .714E+01  .714E+01  .714E+01  .000E+00  .000E+00  .000E+00  .000E+00  .000E+00
  .000E+00  .000E+00  .000E+00  .000E+00
  .719E+01  .720E+01  .698E+01  .672E+01  .718E+01  .711E+01  .672E+01  .734E+01
  .717E+01  .660E+01  .699E+01  .730E+01  .709E+01  .697E+01  .718E+01  .720E+01
  .707E+01  .708E+01  .709E+01  .730E+01  .697E+01  .708E+01  .719E+01  .720E+01
  .184E+02  .914E+01  .149E+02  .750E+01  .157E+02  .868E+01  .107E+02  .778E+01
  .733E+01  .720E+01  .721E+01  .707E+01  .708E+01  .709E+01  .709E+01  .956E+01
  .117E+02  .695E+01  .696E+01  .696E+01  .696E+01  .697E+01  .697E+01  .697E+01
  .719E+01  .719E+01  .392E+02  .224E+02  .720E+01  .720E+01  .720E+01  .105E+02
  .106E+02  .271E+02  .708E+01  .708E+01  .885E+01  .887E+01  .708E+01  .709E+01
  .709E+01  .709E+01  .708E+01  .708E+01  .708E+01  .708E+01  .709E+01  .709E+01
  .709E+01  .733E+01  .733E+01  .733E+01  .733E+01  .660E+01  .709E+01  .709E+01
  .709E+01  .709E+01  .709E+01  .709E+01  .709E+01  .709E+01  .709E+01  .709E+01
  .709E+01  .709E+01  .709E+01  .000E+00  .000E+00  .000E+00  .000E+00  .000E+00
  .000E+00  .000E+00  .000E+00  .000E+00
Damping =  .02. Data of Sd,Sv,Sa,Pssv,ttSd,ttSv,ttSa :
  .428E-03  .461E-03  .542E-03  .680E-03  .756E-03  .774E-03  .106E-02  .135E-02
  .236E-02  .279E-02  .413E-02  .770E-02  .679E-02  .662E-02  .642E-02  .768E-02
  .589E-02  .714E-02  .773E-02  .975E-02  .167E-01  .249E-01  .334E-01  .443E-01
  .572E-01  .602E-01  .654E-01  .736E-01  .766E-01  .786E-01  .756E-01  .698E-01
  .640E-01  .616E-01  .536E-01  .487E-01  .464E-01  .441E-01  .405E-01  .364E-01
  .321E-01  .290E-01  .276E-01  .267E-01  .254E-01  .242E-01  .225E-01  .214E-01
  .214E-01  .224E-01  .234E-01  .249E-01  .251E-01  .256E-01  .236E-01  .248E-01
  .232E-01  .199E-01  .200E-01  .186E-01  .177E-01  .236E-01  .296E-01  .289E-01
  .237E-01  .197E-01  .194E-01  .220E-01  .256E-01  .285E-01  .300E-01  .301E-01
  .290E-01  .271E-01  .253E-01  .232E-01  .183E-01  .157E-01  .157E-01  .170E-01
  .189E-01  .208E-01  .225E-01  .238E-01  .247E-01  .252E-01  .254E-01  .245E-01
  .232E-01  .216E-01  .199E-01  .000E+00  .000E+00  .000E+00  .000E+00  .000E+00
  .000E+00  .000E+00  .000E+00  .000E+00
  .301E-01  .343E-01  .344E-01  .432E-01  .461E-01  .441E-01  .786E-01  .104E+00
  .163E+00  .198E+00  .296E+00  .513E+00  .440E+00  .415E+00  .375E+00  .343E+00
  .209E+00  .223E+00  .243E+00  .346E+00  .569E+00  .802E+00  .105E+01  .135E+01
  .176E+01  .184E+01  .182E+01  .190E+01  .187E+01  .182E+01  .172E+01  .152E+01
  .144E+01  .127E+01  .120E+01  .108E+01  .960E+00  .847E+00  .810E+00  .776E+00
  .734E+00  .635E+00  .572E+00  .525E+00  .485E+00  .482E+00  .475E+00  .465E+00
  .455E+00  .446E+00  .445E+00  .460E+00  .466E+00  .478E+00  .483E+00  .484E+00
  .488E+00  .484E+00  .472E+00  .465E+00  .467E+00  .476E+00  .462E+00  .441E+00
  .431E+00  .434E+00  .440E+00  .444E+00  .444E+00  .440E+00  .435E+00  .429E+00
  .425E+00  .422E+00  .420E+00  .419E+00  .421E+00  .425E+00  .428E+00  .430E+00
  .431E+00  .431E+00  .430E+00  .429E+00  .428E+00  .427E+00  .426E+00  .425E+00
  .424E+00  .424E+00  .423E+00  .000E+00  .000E+00  .000E+00  .000E+00  .000E+00
  .000E+00  .000E+00  .000E+00  .000E+00
  .274E-01  .268E-01  .286E-01  .329E-01  .335E-01  .318E-01  .358E-01  .382E-01
  .574E-01  .583E-01  .750E-01  .124E+00  .962E-01  .835E-01  .731E-01  .788E-01
  .499E-01  .507E-01  .468E-01  .510E-01  .761E-01  .995E-01  .118E+00  .140E+00
  .163E+00  .154E+00  .138E+00  .131E+00  .116E+00  .103E+00  .861E-01  .698E-01
  .567E-01  .487E-01  .381E-01  .312E-01  .269E-01  .234E-01  .196E-01  .162E-01
  .132E-01  .983E-02  .787E-02  .649E-02  .531E-02  .441E-02  .362E-02  .305E-02
  .272E-02  .256E-02  .241E-02  .212E-02  .180E-02  .157E-02  .125E-02  .113E-02
  .929E-03  .706E-03  .648E-03  .544E-03  .470E-03  .503E-03  .543E-03  .455E-03
  .327E-03  .242E-03  .211E-03  .212E-03  .219E-03  .219E-03  .209E-03  .192E-03
  .170E-03  .148E-03  .127E-03  .109E-03  .774E-04  .615E-04  .548E-04  .520E-04
  .505E-04  .491E-04  .475E-04  .454E-04  .431E-04  .405E-04  .355E-04  .310E-04
  .271E-04  .238E-04  .210E-04  .000E+00  .000E+00  .000E+00  .000E+00  .000E+00
  .000E+00  .000E+00  .000E+00  .000E+00
  .673E-01  .690E-01  .774E-01  .929E-01  .990E-01  .973E-01  .121E+00  .141E+00
  .228E+00  .250E+00  .346E+00  .605E+00  .502E+00  .462E+00  .425E+00  .482E+00
  .337E+00  .374E+00  .374E+00  .438E+00  .701E+00  .977E+00  .123E+01  .154E+01
  .189E+01  .189E+01  .187E+01  .193E+01  .185E+01  .176E+01  .158E+01  .137E+01
  .118E+01  .107E+01  .887E+00  .766E+00  .694E+00  .630E+00  .553E+00  .476E+00
  .403E+00  .331E+00  .289E+00  .258E+00  .228E+00  .202E+00  .177E+00  .158E+00
  .149E+00  .148E+00  .147E+00  .142E+00  .131E+00  .124E+00  .106E+00  .104E+00
  .911E-01  .735E-01  .698E-01  .615E-01  .556E-01  .675E-01  .775E-01  .699E-01
  .532E-01  .413E-01  .382E-01  .407E-01  .446E-01  .471E-01  .472E-01  .450E-01
  .414E-01  .370E-01  .332E-01  .292E-01  .209E-01  .164E-01  .152E-01  .153E-01
  .158E-01  .163E-01  .166E-01  .166E-01  .163E-01  .158E-01  .145E-01  .129E-01
  .112E-01  .971E-02  .834E-02  .000E+00  .000E+00  .000E+00  .000E+00  .000E+00
  .000E+00  .000E+00  .000E+00  .000E+00
  .699E+01  .672E+01  .672E+01  .717E+01  .718E+01  .711E+01  .672E+01  .673E+01
  .717E+01  .660E+01  .700E+01  .718E+01  .695E+01  .697E+01  .718E+01  .720E+01
  .707E+01  .708E+01  .709E+01  .696E+01  .697E+01  .709E+01  .710E+01  .721E+01
  .732E+01  .734E+01  .747E+01  .750E+01  .752E+01  .741E+01  .743E+01  .732E+01
  .718E+01  .719E+01  .721E+01  .707E+01  .707E+01  .708E+01  .709E+01  .709E+01
  .709E+01  .695E+01  .696E+01  .696E+01  .696E+01  .696E+01  .696E+01  .697E+01
  .719E+01  .719E+01  .112E+02  .720E+01  .720E+01  .720E+01  .720E+01  .105E+02
  .106E+02  .100E+02  .708E+01  .708E+01  .708E+01  .887E+01  .708E+01  .709E+01
  .709E+01  .709E+01  .708E+01  .708E+01  .708E+01  .708E+01  .709E+01  .709E+01
  .709E+01  .732E+01  .733E+01  .733E+01  .733E+01  .709E+01  .709E+01  .709E+01
  .709E+01  .709E+01  .709E+01  .709E+01  .709E+01  .709E+01  .709E+01  .709E+01
  .709E+01  .709E+01  .709E+01  .000E+00  .000E+00  .000E+00  .000E+00  .000E+00
  .000E+00  .000E+00  .000E+00  .000E+00
  .714E+01  .715E+01  .715E+01  .715E+01  .675E+01  .674E+01  .674E+01  .675E+01
  .715E+01  .658E+01  .690E+01  .716E+01  .693E+01  .682E+01  .682E+01  .717E+01
  .665E+01  .705E+01  .666E+01  .692E+01  .693E+01  .704E+01  .714E+01  .726E+01
  .728E+01  .740E+01  .742E+01  .744E+01  .746E+01  .748E+01  .737E+01  .724E+01
  .725E+01  .713E+01  .714E+01  .714E+01  .714E+01  .714E+01  .702E+01  .702E+01
  .702E+01  .702E+01  .702E+01  .702E+01  .702E+01  .725E+01  .726E+01  .726E+01
  .726E+01  .726E+01  .714E+01  .714E+01  .714E+01  .714E+01  .714E+01  .714E+01
  .714E+01  .714E+01  .714E+01  .714E+01  .714E+01  .714E+01  .714E+01  .714E+01
  .714E+01  .714E+01  .714E+01  .714E+01  .714E+01  .714E+01  .714E+01  .714E+01
  .714E+01  .714E+01  .714E+01  .714E+01  .714E+01  .714E+01  .714E+01  .714E+01
  .714E+01  .714E+01  .714E+01  .714E+01  .714E+01  .714E+01  .714E+01  .714E+01
  .714E+01  .714E+01  .714E+01  .000E+00  .000E+00  .000E+00  .000E+00  .000E+00
  .000E+00  .000E+00  .000E+00  .000E+00
  .699E+01  .672E+01  .672E+01  .717E+01  .718E+01  .711E+01  .672E+01  .673E+01
  .717E+01  .660E+01  .700E+01  .718E+01  .695E+01  .697E+01  .718E+01  .720E+01
  .707E+01  .708E+01  .709E+01  .696E+01  .697E+01  .708E+01  .709E+01  .721E+01
  .732E+01  .734E+01  .747E+01  .750E+01  .752E+01  .741E+01  .743E+01  .731E+01
  .718E+01  .719E+01  .720E+01  .707E+01  .707E+01  .708E+01  .709E+01  .709E+01
  .709E+01  .695E+01  .695E+01  .696E+01  .696E+01  .696E+01  .696E+01  .696E+01
  .719E+01  .719E+01  .719E+01  .719E+01  .719E+01  .719E+01  .719E+01  .105E+02
  .106E+02  .100E+02  .707E+01  .707E+01  .707E+01  .885E+01  .707E+01  .707E+01
  .707E+01  .707E+01  .706E+01  .706E+01  .706E+01  .706E+01  .705E+01  .705E+01
  .705E+01  .705E+01  .705E+01  .705E+01  .705E+01  .705E+01  .705E+01  .705E+01
  .705E+01  .704E+01  .704E+01  .704E+01  .704E+01  .704E+01  .703E+01  .703E+01
  .703E+01  .703E+01  .703E+01  .000E+00  .000E+00  .000E+00  .000E+00  .000E+00
  .000E+00  .000E+00  .000E+00  .000E+00
Damping =  .05. Data of Sd,Sv,Sa,Pssv,ttSd,ttSv,ttSa :
  .416E-03  .464E-03  .534E-03  .625E-03  .694E-03  .728E-03  .989E-03  .123E-02
  .176E-02  .213E-02  .303E-02  .470E-02  .463E-02  .463E-02  .501E-02  .595E-02
  .555E-02  .657E-02  .741E-02  .859E-02  .136E-01  .209E-01  .272E-01  .355E-01
  .424E-01  .475E-01  .535E-01  .598E-01  .636E-01  .653E-01  .618E-01  .594E-01
  .558E-01  .534E-01  .475E-01  .442E-01  .425E-01  .403E-01  .374E-01  .341E-01
