Response and Fourier amplitude spectra (91 periods,  .04 - 15.0 sec)   for      
Corrected accelerogram   24207-M0150-01010.01       Chan  9:  Radl       from   
Uncorrected Accelerogram Data             Processed: 03/04/11, CGS  207fa001    
Record of Sat Jan 13, 2001 18:26:11.0 PST             (Avol1 v8.9,05/09 CSMIP)  
CSMIP Preliminary Processing            (Origin:  To be determined)             
24207-M0150-01010.01                 Start time:  1/14/01, 02:26:11.0 UTC (GPS) 
Station No. 24207   34.334N, 118.396W    MtWtny  s/n  150 (17 Chns of 17 at Sta)
Sylmar - Pacoima Dam                      CGS                                   
Chan  9:  Radl                      Location: Dam Base                          
Record of Sat Jan 13, 2001 18:26:11.0 PST    Sat Jan 13, 2001 18:26:11.0 PST    
Hypocenter:  To be determined.               ML:  To be determined.
Instr Period =  .0105 sec,  Damping =  .640,  Sensitivity =  .63  v/g
                        Record length = 41.000 sec.
                                     Uncor Max  =  -.013 g , at   6.750 sec.
RMS accel of (uncor) record  =        .   Chn. metadata effective date: 09/02/99
Accelerogram bandpass filtered with 3 dB pts at   .50 and 40.00 cyc/sec
                 instrument- and baseline-corrected





Record of Sat Jan 13, 2001 18:26:11.0 PST    Sat Jan 13, 2001 18:26:11.0 PST

24207-M0150-01010.01      Sylmar - Pacoima Dam    Chan  9:  Radl

24207-M0150-01010.01      Sylmar - Pacoima Dam    Chan  9:  Radl

Units for spectra are inches and sec, except Sa is in fraction of g.

    9  100    9   18   17  200    1    3    1   24   13  150    024207    5    0
    2   26   11    0   14    1   14 2001   10    3  700 8200   41   20   76   -1
 8200    1  100    3  150    1    1  410    2    0    0    0    0    0    0    0
    0    4    0    0 8200    1  212    1   18    4    0    0    3    1    0 8200
    3 8200    1   91    5   17    5    0    0    0    0    0    0    3    1    2
    2    2    4    0   68   99    0    1    0    0    0    1    0    0    0  222
    1    0    2    0
      .011      .640    41.000      .001      .000   626.000     -.013     6.750
    95.100      .298      .476      .000     5.000      .000     4.000      .000
     2.500   -17.277     2.500  2016.000     5.000    30.000      .000      .000
      .000      .000     2.000    15.000    34.334  -118.396      .025      .044
     1.726     -.004      .003   594.000     5.400     9.900    12.700   100.040
     1.000     1.006      .000      .000      .000      .000      .000      .000
     7.200     8.900     5.800   980.665      .005    41.000    15.136      .000
      .000    40.000      .000    41.000      .005      .500      .000      .000
     6.750   -12.758     6.665      .624     6.745      .055      .000      .500
    40.000      .005      .005      .000      .005      .005      .000      .000
      .028      .300      .021      .027      .003      .000      .000      .000
      .000      .000      .000      .000      .000      .000      .000      .000
      .000      .000      .000      .000
      .000      .020      .050      .100      .200
      .040      .042      .044      .046      .048      .050      .055      .060
      .065      .070      .075      .080      .085      .090      .095      .100
      .110      .120      .130      .140      .150      .160      .170      .180
      .190      .200      .220      .240      .260      .280      .300      .320
      .340      .360      .380      .400      .420      .440      .460      .480
      .500      .550      .600      .650      .700      .750      .800      .850
      .900      .950     1.000     1.100     1.200     1.300     1.400     1.500
     1.600     1.700     1.800     1.900     2.000     2.200     2.400     2.600
     2.800     3.000     3.200     3.400     3.600     3.800     4.000     4.200
     4.400     4.600     4.800     5.000     5.500     6.000     6.500     7.000
     7.500     8.000     8.500     9.000     9.500    10.000    11.000    12.000
    13.000    14.000    15.000      .000      .000      .000      .000      .000
      .000      .000      .000      .000
Fourier amplitude spectra in in/sec.
  .144E-01  .226E-01  .524E-01  .343E-01  .282E-01  .116E-01  .140E-01  .752E-02
  .979E-01  .703E-01  .678E-01  .230E+00  .124E+00  .991E-01  .103E+00  .170E+00
  .737E-01  .802E-01  .154E+00  .129E+00  .211E+00  .283E+00  .316E+00  .935E-01
  .249E+00  .331E+00  .758E-01  .206E+00  .377E+00  .520E+00  .109E+01  .670E+00
  .797E+00  .896E+00  .520E+00  .543E+00  .170E+00  .483E+00  .516E+00  .519E+00
  .843E+00  .294E+00  .593E+00  .426E+00  .502E+00  .125E+00  .360E+00  .295E+00
  .160E+00  .238E+00  .308E+00  .328E+00  .157E+00  .548E-01  .372E-01  .724E-01
  .645E-01  .840E-01  .618E-01  .433E-01  .410E-01  .764E-02  .110E-01  .110E-01
  .131E-01  .876E-02  .522E-02  .335E-02  .206E-02  .169E-02  .119E-02  .676E-03
  .353E-03  .174E-03  .120E-03  .758E-04  .168E-03  .526E-04  .491E-04  .147E-04
  .351E-04  .307E-04  .252E-04  .387E-04  .469E-04  .461E-04  .373E-04  .352E-04
  .348E-04  .341E-04  .343E-04  .000E+00  .000E+00  .000E+00  .000E+00  .000E+00
  .000E+00  .000E+00  .000E+00  .000E+00
Damping =  .00. Data of Sd,Sv,Sa,Pssv,ttSd,ttSv,ttSa :
  .355E-03  .309E-03  .496E-03  .440E-03  .382E-03  .412E-03  .640E-03  .689E-03
  .128E-02  .158E-02  .126E-02  .294E-02  .248E-02  .275E-02  .223E-02  .410E-02
  .318E-02  .430E-02  .445E-02  .517E-02  .527E-02  .863E-02  .104E-01  .983E-02
  .106E-01  .124E-01  .118E-01  .142E-01  .195E-01  .304E-01  .558E-01  .509E-01
  .528E-01  .559E-01  .428E-01  .426E-01  .434E-01  .447E-01  .446E-01  .538E-01
  .690E-01  .461E-01  .583E-01  .588E-01  .574E-01  .429E-01  .484E-01  .441E-01
  .382E-01  .432E-01  .498E-01  .615E-01  .401E-01  .273E-01  .273E-01  .272E-01
  .273E-01  .275E-01  .278E-01  .280E-01  .280E-01  .276E-01  .270E-01  .263E-01
  .256E-01  .251E-01  .246E-01  .241E-01  .238E-01  .234E-01  .232E-01  .230E-01
  .228E-01  .226E-01  .225E-01  .224E-01  .222E-01  .221E-01  .220E-01  .219E-01
  .219E-01  .218E-01  .218E-01  .218E-01  .217E-01  .217E-01  .217E-01  .217E-01
  .216E-01  .216E-01  .216E-01  .000E+00  .000E+00  .000E+00  .000E+00  .000E+00
  .000E+00  .000E+00  .000E+00  .000E+00
  .304E-01  .342E-01  .611E-01  .357E-01  .350E-01  .330E-01  .513E-01  .543E-01
  .102E+00  .118E+00  .922E-01  .231E+00  .168E+00  .181E+00  .132E+00  .246E+00
  .123E+00  .159E+00  .202E+00  .228E+00  .217E+00  .327E+00  .377E+00  .324E+00
  .340E+00  .386E+00  .294E+00  .325E+00  .442E+00  .665E+00  .116E+01  .101E+01
  .971E+00  .976E+00  .748E+00  .686E+00  .653E+00  .659E+00  .645E+00  .704E+00
  .856E+00  .527E+00  .611E+00  .570E+00  .520E+00  .379E+00  .380E+00  .336E+00
  .326E+00  .319E+00  .320E+00  .355E+00  .270E+00  .254E+00  .248E+00  .249E+00
  .249E+00  .250E+00  .251E+00  .252E+00  .253E+00  .255E+00  .255E+00  .255E+00
  .255E+00  .254E+00  .253E+00  .252E+00  .252E+00  .251E+00  .251E+00  .250E+00
  .250E+00  .249E+00  .249E+00  .249E+00  .248E+00  .247E+00  .247E+00  .247E+00
  .247E+00  .246E+00  .246E+00  .246E+00  .246E+00  .246E+00  .246E+00  .246E+00
  .246E+00  .246E+00  .246E+00  .000E+00  .000E+00  .000E+00  .000E+00  .000E+00
  .000E+00  .000E+00  .000E+00  .000E+00
  .227E-01  .179E-01  .262E-01  .213E-01  .170E-01  .169E-01  .216E-01  .196E-01
  .309E-01  .330E-01  .229E-01  .470E-01  .351E-01  .347E-01  .252E-01  .419E-01
  .269E-01  .306E-01  .269E-01  .270E-01  .240E-01  .345E-01  .370E-01  .310E-01
  .300E-01  .318E-01  .250E-01  .252E-01  .295E-01  .397E-01  .634E-01  .509E-01
  .467E-01  .441E-01  .303E-01  .272E-01  .252E-01  .236E-01  .215E-01  .239E-01
  .282E-01  .156E-01  .165E-01  .142E-01  .120E-01  .781E-02  .774E-02  .624E-02
  .483E-02  .489E-02  .509E-02  .520E-02  .285E-02  .165E-02  .142E-02  .124E-02
  .109E-02  .974E-03  .877E-03  .792E-03  .715E-03  .583E-03  .479E-03  .398E-03
  .335E-03  .285E-03  .245E-03  .213E-03  .187E-03  .166E-03  .148E-03  .133E-03
  .120E-03  .109E-03  .100E-03  .917E-04  .751E-04  .628E-04  .532E-04  .458E-04
  .398E-04  .349E-04  .308E-04  .275E-04  .246E-04  .222E-04  .183E-04  .154E-04
  .131E-04  .113E-04  .982E-05  .000E+00  .000E+00  .000E+00  .000E+00  .000E+00
  .000E+00  .000E+00  .000E+00  .000E+00
  .557E-01  .463E-01  .708E-01  .601E-01  .501E-01  .518E-01  .731E-01  .721E-01
  .124E+00  .142E+00  .105E+00  .231E+00  .183E+00  .192E+00  .147E+00  .257E+00
  .182E+00  .225E+00  .215E+00  .232E+00  .221E+00  .339E+00  .386E+00  .343E+00
  .351E+00  .391E+00  .338E+00  .371E+00  .472E+00  .683E+00  .117E+01  .100E+01
  .976E+00  .976E+00  .707E+00  .670E+00  .650E+00  .638E+00  .609E+00  .704E+00
  .867E+00  .527E+00  .610E+00  .569E+00  .515E+00  .360E+00  .380E+00  .326E+00
  .267E+00  .285E+00  .313E+00  .351E+00  .210E+00  .132E+00  .122E+00  .114E+00
  .107E+00  .102E+00  .970E-01  .925E-01  .879E-01  .788E-01  .706E-01  .635E-01
  .576E-01  .525E-01  .482E-01  .446E-01  .415E-01  .388E-01  .364E-01  .344E-01
  .325E-01  .309E-01  .295E-01  .282E-01  .254E-01  .231E-01  .213E-01  .197E-01
  .183E-01  .171E-01  .161E-01  .152E-01  .144E-01  .136E-01  .124E-01  .113E-01
  .105E-01  .970E-02  .905E-02  .000E+00  .000E+00  .000E+00  .000E+00  .000E+00
  .000E+00  .000E+00  .000E+00  .000E+00
  .675E+01  .676E+01  .676E+01  .674E+01  .676E+01  .672E+01  .673E+01  .673E+01
  .675E+01  .676E+01  .737E+01  .265E+02  .677E+01  .669E+01  .670E+01  .771E+01
  .672E+01  .673E+01  .674E+01  .675E+01  .955E+01  .772E+01  .880E+01  .721E+01
  .841E+01  .104E+02  .689E+01  .690E+01  .720E+01  .751E+01  .106E+02  .792E+01
  .782E+01  .115E+02  .702E+01  .703E+01  .705E+01  .707E+01  .708E+01  .930E+01
  .109E+02  .801E+01  .210E+02  .102E+02  .129E+02  .734E+01  .286E+02  .112E+02
  .927E+01  .939E+01  .116E+02  .163E+02  .105E+02  .673E+01  .673E+01  .673E+01
  .673E+01  .673E+01  .673E+01  .673E+01  .673E+01  .674E+01  .674E+01  .674E+01
  .674E+01  .674E+01  .674E+01  .674E+01  .674E+01  .674E+01  .674E+01  .674E+01
  .674E+01  .674E+01  .674E+01  .674E+01  .674E+01  .674E+01  .674E+01  .674E+01
  .674E+01  .674E+01  .674E+01  .674E+01  .674E+01  .674E+01  .674E+01  .674E+01
  .674E+01  .674E+01  .674E+01  .000E+00  .000E+00  .000E+00  .000E+00  .000E+00
  .000E+00  .000E+00  .000E+00  .000E+00
  .666E+01  .696E+01  .697E+01  .661E+01  .778E+01  .666E+01  .666E+01  .665E+01
  .936E+01  .695E+01  .727E+01  .265E+02  .680E+01  .680E+01  .711E+01  .768E+01
  .669E+01  .670E+01  .788E+01  .700E+01  .944E+01  .785E+01  .876E+01  .726E+01
  .893E+01  .104E+02  .684E+01  .685E+01  .726E+01  .759E+01  .112E+02  .784E+01
  .790E+01  .116E+02  .711E+01  .713E+01  .695E+01  .696E+01  .697E+01  .942E+01
  .108E+02  .761E+01  .209E+02  .100E+02  .130E+02  .681E+01  .288E+02  .681E+01
  .681E+01  .681E+01  .113E+02  .111E+02  .682E+01  .681E+01  .665E+01  .665E+01
  .665E+01  .665E+01  .665E+01  .665E+01  .665E+01  .665E+01  .666E+01  .666E+01
  .666E+01  .666E+01  .666E+01  .666E+01  .666E+01  .666E+01  .666E+01  .666E+01
  .666E+01  .666E+01  .666E+01  .666E+01  .666E+01  .666E+01  .666E+01  .666E+01
  .666E+01  .666E+01  .666E+01  .666E+01  .666E+01  .666E+01  .666E+01  .666E+01
  .666E+01  .666E+01  .666E+01  .000E+00  .000E+00  .000E+00  .000E+00  .000E+00
  .000E+00  .000E+00  .000E+00  .000E+00
  .675E+01  .676E+01  .676E+01  .674E+01  .676E+01  .672E+01  .673E+01  .673E+01
  .675E+01  .676E+01  .737E+01  .265E+02  .677E+01  .669E+01  .670E+01  .771E+01
  .672E+01  .673E+01  .674E+01  .675E+01  .955E+01  .772E+01  .880E+01  .721E+01
  .841E+01  .104E+02  .689E+01  .690E+01  .720E+01  .751E+01  .106E+02  .792E+01
  .782E+01  .115E+02  .702E+01  .703E+01  .705E+01  .707E+01  .708E+01  .930E+01
  .109E+02  .801E+01  .210E+02  .102E+02  .129E+02  .734E+01  .286E+02  .112E+02
  .927E+01  .939E+01  .116E+02  .163E+02  .105E+02  .673E+01  .673E+01  .673E+01
  .673E+01  .673E+01  .673E+01  .673E+01  .673E+01  .674E+01  .674E+01  .674E+01
  .674E+01  .674E+01  .674E+01  .674E+01  .674E+01  .674E+01  .674E+01  .674E+01
  .674E+01  .674E+01  .674E+01  .674E+01  .674E+01  .674E+01  .674E+01  .674E+01
  .674E+01  .674E+01  .674E+01  .674E+01  .674E+01  .674E+01  .674E+01  .674E+01
  .674E+01  .674E+01  .674E+01  .000E+00  .000E+00  .000E+00  .000E+00  .000E+00
  .000E+00  .000E+00  .000E+00  .000E+00
Damping =  .02. Data of Sd,Sv,Sa,Pssv,ttSd,ttSv,ttSa :
  .239E-03  .240E-03  .296E-03  .279E-03  .327E-03  .332E-03  .443E-03  .544E-03
  .100E-02  .121E-02  .124E-02  .161E-02  .183E-02  .223E-02  .250E-02  .308E-02
  .329E-02  .397E-02  .421E-02  .461E-02  .433E-02  .577E-02  .642E-02  .779E-02
  .822E-02  .853E-02  .110E-01  .133E-01  .168E-01  .243E-01  .331E-01  .371E-01
  .382E-01  .368E-01  .383E-01  .387E-01  .394E-01  .400E-01  .396E-01  .381E-01
  .374E-01  .379E-01  .413E-01  .414E-01  .403E-01  .396E-01  .380E-01  .361E-01
  .338E-01  .337E-01  .370E-01  .445E-01  .324E-01  .268E-01  .269E-01  .269E-01
  .270E-01  .272E-01  .274E-01  .276E-01  .276E-01  .273E-01  .267E-01  .261E-01
  .255E-01  .250E-01  .245E-01  .241E-01  .238E-01  .235E-01  .232E-01  .230E-01
  .228E-01  .227E-01  .226E-01  .225E-01  .223E-01  .221E-01  .220E-01  .219E-01
  .219E-01  .218E-01  .218E-01  .218E-01  .218E-01  .217E-01  .217E-01  .217E-01
  .216E-01  .216E-01  .217E-01  .000E+00  .000E+00  .000E+00  .000E+00  .000E+00
  .000E+00  .000E+00  .000E+00  .000E+00
  .118E-01  .167E-01  .198E-01  .150E-01  .182E-01  .165E-01  .307E-01  .366E-01
  .588E-01  .799E-01  .913E-01  .118E+00  .116E+00  .119E+00  .123E+00  .148E+00
  .134E+00  .146E+00  .142E+00  .171E+00  .145E+00  .192E+00  .208E+00  .252E+00
  .245E+00  .238E+00  .279E+00  .311E+00  .365E+00  .528E+00  .697E+00  .726E+00
  .717E+00  .674E+00  .656E+00  .610E+00  .608E+00  .608E+00  .593E+00  .558E+00
  .512E+00  .449E+00  .448E+00  .457E+00  .404E+00  .374E+00  .350E+00  .335E+00
  .324E+00  .316E+00  .308E+00  .288E+00  .270E+00  .255E+00  .245E+00  .246E+00
  .247E+00  .247E+00  .249E+00  .250E+00  .251E+00  .253E+00  .253E+00  .253E+00
  .253E+00  .252E+00  .252E+00  .251E+00  .251E+00  .250E+00  .250E+00  .249E+00
  .249E+00  .249E+00  .248E+00  .248E+00  .247E+00  .247E+00  .247E+00  .246E+00
  .246E+00  .246E+00  .246E+00  .246E+00  .246E+00  .246E+00  .246E+00  .246E+00
  .245E+00  .245E+00  .245E+00  .000E+00  .000E+00  .000E+00  .000E+00  .000E+00
  .000E+00  .000E+00  .000E+00  .000E+00
  .153E-01  .139E-01  .156E-01  .135E-01  .145E-01  .136E-01  .150E-01  .155E-01
  .243E-01  .253E-01  .225E-01  .259E-01  .260E-01  .282E-01  .284E-01  .316E-01
  .279E-01  .283E-01  .254E-01  .240E-01  .197E-01  .231E-01  .228E-01  .245E-01
  .233E-01  .218E-01  .232E-01  .236E-01  .254E-01  .316E-01  .377E-01  .372E-01
  .338E-01  .291E-01  .271E-01  .248E-01  .228E-01  .211E-01  .192E-01  .169E-01
  .153E-01  .128E-01  .118E-01  .100E-01  .841E-02  .721E-02  .608E-02  .512E-02
  .427E-02  .383E-02  .379E-02  .376E-02  .230E-02  .163E-02  .141E-02  .123E-02
  .109E-02  .972E-03  .875E-03  .790E-03  .715E-03  .586E-03  .484E-03  .404E-03
  .342E-03  .293E-03  .254E-03  .222E-03  .196E-03  .174E-03  .157E-03  .141E-03
  .129E-03  .118E-03  .108E-03  .997E-04  .830E-04  .705E-04  .608E-04  .533E-04
  .471E-04  .422E-04  .381E-04  .346E-04  .317E-04  .292E-04  .251E-04  .220E-04
  .196E-04  .176E-04  .160E-04  .000E+00  .000E+00  .000E+00  .000E+00  .000E+00
  .000E+00  .000E+00  .000E+00  .000E+00
  .375E-01  .359E-01  .423E-01  .381E-01  .428E-01  .417E-01  .506E-01  .570E-01
  .969E-01  .109E+00  .104E+00  .127E+00  .135E+00  .156E+00  .166E+00  .193E+00
  .188E+00  .208E+00  .203E+00  .207E+00  .181E+00  .227E+00  .237E+00  .272E+00
  .272E+00  .268E+00  .314E+00  .347E+00  .406E+00  .544E+00  .694E+00  .729E+00
  .705E+00  .643E+00  .633E+00  .608E+00  .589E+00  .571E+00  .541E+00  .499E+00
  .470E+00  .433E+00  .433E+00  .400E+00  .361E+00  .332E+00  .298E+00  .267E+00
  .236E+00  .223E+00  .233E+00  .254E+00  .169E+00  .129E+00  .121E+00  .113E+00
  .106E+00  .101E+00  .957E-01  .912E-01  .867E-01  .779E-01  .700E-01  .631E-01
  .573E-01  .524E-01  .482E-01  .446E-01  .415E-01  .388E-01  .365E-01  .344E-01
  .326E-01  .310E-01  .295E-01  .282E-01  .254E-01  .232E-01  .213E-01  .197E-01
  .183E-01  .172E-01  .161E-01  .152E-01  .144E-01  .136E-01  .124E-01  .113E-01
  .105E-01  .971E-02  .907E-02  .000E+00  .000E+00  .000E+00  .000E+00  .000E+00
  .000E+00  .000E+00  .000E+00  .000E+00
  .675E+01  .675E+01  .676E+01  .675E+01  .676E+01  .675E+01  .673E+01  .674E+01
  .675E+01  .676E+01  .707E+01  .676E+01  .669E+01  .670E+01  .670E+01  .671E+01
  .672E+01  .673E+01  .674E+01  .675E+01  .675E+01  .675E+01  .719E+01  .677E+01
  .688E+01  .688E+01  .689E+01  .691E+01  .720E+01  .738E+01  .741E+01  .744E+01
  .782E+01  .700E+01  .702E+01  .703E+01  .705E+01  .706E+01  .708E+01  .688E+01
  .688E+01  .773E+01  .752E+01  .757E+01  .732E+01  .734E+01  .736E+01  .738E+01
  .739E+01  .894E+01  .901E+01  .108E+02  .105E+02  .673E+01  .673E+01  .673E+01
  .673E+01  .673E+01  .673E+01  .673E+01  .673E+01  .673E+01  .674E+01  .674E+01
  .674E+01  .674E+01  .674E+01  .674E+01  .674E+01  .674E+01  .674E+01  .674E+01
  .674E+01  .674E+01  .674E+01  .674E+01  .674E+01  .674E+01  .674E+01  .674E+01
  .674E+01  .674E+01  .674E+01  .674E+01  .674E+01  .674E+01  .674E+01  .674E+01
  .674E+01  .674E+01  .674E+01  .000E+00  .000E+00  .000E+00  .000E+00  .000E+00
  .000E+00  .000E+00  .000E+00  .000E+00
  .677E+01  .696E+01  .697E+01  .691E+01  .691E+01  .677E+01  .666E+01  .665E+01
  .666E+01  .678E+01  .709E+01  .711E+01  .680E+01  .680E+01  .668E+01  .668E+01
  .669E+01  .670E+01  .678E+01  .700E+01  .680E+01  .744E+01  .682E+01  .682E+01
  .683E+01  .683E+01  .684E+01  .685E+01  .727E+01  .745E+01  .748E+01  .752E+01
  .739E+01  .709E+01  .711E+01  .713E+01  .695E+01  .696E+01  .697E+01  .697E+01
  .698E+01  .679E+01  .739E+01  .741E+01  .680E+01  .680E+01  .681E+01  .681E+01
  .681E+01  .681E+01  .681E+01  .681E+01  .681E+01  .681E+01  .665E+01  .665E+01
  .665E+01  .665E+01  .665E+01  .665E+01  .665E+01  .665E+01  .665E+01  .666E+01
  .666E+01  .666E+01  .666E+01  .666E+01  .666E+01  .666E+01  .666E+01  .666E+01
  .666E+01  .666E+01  .666E+01  .666E+01  .666E+01  .666E+01  .666E+01  .666E+01
  .666E+01  .666E+01  .666E+01  .666E+01  .666E+01  .666E+01  .666E+01  .666E+01
  .666E+01  .666E+01  .666E+01  .000E+00  .000E+00  .000E+00  .000E+00  .000E+00
  .000E+00  .000E+00  .000E+00  .000E+00
  .675E+01  .675E+01  .676E+01  .675E+01  .676E+01  .675E+01  .673E+01  .674E+01
  .675E+01  .676E+01  .707E+01  .676E+01  .669E+01  .670E+01  .670E+01  .671E+01
  .672E+01  .673E+01  .674E+01  .675E+01  .675E+01  .675E+01  .719E+01  .677E+01
  .688E+01  .688E+01  .689E+01  .690E+01  .720E+01  .737E+01  .741E+01  .744E+01
  .781E+01  .700E+01  .701E+01  .703E+01  .705E+01  .706E+01  .707E+01  .687E+01
  .688E+01  .772E+01  .751E+01  .757E+01  .731E+01  .734E+01  .736E+01  .737E+01
  .738E+01  .893E+01  .901E+01  .108E+02  .105E+02  .672E+01  .672E+01  .672E+01
  .672E+01  .672E+01  .672E+01  .672E+01  .672E+01  .672E+01  .672E+01  .672E+01
  .672E+01  .672E+01  .672E+01  .672E+01  .672E+01  .672E+01  .671E+01  .671E+01
  .671E+01  .671E+01  .671E+01  .671E+01  .671E+01  .670E+01  .670E+01  .670E+01
  .670E+01  .669E+01  .669E+01  .669E+01  .669E+01  .668E+01  .668E+01  .668E+01
  .668E+01  .667E+01  .667E+01  .000E+00  .000E+00  .000E+00  .000E+00  .000E+00
  .000E+00  .000E+00  .000E+00  .000E+00
Damping =  .05. Data of Sd,Sv,Sa,Pssv,ttSd,ttSv,ttSa :
  .229E-03  .248E-03  .272E-03  .290E-03  .318E-03  .341E-03  .405E-03  .565E-03
  .838E-03  .103E-02  .113E-02  .135E-02  .160E-02  .194E-02  .228E-02  .262E-02
  .304E-02  .353E-02  .385E-02  .420E-02  .448E-02  .535E-02  .617E-02  .702E-02
  .737E-02  .788E-02  .986E-02  .120E-01  .146E-01  .187E-01  .245E-01  .275E-01
  .287E-01  .313E-01  .327E-01  .334E-01  .340E-01  .342E-01  .345E-01  .347E-01
