Response and Fourier amplitude spectra (91 periods,  .04 - 15.0 sec)   for      
Corrected accelerogram   24207-M0150-01010.01       Chan  2:  Radl       from   
Uncorrected Accelerogram Data             Processed: 03/04/11, CGS  207fa001    
Record of Sat Jan 13, 2001 18:26:11.0 PST             (Avol1 v8.9,05/09 CSMIP)  
CSMIP Preliminary Processing            (Origin:  To be determined)             
24207-M0150-01010.01                 Start time:  1/14/01, 02:26:11.0 UTC (GPS) 
Station No. 24207   34.334N, 118.396W    MtWtny  s/n  150 (17 Chns of 17 at Sta)
Sylmar - Pacoima Dam                      CGS                                   
Chan  2:  Radl                      Location: Crest: Center                     
Record of Sat Jan 13, 2001 18:26:11.0 PST    Sat Jan 13, 2001 18:26:11.0 PST    
Hypocenter:  To be determined.               ML:  To be determined.
Instr Period =  .0104 sec,  Damping =  .660,  Sensitivity =  .63  v/g
                        Record length = 41.000 sec.
                                     Uncor Max  =  -.117 g , at   7.085 sec.
RMS accel of (uncor) record  =        .   Chn. metadata effective date: 06/25/09
Accelerogram bandpass filtered with 3 dB pts at   .50 and 40.00 cyc/sec
                 instrument- and baseline-corrected





Record of Sat Jan 13, 2001 18:26:11.0 PST    Sat Jan 13, 2001 18:26:11.0 PST

24207-M0150-01010.01      Sylmar - Pacoima Dam    Chan  2:  Radl

24207-M0150-01010.01      Sylmar - Pacoima Dam    Chan  2:  Radl

Units for spectra are inches and sec, except Sa is in fraction of g.

    2  100    2   18   17  200    1    3    1   24   13  150    024207    5    0
    2   26   11    0   14    1   14 2001   10    3  700 8200   41   20   76   -1
 8200    0  100    3  150    1    1  410    2    0    0    0    0    0    0    0
    0    4    0    0 8200    1  212    1   18    4    0    0    3    1    0 8200
    3 8200    1   91    5   17    5    0    0    0    0    0    0    3    1    2
    2    2    4    0   68   99    0    1    0    0    0    1    0    0    0  222
    1    0    2    0
      .010      .660    41.000      .010      .000   627.000     -.117     7.085
    95.800      .298      .475      .000     5.000      .000     4.000      .000
     2.500    -1.870     2.500  2016.000     5.000    30.000      .000      .002
      .001     -.001     2.000    15.000    34.334  -118.396      .006      .240
    38.794     -.013      .010   594.000     5.400     9.900    12.700   100.040
     1.000    -1.008      .000      .000      .000      .000      .000      .000
     7.200     8.900     5.800   980.665      .005    41.000    15.247      .000
      .000    40.000      .000    41.000      .005      .500      .000      .000
     7.080  -114.519     6.885    -4.659     6.820      .178      .000      .500
    40.000      .005      .005      .000      .530      .039      .000      .000
      .478      .240      .387      .309      .010      .001      .000      .000
      .000      .000      .000      .000      .000      .000      .000      .000
      .000      .000      .000      .000
      .000      .020      .050      .100      .200
      .040      .042      .044      .046      .048      .050      .055      .060
      .065      .070      .075      .080      .085      .090      .095      .100
      .110      .120      .130      .140      .150      .160      .170      .180
      .190      .200      .220      .240      .260      .280      .300      .320
      .340      .360      .380      .400      .420      .440      .460      .480
      .500      .550      .600      .650      .700      .750      .800      .850
      .900      .950     1.000     1.100     1.200     1.300     1.400     1.500
     1.600     1.700     1.800     1.900     2.000     2.200     2.400     2.600
     2.800     3.000     3.200     3.400     3.600     3.800     4.000     4.200
     4.400     4.600     4.800     5.000     5.500     6.000     6.500     7.000
     7.500     8.000     8.500     9.000     9.500    10.000    11.000    12.000
    13.000    14.000    15.000      .000      .000      .000      .000      .000
      .000      .000      .000      .000
Fourier amplitude spectra in in/sec.
  .287E+00  .227E+00  .348E+00  .230E+00  .687E+00  .144E+00  .182E+00  .252E+00
  .412E+00  .202E+01  .115E+01  .747E+00  .121E+01  .692E+00  .141E+01  .150E+01
  .371E+00  .152E+00  .233E+01  .472E+01  .435E+01  .491E+01  .434E+01  .253E+01
  .100E+02  .890E+01  .755E+01  .999E+01  .999E+01  .102E+02  .977E+01  .466E+01
  .353E+01  .352E+01  .148E+01  .103E+01  .915E+00  .186E+01  .110E+01  .126E+01
  .230E+01  .261E+00  .120E+01  .131E+01  .926E+00  .708E+00  .664E+00  .230E+00
  .206E+00  .273E+00  .261E+00  .294E+00  .165E+00  .316E-01  .496E-01  .108E+00
  .812E-01  .101E+00  .735E-01  .538E-01  .542E-01  .152E-01  .101E-01  .837E-02
  .118E-01  .831E-02  .518E-02  .349E-02  .242E-02  .174E-02  .120E-02  .706E-03
  .480E-03  .264E-03  .149E-03  .124E-03  .132E-03  .237E-04  .736E-04  .309E-04
  .398E-04  .490E-04  .383E-04  .260E-04  .274E-04  .353E-04  .392E-04  .330E-04
  .310E-04  .336E-04  .359E-04  .000E+00  .000E+00  .000E+00  .000E+00  .000E+00
  .000E+00  .000E+00  .000E+00  .000E+00
Damping =  .00. Data of Sd,Sv,Sa,Pssv,ttSd,ttSv,ttSa :
  .384E-02  .335E-02  .576E-02  .400E-02  .695E-02  .459E-02  .598E-02  .689E-02
  .935E-02  .273E-01  .162E-01  .210E-01  .273E-01  .246E-01  .272E-01  .312E-01
  .403E-01  .463E-01  .890E-01  .108E+00  .141E+00  .143E+00  .142E+00  .188E+00
  .352E+00  .338E+00  .320E+00  .418E+00  .460E+00  .498E+00  .483E+00  .359E+00
  .294E+00  .267E+00  .237E+00  .223E+00  .209E+00  .197E+00  .182E+00  .172E+00
  .183E+00  .156E+00  .150E+00  .144E+00  .138E+00  .122E+00  .114E+00  .109E+00
  .106E+00  .103E+00  .992E-01  .922E-01  .926E-01  .913E-01  .897E-01  .877E-01
  .855E-01  .835E-01  .815E-01  .794E-01  .774E-01  .771E-01  .767E-01  .760E-01
  .753E-01  .746E-01  .740E-01  .735E-01  .730E-01  .726E-01  .723E-01  .720E-01
  .718E-01  .716E-01  .714E-01  .713E-01  .710E-01  .708E-01  .706E-01  .705E-01
  .704E-01  .704E-01  .703E-01  .703E-01  .702E-01  .702E-01  .702E-01  .701E-01
  .701E-01  .701E-01  .701E-01  .000E+00  .000E+00  .000E+00  .000E+00  .000E+00
  .000E+00  .000E+00  .000E+00  .000E+00
  .370E+00  .272E+00  .558E+00  .407E+00  .755E+00  .328E+00  .406E+00  .431E+00
  .590E+00  .223E+01  .128E+01  .125E+01  .156E+01  .154E+01  .168E+01  .182E+01
  .198E+01  .228E+01  .375E+01  .482E+01  .571E+01  .556E+01  .516E+01  .621E+01
  .115E+02  .105E+02  .925E+01  .111E+02  .111E+02  .113E+02  .101E+02  .736E+01
  .623E+01  .548E+01  .487E+01  .418E+01  .380E+01  .362E+01  .343E+01  .321E+01
  .295E+01  .256E+01  .250E+01  .248E+01  .243E+01  .236E+01  .229E+01  .223E+01
  .219E+01  .217E+01  .214E+01  .210E+01  .206E+01  .202E+01  .200E+01  .197E+01
  .196E+01  .194E+01  .193E+01  .192E+01  .191E+01  .189E+01  .188E+01  .187E+01
  .186E+01  .186E+01  .185E+01  .185E+01  .185E+01  .185E+01  .184E+01  .184E+01
  .184E+01  .184E+01  .184E+01  .184E+01  .184E+01  .184E+01  .184E+01  .184E+01
  .183E+01  .183E+01  .183E+01  .183E+01  .183E+01  .183E+01  .183E+01  .183E+01
  .183E+01  .183E+01  .183E+01  .000E+00  .000E+00  .000E+00  .000E+00  .000E+00
  .000E+00  .000E+00  .000E+00  .000E+00
  .246E+00  .194E+00  .304E+00  .193E+00  .308E+00  .188E+00  .202E+00  .196E+00
  .226E+00  .570E+00  .294E+00  .336E+00  .386E+00  .311E+00  .308E+00  .320E+00
  .340E+00  .329E+00  .539E+00  .563E+00  .642E+00  .572E+00  .502E+00  .594E+00
  .997E+00  .864E+00  .677E+00  .742E+00  .696E+00  .650E+00  .549E+00  .358E+00
  .260E+00  .211E+00  .168E+00  .142E+00  .121E+00  .104E+00  .879E-01  .763E-01
  .750E-01  .526E-01  .426E-01  .348E-01  .288E-01  .222E-01  .183E-01  .155E-01
  .134E-01  .116E-01  .101E-01  .779E-02  .658E-02  .553E-02  .468E-02  .399E-02
  .342E-02  .295E-02  .257E-02  .225E-02  .198E-02  .163E-02  .136E-02  .115E-02
  .982E-03  .848E-03  .739E-03  .650E-03  .576E-03  .514E-03  .462E-03  .417E-03
  .379E-03  .346E-03  .317E-03  .292E-03  .240E-03  .201E-03  .171E-03  .147E-03
  .128E-03  .112E-03  .996E-04  .887E-04  .796E-04  .718E-04  .593E-04  .498E-04
  .424E-04  .366E-04  .318E-04  .000E+00  .000E+00  .000E+00  .000E+00  .000E+00
  .000E+00  .000E+00  .000E+00  .000E+00
  .604E+00  .501E+00  .823E+00  .547E+00  .909E+00  .577E+00  .683E+00  .721E+00
  .904E+00  .245E+01  .136E+01  .165E+01  .202E+01  .172E+01  .180E+01  .196E+01
  .230E+01  .243E+01  .430E+01  .484E+01  .591E+01  .563E+01  .524E+01  .656E+01
  .116E+02  .106E+02  .915E+01  .109E+02  .111E+02  .112E+02  .101E+02  .704E+01
  .543E+01  .467E+01  .391E+01  .350E+01  .313E+01  .282E+01  .249E+01  .225E+01
  .230E+01  .178E+01  .157E+01  .139E+01  .124E+01  .102E+01  .898E+00  .808E+00
  .739E+00  .679E+00  .623E+00  .526E+00  .485E+00  .441E+00  .403E+00  .367E+00
  .336E+00  .309E+00  .284E+00  .263E+00  .243E+00  .220E+00  .201E+00  .184E+00
  .169E+00  .156E+00  .145E+00  .136E+00  .127E+00  .120E+00  .114E+00  .108E+00
  .102E+00  .978E-01  .935E-01  .895E-01  .811E-01  .741E-01  .683E-01  .633E-01
  .590E-01  .553E-01  .520E-01  .491E-01  .465E-01  .441E-01  .401E-01  .367E-01
  .339E-01  .314E-01  .293E-01  .000E+00  .000E+00  .000E+00  .000E+00  .000E+00
  .000E+00  .000E+00  .000E+00  .000E+00
  .719E+01  .720E+01  .707E+01  .684E+01  .709E+01  .693E+01  .709E+01  .729E+01
  .730E+01  .719E+01  .890E+01  .692E+01  .693E+01  .722E+01  .792E+01  .732E+01
  .684E+01  .691E+01  .719E+01  .147E+02  .763E+01  .920E+01  .888E+01  .707E+01
  .835E+01  .962E+01  .744E+01  .868E+01  .791E+01  .868E+01  .112E+02  .763E+01
  .718E+01  .719E+01  .706E+01  .707E+01  .707E+01  .707E+01  .708E+01  .692E+01
  .347E+02  .693E+01  .693E+01  .694E+01  .902E+01  .694E+01  .694E+01  .694E+01
  .694E+01  .694E+01  .694E+01  .694E+01  .719E+01  .719E+01  .719E+01  .719E+01
  .719E+01  .719E+01  .719E+01  .719E+01  .719E+01  .682E+01  .682E+01  .682E+01
  .682E+01  .682E+01  .682E+01  .682E+01  .682E+01  .682E+01  .682E+01  .682E+01
  .682E+01  .682E+01  .682E+01  .682E+01  .682E+01  .682E+01  .682E+01  .682E+01
  .682E+01  .682E+01  .682E+01  .682E+01  .682E+01  .682E+01  .682E+01  .682E+01
  .682E+01  .682E+01  .682E+01  .000E+00  .000E+00  .000E+00  .000E+00  .000E+00
  .000E+00  .000E+00  .000E+00  .000E+00
  .718E+01  .721E+01  .706E+01  .677E+01  .727E+01  .687E+01  .710E+01  .728E+01
  .728E+01  .788E+01  .915E+01  .725E+01  .768E+01  .724E+01  .794E+01  .734E+01
  .688E+01  .779E+01  .722E+01  .147E+02  .759E+01  .804E+01  .884E+01  .701E+01
  .830E+01  .967E+01  .750E+01  .874E+01  .786E+01  .875E+01  .111E+02  .770E+01
  .726E+01  .713E+01  .713E+01  .713E+01  .699E+01  .699E+01  .699E+01  .699E+01
  .699E+01  .688E+01  .688E+01  .688E+01  .688E+01  .688E+01  .688E+01  .688E+01
  .688E+01  .688E+01  .688E+01  .688E+01  .688E+01  .688E+01  .688E+01  .688E+01
  .688E+01  .688E+01  .688E+01  .688E+01  .688E+01  .688E+01  .688E+01  .688E+01
  .688E+01  .688E+01  .688E+01  .688E+01  .688E+01  .688E+01  .688E+01  .688E+01
  .688E+01  .688E+01  .688E+01  .688E+01  .688E+01  .688E+01  .688E+01  .688E+01
  .688E+01  .688E+01  .688E+01  .688E+01  .688E+01  .688E+01  .688E+01  .688E+01
  .688E+01  .688E+01  .688E+01  .000E+00  .000E+00  .000E+00  .000E+00  .000E+00
  .000E+00  .000E+00  .000E+00  .000E+00
  .719E+01  .720E+01  .707E+01  .684E+01  .709E+01  .693E+01  .709E+01  .729E+01
  .730E+01  .719E+01  .890E+01  .692E+01  .693E+01  .722E+01  .792E+01  .732E+01
  .684E+01  .691E+01  .719E+01  .147E+02  .763E+01  .920E+01  .888E+01  .707E+01
  .835E+01  .962E+01  .744E+01  .868E+01  .791E+01  .868E+01  .112E+02  .763E+01
  .718E+01  .719E+01  .706E+01  .707E+01  .707E+01  .707E+01  .708E+01  .692E+01
  .347E+02  .693E+01  .693E+01  .694E+01  .902E+01  .694E+01  .694E+01  .694E+01
  .694E+01  .694E+01  .694E+01  .694E+01  .719E+01  .719E+01  .719E+01  .719E+01
  .719E+01  .719E+01  .719E+01  .719E+01  .719E+01  .682E+01  .682E+01  .682E+01
  .682E+01  .682E+01  .682E+01  .682E+01  .682E+01  .682E+01  .682E+01  .682E+01
  .682E+01  .682E+01  .682E+01  .682E+01  .682E+01  .682E+01  .682E+01  .682E+01
  .682E+01  .682E+01  .682E+01  .682E+01  .682E+01  .682E+01  .682E+01  .682E+01
  .682E+01  .682E+01  .682E+01  .000E+00  .000E+00  .000E+00  .000E+00  .000E+00
  .000E+00  .000E+00  .000E+00  .000E+00
Damping =  .02. Data of Sd,Sv,Sa,Pssv,ttSd,ttSv,ttSa :
  .239E-02  .267E-02  .327E-02  .367E-02  .406E-02  .402E-02  .531E-02  .571E-02
  .793E-02  .146E-01  .144E-01  .138E-01  .152E-01  .171E-01  .192E-01  .234E-01
  .346E-01  .444E-01  .695E-01  .828E-01  .917E-01  .966E-01  .100E+00  .144E+00
  .187E+00  .178E+00  .261E+00  .335E+00  .353E+00  .343E+00  .334E+00  .296E+00
  .267E+00  .243E+00  .220E+00  .210E+00  .198E+00  .186E+00  .172E+00  .165E+00
  .162E+00  .152E+00  .146E+00  .140E+00  .131E+00  .122E+00  .114E+00  .109E+00
  .106E+00  .102E+00  .991E-01  .924E-01  .905E-01  .897E-01  .884E-01  .867E-01
  .848E-01  .829E-01  .810E-01  .791E-01  .772E-01  .763E-01  .761E-01  .755E-01
  .749E-01  .743E-01  .737E-01  .732E-01  .728E-01  .724E-01  .721E-01  .719E-01
  .716E-01  .715E-01  .713E-01  .712E-01  .709E-01  .707E-01  .706E-01  .705E-01
  .704E-01  .703E-01  .703E-01  .702E-01  .703E-01  .701E-01  .701E-01  .700E-01
  .700E-01  .701E-01  .702E-01  .000E+00  .000E+00  .000E+00  .000E+00  .000E+00
  .000E+00  .000E+00  .000E+00  .000E+00
  .152E+00  .178E+00  .218E+00  .210E+00  .277E+00  .264E+00  .298E+00  .357E+00
  .441E+00  .983E+00  .105E+01  .860E+00  .697E+00  .970E+00  .117E+01  .121E+01
  .155E+01  .188E+01  .279E+01  .318E+01  .365E+01  .361E+01  .363E+01  .479E+01
  .624E+01  .584E+01  .743E+01  .875E+01  .872E+01  .797E+01  .716E+01  .651E+01
  .567E+01  .510E+01  .458E+01  .399E+01  .368E+01  .351E+01  .333E+01  .312E+01
  .290E+01  .250E+01  .246E+01  .244E+01  .239E+01  .233E+01  .226E+01  .222E+01
  .218E+01  .215E+01  .213E+01  .209E+01  .205E+01  .202E+01  .199E+01  .197E+01
  .195E+01  .194E+01  .193E+01  .192E+01  .191E+01  .189E+01  .188E+01  .187E+01
  .186E+01  .186E+01  .185E+01  .185E+01  .185E+01  .185E+01  .184E+01  .184E+01
  .184E+01  .184E+01  .184E+01  .184E+01  .184E+01  .184E+01  .184E+01  .184E+01
  .183E+01  .183E+01  .183E+01  .183E+01  .183E+01  .183E+01  .183E+01  .183E+01
  .183E+01  .183E+01  .183E+01  .000E+00  .000E+00  .000E+00  .000E+00  .000E+00
  .000E+00  .000E+00  .000E+00  .000E+00
  .153E+00  .155E+00  .173E+00  .178E+00  .180E+00  .165E+00  .180E+00  .162E+00
  .192E+00  .305E+00  .262E+00  .221E+00  .216E+00  .216E+00  .218E+00  .238E+00
  .293E+00  .315E+00  .422E+00  .433E+00  .417E+00  .385E+00  .354E+00  .456E+00
  .531E+00  .455E+00  .551E+00  .594E+00  .535E+00  .448E+00  .379E+00  .296E+00
  .237E+00  .192E+00  .156E+00  .134E+00  .115E+00  .986E-01  .834E-01  .731E-01
  .665E-01  .516E-01  .417E-01  .341E-01  .275E-01  .222E-01  .184E-01  .156E-01
  .134E-01  .117E-01  .102E-01  .790E-02  .651E-02  .551E-02  .469E-02  .402E-02
  .347E-02  .302E-02  .265E-02  .233E-02  .206E-02  .167E-02  .141E-02  .120E-02
  .103E-02  .896E-03  .789E-03  .700E-03  .626E-03  .564E-03  .511E-03  .466E-03
  .427E-03  .399E-03  .373E-03  .350E-03  .303E-03  .267E-03  .238E-03  .215E-03
  .196E-03  .180E-03  .166E-03  .154E-03  .145E-03  .136E-03  .121E-03  .109E-03
  .993E-04  .915E-04  .848E-04  .000E+00  .000E+00  .000E+00  .000E+00  .000E+00
  .000E+00  .000E+00  .000E+00  .000E+00
  .376E+00  .399E+00  .467E+00  .501E+00  .532E+00  .505E+00  .607E+00  .598E+00
  .767E+00  .131E+01  .121E+01  .108E+01  .112E+01  .120E+01  .127E+01  .147E+01
  .198E+01  .232E+01  .336E+01  .372E+01  .384E+01  .379E+01  .370E+01  .503E+01
  .619E+01  .559E+01  .745E+01  .876E+01  .853E+01  .769E+01  .699E+01  .581E+01
  .494E+01  .424E+01  .363E+01  .329E+01  .296E+01  .266E+01  .235E+01  .215E+01
  .204E+01  .174E+01  .153E+01  .136E+01  .118E+01  .102E+01  .898E+00  .808E+00
  .738E+00  .677E+00  .623E+00  .528E+00  .474E+00  .434E+00  .397E+00  .363E+00
  .333E+00  .306E+00  .283E+00  .262E+00  .243E+00  .218E+00  .199E+00  .182E+00
  .168E+00  .156E+00  .145E+00  .135E+00  .127E+00  .120E+00  .113E+00  .108E+00
  .102E+00  .976E-01  .933E-01  .894E-01  .810E-01  .740E-01  .682E-01  .632E-01
  .590E-01  .552E-01  .520E-01  .490E-01  .465E-01  .441E-01  .400E-01  .366E-01
  .338E-01  .315E-01  .294E-01  .000E+00  .000E+00  .000E+00  .000E+00  .000E+00
  .000E+00  .000E+00  .000E+00  .000E+00
  .719E+01  .691E+01  .707E+01  .708E+01  .692E+01  .692E+01  .708E+01  .719E+01
  .730E+01  .709E+01  .732E+01  .721E+01  .693E+01  .709E+01  .711E+01  .683E+01
  .684E+01  .692E+01  .693E+01  .694E+01  .695E+01  .705E+01  .803E+01  .707E+01
  .797E+01  .791E+01  .734E+01  .736E+01  .739E+01  .784E+01  .773E+01  .731E+01
  .718E+01  .719E+01  .706E+01  .707E+01  .707E+01  .707E+01  .708E+01  .692E+01
  .692E+01  .693E+01  .693E+01  .693E+01  .694E+01  .694E+01  .694E+01  .694E+01
  .694E+01  .694E+01  .694E+01  .694E+01  .719E+01  .719E+01  .719E+01  .719E+01
  .719E+01  .719E+01  .719E+01  .719E+01  .719E+01  .682E+01  .682E+01  .682E+01
  .682E+01  .682E+01  .682E+01  .682E+01  .682E+01  .682E+01  .682E+01  .682E+01
  .682E+01  .682E+01  .682E+01  .682E+01  .682E+01  .682E+01  .682E+01  .682E+01
  .682E+01  .682E+01  .682E+01  .682E+01  .682E+01  .682E+01  .682E+01  .682E+01
  .682E+01  .682E+01  .682E+01  .000E+00  .000E+00  .000E+00  .000E+00  .000E+00
  .000E+00  .000E+00  .000E+00  .000E+00
  .696E+01  .697E+01  .697E+01  .721E+01  .687E+01  .686E+01  .688E+01  .688E+01
  .688E+01  .711E+01  .734E+01  .724E+01  .724E+01  .725E+01  .713E+01  .714E+01
  .688E+01  .688E+01  .716E+01  .698E+01  .759E+01  .701E+01  .807E+01  .702E+01
  .792E+01  .786E+01  .739E+01  .742E+01  .732E+01  .734E+01  .766E+01  .724E+01
  .725E+01  .712E+01  .713E+01  .713E+01  .698E+01  .699E+01  .699E+01  .699E+01
  .699E+01  .687E+01  .688E+01  .688E+01  .688E+01  .688E+01  .688E+01  .688E+01
  .688E+01  .688E+01  .688E+01  .688E+01  .688E+01  .688E+01  .688E+01  .688E+01
  .688E+01  .688E+01  .688E+01  .688E+01  .688E+01  .688E+01  .688E+01  .688E+01
  .688E+01  .688E+01  .688E+01  .688E+01  .688E+01  .688E+01  .688E+01  .688E+01
  .688E+01  .688E+01  .688E+01  .688E+01  .688E+01  .688E+01  .688E+01  .688E+01
  .688E+01  .688E+01  .688E+01  .688E+01  .688E+01  .688E+01  .688E+01  .688E+01
  .688E+01  .688E+01  .688E+01  .000E+00  .000E+00  .000E+00  .000E+00  .000E+00
  .000E+00  .000E+00  .000E+00  .000E+00
  .719E+01  .691E+01  .707E+01  .708E+01  .692E+01  .692E+01  .708E+01  .719E+01
  .730E+01  .709E+01  .732E+01  .721E+01  .693E+01  .709E+01  .715E+01  .683E+01
  .684E+01  .692E+01  .693E+01  .694E+01  .695E+01  .705E+01  .803E+01  .707E+01
  .797E+01  .790E+01  .734E+01  .736E+01  .738E+01  .783E+01  .773E+01  .731E+01
  .718E+01  .719E+01  .705E+01  .706E+01  .707E+01  .707E+01  .707E+01  .692E+01
  .692E+01  .693E+01  .693E+01  .693E+01  .693E+01  .693E+01  .693E+01  .693E+01
  .693E+01  .693E+01  .693E+01  .693E+01  .718E+01  .718E+01  .718E+01  .718E+01
  .718E+01  .718E+01  .718E+01  .718E+01  .718E+01  .680E+01  .680E+01  .680E+01
  .680E+01  .680E+01  .680E+01  .680E+01  .680E+01  .680E+01  .680E+01  .680E+01
  .691E+01  .691E+01  .691E+01  .691E+01  .690E+01  .690E+01  .690E+01  .690E+01
  .690E+01  .690E+01  .690E+01  .689E+01  .689E+01  .689E+01  .689E+01  .689E+01
  .689E+01  .689E+01  .689E+01  .000E+00  .000E+00  .000E+00  .000E+00  .000E+00
  .000E+00  .000E+00  .000E+00  .000E+00
Damping =  .05. Data of Sd,Sv,Sa,Pssv,ttSd,ttSv,ttSa :
  .214E-02  .248E-02  .284E-02  .327E-02  .349E-02  .363E-02  .481E-02  .564E-02
  .687E-02  .105E-01  .122E-01  .122E-01  .124E-01  .150E-01  .174E-01  .210E-01
  .297E-01  .398E-01  .586E-01  .716E-01  .801E-01  .850E-01  .911E-01  .111E+00
  .123E+00  .141E+00  .212E+00  .267E+00  .282E+00  .279E+00  .274E+00  .248E+00
  .233E+00  .213E+00  .199E+00  .191E+00  .182E+00  .172E+00  .160E+00  .155E+00
