Response and Fourier amplitude spectra (91 periods,  .04 - 15.0 sec)   for      
Corrected accelerogram   24207-M0150-01010.01       Chan 13:  Up         from   
Uncorrected Accelerogram Data             Processed: 03/04/11, CGS  207fa001    
Record of Sat Jan 13, 2001 18:26:11.0 PST             (Avol1 v8.9,05/09 CSMIP)  
CSMIP Preliminary Processing            (Origin:  To be determined)             
24207-M0150-01010.01                 Start time:  1/14/01, 02:26:11.0 UTC (GPS) 
Station No. 24207   34.334N, 118.396W    MtWtny  s/n  150 (17 Chns of 17 at Sta)
Sylmar - Pacoima Dam                      CGS                                   
Chan 13:  Up                        Location: Right (North) Abutment            
Record of Sat Jan 13, 2001 18:26:11.0 PST    Sat Jan 13, 2001 18:26:11.0 PST    
Hypocenter:  To be determined.               ML:  To be determined.
Instr Period =  .0103 sec,  Damping =  .660,  Sensitivity =  .63  v/g
                        Record length = 41.000 sec.
                                     Uncor Max  =  -.015 g , at   6.725 sec.
RMS accel of (uncor) record  =        .   Chn. metadata effective date: 09/02/99
Accelerogram bandpass filtered with 3 dB pts at   .50 and 40.00 cyc/sec
                 instrument- and baseline-corrected





Record of Sat Jan 13, 2001 18:26:11.0 PST    Sat Jan 13, 2001 18:26:11.0 PST

24207-M0150-01010.01      Sylmar - Pacoima Dam    Chan 13:  Up

24207-M0150-01010.01      Sylmar - Pacoima Dam    Chan 13:  Up

Units for spectra are inches and sec, except Sa is in fraction of g.

   13  100   13   18   17  200    1    3    1   24   13  150    024207    5    0
    2   26   11    0   14    1   14 2001   10    3  500 8200   41   20   76   -1
 8200    0  100    3  150    1    1  410    2    0    0    0    0    0    0    0
    0    4    0    0 8200    1  212    1   18    4    0    0    3    1    0 8200
    3 8200    1   91    5   17    5    0    0    0    0    0    0    3    1    2
    2    2    4    0   68   99    0    1    0    0    0    1    0    0    0  222
    1    0    2    0
      .010      .660    41.000      .001      .000   626.000     -.015     6.725
    97.100      .298      .476      .000     5.000      .000     4.000      .000
     2.500    10.964     2.500  2016.000     5.000    30.000      .000      .008
     -.005     -.013     2.000    15.000    34.334  -118.396      .010      .033
     3.275     -.015     -.011   594.000     5.400     9.900    12.700   100.040
     1.000    -1.020      .000      .000      .000      .000      .000      .000
     7.200     8.900     5.800   980.665      .005    41.000    15.454      .000
      .000    40.000      .000    41.000      .005      .500      .000      .000
     6.725   -14.837     6.760     -.485     8.245      .025      .000      .500
    40.000      .005      .005      .000      .005      .006      .000      .000
      .057      .170      .043      .009      .002      .000      .000      .000
      .000      .000      .000      .000      .000      .000      .000      .000
      .000      .000      .000      .000
      .000      .020      .050      .100      .200
      .040      .042      .044      .046      .048      .050      .055      .060
      .065      .070      .075      .080      .085      .090      .095      .100
      .110      .120      .130      .140      .150      .160      .170      .180
      .190      .200      .220      .240      .260      .280      .300      .320
      .340      .360      .380      .400      .420      .440      .460      .480
      .500      .550      .600      .650      .700      .750      .800      .850
      .900      .950     1.000     1.100     1.200     1.300     1.400     1.500
     1.600     1.700     1.800     1.900     2.000     2.200     2.400     2.600
     2.800     3.000     3.200     3.400     3.600     3.800     4.000     4.200
     4.400     4.600     4.800     5.000     5.500     6.000     6.500     7.000
     7.500     8.000     8.500     9.000     9.500    10.000    11.000    12.000
    13.000    14.000    15.000      .000      .000      .000      .000      .000
      .000      .000      .000      .000
Fourier amplitude spectra in in/sec.
  .150E+00  .438E-01  .570E-01  .123E+00  .144E+00  .601E-01  .826E-01  .266E+00
  .289E+00  .434E+00  .127E+00  .519E+00  .285E+00  .163E+00  .120E+00  .148E+00
  .260E+00  .309E+00  .623E+00  .576E+00  .854E+00  .647E+00  .977E+00  .964E+00
  .102E+01  .104E+01  .555E+00  .166E+00  .201E+00  .690E-01  .198E+00  .179E+00
  .238E+00  .444E+00  .404E+00  .533E+00  .454E+00  .351E+00  .366E+00  .495E+00
  .407E+00  .539E+00  .523E+00  .137E+00  .148E+00  .493E+00  .527E+00  .307E+00
  .121E+00  .297E+00  .306E+00  .401E-01  .347E-01  .128E+00  .740E-01  .961E-01
  .576E-01  .274E-01  .334E-01  .267E-01  .271E-01  .358E-01  .201E-01  .979E-02
  .256E-02  .176E-02  .267E-02  .309E-02  .292E-02  .173E-02  .154E-02  .115E-02
  .104E-02  .848E-03  .492E-03  .425E-03  .316E-03  .146E-03  .206E-03  .530E-04
  .181E-03  .150E-03  .432E-04  .758E-04  .104E-03  .812E-04  .565E-04  .951E-04
  .730E-04  .387E-04  .597E-04  .000E+00  .000E+00  .000E+00  .000E+00  .000E+00
  .000E+00  .000E+00  .000E+00  .000E+00
Damping =  .00. Data of Sd,Sv,Sa,Pssv,ttSd,ttSv,ttSa :
  .976E-03  .554E-03  .876E-03  .115E-02  .163E-02  .719E-03  .101E-02  .257E-02
  .420E-02  .574E-02  .475E-02  .806E-02  .535E-02  .600E-02  .429E-02  .523E-02
  .860E-02  .673E-02  .143E-01  .141E-01  .211E-01  .184E-01  .266E-01  .291E-01
  .324E-01  .333E-01  .203E-01  .153E-01  .115E-01  .939E-02  .102E-01  .125E-01
  .158E-01  .284E-01  .337E-01  .394E-01  .335E-01  .275E-01  .315E-01  .390E-01
  .354E-01  .557E-01  .500E-01  .274E-01  .279E-01  .597E-01  .691E-01  .511E-01
  .463E-01  .460E-01  .495E-01  .244E-01  .199E-01  .281E-01  .274E-01  .232E-01
  .207E-01  .190E-01  .201E-01  .200E-01  .192E-01  .168E-01  .144E-01  .127E-01
  .116E-01  .112E-01  .110E-01  .109E-01  .107E-01  .106E-01  .104E-01  .103E-01
  .102E-01  .101E-01  .102E-01  .102E-01  .102E-01  .101E-01  .101E-01  .101E-01
  .100E-01  .100E-01  .101E-01  .101E-01  .101E-01  .101E-01  .101E-01  .101E-01
  .101E-01  .101E-01  .100E-01  .000E+00  .000E+00  .000E+00  .000E+00  .000E+00
  .000E+00  .000E+00  .000E+00  .000E+00
  .150E+00  .620E-01  .107E+00  .135E+00  .196E+00  .767E-01  .990E-01  .268E+00
  .394E+00  .492E+00  .400E+00  .633E+00  .395E+00  .373E+00  .283E+00  .297E+00
  .495E+00  .328E+00  .666E+00  .613E+00  .872E+00  .747E+00  .987E+00  .102E+01
  .106E+01  .105E+01  .579E+00  .493E+00  .353E+00  .257E+00  .278E+00  .238E+00
  .287E+00  .481E+00  .531E+00  .618E+00  .485E+00  .391E+00  .420E+00  .509E+00
  .448E+00  .638E+00  .524E+00  .292E+00  .274E+00  .502E+00  .549E+00  .408E+00
  .349E+00  .305E+00  .312E+00  .241E+00  .245E+00  .246E+00  .243E+00  .238E+00
  .232E+00  .226E+00  .221E+00  .217E+00  .213E+00  .207E+00  .203E+00  .200E+00
  .198E+00  .197E+00  .196E+00  .195E+00  .194E+00  .193E+00  .193E+00  .193E+00
  .192E+00  .192E+00  .192E+00  .192E+00  .191E+00  .191E+00  .191E+00  .191E+00
  .191E+00  .191E+00  .191E+00  .191E+00  .191E+00  .191E+00  .190E+00  .190E+00
  .190E+00  .190E+00  .190E+00  .000E+00  .000E+00  .000E+00  .000E+00  .000E+00
  .000E+00  .000E+00  .000E+00  .000E+00
  .624E-01  .321E-01  .463E-01  .557E-01  .723E-01  .294E-01  .341E-01  .730E-01
  .102E+00  .120E+00  .864E-01  .129E+00  .757E-01  .757E-01  .486E-01  .535E-01
  .727E-01  .478E-01  .863E-01  .738E-01  .957E-01  .737E-01  .943E-01  .919E-01
  .917E-01  .852E-01  .429E-01  .272E-01  .175E-01  .123E-01  .116E-01  .125E-01
  .139E-01  .224E-01  .239E-01  .252E-01  .195E-01  .145E-01  .152E-01  .173E-01
  .145E-01  .188E-01  .142E-01  .663E-02  .583E-02  .108E-01  .110E-01  .724E-02
  .585E-02  .521E-02  .506E-02  .207E-02  .141E-02  .170E-02  .143E-02  .105E-02
  .827E-03  .672E-03  .633E-03  .567E-03  .492E-03  .355E-03  .256E-03  .193E-03
  .152E-03  .128E-03  .110E-03  .960E-04  .844E-04  .747E-04  .665E-04  .596E-04
  .537E-04  .490E-04  .451E-04  .416E-04  .343E-04  .287E-04  .244E-04  .210E-04
  .183E-04  .161E-04  .142E-04  .127E-04  .114E-04  .103E-04  .852E-05  .716E-05
  .610E-05  .525E-05  .457E-05  .000E+00  .000E+00  .000E+00  .000E+00  .000E+00
  .000E+00  .000E+00  .000E+00  .000E+00
  .153E+00  .829E-01  .125E+00  .157E+00  .213E+00  .904E-01  .115E+00  .269E+00
  .406E+00  .515E+00  .398E+00  .633E+00  .396E+00  .419E+00  .284E+00  .329E+00
  .491E+00  .353E+00  .689E+00  .635E+00  .882E+00  .724E+00  .985E+00  .102E+01
  .107E+01  .105E+01  .580E+00  .402E+00  .279E+00  .211E+00  .214E+00  .245E+00
  .291E+00  .495E+00  .558E+00  .619E+00  .502E+00  .393E+00  .430E+00  .510E+00
  .445E+00  .637E+00  .524E+00  .265E+00  .251E+00  .500E+00  .543E+00  .378E+00
  .323E+00  .304E+00  .311E+00  .140E+00  .104E+00  .136E+00  .123E+00  .971E-01
  .813E-01  .702E-01  .700E-01  .661E-01  .604E-01  .479E-01  .378E-01  .308E-01
  .261E-01  .235E-01  .216E-01  .201E-01  .187E-01  .174E-01  .164E-01  .154E-01
  .145E-01  .138E-01  .133E-01  .128E-01  .116E-01  .106E-01  .974E-02  .903E-02
  .842E-02  .789E-02  .743E-02  .702E-02  .666E-02  .633E-02  .576E-02  .528E-02
  .487E-02  .452E-02  .421E-02  .000E+00  .000E+00  .000E+00  .000E+00  .000E+00
  .000E+00  .000E+00  .000E+00  .000E+00
  .949E+01  .674E+01  .672E+01  .688E+01  .682E+01  .514E+01  .719E+01  .759E+01
  .701E+01  .687E+01  .643E+01  .796E+01  .690E+01  .679E+01  .532E+01  .672E+01
  .689E+01  .663E+01  .798E+01  .690E+01  .953E+01  .691E+01  .101E+02  .766E+01
  .109E+02  .135E+02  .876E+01  .671E+01  .663E+01  .664E+01  .175E+02  .107E+02
  .881E+01  .109E+02  .822E+01  .129E+02  .853E+01  .881E+01  .110E+02  .260E+02
  .134E+02  .103E+02  .387E+02  .907E+01  .907E+01  .268E+02  .124E+02  .976E+01
  .987E+01  .149E+02  .277E+02  .793E+01  .796E+01  .109E+02  .106E+02  .288E+02
  .861E+01  .821E+01  .822E+01  .823E+01  .823E+01  .824E+01  .824E+01  .824E+01
  .824E+01  .656E+01  .656E+01  .656E+01  .656E+01  .656E+01  .656E+01  .656E+01
  .656E+01  .824E+01  .824E+01  .824E+01  .824E+01  .824E+01  .824E+01  .824E+01
  .824E+01  .824E+01  .824E+01  .824E+01  .824E+01  .824E+01  .824E+01  .824E+01
  .824E+01  .824E+01  .824E+01  .000E+00  .000E+00  .000E+00  .000E+00  .000E+00
  .000E+00  .000E+00  .000E+00  .000E+00
  .936E+01  .686E+01  .660E+01  .714E+01  .693E+01  .540E+01  .718E+01  .161E+02
  .707E+01  .711E+01  .645E+01  .714E+01  .692E+01  .677E+01  .524E+01  .530E+01
  .692E+01  .636E+01  .801E+01  .693E+01  .957E+01  .703E+01  .714E+01  .762E+01
  .111E+02  .135E+02  .145E+02  .676E+01  .668E+01  .659E+01  .684E+01  .784E+01
  .890E+01  .110E+02  .813E+01  .120E+02  .843E+01  .893E+01  .111E+02  .261E+02
  .135E+02  .101E+02  .388E+02  .685E+01  .685E+01  .172E+02  .118E+02  .997E+01
  .965E+01  .141E+02  .274E+02  .675E+01  .675E+01  .675E+01  .675E+01  .675E+01
  .675E+01  .675E+01  .675E+01  .675E+01  .675E+01  .675E+01  .675E+01  .675E+01
  .675E+01  .675E+01  .675E+01  .675E+01  .675E+01  .675E+01  .675E+01  .675E+01
  .675E+01  .675E+01  .675E+01  .675E+01  .675E+01  .675E+01  .675E+01  .675E+01
  .675E+01  .675E+01  .675E+01  .675E+01  .675E+01  .675E+01  .675E+01  .675E+01
  .675E+01  .675E+01  .675E+01  .000E+00  .000E+00  .000E+00  .000E+00  .000E+00
  .000E+00  .000E+00  .000E+00  .000E+00
  .949E+01  .674E+01  .672E+01  .688E+01  .682E+01  .514E+01  .719E+01  .759E+01
  .701E+01  .687E+01  .643E+01  .796E+01  .690E+01  .679E+01  .532E+01  .672E+01
  .689E+01  .663E+01  .798E+01  .690E+01  .953E+01  .691E+01  .101E+02  .766E+01
  .109E+02  .135E+02  .876E+01  .671E+01  .663E+01  .664E+01  .175E+02  .107E+02
  .881E+01  .109E+02  .822E+01  .129E+02  .853E+01  .881E+01  .110E+02  .260E+02
  .134E+02  .103E+02  .387E+02  .907E+01  .907E+01  .268E+02  .124E+02  .976E+01
  .987E+01  .149E+02  .277E+02  .793E+01  .796E+01  .109E+02  .106E+02  .288E+02
  .861E+01  .821E+01  .822E+01  .823E+01  .823E+01  .824E+01  .824E+01  .824E+01
  .824E+01  .656E+01  .656E+01  .656E+01  .656E+01  .656E+01  .656E+01  .656E+01
  .656E+01  .824E+01  .824E+01  .824E+01  .824E+01  .824E+01  .824E+01  .824E+01
  .824E+01  .824E+01  .824E+01  .824E+01  .824E+01  .824E+01  .824E+01  .824E+01
  .824E+01  .824E+01  .824E+01  .000E+00  .000E+00  .000E+00  .000E+00  .000E+00
  .000E+00  .000E+00  .000E+00  .000E+00
Damping =  .02. Data of Sd,Sv,Sa,Pssv,ttSd,ttSv,ttSa :
  .385E-03  .385E-03  .396E-03  .517E-03  .577E-03  .636E-03  .786E-03  .118E-02
  .209E-02  .324E-02  .365E-02  .341E-02  .356E-02  .357E-02  .371E-02  .390E-02
  .481E-02  .532E-02  .106E-01  .125E-01  .138E-01  .167E-01  .205E-01  .212E-01
  .219E-01  .228E-01  .163E-01  .129E-01  .106E-01  .856E-02  .846E-02  .985E-02
  .131E-01  .204E-01  .262E-01  .285E-01  .261E-01  .215E-01  .187E-01  .225E-01
  .269E-01  .371E-01  .339E-01  .258E-01  .259E-01  .406E-01  .453E-01  .397E-01
  .391E-01  .341E-01  .300E-01  .216E-01  .180E-01  .227E-01  .222E-01  .210E-01
  .192E-01  .178E-01  .189E-01  .190E-01  .184E-01  .164E-01  .144E-01  .128E-01
  .118E-01  .112E-01  .110E-01  .108E-01  .107E-01  .105E-01  .104E-01  .103E-01
  .102E-01  .102E-01  .102E-01  .102E-01  .102E-01  .101E-01  .101E-01  .101E-01
  .101E-01  .101E-01  .101E-01  .101E-01  .101E-01  .101E-01  .101E-01  .101E-01
  .101E-01  .101E-01  .101E-01  .000E+00  .000E+00  .000E+00  .000E+00  .000E+00
  .000E+00  .000E+00  .000E+00  .000E+00
  .589E-01  .475E-01  .445E-01  .537E-01  .648E-01  .652E-01  .781E-01  .113E+00
  .191E+00  .279E+00  .302E+00  .263E+00  .263E+00  .251E+00  .247E+00  .250E+00
  .269E+00  .231E+00  .468E+00  .524E+00  .540E+00  .634E+00  .772E+00  .770E+00
  .744E+00  .697E+00  .534E+00  .430E+00  .328E+00  .240E+00  .252E+00  .210E+00
  .240E+00  .326E+00  .420E+00  .419E+00  .368E+00  .292E+00  .261E+00  .287E+00
  .332E+00  .437E+00  .367E+00  .286E+00  .270E+00  .337E+00  .361E+00  .334E+00
  .295E+00  .267E+00  .244E+00  .236E+00  .240E+00  .242E+00  .240E+00  .235E+00
  .230E+00  .225E+00  .221E+00  .216E+00  .213E+00  .207E+00  .203E+00  .200E+00
  .198E+00  .197E+00  .196E+00  .195E+00  .194E+00  .194E+00  .193E+00  .193E+00
  .192E+00  .192E+00  .192E+00  .192E+00  .192E+00  .191E+00  .191E+00  .191E+00
  .191E+00  .191E+00  .191E+00  .191E+00  .191E+00  .191E+00  .191E+00  .190E+00
  .190E+00  .190E+00  .190E+00  .000E+00  .000E+00  .000E+00  .000E+00  .000E+00
  .000E+00  .000E+00  .000E+00  .000E+00
  .246E-01  .224E-01  .209E-01  .249E-01  .257E-01  .259E-01  .267E-01  .335E-01
  .504E-01  .671E-01  .666E-01  .548E-01  .502E-01  .450E-01  .419E-01  .398E-01
  .408E-01  .379E-01  .641E-01  .654E-01  .629E-01  .668E-01  .727E-01  .669E-01
  .620E-01  .583E-01  .346E-01  .231E-01  .160E-01  .112E-01  .963E-02  .985E-02
  .116E-01  .161E-01  .186E-01  .183E-01  .151E-01  .114E-01  .905E-02  .999E-02
  .110E-01  .125E-01  .964E-02  .624E-02  .542E-02  .740E-02  .725E-02  .562E-02
  .494E-02  .387E-02  .307E-02  .183E-02  .128E-02  .138E-02  .116E-02  .955E-03
  .770E-03  .632E-03  .599E-03  .540E-03  .474E-03  .350E-03  .258E-03  .196E-03
  .156E-03  .131E-03  .114E-03  .997E-04  .881E-04  .784E-04  .702E-04  .632E-04
  .573E-04  .521E-04  .477E-04  .439E-04  .362E-04  .306E-04  .263E-04  .230E-04
  .203E-04  .180E-04  .162E-04  .146E-04  .133E-04  .122E-04  .106E-04  .971E-05
  .899E-05  .837E-05  .783E-05  .000E+00  .000E+00  .000E+00  .000E+00  .000E+00
  .000E+00  .000E+00  .000E+00  .000E+00
  .605E-01  .576E-01  .565E-01  .706E-01  .756E-01  .799E-01  .898E-01  .124E+00
  .202E+00  .290E+00  .306E+00  .268E+00  .263E+00  .249E+00  .245E+00  .245E+00
  .275E+00  .279E+00  .510E+00  .562E+00  .579E+00  .656E+00  .759E+00  .740E+00
  .723E+00  .716E+00  .467E+00  .339E+00  .255E+00  .192E+00  .177E+00  .193E+00
  .242E+00  .356E+00  .434E+00  .448E+00  .390E+00  .307E+00  .255E+00  .294E+00
  .338E+00  .423E+00  .355E+00  .249E+00  .233E+00  .340E+00  .356E+00  .293E+00
  .273E+00  .225E+00  .189E+00  .123E+00  .943E-01  .110E+00  .998E-01  .878E-01
  .755E-01  .658E-01  .660E-01  .628E-01  .579E-01  .469E-01  .376E-01  .310E-01
  .264E-01  .234E-01  .216E-01  .200E-01  .186E-01  .174E-01  .163E-01  .154E-01
  .145E-01  .139E-01  .133E-01  .128E-01  .116E-01  .106E-01  .976E-02  .904E-02
  .843E-02  .790E-02  .744E-02  .703E-02  .666E-02  .633E-02  .576E-02  .528E-02
  .487E-02  .452E-02  .421E-02  .000E+00  .000E+00  .000E+00  .000E+00  .000E+00
  .000E+00  .000E+00  .000E+00  .000E+00
  .531E+01  .514E+01  .672E+01  .688E+01  .688E+01  .514E+01  .515E+01  .543E+01
  .705E+01  .720E+01  .722E+01  .520E+01  .521E+01  .521E+01  .522E+01  .522E+01
  .563E+01  .680E+01  .682E+01  .690E+01  .691E+01  .691E+01  .693E+01  .694E+01
  .695E+01  .697E+01  .688E+01  .671E+01  .663E+01  .663E+01  .689E+01  .775E+01
  .795E+01  .818E+01  .822E+01  .827E+01  .830E+01  .857E+01  .885E+01  .101E+02
  .102E+02  .103E+02  .901E+01  .906E+01  .875E+01  .118E+02  .116E+02  .851E+01
  .855E+01  .859E+01  .117E+02  .792E+01  .795E+01  .109E+02  .105E+02  .859E+01
  .860E+01  .821E+01  .822E+01  .823E+01  .823E+01  .824E+01  .824E+01  .824E+01
  .824E+01  .656E+01  .656E+01  .656E+01  .656E+01  .656E+01  .656E+01  .656E+01
  .656E+01  .824E+01  .824E+01  .824E+01  .824E+01  .824E+01  .824E+01  .824E+01
  .824E+01  .824E+01  .824E+01  .824E+01  .824E+01  .824E+01  .824E+01  .824E+01
  .824E+01  .824E+01  .824E+01  .000E+00  .000E+00  .000E+00  .000E+00  .000E+00
  .000E+00  .000E+00  .000E+00  .000E+00
  .530E+01  .513E+01  .545E+01  .546E+01  .554E+01  .513E+01  .517E+01  .545E+01
  .703E+01  .722E+01  .724E+01  .526E+01  .523E+01  .523E+01  .519E+01  .520E+01
  .560E+01  .676E+01  .692E+01  .693E+01  .688E+01  .688E+01  .689E+01  .699E+01
  .700E+01  .711E+01  .684E+01  .675E+01  .667E+01  .668E+01  .684E+01  .685E+01
  .785E+01  .810E+01  .813E+01  .816E+01  .841E+01  .845E+01  .685E+01  .102E+02
  .103E+02  .101E+02  .915E+01  .685E+01  .685E+01  .116E+02  .114E+02  .868E+01
  .836E+01  .838E+01  .803E+01  .675E+01  .675E+01  .675E+01  .675E+01  .675E+01
  .675E+01  .675E+01  .675E+01  .675E+01  .675E+01  .675E+01  .675E+01  .675E+01
  .675E+01  .675E+01  .675E+01  .675E+01  .675E+01  .675E+01  .675E+01  .675E+01
  .675E+01  .675E+01  .675E+01  .675E+01  .675E+01  .675E+01  .675E+01  .675E+01
  .675E+01  .675E+01  .675E+01  .675E+01  .675E+01  .675E+01  .675E+01  .675E+01
  .675E+01  .675E+01  .675E+01  .000E+00  .000E+00  .000E+00  .000E+00  .000E+00
  .000E+00  .000E+00  .000E+00  .000E+00
  .530E+01  .514E+01  .672E+01  .688E+01  .688E+01  .514E+01  .515E+01  .543E+01
  .705E+01  .720E+01  .722E+01  .520E+01  .521E+01  .521E+01  .522E+01  .522E+01
  .563E+01  .680E+01  .681E+01  .690E+01  .691E+01  .691E+01  .693E+01  .694E+01
  .695E+01  .696E+01  .688E+01  .671E+01  .663E+01  .663E+01  .688E+01  .775E+01
  .795E+01  .818E+01  .822E+01  .826E+01  .830E+01  .857E+01  .885E+01  .101E+02
  .102E+02  .103E+02  .901E+01  .905E+01  .874E+01  .118E+02  .116E+02  .850E+01
  .854E+01  .858E+01  .117E+02  .792E+01  .795E+01  .109E+02  .105E+02  .858E+01
  .860E+01  .820E+01  .820E+01  .822E+01  .822E+01  .823E+01  .823E+01  .823E+01
  .823E+01  .655E+01  .655E+01  .655E+01  .655E+01  .654E+01  .654E+01  .654E+01
  .654E+01  .654E+01  .653E+01  .653E+01  .653E+01  .653E+01  .653E+01  .653E+01
  .653E+01  .653E+01  .653E+01  .652E+01  .652E+01  .652E+01  .677E+01  .676E+01
  .676E+01  .676E+01  .676E+01  .000E+00  .000E+00  .000E+00  .000E+00  .000E+00
  .000E+00  .000E+00  .000E+00  .000E+00
Damping =  .05. Data of Sd,Sv,Sa,Pssv,ttSd,ttSv,ttSa :
  .303E-03  .334E-03  .375E-03  .441E-03  .480E-03  .548E-03  .672E-03  .911E-03
  .140E-02  .214E-02  .244E-02  .267E-02  .288E-02  .297E-02  .306E-02  .321E-02
  .350E-02  .548E-02  .838E-02  .103E-01  .120E-01  .140E-01  .161E-01  .171E-01
  .178E-01  .181E-01  .146E-01  .108E-01  .923E-02  .785E-02  .765E-02  .800E-02
  .105E-01  .150E-01  .189E-01  .207E-01  .198E-01  .171E-01  .151E-01  .156E-01
