Response and Fourier amplitude spectra (91 periods,  .04 - 15.0 sec)   for      
Corrected accelerogram   24207-M0150-01010.01       Chan  5:  Radl       from   
Uncorrected Accelerogram Data             Processed: 03/04/11, CGS  207fa001    
Record of Sat Jan 13, 2001 18:26:11.0 PST             (Avol1 v8.9,05/09 CSMIP)  
CSMIP Preliminary Processing            (Origin:  To be determined)             
24207-M0150-01010.01                 Start time:  1/14/01, 02:26:11.0 UTC (GPS) 
Station No. 24207   34.334N, 118.396W    MtWtny  s/n  150 (17 Chns of 17 at Sta)
Sylmar - Pacoima Dam                      CGS                                   
Chan  5:  Radl                      Location: Crest: Left 1/4-length Point      
Record of Sat Jan 13, 2001 18:26:11.0 PST    Sat Jan 13, 2001 18:26:11.0 PST    
Hypocenter:  To be determined.               ML:  To be determined.
Instr Period =  .0101 sec,  Damping =  .680,  Sensitivity =  .63  v/g
                        Record length = 41.000 sec.
                                     Uncor Max  =   .132 g , at   7.210 sec.
RMS accel of (uncor) record  =        .   Chn. metadata effective date: 09/02/99
Accelerogram bandpass filtered with 3 dB pts at   .50 and 40.00 cyc/sec
                 instrument- and baseline-corrected





Record of Sat Jan 13, 2001 18:26:11.0 PST    Sat Jan 13, 2001 18:26:11.0 PST

24207-M0150-01010.01      Sylmar - Pacoima Dam    Chan  5:  Radl

24207-M0150-01010.01      Sylmar - Pacoima Dam    Chan  5:  Radl

Units for spectra are inches and sec, except Sa is in fraction of g.

    5  100    5   18   17  200    1    3    1   24   13  150    024207    5    0
    2   26   11    0   14    1   14 2001   10    3  700 8200   41   20   76   -1
 8200    0  100    3  150    1    1  410    2    0    0    0    0    0    0    0
    0    4    0    0 8200    1  212    1   18    4    0    0    3    1    0 8200
    3 8200    1   91    5   17    5    0    0    0    0    0    0    3    1    2
    2    2    4    0   68   99    0    1    0    0    0    1    0    0    0  222
    1    0    2    0
      .010      .680    41.000      .010      .000   625.000      .132     7.210
    98.700      .298      .477      .000     5.000      .000     4.000      .000
     2.500    -4.714     2.500  2016.000     5.000    30.000      .000     -.051
      .007      .058     2.000    15.000    34.334  -118.396      .009      .258
    28.701      .046      .070   594.000     5.400     9.900    12.700   100.040
     1.000     1.006      .000      .000      .000      .000      .000      .000
     7.200     8.900     5.800   980.665      .005    41.000    15.709      .000
      .000    40.000      .000    41.000      .005      .500      .000      .000
     7.205   130.011     7.150    -3.901     7.210     -.169      .000      .500
    40.000      .005      .005      .000      .810      .034      .000      .000
      .561      .200      .537      .258      .008      .001      .000      .000
      .000      .000      .000      .000      .000      .000      .000      .000
      .000      .000      .000      .000
      .000      .020      .050      .100      .200
      .040      .042      .044      .046      .048      .050      .055      .060
      .065      .070      .075      .080      .085      .090      .095      .100
      .110      .120      .130      .140      .150      .160      .170      .180
      .190      .200      .220      .240      .260      .280      .300      .320
      .340      .360      .380      .400      .420      .440      .460      .480
      .500      .550      .600      .650      .700      .750      .800      .850
      .900      .950     1.000     1.100     1.200     1.300     1.400     1.500
     1.600     1.700     1.800     1.900     2.000     2.200     2.400     2.600
     2.800     3.000     3.200     3.400     3.600     3.800     4.000     4.200
     4.400     4.600     4.800     5.000     5.500     6.000     6.500     7.000
     7.500     8.000     8.500     9.000     9.500    10.000    11.000    12.000
    13.000    14.000    15.000      .000      .000      .000      .000      .000
      .000      .000      .000      .000
Fourier amplitude spectra in in/sec.
  .119E+00  .101E+00  .345E+00  .285E+00  .272E+00  .551E+00  .185E+00  .424E+00
  .988E+00  .682E+00  .132E+01  .272E+01  .879E+00  .206E+01  .231E+01  .142E+01
  .153E+01  .283E+01  .266E+01  .545E+01  .707E+01  .425E+01  .231E+01  .837E+01
  .140E+02  .124E+02  .948E+01  .823E+01  .768E+01  .732E+01  .759E+01  .298E+01
  .198E+01  .244E+01  .629E+00  .852E+00  .497E+00  .122E+01  .639E+00  .994E+00
  .169E+01  .191E+00  .450E+00  .522E+00  .488E+00  .162E+00  .292E+00  .182E+00
  .114E+00  .942E-01  .189E+00  .354E+00  .171E+00  .118E+00  .340E-01  .382E-01
  .148E-01  .618E-01  .597E-01  .352E-01  .392E-01  .127E-01  .315E-02  .349E-02
  .807E-02  .664E-02  .341E-02  .188E-02  .191E-02  .211E-02  .187E-02  .168E-02
  .166E-02  .129E-02  .103E-02  .794E-03  .306E-03  .102E-03  .209E-03  .216E-03
  .344E-03  .311E-03  .295E-03  .338E-03  .328E-03  .274E-03  .250E-03  .274E-03
  .220E-03  .170E-03  .184E-03  .000E+00  .000E+00  .000E+00  .000E+00  .000E+00
  .000E+00  .000E+00  .000E+00  .000E+00
Damping =  .00. Data of Sd,Sv,Sa,Pssv,ttSd,ttSv,ttSa :
  .279E-02  .258E-02  .425E-02  .498E-02  .578E-02  .626E-02  .601E-02  .905E-02
  .174E-01  .209E-01  .265E-01  .424E-01  .328E-01  .344E-01  .421E-01  .452E-01
  .451E-01  .599E-01  .862E-01  .140E+00  .188E+00  .169E+00  .207E+00  .252E+00
  .440E+00  .436E+00  .366E+00  .350E+00  .341E+00  .378E+00  .388E+00  .265E+00
  .234E+00  .221E+00  .189E+00  .170E+00  .161E+00  .154E+00  .144E+00  .131E+00
  .138E+00  .974E-01  .929E-01  .948E-01  .930E-01  .876E-01  .825E-01  .788E-01
  .756E-01  .725E-01  .716E-01  .729E-01  .747E-01  .754E-01  .754E-01  .752E-01
  .750E-01  .747E-01  .741E-01  .732E-01  .722E-01  .710E-01  .703E-01  .694E-01
  .684E-01  .677E-01  .674E-01  .674E-01  .675E-01  .676E-01  .677E-01  .676E-01
  .675E-01  .674E-01  .672E-01  .670E-01  .667E-01  .665E-01  .665E-01  .666E-01
  .667E-01  .668E-01  .669E-01  .669E-01  .670E-01  .670E-01  .670E-01  .670E-01
  .669E-01  .668E-01  .667E-01  .000E+00  .000E+00  .000E+00  .000E+00  .000E+00
  .000E+00  .000E+00  .000E+00  .000E+00
  .213E+00  .176E+00  .440E+00  .366E+00  .448E+00  .551E+00  .360E+00  .571E+00
  .128E+01  .159E+01  .204E+01  .330E+01  .230E+01  .221E+01  .263E+01  .248E+01
  .233E+01  .308E+01  .372E+01  .591E+01  .780E+01  .615E+01  .710E+01  .872E+01
  .144E+02  .137E+02  .105E+02  .928E+01  .836E+01  .846E+01  .814E+01  .579E+01
  .533E+01  .454E+01  .417E+01  .369E+01  .328E+01  .293E+01  .261E+01  .249E+01
  .235E+01  .203E+01  .186E+01  .175E+01  .181E+01  .181E+01  .179E+01  .177E+01
  .176E+01  .175E+01  .173E+01  .170E+01  .167E+01  .164E+01  .162E+01  .160E+01
  .158E+01  .157E+01  .156E+01  .156E+01  .156E+01  .156E+01  .155E+01  .155E+01
  .155E+01  .155E+01  .155E+01  .154E+01  .154E+01  .154E+01  .154E+01  .154E+01
  .154E+01  .154E+01  .154E+01  .154E+01  .154E+01  .154E+01  .154E+01  .154E+01
  .154E+01  .154E+01  .154E+01  .154E+01  .154E+01  .154E+01  .154E+01  .154E+01
  .154E+01  .154E+01  .154E+01  .000E+00  .000E+00  .000E+00  .000E+00  .000E+00
  .000E+00  .000E+00  .000E+00  .000E+00
  .178E+00  .150E+00  .225E+00  .241E+00  .257E+00  .256E+00  .203E+00  .257E+00
  .422E+00  .436E+00  .482E+00  .678E+00  .464E+00  .435E+00  .477E+00  .463E+00
  .381E+00  .425E+00  .522E+00  .732E+00  .856E+00  .677E+00  .732E+00  .794E+00
  .125E+01  .111E+01  .773E+00  .621E+00  .516E+00  .493E+00  .441E+00  .265E+00
  .207E+00  .175E+00  .134E+00  .109E+00  .936E-01  .812E-01  .695E-01  .580E-01
  .565E-01  .329E-01  .264E-01  .229E-01  .194E-01  .159E-01  .132E-01  .112E-01
  .955E-02  .822E-02  .733E-02  .616E-02  .531E-02  .456E-02  .394E-02  .342E-02
  .300E-02  .264E-02  .234E-02  .207E-02  .185E-02  .150E-02  .125E-02  .105E-02
  .892E-03  .769E-03  .673E-03  .596E-03  .532E-03  .479E-03  .433E-03  .392E-03
  .357E-03  .326E-03  .298E-03  .274E-03  .225E-03  .189E-03  .161E-03  .139E-03
  .121E-03  .107E-03  .947E-04  .845E-04  .759E-04  .686E-04  .567E-04  .476E-04
  .405E-04  .349E-04  .303E-04  .000E+00  .000E+00  .000E+00  .000E+00  .000E+00
  .000E+00  .000E+00  .000E+00  .000E+00
  .438E+00  .387E+00  .607E+00  .680E+00  .757E+00  .787E+00  .686E+00  .947E+00
  .168E+01  .188E+01  .222E+01  .333E+01  .242E+01  .240E+01  .278E+01  .284E+01
  .258E+01  .314E+01  .417E+01  .629E+01  .788E+01  .666E+01  .764E+01  .878E+01
  .145E+02  .137E+02  .104E+02  .916E+01  .824E+01  .848E+01  .813E+01  .521E+01
  .432E+01  .386E+01  .312E+01  .267E+01  .242E+01  .220E+01  .197E+01  .171E+01
  .174E+01  .111E+01  .972E+00  .916E+00  .835E+00  .734E+00  .648E+00  .583E+00
  .528E+00  .480E+00  .450E+00  .416E+00  .391E+00  .364E+00  .338E+00  .315E+00
  .295E+00  .276E+00  .259E+00  .242E+00  .227E+00  .203E+00  .184E+00  .168E+00
  .154E+00  .142E+00  .132E+00  .124E+00  .118E+00  .112E+00  .106E+00  .101E+00
  .964E-01  .920E-01  .880E-01  .842E-01  .762E-01  .697E-01  .643E-01  .597E-01
  .558E-01  .524E-01  .494E-01  .467E-01  .443E-01  .421E-01  .383E-01  .351E-01
  .323E-01  .300E-01  .279E-01  .000E+00  .000E+00  .000E+00  .000E+00  .000E+00
  .000E+00  .000E+00  .000E+00  .000E+00
  .732E+01  .696E+01  .696E+01  .720E+01  .709E+01  .709E+01  .730E+01  .732E+01
  .720E+01  .663E+01  .681E+01  .734E+01  .717E+01  .688E+01  .694E+01  .711E+01
  .740E+01  .978E+01  .721E+01  .732E+01  .968E+01  .709E+01  .719E+01  .101E+02
  .838E+01  .924E+01  .149E+02  .870E+01  .805E+01  .868E+01  .110E+02  .732E+01
  .719E+01  .720E+01  .721E+01  .708E+01  .709E+01  .709E+01  .709E+01  .709E+01
  .117E+02  .696E+01  .696E+01  .732E+01  .732E+01  .732E+01  .732E+01  .732E+01
  .732E+01  .696E+01  .696E+01  .720E+01  .720E+01  .720E+01  .720E+01  .720E+01
  .720E+01  .720E+01  .720E+01  .720E+01  .720E+01  .720E+01  .720E+01  .720E+01
  .720E+01  .720E+01  .720E+01  .720E+01  .720E+01  .720E+01  .720E+01  .720E+01
  .720E+01  .720E+01  .720E+01  .720E+01  .720E+01  .720E+01  .720E+01  .720E+01
  .720E+01  .720E+01  .720E+01  .720E+01  .720E+01  .720E+01  .720E+01  .720E+01
  .720E+01  .720E+01  .720E+01  .000E+00  .000E+00  .000E+00  .000E+00  .000E+00
  .000E+00  .000E+00  .000E+00  .000E+00
  .734E+01  .694E+01  .683E+01  .718E+01  .722E+01  .248E+02  .729E+01  .733E+01
  .728E+01  .661E+01  .683E+01  .752E+01  .714E+01  .690E+01  .691E+01  .713E+01
  .738E+01  .101E+02  .724E+01  .736E+01  .102E+02  .705E+01  .715E+01  .102E+02
  .843E+01  .930E+01  .149E+02  .864E+01  .799E+01  .876E+01  .110E+02  .725E+01
  .726E+01  .713E+01  .714E+01  .715E+01  .715E+01  .715E+01  .702E+01  .702E+01
  .702E+01  .703E+01  .703E+01  .726E+01  .726E+01  .726E+01  .726E+01  .726E+01
  .727E+01  .727E+01  .727E+01  .727E+01  .727E+01  .727E+01  .727E+01  .727E+01
  .727E+01  .727E+01  .714E+01  .714E+01  .714E+01  .714E+01  .714E+01  .714E+01
  .714E+01  .714E+01  .714E+01  .714E+01  .714E+01  .714E+01  .714E+01  .714E+01
  .714E+01  .714E+01  .714E+01  .714E+01  .714E+01  .714E+01  .714E+01  .714E+01
  .714E+01  .714E+01  .714E+01  .714E+01  .714E+01  .714E+01  .714E+01  .714E+01
  .714E+01  .714E+01  .714E+01  .000E+00  .000E+00  .000E+00  .000E+00  .000E+00
  .000E+00  .000E+00  .000E+00  .000E+00
  .732E+01  .696E+01  .696E+01  .720E+01  .709E+01  .709E+01  .730E+01  .732E+01
  .720E+01  .663E+01  .681E+01  .734E+01  .717E+01  .688E+01  .694E+01  .711E+01
  .740E+01  .978E+01  .721E+01  .732E+01  .968E+01  .709E+01  .719E+01  .101E+02
  .838E+01  .924E+01  .149E+02  .870E+01  .805E+01  .868E+01  .110E+02  .732E+01
  .719E+01  .720E+01  .721E+01  .708E+01  .709E+01  .709E+01  .709E+01  .709E+01
  .117E+02  .696E+01  .696E+01  .732E+01  .732E+01  .732E+01  .732E+01  .732E+01
  .732E+01  .696E+01  .696E+01  .720E+01  .720E+01  .720E+01  .720E+01  .720E+01
  .720E+01  .720E+01  .720E+01  .720E+01  .720E+01  .720E+01  .720E+01  .720E+01
  .720E+01  .720E+01  .720E+01  .720E+01  .720E+01  .720E+01  .720E+01  .720E+01
  .720E+01  .720E+01  .720E+01  .720E+01  .720E+01  .720E+01  .720E+01  .720E+01
  .720E+01  .720E+01  .720E+01  .720E+01  .720E+01  .720E+01  .720E+01  .720E+01
  .720E+01  .720E+01  .720E+01  .000E+00  .000E+00  .000E+00  .000E+00  .000E+00
  .000E+00  .000E+00  .000E+00  .000E+00
Damping =  .02. Data of Sd,Sv,Sa,Pssv,ttSd,ttSv,ttSa :
  .244E-02  .259E-02  .299E-02  .440E-02  .523E-02  .491E-02  .532E-02  .709E-02
  .115E-01  .136E-01  .174E-01  .278E-01  .318E-01  .331E-01  .325E-01  .300E-01
  .342E-01  .420E-01  .696E-01  .106E+00  .138E+00  .144E+00  .165E+00  .198E+00
  .264E+00  .288E+00  .287E+00  .293E+00  .289E+00  .279E+00  .260E+00  .241E+00
  .214E+00  .202E+00  .176E+00  .160E+00  .154E+00  .146E+00  .137E+00  .126E+00
  .114E+00  .949E-01  .910E-01  .910E-01  .902E-01  .860E-01  .816E-01  .782E-01
  .751E-01  .722E-01  .713E-01  .720E-01  .738E-01  .746E-01  .747E-01  .746E-01
  .745E-01  .742E-01  .736E-01  .728E-01  .720E-01  .709E-01  .702E-01  .693E-01
  .685E-01  .678E-01  .675E-01  .674E-01  .675E-01  .676E-01  .676E-01  .676E-01
  .675E-01  .673E-01  .672E-01  .670E-01  .667E-01  .666E-01  .665E-01  .666E-01
  .667E-01  .668E-01  .669E-01  .669E-01  .671E-01  .669E-01  .670E-01  .668E-01
  .668E-01  .669E-01  .670E-01  .000E+00  .000E+00  .000E+00  .000E+00  .000E+00
  .000E+00  .000E+00  .000E+00  .000E+00
  .163E+00  .162E+00  .252E+00  .319E+00  .345E+00  .273E+00  .321E+00  .448E+00
  .780E+00  .882E+00  .122E+01  .194E+01  .199E+01  .197E+01  .195E+01  .160E+01
  .161E+01  .181E+01  .285E+01  .421E+01  .537E+01  .536E+01  .561E+01  .629E+01
  .854E+01  .902E+01  .812E+01  .801E+01  .718E+01  .680E+01  .597E+01  .535E+01
  .489E+01  .424E+01  .393E+01  .355E+01  .319E+01  .286E+01  .255E+01  .241E+01
  .229E+01  .201E+01  .184E+01  .173E+01  .178E+01  .179E+01  .178E+01  .176E+01
  .175E+01  .174E+01  .172E+01  .169E+01  .166E+01  .163E+01  .161E+01  .160E+01
  .158E+01  .157E+01  .156E+01  .156E+01  .156E+01  .156E+01  .155E+01  .155E+01
  .155E+01  .155E+01  .154E+01  .154E+01  .154E+01  .154E+01  .154E+01  .154E+01
  .154E+01  .154E+01  .154E+01  .154E+01  .154E+01  .154E+01  .154E+01  .154E+01
  .154E+01  .154E+01  .154E+01  .154E+01  .154E+01  .154E+01  .154E+01  .154E+01
  .154E+01  .154E+01  .154E+01  .000E+00  .000E+00  .000E+00  .000E+00  .000E+00
  .000E+00  .000E+00  .000E+00  .000E+00
  .156E+00  .150E+00  .158E+00  .213E+00  .232E+00  .202E+00  .180E+00  .201E+00
  .278E+00  .282E+00  .316E+00  .445E+00  .452E+00  .417E+00  .370E+00  .307E+00
  .288E+00  .298E+00  .422E+00  .553E+00  .628E+00  .578E+00  .582E+00  .625E+00
  .749E+00  .739E+00  .608E+00  .521E+00  .438E+00  .365E+00  .295E+00  .240E+00
  .190E+00  .160E+00  .125E+00  .103E+00  .892E-01  .775E-01  .665E-01  .561E-01
  .469E-01  .322E-01  .259E-01  .221E-01  .189E-01  .157E-01  .132E-01  .112E-01
  .958E-02  .827E-02  .738E-02  .619E-02  .535E-02  .462E-02  .401E-02  .350E-02
  .308E-02  .273E-02  .243E-02  .217E-02  .195E-02  .160E-02  .135E-02  .115E-02
  .991E-03  .868E-03  .771E-03  .692E-03  .626E-03  .570E-03  .522E-03  .481E-03
  .445E-03  .413E-03  .384E-03  .359E-03  .307E-03  .268E-03  .237E-03  .213E-03
  .192E-03  .176E-03  .162E-03  .149E-03  .139E-03  .130E-03  .114E-03  .102E-03
  .925E-04  .844E-04  .777E-04  .000E+00  .000E+00  .000E+00  .000E+00  .000E+00
  .000E+00  .000E+00  .000E+00  .000E+00
  .383E+00  .388E+00  .427E+00  .601E+00  .684E+00  .617E+00  .608E+00  .742E+00
  .111E+01  .122E+01  .146E+01  .218E+01  .235E+01  .231E+01  .215E+01  .189E+01
  .195E+01  .220E+01  .337E+01  .474E+01  .578E+01  .567E+01  .608E+01  .692E+01
  .873E+01  .905E+01  .820E+01  .766E+01  .699E+01  .627E+01  .544E+01  .472E+01
  .396E+01  .353E+01  .291E+01  .252E+01  .230E+01  .209E+01  .188E+01  .165E+01
  .143E+01  .108E+01  .953E+00  .879E+00  .810E+00  .720E+00  .641E+00  .578E+00
  .524E+00  .477E+00  .448E+00  .411E+00  .386E+00  .360E+00  .335E+00  .313E+00
  .293E+00  .274E+00  .257E+00  .241E+00  .226E+00  .203E+00  .184E+00  .168E+00
  .154E+00  .142E+00  .132E+00  .125E+00  .118E+00  .112E+00  .106E+00  .101E+00
  .964E-01  .920E-01  .880E-01  .842E-01  .763E-01  .697E-01  .643E-01  .598E-01
  .558E-01  .525E-01  .495E-01  .467E-01  .443E-01  .421E-01  .382E-01  .350E-01
  .323E-01  .300E-01  .281E-01  .000E+00  .000E+00  .000E+00  .000E+00  .000E+00
  .000E+00  .000E+00  .000E+00  .000E+00
  .709E+01  .709E+01  .719E+01  .709E+01  .709E+01  .709E+01  .730E+01  .732E+01
  .720E+01  .732E+01  .732E+01  .711E+01  .687E+01  .688E+01  .688E+01  .711E+01
  .672E+01  .719E+01  .721E+01  .697E+01  .698E+01  .709E+01  .711E+01  .721E+01
  .743E+01  .745E+01  .747E+01  .750E+01  .740E+01  .742E+01  .730E+01  .732E+01
  .719E+01  .720E+01  .721E+01  .708E+01  .709E+01  .709E+01  .709E+01  .709E+01
  .709E+01  .696E+01  .696E+01  .732E+01  .732E+01  .732E+01  .732E+01  .732E+01
  .732E+01  .696E+01  .696E+01  .720E+01  .720E+01  .720E+01  .720E+01  .720E+01
  .720E+01  .720E+01  .720E+01  .720E+01  .720E+01  .720E+01  .720E+01  .720E+01
  .720E+01  .720E+01  .720E+01  .720E+01  .720E+01  .720E+01  .720E+01  .720E+01
  .720E+01  .720E+01  .720E+01  .720E+01  .720E+01  .720E+01  .720E+01  .720E+01
  .720E+01  .720E+01  .720E+01  .720E+01  .720E+01  .720E+01  .720E+01  .720E+01
  .720E+01  .720E+01  .720E+01  .000E+00  .000E+00  .000E+00  .000E+00  .000E+00
  .000E+00  .000E+00  .000E+00  .000E+00
  .683E+01  .683E+01  .683E+01  .707E+01  .708E+01  .711E+01  .677E+01  .678E+01
  .683E+01  .662E+01  .683E+01  .736E+01  .685E+01  .690E+01  .691E+01  .692E+01
  .674E+01  .715E+01  .725E+01  .693E+01  .702E+01  .704E+01  .715E+01  .726E+01
  .748E+01  .750E+01  .742E+01  .744E+01  .746E+01  .736E+01  .736E+01  .725E+01
  .726E+01  .713E+01  .714E+01  .714E+01  .715E+01  .715E+01  .715E+01  .702E+01
  .702E+01  .703E+01  .703E+01  .726E+01  .726E+01  .726E+01  .726E+01  .726E+01
  .726E+01  .726E+01  .727E+01  .727E+01  .727E+01  .727E+01  .727E+01  .727E+01
  .727E+01  .727E+01  .727E+01  .714E+01  .714E+01  .714E+01  .714E+01  .714E+01
  .714E+01  .714E+01  .714E+01  .714E+01  .714E+01  .714E+01  .714E+01  .714E+01
  .714E+01  .714E+01  .714E+01  .714E+01  .714E+01  .714E+01  .714E+01  .714E+01
  .714E+01  .714E+01  .714E+01  .714E+01  .714E+01  .714E+01  .714E+01  .714E+01
  .714E+01  .714E+01  .714E+01  .000E+00  .000E+00  .000E+00  .000E+00  .000E+00
  .000E+00  .000E+00  .000E+00  .000E+00
  .708E+01  .709E+01  .719E+01  .708E+01  .709E+01  .709E+01  .730E+01  .732E+01
  .720E+01  .732E+01  .732E+01  .722E+01  .687E+01  .688E+01  .688E+01  .711E+01
  .672E+01  .719E+01  .721E+01  .697E+01  .698E+01  .709E+01  .711E+01  .721E+01
  .743E+01  .745E+01  .747E+01  .750E+01  .740E+01  .741E+01  .730E+01  .732E+01
  .719E+01  .720E+01  .720E+01  .707E+01  .708E+01  .709E+01  .709E+01  .709E+01
  .709E+01  .695E+01  .696E+01  .731E+01  .731E+01  .732E+01  .732E+01  .732E+01
  .732E+01  .696E+01  .696E+01  .719E+01  .719E+01  .719E+01  .719E+01  .719E+01
  .719E+01  .719E+01  .719E+01  .719E+01  .719E+01  .719E+01  .719E+01  .719E+01
  .718E+01  .718E+01  .718E+01  .718E+01  .718E+01  .718E+01  .718E+01  .718E+01
  .718E+01  .718E+01  .718E+01  .718E+01  .718E+01  .717E+01  .717E+01  .717E+01
  .717E+01  .717E+01  .717E+01  .717E+01  .717E+01  .717E+01  .717E+01  .716E+01
  .716E+01  .716E+01  .716E+01  .000E+00  .000E+00  .000E+00  .000E+00  .000E+00
  .000E+00  .000E+00  .000E+00  .000E+00
Damping =  .05. Data of Sd,Sv,Sa,Pssv,ttSd,ttSv,ttSa :
  .237E-02  .265E-02  .306E-02  .379E-02  .437E-02  .451E-02  .504E-02  .677E-02
  .903E-02  .122E-01  .151E-01  .211E-01  .257E-01  .270E-01  .266E-01  .247E-01
  .300E-01  .345E-01  .541E-01  .831E-01  .106E+00  .117E+00  .130E+00  .157E+00
  .195E+00  .218E+00  .233E+00  .247E+00  .246E+00  .233E+00  .226E+00  .210E+00
  .191E+00  .180E+00  .160E+00  .147E+00  .143E+00  .137E+00  .129E+00  .120E+00
