Response and Fourier amplitude spectra (91 periods,  .04 - 15.0 sec)   for      
Corrected accelerogram   24207-M0150-01010.01       Chan  3:  Up         from   
Uncorrected Accelerogram Data             Processed: 03/04/11, CGS  207fa001    
Record of Sat Jan 13, 2001 18:26:11.0 PST             (Avol1 v8.9,05/09 CSMIP)  
CSMIP Preliminary Processing            (Origin:  To be determined)             
24207-M0150-01010.01                 Start time:  1/14/01, 02:26:11.0 UTC (GPS) 
Station No. 24207   34.334N, 118.396W    MtWtny  s/n  150 (17 Chns of 17 at Sta)
Sylmar - Pacoima Dam                      CGS                                   
Chan  3:  Up                        Location: Crest: Center                     
Record of Sat Jan 13, 2001 18:26:11.0 PST    Sat Jan 13, 2001 18:26:11.0 PST    
Hypocenter:  To be determined.               ML:  To be determined.
Instr Period =  .0101 sec,  Damping =  .650,  Sensitivity =  .63  v/g
                        Record length = 41.000 sec.
                                     Uncor Max  =  -.020 g , at   6.945 sec.
RMS accel of (uncor) record  =        .   Chn. metadata effective date: 09/02/99
Accelerogram bandpass filtered with 3 dB pts at   .50 and 40.00 cyc/sec
                 instrument- and baseline-corrected





Record of Sat Jan 13, 2001 18:26:11.0 PST    Sat Jan 13, 2001 18:26:11.0 PST

24207-M0150-01010.01      Sylmar - Pacoima Dam    Chan  3:  Up

24207-M0150-01010.01      Sylmar - Pacoima Dam    Chan  3:  Up

Units for spectra are inches and sec, except Sa is in fraction of g.

    3  100    3   18   17  200    1    3    1   24   13  150    024207    5    0
    2   26   11    0   14    1   14 2001   10    3  500 8200   41   20   76   -1
 8200    0  100    3  150    1    1  410    2    0    0    0    0    0    0    0
    0    4    0    0 8200    1  212    1   18    4    0    0    3    1    0 8200
    3 8200    1   91    5   17    5    0    0    0    0    0    0    3    1    2
    2    2    4    0   68   99    0    1    0    0    0    1    0    0    0  222
    1    0    2    0
      .010      .650    41.000      .002      .000   627.000     -.020     6.945
    99.300      .298      .475      .000     5.000      .000     4.000      .000
     2.500    30.528     2.500  2016.000     5.000    30.000      .000      .009
      .000     -.009     2.000    15.000    34.334  -118.396      .019      .058
     3.095     -.013     -.006   594.000     5.400     9.900    12.700   100.040
     1.000    -1.012      .000      .000      .000      .000      .000      .000
     7.200     8.900     5.800   980.665      .005    41.000    15.804      .000
      .000    40.000      .000    41.000      .005      .500      .000      .000
     6.935   -19.710     6.895      .561     6.930      .023      .000      .500
    40.000      .005      .005      .000      .005      .007      .000      .000
      .064      .220      .057      .028      .002      .000      .000      .000
      .000      .000      .000      .000      .000      .000      .000      .000
      .000      .000      .000      .000
      .000      .020      .050      .100      .200
      .040      .042      .044      .046      .048      .050      .055      .060
      .065      .070      .075      .080      .085      .090      .095      .100
      .110      .120      .130      .140      .150      .160      .170      .180
      .190      .200      .220      .240      .260      .280      .300      .320
      .340      .360      .380      .400      .420      .440      .460      .480
      .500      .550      .600      .650      .700      .750      .800      .850
      .900      .950     1.000     1.100     1.200     1.300     1.400     1.500
     1.600     1.700     1.800     1.900     2.000     2.200     2.400     2.600
     2.800     3.000     3.200     3.400     3.600     3.800     4.000     4.200
     4.400     4.600     4.800     5.000     5.500     6.000     6.500     7.000
     7.500     8.000     8.500     9.000     9.500    10.000    11.000    12.000
    13.000    14.000    15.000      .000      .000      .000      .000      .000
      .000      .000      .000      .000
Fourier amplitude spectra in in/sec.
  .444E+00  .137E+00  .199E+00  .167E+00  .251E+00  .327E+00  .627E-01  .244E+00
  .421E+00  .710E+00  .720E+00  .727E+00  .188E+00  .206E+00  .476E+00  .419E+00
  .252E+00  .355E+00  .272E+00  .114E+01  .916E+00  .775E+00  .148E+01  .604E+00
  .129E+01  .122E+01  .121E+01  .130E+01  .703E+00  .859E+00  .785E+00  .277E+00
  .167E+00  .276E+00  .289E+00  .360E+00  .477E+00  .355E+00  .407E+00  .485E+00
  .279E+00  .447E+00  .392E+00  .398E-01  .174E+00  .392E+00  .405E+00  .201E+00
  .105E+00  .274E+00  .273E+00  .356E-01  .341E-01  .130E+00  .746E-01  .904E-01
  .528E-01  .255E-01  .371E-01  .287E-01  .274E-01  .351E-01  .182E-01  .895E-02
  .166E-02  .389E-02  .293E-02  .341E-02  .304E-02  .195E-02  .170E-02  .135E-02
  .966E-03  .878E-03  .753E-03  .545E-03  .224E-03  .248E-03  .135E-03  .130E-03
  .152E-03  .826E-04  .629E-04  .104E-03  .999E-04  .614E-04  .436E-04  .762E-04
  .520E-04  .633E-05  .342E-04  .000E+00  .000E+00  .000E+00  .000E+00  .000E+00
  .000E+00  .000E+00  .000E+00  .000E+00
Damping =  .00. Data of Sd,Sv,Sa,Pssv,ttSd,ttSv,ttSa :
  .296E-02  .117E-02  .193E-02  .155E-02  .277E-02  .259E-02  .159E-02  .314E-02
  .486E-02  .838E-02  .973E-02  .123E-01  .523E-02  .506E-02  .797E-02  .964E-02
  .142E-01  .162E-01  .149E-01  .285E-01  .285E-01  .212E-01  .426E-01  .318E-01
  .447E-01  .486E-01  .515E-01  .566E-01  .435E-01  .410E-01  .382E-01  .280E-01
  .273E-01  .276E-01  .265E-01  .326E-01  .322E-01  .309E-01  .318E-01  .381E-01
  .266E-01  .429E-01  .375E-01  .259E-01  .263E-01  .472E-01  .530E-01  .389E-01
  .369E-01  .437E-01  .444E-01  .210E-01  .185E-01  .275E-01  .262E-01  .219E-01
  .182E-01  .168E-01  .169E-01  .165E-01  .161E-01  .139E-01  .115E-01  .110E-01
  .105E-01  .102E-01  .994E-02  .978E-02  .977E-02  .976E-02  .972E-02  .968E-02
  .962E-02  .956E-02  .950E-02  .944E-02  .933E-02  .926E-02  .922E-02  .921E-02
  .920E-02  .920E-02  .920E-02  .919E-02  .919E-02  .919E-02  .917E-02  .915E-02
  .912E-02  .910E-02  .908E-02  .000E+00  .000E+00  .000E+00  .000E+00  .000E+00
  .000E+00  .000E+00  .000E+00  .000E+00
  .452E+00  .152E+00  .243E+00  .179E+00  .330E+00  .327E+00  .168E+00  .329E+00
  .443E+00  .749E+00  .795E+00  .922E+00  .365E+00  .332E+00  .498E+00  .565E+00
  .758E+00  .826E+00  .680E+00  .129E+01  .117E+01  .818E+00  .157E+01  .109E+01
  .146E+01  .151E+01  .152E+01  .150E+01  .103E+01  .938E+00  .803E+00  .626E+00
  .615E+00  .555E+00  .505E+00  .513E+00  .488E+00  .455E+00  .429E+00  .499E+00
  .374E+00  .489E+00  .405E+00  .349E+00  .351E+00  .397E+00  .426E+00  .319E+00
  .310E+00  .301E+00  .280E+00  .244E+00  .223E+00  .223E+00  .216E+00  .221E+00
  .225E+00  .225E+00  .224E+00  .222E+00  .220E+00  .217E+00  .213E+00  .212E+00
  .214E+00  .215E+00  .216E+00  .217E+00  .217E+00  .218E+00  .218E+00  .218E+00
  .219E+00  .219E+00  .219E+00  .219E+00  .219E+00  .219E+00  .219E+00  .219E+00
  .219E+00  .219E+00  .219E+00  .220E+00  .219E+00  .219E+00  .220E+00  .220E+00
  .220E+00  .220E+00  .220E+00  .000E+00  .000E+00  .000E+00  .000E+00  .000E+00
  .000E+00  .000E+00  .000E+00  .000E+00
  .189E+00  .678E-01  .102E+00  .748E-01  .123E+00  .106E+00  .539E-01  .892E-01
  .118E+00  .175E+00  .177E+00  .196E+00  .740E-01  .639E-01  .904E-01  .986E-01
  .120E+00  .115E+00  .904E-01  .149E+00  .130E+00  .845E-01  .151E+00  .101E+00
  .127E+00  .124E+00  .109E+00  .101E+00  .658E-01  .535E-01  .434E-01  .280E-01
  .242E-01  .218E-01  .188E-01  .209E-01  .187E-01  .163E-01  .154E-01  .169E-01
  .109E-01  .145E-01  .107E-01  .626E-02  .550E-02  .859E-02  .847E-02  .551E-02
  .466E-02  .495E-02  .454E-02  .178E-02  .131E-02  .166E-02  .137E-02  .994E-03
  .726E-03  .595E-03  .533E-03  .468E-03  .410E-03  .294E-03  .205E-03  .166E-03
  .137E-03  .116E-03  .993E-04  .865E-04  .771E-04  .691E-04  .622E-04  .561E-04
  .508E-04  .462E-04  .422E-04  .386E-04  .316E-04  .263E-04  .223E-04  .192E-04
  .167E-04  .147E-04  .130E-04  .116E-04  .104E-04  .940E-05  .775E-05  .650E-05
  .552E-05  .475E-05  .413E-05  .000E+00  .000E+00  .000E+00  .000E+00  .000E+00
  .000E+00  .000E+00  .000E+00  .000E+00
  .464E+00  .175E+00  .276E+00  .211E+00  .363E+00  .325E+00  .182E+00  .329E+00
  .470E+00  .753E+00  .815E+00  .963E+00  .387E+00  .353E+00  .527E+00  .606E+00
  .809E+00  .848E+00  .722E+00  .128E+01  .119E+01  .831E+00  .157E+01  .111E+01
  .148E+01  .153E+01  .147E+01  .148E+01  .105E+01  .920E+00  .800E+00  .550E+00
  .505E+00  .482E+00  .438E+00  .512E+00  .482E+00  .441E+00  .434E+00  .499E+00
  .334E+00  .490E+00  .393E+00  .250E+00  .236E+00  .396E+00  .416E+00  .288E+00
  .258E+00  .289E+00  .279E+00  .120E+00  .967E-01  .133E+00  .118E+00  .916E-01
  .714E-01  .621E-01  .589E-01  .547E-01  .504E-01  .398E-01  .302E-01  .265E-01
  .236E-01  .213E-01  .195E-01  .181E-01  .171E-01  .161E-01  .153E-01  .145E-01
  .137E-01  .131E-01  .124E-01  .119E-01  .107E-01  .970E-02  .892E-02  .827E-02
  .771E-02  .722E-02  .680E-02  .642E-02  .608E-02  .577E-02  .524E-02  .479E-02
  .441E-02  .408E-02  .380E-02  .000E+00  .000E+00  .000E+00  .000E+00  .000E+00
  .000E+00  .000E+00  .000E+00  .000E+00
  .791E+01  .695E+01  .708E+01  .691E+01  .729E+01  .281E+02  .538E+01  .569E+01
  .729E+01  .839E+01  .890E+01  .694E+01  .722E+01  .661E+01  .797E+01  .737E+01
  .684E+01  .746E+01  .720E+01  .809E+01  .763E+01  .774E+01  .981E+01  .705E+01
  .835E+01  .880E+01  .755E+01  .868E+01  .791E+01  .868E+01  .209E+02  .730E+01
  .718E+01  .719E+01  .820E+01  .824E+01  .345E+02  .901E+01  .109E+02  .259E+02
  .104E+02  .105E+02  .357E+02  .877E+01  .142E+02  .268E+02  .124E+02  .978E+01
  .949E+01  .149E+02  .277E+02  .797E+01  .113E+02  .356E+02  .105E+02  .288E+02
  .868E+01  .815E+01  .815E+01  .828E+01  .828E+01  .830E+01  .830E+01  .653E+01
  .653E+01  .653E+01  .653E+01  .692E+01  .692E+01  .692E+01  .692E+01  .692E+01
  .692E+01  .692E+01  .692E+01  .692E+01  .692E+01  .692E+01  .692E+01  .692E+01
  .692E+01  .692E+01  .692E+01  .692E+01  .692E+01  .692E+01  .692E+01  .692E+01
  .692E+01  .692E+01  .692E+01  .000E+00  .000E+00  .000E+00  .000E+00  .000E+00
  .000E+00  .000E+00  .000E+00  .000E+00
  .864E+01  .696E+01  .718E+01  .113E+02  .727E+01  .276E+02  .536E+01  .571E+01
  .108E+02  .128E+02  .889E+01  .696E+01  .724E+01  .663E+01  .794E+01  .734E+01
  .687E+01  .779E+01  .723E+01  .805E+01  .767E+01  .915E+01  .968E+01  .700E+01
  .830E+01  .885E+01  .750E+01  .874E+01  .786E+01  .874E+01  .219E+02  .724E+01
  .725E+01  .726E+01  .713E+01  .815E+01  .818E+01  .936E+01  .966E+01  .258E+02
  .697E+01  .104E+02  .885E+01  .688E+01  .688E+01  .270E+02  .118E+02  .957E+01
  .841E+01  .842E+01  .264E+02  .689E+01  .689E+01  .734E+01  .734E+01  .697E+01
  .697E+01  .697E+01  .697E+01  .697E+01  .697E+01  .697E+01  .697E+01  .689E+01
  .689E+01  .689E+01  .689E+01  .689E+01  .689E+01  .689E+01  .689E+01  .689E+01
  .689E+01  .689E+01  .689E+01  .689E+01  .689E+01  .689E+01  .689E+01  .689E+01
  .689E+01  .689E+01  .689E+01  .689E+01  .689E+01  .689E+01  .689E+01  .689E+01
  .689E+01  .689E+01  .689E+01  .000E+00  .000E+00  .000E+00  .000E+00  .000E+00
  .000E+00  .000E+00  .000E+00  .000E+00
  .791E+01  .695E+01  .708E+01  .691E+01  .729E+01  .281E+02  .538E+01  .569E+01
  .729E+01  .839E+01  .890E+01  .694E+01  .722E+01  .661E+01  .797E+01  .737E+01
  .684E+01  .746E+01  .720E+01  .809E+01  .763E+01  .774E+01  .981E+01  .705E+01
  .835E+01  .880E+01  .755E+01  .868E+01  .791E+01  .868E+01  .209E+02  .730E+01
  .718E+01  .719E+01  .820E+01  .824E+01  .345E+02  .901E+01  .109E+02  .259E+02
  .104E+02  .105E+02  .357E+02  .877E+01  .142E+02  .268E+02  .124E+02  .978E+01
  .949E+01  .149E+02  .277E+02  .797E+01  .113E+02  .356E+02  .105E+02  .288E+02
  .868E+01  .815E+01  .815E+01  .828E+01  .828E+01  .830E+01  .830E+01  .653E+01
  .653E+01  .653E+01  .653E+01  .692E+01  .692E+01  .692E+01  .692E+01  .692E+01
  .692E+01  .692E+01  .692E+01  .692E+01  .692E+01  .692E+01  .692E+01  .692E+01
  .692E+01  .692E+01  .692E+01  .692E+01  .692E+01  .692E+01  .692E+01  .692E+01
  .692E+01  .692E+01  .692E+01  .000E+00  .000E+00  .000E+00  .000E+00  .000E+00
  .000E+00  .000E+00  .000E+00  .000E+00
Damping =  .02. Data of Sd,Sv,Sa,Pssv,ttSd,ttSv,ttSa :
  .907E-03  .900E-03  .973E-03  .103E-02  .125E-02  .109E-02  .125E-02  .185E-02
  .244E-02  .333E-02  .365E-02  .504E-02  .425E-02  .587E-02  .670E-02  .695E-02
  .900E-02  .955E-02  .132E-01  .163E-01  .188E-01  .177E-01  .257E-01  .239E-01
  .253E-01  .297E-01  .410E-01  .405E-01  .324E-01  .292E-01  .287E-01  .257E-01
  .252E-01  .253E-01  .241E-01  .248E-01  .229E-01  .224E-01  .224E-01  .214E-01
  .215E-01  .291E-01  .265E-01  .234E-01  .202E-01  .332E-01  .342E-01  .307E-01
  .288E-01  .267E-01  .268E-01  .185E-01  .163E-01  .215E-01  .213E-01  .180E-01
  .172E-01  .161E-01  .159E-01  .154E-01  .152E-01  .135E-01  .114E-01  .109E-01
  .105E-01  .102E-01  .994E-02  .976E-02  .966E-02  .965E-02  .963E-02  .959E-02
  .954E-02  .949E-02  .944E-02  .940E-02  .930E-02  .924E-02  .920E-02  .919E-02
  .918E-02  .918E-02  .919E-02  .917E-02  .918E-02  .916E-02  .914E-02  .910E-02
  .910E-02  .910E-02  .911E-02  .000E+00  .000E+00  .000E+00  .000E+00  .000E+00
  .000E+00  .000E+00  .000E+00  .000E+00
  .135E+00  .101E+00  .966E-01  .958E-01  .125E+00  .915E-01  .129E+00  .189E+00
  .212E+00  .255E+00  .254E+00  .338E+00  .262E+00  .368E+00  .421E+00  .408E+00
  .455E+00  .477E+00  .586E+00  .688E+00  .773E+00  .657E+00  .920E+00  .844E+00
  .859E+00  .944E+00  .119E+01  .111E+01  .871E+00  .751E+00  .631E+00  .587E+00
  .563E+00  .511E+00  .472E+00  .441E+00  .405E+00  .382E+00  .367E+00  .363E+00
  .362E+00  .332E+00  .336E+00  .338E+00  .341E+00  .337E+00  .326E+00  .312E+00
  .297E+00  .283E+00  .269E+00  .245E+00  .225E+00  .217E+00  .211E+00  .218E+00
  .222E+00  .223E+00  .222E+00  .221E+00  .219E+00  .216E+00  .213E+00  .212E+00
  .214E+00  .215E+00  .216E+00  .216E+00  .217E+00  .217E+00  .218E+00  .218E+00
  .218E+00  .219E+00  .219E+00  .219E+00  .219E+00  .219E+00  .219E+00  .219E+00
  .219E+00  .219E+00  .219E+00  .219E+00  .219E+00  .219E+00  .220E+00  .220E+00
  .220E+00  .220E+00  .219E+00  .000E+00  .000E+00  .000E+00  .000E+00  .000E+00
  .000E+00  .000E+00  .000E+00  .000E+00
  .581E-01  .524E-01  .515E-01  .502E-01  .553E-01  .445E-01  .425E-01  .527E-01
  .587E-01  .699E-01  .664E-01  .804E-01  .600E-01  .743E-01  .763E-01  .711E-01
  .760E-01  .678E-01  .800E-01  .851E-01  .852E-01  .707E-01  .911E-01  .754E-01
  .716E-01  .761E-01  .867E-01  .719E-01  .492E-01  .381E-01  .327E-01  .258E-01
  .223E-01  .200E-01  .171E-01  .159E-01  .133E-01  .119E-01  .108E-01  .952E-02
  .880E-02  .983E-02  .753E-02  .566E-02  .422E-02  .605E-02  .548E-02  .436E-02
  .364E-02  .303E-02  .275E-02  .157E-02  .116E-02  .130E-02  .111E-02  .834E-03
  .702E-03  .582E-03  .506E-03  .440E-03  .390E-03  .287E-03  .208E-03  .171E-03
  .143E-03  .123E-03  .110E-03  .995E-04  .904E-04  .824E-04  .755E-04  .694E-04
  .640E-04  .594E-04  .554E-04  .518E-04  .445E-04  .389E-04  .344E-04  .310E-04
  .282E-04  .258E-04  .238E-04  .220E-04  .206E-04  .192E-04  .170E-04  .152E-04
  .137E-04  .125E-04  .116E-04  .000E+00  .000E+00  .000E+00  .000E+00  .000E+00
  .000E+00  .000E+00  .000E+00  .000E+00
  .143E+00  .135E+00  .139E+00  .141E+00  .164E+00  .137E+00  .143E+00  .194E+00
  .236E+00  .299E+00  .306E+00  .396E+00  .314E+00  .410E+00  .443E+00  .437E+00
  .514E+00  .500E+00  .636E+00  .733E+00  .787E+00  .695E+00  .949E+00  .834E+00
  .836E+00  .934E+00  .117E+01  .106E+01  .784E+00  .655E+00  .602E+00  .505E+00
  .466E+00  .442E+00  .398E+00  .390E+00  .342E+00  .320E+00  .306E+00  .280E+00
  .270E+00  .332E+00  .278E+00  .226E+00  .181E+00  .278E+00  .269E+00  .227E+00
  .201E+00  .177E+00  .169E+00  .105E+00  .851E-01  .104E+00  .956E-01  .756E-01
  .676E-01  .593E-01  .554E-01  .511E-01  .476E-01  .385E-01  .299E-01  .264E-01
  .236E-01  .213E-01  .195E-01  .180E-01  .169E-01  .160E-01  .151E-01  .143E-01
  .136E-01  .130E-01  .124E-01  .118E-01  .106E-01  .967E-02  .890E-02  .825E-02
  .769E-02  .721E-02  .679E-02  .640E-02  .607E-02  .575E-02  .522E-02  .477E-02
  .440E-02  .408E-02  .382E-02  .000E+00  .000E+00  .000E+00  .000E+00  .000E+00
  .000E+00  .000E+00  .000E+00  .000E+00
  .534E+01  .691E+01  .692E+01  .692E+01  .692E+01  .692E+01  .538E+01  .542E+01
  .675E+01  .730E+01  .692E+01  .694E+01  .694E+01  .709E+01  .711E+01  .737E+01
  .684E+01  .692E+01  .720E+01  .730E+01  .756E+01  .774E+01  .803E+01  .705E+01
  .816E+01  .790E+01  .744E+01  .737E+01  .791E+01  .782E+01  .729E+01  .730E+01
  .718E+01  .719E+01  .719E+01  .824E+01  .828E+01  .857E+01  .931E+01  .101E+02
  .102E+02  .103E+02  .870E+01  .876E+01  .877E+01  .118E+02  .116E+02  .849E+01
  .949E+01  .952E+01  .117E+02  .797E+01  .109E+02  .109E+02  .105E+02  .708E+01
  .708E+01  .708E+01  .815E+01  .827E+01  .828E+01  .829E+01  .830E+01  .653E+01
  .653E+01  .653E+01  .653E+01  .653E+01  .692E+01  .692E+01  .692E+01  .692E+01
  .692E+01  .692E+01  .692E+01  .692E+01  .692E+01  .692E+01  .692E+01  .692E+01
  .692E+01  .692E+01  .692E+01  .692E+01  .692E+01  .692E+01  .692E+01  .692E+01
  .692E+01  .692E+01  .692E+01  .000E+00  .000E+00  .000E+00  .000E+00  .000E+00
  .000E+00  .000E+00  .000E+00  .000E+00
  .534E+01  .522E+01  .691E+01  .691E+01  .727E+01  .536E+01  .536E+01  .547E+01
  .673E+01  .732E+01  .520E+01  .696E+01  .696E+01  .712E+01  .713E+01  .734E+01
  .687E+01  .714E+01  .723E+01  .706E+01  .752E+01  .770E+01  .798E+01  .701E+01
  .801E+01  .795E+01  .750E+01  .742E+01  .733E+01  .734E+01  .723E+01  .724E+01
  .725E+01  .726E+01  .713E+01  .713E+01  .697E+01  .697E+01  .697E+01  .697E+01
  .697E+01  .957E+01  .885E+01  .688E+01  .688E+01  .688E+01  .688E+01  .689E+01
  .689E+01  .689E+01  .689E+01  .689E+01  .689E+01  .734E+01  .734E+01  .697E+01
  .697E+01  .697E+01  .697E+01  .697E+01  .697E+01  .697E+01  .697E+01  .689E+01
  .689E+01  .689E+01  .689E+01  .689E+01  .689E+01  .689E+01  .689E+01  .689E+01
  .689E+01  .689E+01  .689E+01  .689E+01  .689E+01  .689E+01  .689E+01  .689E+01
  .689E+01  .689E+01  .689E+01  .689E+01  .689E+01  .689E+01  .689E+01  .689E+01
  .689E+01  .689E+01  .689E+01  .000E+00  .000E+00  .000E+00  .000E+00  .000E+00
  .000E+00  .000E+00  .000E+00  .000E+00
  .534E+01  .691E+01  .692E+01  .692E+01  .692E+01  .692E+01  .538E+01  .542E+01
  .675E+01  .730E+01  .692E+01  .694E+01  .694E+01  .709E+01  .711E+01  .737E+01
  .684E+01  .692E+01  .720E+01  .730E+01  .756E+01  .774E+01  .802E+01  .705E+01
  .826E+01  .790E+01  .744E+01  .736E+01  .791E+01  .782E+01  .729E+01  .730E+01
  .718E+01  .718E+01  .719E+01  .823E+01  .828E+01  .856E+01  .930E+01  .101E+02
  .102E+02  .103E+02  .870E+01  .876E+01  .877E+01  .118E+02  .116E+02  .848E+01
  .948E+01  .952E+01  .117E+02  .796E+01  .109E+02  .109E+02  .105E+02  .707E+01
  .707E+01  .707E+01  .814E+01  .826E+01  .827E+01  .827E+01  .651E+01  .651E+01
  .651E+01  .691E+01  .690E+01  .690E+01  .690E+01  .690E+01  .690E+01  .690E+01
  .690E+01  .690E+01  .690E+01  .690E+01  .690E+01  .690E+01  .690E+01  .689E+01
  .689E+01  .689E+01  .689E+01  .689E+01  .689E+01  .689E+01  .689E+01  .689E+01
  .689E+01  .689E+01  .689E+01  .000E+00  .000E+00  .000E+00  .000E+00  .000E+00
  .000E+00  .000E+00  .000E+00  .000E+00
Damping =  .05. Data of Sd,Sv,Sa,Pssv,ttSd,ttSv,ttSa :
  .661E-03  .773E-03  .845E-03  .910E-03  .970E-03  .921E-03  .945E-03  .118E-02
  .159E-02  .212E-02  .284E-02  .350E-02  .361E-02  .451E-02  .524E-02  .545E-02
  .688E-02  .741E-02  .978E-02  .119E-01  .130E-01  .129E-01  .158E-01  .178E-01
  .196E-01  .203E-01  .300E-01  .317E-01  .270E-01  .257E-01  .249E-01  .226E-01
  .226E-01  .224E-01  .213E-01  .192E-01  .177E-01  .172E-01  .168E-01  .166E-01
