Response and Fourier amplitude spectra (91 periods,  .04 - 15.0 sec)   for      
Corrected accelerogram   24207-M0150-01010.01       Chan 15: 270 Deg     from   
Uncorrected Accelerogram Data             Processed: 03/04/11, CGS  207fa001    
Record of Sat Jan 13, 2001 18:26:11.0 PST             (Avol1 v8.9,05/09 CSMIP)  
CSMIP Preliminary Processing            (Origin:  To be determined)             
24207-M0150-01010.01                 Start time:  1/14/01, 02:26:11.0 UTC (GPS) 
Station No. 24207   34.334N, 118.396W    MtWtny  s/n  150 (17 Chns of 17 at Sta)
Sylmar - Pacoima Dam                      CGS                                   
Chan 15: 270 DegR                   Location: Left (South) Abutment             
Record of Sat Jan 13, 2001 18:26:11.0 PST    Sat Jan 13, 2001 18:26:11.0 PST    
Hypocenter:  To be determined.               ML:  To be determined.
Instr Period =  .0104 sec,  Damping =  .660,  Sensitivity =  .63  v/g
                        Record length = 41.000 sec.
                                     Uncor Max  =   .044 g , at   6.925 sec.
RMS accel of (uncor) record  =        .   Chn. metadata effective date: 09/02/99
Accelerogram bandpass filtered with 3 dB pts at   .50 and 40.00 cyc/sec
                 instrument- and baseline-corrected





Record of Sat Jan 13, 2001 18:26:11.0 PST    Sat Jan 13, 2001 18:26:11.0 PST

24207-M0150-01010.01      Sylmar - Pacoima Dam    Chan 15: 270 Deg

24207-M0150-01010.01      Sylmar - Pacoima Dam    Chan 15: 270 Deg

Units for spectra are inches and sec, except Sa is in fraction of g.

   15  100   15   18   17  200    1    3    1   24   13  150    024207    5    0
    2   26   11    0   14    1   14 2001   10    3  270 8200   41   20   76   -1
 8200    0  100    3  150    1    1  410    2    0    0    0    0    0    0    0
    0    4    0    0 8200    1  212    1   18    4    0    0    3    1    0 8200
    3 8200    1   91    5   17    5    0    0    0    0    0    0    3    1    2
    2    2    4    0   68   99    0    1    0    0    0    1    0    0    0  222
    1    0    2    0
      .010      .660    41.000      .003      .000   627.000      .044     6.925
    95.900      .298      .475      .000     5.000      .000     4.000      .000
     2.500    13.405     2.500  2016.000     5.000    30.000      .000      .000
      .000      .000     2.000    15.000    34.334  -118.396      .006      .080
    14.408     -.004      .004   594.000     5.400     9.900    12.700   100.040
     1.000     1.004      .000      .000      .000      .000      .000      .000
     7.200     8.900     5.800   980.665      .005    41.000    15.263      .000
      .000    40.000      .000    41.000      .005      .500      .000      .000
     6.920    42.894     6.835     -.935     6.760      .058      .000      .500
    40.000      .005      .005      .000      .005      .010      .000      .000
      .196      .070      .059      .065      .004      .000      .000      .000
      .000      .000      .000      .000      .000      .000      .000      .000
      .000      .000      .000      .000
      .000      .020      .050      .100      .200
      .040      .042      .044      .046      .048      .050      .055      .060
      .065      .070      .075      .080      .085      .090      .095      .100
      .110      .120      .130      .140      .150      .160      .170      .180
      .190      .200      .220      .240      .260      .280      .300      .320
      .340      .360      .380      .400      .420      .440      .460      .480
      .500      .550      .600      .650      .700      .750      .800      .850
      .900      .950     1.000     1.100     1.200     1.300     1.400     1.500
     1.600     1.700     1.800     1.900     2.000     2.200     2.400     2.600
     2.800     3.000     3.200     3.400     3.600     3.800     4.000     4.200
     4.400     4.600     4.800     5.000     5.500     6.000     6.500     7.000
     7.500     8.000     8.500     9.000     9.500    10.000    11.000    12.000
    13.000    14.000    15.000      .000      .000      .000      .000      .000
      .000      .000      .000      .000
Fourier amplitude spectra in in/sec.
  .367E+00  .290E+00  .692E+00  .388E+00  .379E+00  .746E+00  .308E+00  .901E+00
  .210E+01  .363E+01  .215E+01  .314E+01  .139E+01  .324E+00  .417E+00  .163E+00
  .238E+00  .236E+00  .268E+00  .864E+00  .791E+00  .753E+00  .145E+01  .679E+00
  .123E+01  .174E+01  .499E+00  .320E+00  .104E+01  .174E+01  .256E+01  .128E+01
  .132E+01  .138E+01  .529E+00  .876E+00  .499E+00  .550E+00  .681E+00  .661E+00
  .106E+01  .307E+00  .551E+00  .871E-01  .369E+00  .221E+00  .403E+00  .413E+00
  .130E+00  .168E+00  .340E+00  .433E+00  .183E+00  .117E+00  .382E-01  .424E-01
  .383E-01  .685E-01  .559E-01  .301E-01  .301E-01  .129E-01  .100E-01  .109E-01
  .117E-01  .841E-02  .425E-02  .268E-02  .174E-02  .779E-03  .777E-03  .604E-03
  .365E-03  .304E-03  .251E-03  .131E-03  .115E-03  .638E-04  .330E-04  .323E-04
  .208E-04  .161E-04  .156E-04  .180E-04  .161E-04  .101E-04  .892E-05  .129E-04
  .949E-05  .815E-05  .117E-04  .000E+00  .000E+00  .000E+00  .000E+00  .000E+00
  .000E+00  .000E+00  .000E+00  .000E+00
Damping =  .00. Data of Sd,Sv,Sa,Pssv,ttSd,ttSv,ttSa :
  .323E-02  .294E-02  .584E-02  .359E-02  .290E-02  .676E-02  .611E-02  .109E-01
  .270E-01  .452E-01  .268E-01  .435E-01  .194E-01  .127E-01  .729E-02  .747E-02
  .813E-02  .558E-02  .847E-02  .205E-01  .198E-01  .241E-01  .406E-01  .282E-01
  .436E-01  .614E-01  .347E-01  .362E-01  .513E-01  .940E-01  .136E+00  .103E+00
  .961E-01  .910E-01  .717E-01  .659E-01  .605E-01  .587E-01  .566E-01  .694E-01
  .909E-01  .540E-01  .563E-01  .442E-01  .421E-01  .378E-01  .546E-01  .562E-01
  .403E-01  .473E-01  .560E-01  .818E-01  .541E-01  .379E-01  .263E-01  .264E-01
  .266E-01  .267E-01  .268E-01  .268E-01  .268E-01  .266E-01  .263E-01  .259E-01
  .255E-01  .251E-01  .248E-01  .245E-01  .242E-01  .240E-01  .238E-01  .237E-01
  .236E-01  .235E-01  .234E-01  .233E-01  .232E-01  .231E-01  .231E-01  .230E-01
  .230E-01  .230E-01  .229E-01  .229E-01  .229E-01  .229E-01  .229E-01  .229E-01
  .228E-01  .228E-01  .228E-01  .000E+00  .000E+00  .000E+00  .000E+00  .000E+00
  .000E+00  .000E+00  .000E+00  .000E+00
  .468E+00  .406E+00  .764E+00  .469E+00  .380E+00  .787E+00  .622E+00  .107E+01
  .253E+01  .403E+01  .226E+01  .341E+01  .148E+01  .876E+00  .495E+00  .539E+00
  .533E+00  .374E+00  .478E+00  .915E+00  .830E+00  .963E+00  .151E+01  .962E+00
  .142E+01  .191E+01  .100E+01  .102E+01  .123E+01  .210E+01  .284E+01  .205E+01
  .176E+01  .164E+01  .130E+01  .111E+01  .112E+01  .111E+01  .108E+01  .101E+01
  .114E+01  .748E+00  .651E+00  .644E+00  .597E+00  .560E+00  .532E+00  .512E+00
  .499E+00  .489E+00  .480E+00  .471E+00  .448E+00  .435E+00  .426E+00  .418E+00
  .412E+00  .406E+00  .401E+00  .396E+00  .392E+00  .386E+00  .381E+00  .378E+00
  .375E+00  .373E+00  .372E+00  .371E+00  .371E+00  .370E+00  .370E+00  .369E+00
  .369E+00  .369E+00  .369E+00  .368E+00  .368E+00  .368E+00  .368E+00  .367E+00
  .367E+00  .367E+00  .367E+00  .367E+00  .367E+00  .367E+00  .367E+00  .367E+00
  .367E+00  .367E+00  .367E+00  .000E+00  .000E+00  .000E+00  .000E+00  .000E+00
  .000E+00  .000E+00  .000E+00  .000E+00
  .206E+00  .170E+00  .309E+00  .173E+00  .129E+00  .277E+00  .207E+00  .308E+00
  .655E+00  .944E+00  .487E+00  .695E+00  .275E+00  .160E+00  .826E-01  .764E-01
  .687E-01  .397E-01  .513E-01  .107E+00  .902E-01  .963E-01  .144E+00  .890E-01
  .124E+00  .157E+00  .734E-01  .643E-01  .777E-01  .123E+00  .155E+00  .103E+00
  .850E-01  .718E-01  .508E-01  .421E-01  .351E-01  .310E-01  .273E-01  .308E-01
  .372E-01  .183E-01  .160E-01  .107E-01  .878E-02  .687E-02  .873E-02  .795E-02
  .508E-02  .536E-02  .572E-02  .692E-02  .385E-02  .230E-02  .137E-02  .120E-02
  .106E-02  .947E-03  .847E-03  .760E-03  .685E-03  .561E-03  .467E-03  .392E-03
  .333E-03  .286E-03  .247E-03  .216E-03  .191E-03  .170E-03  .152E-03  .137E-03
  .124E-03  .113E-03  .104E-03  .955E-04  .785E-04  .658E-04  .559E-04  .481E-04
  .418E-04  .367E-04  .325E-04  .289E-04  .260E-04  .234E-04  .193E-04  .162E-04
  .138E-04  .119E-04  .104E-04  .000E+00  .000E+00  .000E+00  .000E+00  .000E+00
  .000E+00  .000E+00  .000E+00  .000E+00
  .507E+00  .440E+00  .834E+00  .490E+00  .380E+00  .850E+00  .699E+00  .114E+01
  .261E+01  .406E+01  .224E+01  .341E+01  .144E+01  .884E+00  .482E+00  .469E+00
  .464E+00  .292E+00  .409E+00  .921E+00  .831E+00  .946E+00  .150E+01  .985E+00
  .144E+01  .193E+01  .992E+00  .948E+00  .124E+01  .211E+01  .285E+01  .203E+01
  .178E+01  .159E+01  .119E+01  .103E+01  .905E+00  .839E+00  .773E+00  .909E+00
  .114E+01  .617E+00  .589E+00  .427E+00  .378E+00  .317E+00  .429E+00  .415E+00
  .281E+00  .313E+00  .352E+00  .467E+00  .283E+00  .183E+00  .118E+00  .111E+00
  .104E+00  .989E-01  .936E-01  .887E-01  .841E-01  .759E-01  .688E-01  .627E-01
  .573E-01  .527E-01  .487E-01  .452E-01  .422E-01  .396E-01  .374E-01  .354E-01
  .336E-01  .321E-01  .306E-01  .293E-01  .265E-01  .242E-01  .223E-01  .207E-01
  .193E-01  .180E-01  .170E-01  .160E-01  .152E-01  .144E-01  .131E-01  .120E-01
  .110E-01  .102E-01  .956E-02  .000E+00  .000E+00  .000E+00  .000E+00  .000E+00
  .000E+00  .000E+00  .000E+00  .000E+00
  .698E+01  .725E+01  .725E+01  .726E+01  .384E+02  .736E+01  .702E+01  .725E+01
  .736E+01  .749E+01  .814E+01  .965E+01  .694E+01  .695E+01  .130E+02  .694E+01
  .694E+01  .722E+01  .694E+01  .106E+02  .100E+02  .736E+01  .979E+01  .805E+01
  .904E+01  .100E+02  .707E+01  .707E+01  .764E+01  .881E+01  .106E+02  .794E+01
  .783E+01  .118E+02  .722E+01  .724E+01  .705E+01  .708E+01  .690E+01  .955E+01
  .127E+02  .826E+01  .114E+02  .692E+01  .307E+02  .736E+01  .287E+02  .342E+02
  .929E+01  .897E+01  .121E+02  .163E+02  .110E+02  .106E+02  .675E+01  .675E+01
  .675E+01  .675E+01  .675E+01  .675E+01  .675E+01  .675E+01  .675E+01  .675E+01
  .675E+01  .675E+01  .675E+01  .675E+01  .675E+01  .675E+01  .675E+01  .675E+01
  .675E+01  .675E+01  .675E+01  .675E+01  .675E+01  .675E+01  .675E+01  .675E+01
  .675E+01  .675E+01  .675E+01  .675E+01  .675E+01  .675E+01  .675E+01  .675E+01
  .675E+01  .675E+01  .675E+01  .000E+00  .000E+00  .000E+00  .000E+00  .000E+00
  .000E+00  .000E+00  .000E+00  .000E+00
  .697E+01  .711E+01  .724E+01  .641E+01  .383E+02  .717E+01  .704E+01  .723E+01
  .741E+01  .750E+01  .813E+01  .963E+01  .696E+01  .693E+01  .696E+01  .696E+01
  .696E+01  .696E+01  .696E+01  .106E+02  .730E+01  .732E+01  .984E+01  .791E+01
  .813E+01  .101E+02  .713E+01  .713E+01  .757E+01  .889E+01  .114E+02  .801E+01
  .790E+01  .744E+01  .728E+01  .698E+01  .699E+01  .699E+01  .699E+01  .699E+01
  .125E+02  .699E+01  .683E+01  .744E+01  .683E+01  .683E+01  .683E+01  .683E+01
  .683E+01  .683E+01  .683E+01  .160E+02  .683E+01  .683E+01  .683E+01  .683E+01
  .683E+01  .683E+01  .683E+01  .683E+01  .683E+01  .683E+01  .683E+01  .683E+01
  .683E+01  .683E+01  .683E+01  .683E+01  .683E+01  .683E+01  .683E+01  .683E+01
  .683E+01  .683E+01  .683E+01  .683E+01  .683E+01  .683E+01  .683E+01  .683E+01
  .683E+01  .683E+01  .683E+01  .683E+01  .683E+01  .683E+01  .683E+01  .683E+01
  .683E+01  .683E+01  .683E+01  .000E+00  .000E+00  .000E+00  .000E+00  .000E+00
  .000E+00  .000E+00  .000E+00  .000E+00
  .698E+01  .725E+01  .725E+01  .726E+01  .384E+02  .736E+01  .702E+01  .725E+01
  .736E+01  .749E+01  .814E+01  .965E+01  .694E+01  .695E+01  .130E+02  .694E+01
  .694E+01  .722E+01  .694E+01  .106E+02  .100E+02  .736E+01  .979E+01  .805E+01
  .904E+01  .100E+02  .707E+01  .707E+01  .764E+01  .881E+01  .106E+02  .794E+01
  .783E+01  .118E+02  .722E+01  .724E+01  .705E+01  .708E+01  .690E+01  .955E+01
  .127E+02  .826E+01  .114E+02  .692E+01  .307E+02  .736E+01  .287E+02  .342E+02
  .929E+01  .897E+01  .121E+02  .163E+02  .110E+02  .106E+02  .675E+01  .675E+01
  .675E+01  .675E+01  .675E+01  .675E+01  .675E+01  .675E+01  .675E+01  .675E+01
  .675E+01  .675E+01  .675E+01  .675E+01  .675E+01  .675E+01  .675E+01  .675E+01
  .675E+01  .675E+01  .675E+01  .675E+01  .675E+01  .675E+01  .675E+01  .675E+01
  .675E+01  .675E+01  .675E+01  .675E+01  .675E+01  .675E+01  .675E+01  .675E+01
  .675E+01  .675E+01  .675E+01  .000E+00  .000E+00  .000E+00  .000E+00  .000E+00
  .000E+00  .000E+00  .000E+00  .000E+00
Damping =  .02. Data of Sd,Sv,Sa,Pssv,ttSd,ttSv,ttSa :
  .137E-02  .151E-02  .214E-02  .201E-02  .219E-02  .286E-02  .380E-02  .588E-02
  .117E-01  .178E-01  .105E-01  .147E-01  .973E-02  .728E-02  .619E-02  .590E-02
  .707E-02  .670E-02  .796E-02  .129E-01  .152E-01  .204E-01  .245E-01  .221E-01
  .284E-01  .315E-01  .313E-01  .344E-01  .433E-01  .694E-01  .796E-01  .784E-01
  .750E-01  .700E-01  .652E-01  .605E-01  .559E-01  .531E-01  .531E-01  .533E-01
  .522E-01  .481E-01  .457E-01  .429E-01  .392E-01  .356E-01  .380E-01  .362E-01
  .318E-01  .399E-01  .433E-01  .568E-01  .454E-01  .349E-01  .261E-01  .262E-01
  .263E-01  .265E-01  .266E-01  .266E-01  .265E-01  .264E-01  .261E-01  .258E-01
  .254E-01  .251E-01  .247E-01  .244E-01  .242E-01  .240E-01  .238E-01  .237E-01
  .236E-01  .235E-01  .234E-01  .233E-01  .232E-01  .232E-01  .231E-01  .230E-01
  .230E-01  .230E-01  .230E-01  .229E-01  .229E-01  .229E-01  .229E-01  .228E-01
  .228E-01  .228E-01  .229E-01  .000E+00  .000E+00  .000E+00  .000E+00  .000E+00
  .000E+00  .000E+00  .000E+00  .000E+00
  .200E+00  .187E+00  .261E+00  .230E+00  .245E+00  .310E+00  .348E+00  .531E+00
  .108E+01  .156E+01  .901E+00  .117E+01  .730E+00  .541E+00  .457E+00  .380E+00
  .444E+00  .366E+00  .404E+00  .557E+00  .702E+00  .818E+00  .776E+00  .786E+00
  .930E+00  .102E+01  .874E+00  .946E+00  .113E+01  .154E+01  .169E+01  .165E+01
  .144E+01  .140E+01  .117E+01  .107E+01  .104E+01  .104E+01  .101E+01  .962E+00
  .894E+00  .739E+00  .639E+00  .617E+00  .588E+00  .556E+00  .530E+00  .512E+00
  .499E+00  .489E+00  .480E+00  .464E+00  .449E+00  .436E+00  .427E+00  .419E+00
  .413E+00  .407E+00  .402E+00  .398E+00  .394E+00  .387E+00  .383E+00  .379E+00
  .377E+00  .375E+00  .373E+00  .372E+00  .371E+00  .371E+00  .370E+00  .370E+00
  .370E+00  .369E+00  .369E+00  .369E+00  .369E+00  .368E+00  .368E+00  .368E+00
  .368E+00  .368E+00  .367E+00  .367E+00  .367E+00  .367E+00  .367E+00  .367E+00
  .367E+00  .367E+00  .367E+00  .000E+00  .000E+00  .000E+00  .000E+00  .000E+00
  .000E+00  .000E+00  .000E+00  .000E+00
  .881E-01  .878E-01  .113E+00  .972E-01  .976E-01  .117E+00  .129E+00  .168E+00
  .282E+00  .371E+00  .192E+00  .235E+00  .137E+00  .914E-01  .706E-01  .604E-01
  .595E-01  .477E-01  .481E-01  .673E-01  .690E-01  .814E-01  .868E-01  .699E-01
  .808E-01  .808E-01  .662E-01  .612E-01  .655E-01  .906E-01  .906E-01  .783E-01
  .665E-01  .553E-01  .463E-01  .387E-01  .324E-01  .281E-01  .257E-01  .237E-01
  .214E-01  .163E-01  .130E-01  .104E-01  .822E-02  .651E-02  .608E-02  .513E-02
  .402E-02  .453E-02  .444E-02  .480E-02  .323E-02  .211E-02  .138E-02  .121E-02
  .107E-02  .954E-03  .855E-03  .769E-03  .695E-03  .573E-03  .479E-03  .406E-03
  .347E-03  .300E-03  .262E-03  .231E-03  .205E-03  .184E-03  .166E-03  .151E-03
  .138E-03  .127E-03  .117E-03  .108E-03  .909E-04  .775E-04  .671E-04  .589E-04
  .523E-04  .468E-04  .422E-04  .383E-04  .350E-04  .322E-04  .276E-04  .241E-04
  .214E-04  .194E-04  .178E-04  .000E+00  .000E+00  .000E+00  .000E+00  .000E+00
  .000E+00  .000E+00  .000E+00  .000E+00
  .216E+00  .226E+00  .305E+00  .274E+00  .287E+00  .360E+00  .434E+00  .615E+00
  .113E+01  .159E+01  .880E+00  .116E+01  .719E+00  .508E+00  .409E+00  .371E+00
  .404E+00  .351E+00  .385E+00  .577E+00  .637E+00  .801E+00  .906E+00  .772E+00
  .940E+00  .990E+00  .893E+00  .901E+00  .105E+01  .156E+01  .167E+01  .154E+01
  .139E+01  .122E+01  .108E+01  .950E+00  .837E+00  .759E+00  .726E+00  .698E+00
  .656E+00  .550E+00  .478E+00  .415E+00  .352E+00  .298E+00  .298E+00  .268E+00
  .222E+00  .264E+00  .272E+00  .324E+00  .238E+00  .168E+00  .117E+00  .110E+00
  .103E+00  .979E-01  .927E-01  .879E-01  .834E-01  .753E-01  .684E-01  .623E-01
  .571E-01  .525E-01  .486E-01  .452E-01  .422E-01  .396E-01  .374E-01  .354E-01
  .337E-01  .321E-01  .306E-01  .293E-01  .265E-01  .242E-01  .223E-01  .207E-01
  .193E-01  .180E-01  .170E-01  .160E-01  .152E-01  .144E-01  .131E-01  .120E-01
  .110E-01  .103E-01  .958E-02  .000E+00  .000E+00  .000E+00  .000E+00  .000E+00
  .000E+00  .000E+00  .000E+00  .000E+00
  .559E+01  .701E+01  .701E+01  .715E+01  .715E+01  .701E+01  .702E+01  .702E+01
  .736E+01  .748E+01  .547E+01  .709E+01  .559E+01  .542E+01  .733E+01  .750E+01
  .694E+01  .722E+01  .750E+01  .774E+01  .734E+01  .736E+01  .739E+01  .795E+01
  .808E+01  .763E+01  .707E+01  .707E+01  .709E+01  .755E+01  .758E+01  .746E+01
  .749E+01  .736E+01  .702E+01  .703E+01  .705E+01  .707E+01  .690E+01  .690E+01
  .691E+01  .691E+01  .691E+01  .692E+01  .692E+01  .692E+01  .111E+02  .112E+02
  .888E+01  .897E+01  .901E+01  .108E+02  .110E+02  .105E+02  .106E+02  .675E+01
  .675E+01  .675E+01  .675E+01  .675E+01  .675E+01  .675E+01  .675E+01  .675E+01
  .675E+01  .675E+01  .675E+01  .675E+01  .675E+01  .675E+01  .675E+01  .675E+01
  .675E+01  .675E+01  .675E+01  .675E+01  .675E+01  .675E+01  .675E+01  .675E+01
  .675E+01  .675E+01  .675E+01  .675E+01  .675E+01  .675E+01  .675E+01  .675E+01
  .675E+01  .675E+01  .675E+01  .000E+00  .000E+00  .000E+00  .000E+00  .000E+00
  .000E+00  .000E+00  .000E+00  .000E+00
  .561E+01  .700E+01  .711E+01  .714E+01  .717E+01  .717E+01  .703E+01  .704E+01
  .728E+01  .740E+01  .713E+01  .707E+01  .561E+01  .540E+01  .730E+01  .532E+01
  .696E+01  .720E+01  .720E+01  .770E+01  .730E+01  .732E+01  .726E+01  .791E+01
  .813E+01  .757E+01  .713E+01  .713E+01  .703E+01  .762E+01  .751E+01  .753E+01
  .742E+01  .727E+01  .694E+01  .694E+01  .699E+01  .699E+01  .699E+01  .699E+01
  .699E+01  .699E+01  .683E+01  .683E+01  .683E+01  .683E+01  .683E+01  .683E+01
  .683E+01  .683E+01  .683E+01  .683E+01  .683E+01  .683E+01  .683E+01  .683E+01
  .683E+01  .683E+01  .683E+01  .683E+01  .683E+01  .683E+01  .683E+01  .683E+01
  .683E+01  .683E+01  .683E+01  .683E+01  .683E+01  .683E+01  .683E+01  .683E+01
  .683E+01  .683E+01  .683E+01  .683E+01  .683E+01  .683E+01  .683E+01  .683E+01
  .683E+01  .683E+01  .683E+01  .683E+01  .683E+01  .683E+01  .683E+01  .683E+01
  .683E+01  .683E+01  .683E+01  .000E+00  .000E+00  .000E+00  .000E+00  .000E+00
  .000E+00  .000E+00  .000E+00  .000E+00
  .559E+01  .701E+01  .701E+01  .715E+01  .715E+01  .701E+01  .702E+01  .702E+01
  .736E+01  .748E+01  .547E+01  .709E+01  .559E+01  .542E+01  .732E+01  .749E+01
  .694E+01  .722E+01  .750E+01  .773E+01  .734E+01  .736E+01  .739E+01  .795E+01
  .808E+01  .763E+01  .706E+01  .707E+01  .709E+01  .755E+01  .758E+01  .746E+01
  .748E+01  .736E+01  .702E+01  .703E+01  .705E+01  .707E+01  .689E+01  .690E+01
  .690E+01  .691E+01  .691E+01  .691E+01  .691E+01  .691E+01  .111E+02  .112E+02
  .888E+01  .897E+01  .901E+01  .108E+02  .110E+02  .105E+02  .674E+01  .674E+01
  .674E+01  .674E+01  .674E+01  .674E+01  .674E+01  .674E+01  .673E+01  .673E+01
  .673E+01  .673E+01  .673E+01  .673E+01  .673E+01  .673E+01  .673E+01  .673E+01
  .673E+01  .673E+01  .673E+01  .673E+01  .673E+01  .673E+01  .673E+01  .672E+01
  .672E+01  .672E+01  .672E+01  .672E+01  .672E+01  .672E+01  .672E+01  .671E+01
  .671E+01  .689E+01  .689E+01  .000E+00  .000E+00  .000E+00  .000E+00  .000E+00
  .000E+00  .000E+00  .000E+00  .000E+00
Damping =  .05. Data of Sd,Sv,Sa,Pssv,ttSd,ttSv,ttSa :
  .108E-02  .132E-02  .164E-02  .187E-02  .210E-02  .253E-02  .339E-02  .495E-02
  .768E-02  .933E-02  .844E-02  .879E-02  .713E-02  .600E-02  .502E-02  .479E-02
  .606E-02  .586E-02  .681E-02  .841E-02  .117E-01  .156E-01  .177E-01  .176E-01
  .209E-01  .231E-01  .271E-01  .310E-01  .370E-01  .518E-01  .588E-01  .609E-01
  .566E-01  .586E-01  .576E-01  .542E-01  .502E-01  .476E-01  .487E-01  .490E-01
