Response and Fourier amplitude spectra (91 periods,  .04 - 15.0 sec)   for      
Corrected accelerogram   24207-M0150-01010.01       Chan  1:  Radl       from   
Uncorrected Accelerogram Data             Processed: 03/04/11, CGS  207fa001    
Record of Sat Jan 13, 2001 18:26:11.0 PST             (Avol1 v8.9,05/09 CSMIP)  
CSMIP Preliminary Processing            (Origin:  To be determined)             
24207-M0150-01010.01                 Start time:  1/14/01, 02:26:11.0 UTC (GPS) 
Station No. 24207   34.334N, 118.396W    MtWtny  s/n  150 (17 Chns of 17 at Sta)
Sylmar - Pacoima Dam                      CGS                                   
Chan  1:  Radl                      Location: Crest: Right 1/3-length Point     
Record of Sat Jan 13, 2001 18:26:11.0 PST    Sat Jan 13, 2001 18:26:11.0 PST    
Hypocenter:  To be determined.               ML:  To be determined.
Instr Period =  .0102 sec,  Damping =  .660,  Sensitivity =  .62  v/g
                        Record length = 41.000 sec.
                                     Uncor Max  =  -.163 g , at   6.835 sec.
RMS accel of (uncor) record  =        .   Chn. metadata effective date: 09/02/99
Accelerogram bandpass filtered with 3 dB pts at   .50 and 40.00 cyc/sec
                 instrument- and baseline-corrected





Record of Sat Jan 13, 2001 18:26:11.0 PST    Sat Jan 13, 2001 18:26:11.0 PST

24207-M0150-01010.01      Sylmar - Pacoima Dam    Chan  1:  Radl

24207-M0150-01010.01      Sylmar - Pacoima Dam    Chan  1:  Radl

Units for spectra are inches and sec, except Sa is in fraction of g.

    1  100    1   18   17  200    1    3    1   24   13  150    024207    5    0
    2   26   11    0   14    1   14 2001   10    3  700 8200   41   20   76   -1
 8200    0  100    3  150    1    1  410    2    0    0    0    0    0    0    0
    0    4    0    0 8200    1  212    1   18    4    0    0    3    1    0 8200
    3 8200    1   91    5   17    5    0    0    0    0    0    0    3    1    2
    2    2    4    0   68   99    0    1    0    0    0    1    0    0    0  222
    1    0    2    0
      .010      .660    41.000      .010      .000   621.000     -.163     6.835
    98.000      .298      .480      .000     5.000      .000     4.000      .000
     2.500    34.270     2.500  2016.000     5.000    30.000      .000     -.008
     -.005      .003     2.000    15.000    34.334  -118.396      .012      .181
    14.846     -.006      .011   594.000     5.400     9.900    12.700   100.040
     1.000    -1.005      .000      .000      .000      .000      .000      .000
     7.200     8.900     5.800   980.665      .005    41.000    15.597      .000
      .000    40.000      .000    41.000      .005      .500      .000      .000
     6.835  -160.899     6.870    -6.267     6.815      .221      .000      .500
    40.000      .005      .005      .000      .305      .027      .000      .000
      .668      .160      .496      .214      .010      .001      .000      .000
      .000      .000      .000      .000      .000      .000      .000      .000
      .000      .000      .000      .000
      .000      .020      .050      .100      .200
      .040      .042      .044      .046      .048      .050      .055      .060
      .065      .070      .075      .080      .085      .090      .095      .100
      .110      .120      .130      .140      .150      .160      .170      .180
      .190      .200      .220      .240      .260      .280      .300      .320
      .340      .360      .380      .400      .420      .440      .460      .480
      .500      .550      .600      .650      .700      .750      .800      .850
      .900      .950     1.000     1.100     1.200     1.300     1.400     1.500
     1.600     1.700     1.800     1.900     2.000     2.200     2.400     2.600
     2.800     3.000     3.200     3.400     3.600     3.800     4.000     4.200
     4.400     4.600     4.800     5.000     5.500     6.000     6.500     7.000
     7.500     8.000     8.500     9.000     9.500    10.000    11.000    12.000
    13.000    14.000    15.000      .000      .000      .000      .000      .000
      .000      .000      .000      .000
Fourier amplitude spectra in in/sec.
  .442E+00  .708E-01  .119E+00  .328E+00  .180E-01  .845E-01  .264E+00  .614E+00
  .412E+00  .171E+00  .196E+01  .129E+01  .130E+01  .111E+01  .166E+01  .184E+01
  .376E+00  .940E+00  .336E+01  .501E+01  .888E+01  .103E+02  .839E+01  .823E+01
  .132E+02  .881E+01  .509E+01  .457E+01  .475E+01  .621E+01  .581E+01  .373E+01
  .346E+01  .274E+01  .168E+01  .133E+01  .625E+00  .157E+01  .155E+01  .134E+01
  .180E+01  .436E+00  .164E+01  .105E+01  .848E+00  .493E+00  .568E+00  .432E+00
  .280E+00  .421E+00  .412E+00  .301E+00  .162E+00  .299E-01  .750E-01  .117E+00
  .113E+00  .109E+00  .730E-01  .593E-01  .568E-01  .256E-01  .184E-01  .132E-01
  .134E-01  .873E-02  .547E-02  .315E-02  .257E-02  .165E-02  .120E-02  .751E-03
  .594E-03  .501E-03  .313E-03  .124E-03  .552E-04  .428E-04  .686E-04  .102E-03
  .809E-04  .687E-04  .864E-04  .868E-04  .722E-04  .604E-04  .602E-04  .511E-04
  .341E-04  .288E-04  .321E-04  .000E+00  .000E+00  .000E+00  .000E+00  .000E+00
  .000E+00  .000E+00  .000E+00  .000E+00
Damping =  .00. Data of Sd,Sv,Sa,Pssv,ttSd,ttSv,ttSa :
  .500E-02  .342E-02  .392E-02  .533E-02  .437E-02  .474E-02  .669E-02  .103E-01
  .156E-01  .126E-01  .250E-01  .215E-01  .247E-01  .335E-01  .321E-01  .379E-01
  .542E-01  .728E-01  .108E+00  .134E+00  .213E+00  .269E+00  .262E+00  .300E+00
  .422E+00  .367E+00  .271E+00  .257E+00  .228E+00  .293E+00  .285E+00  .249E+00
  .213E+00  .195E+00  .179E+00  .174E+00  .175E+00  .177E+00  .179E+00  .178E+00
  .173E+00  .161E+00  .162E+00  .145E+00  .132E+00  .120E+00  .111E+00  .106E+00
  .101E+00  .969E-01  .924E-01  .940E-01  .957E-01  .962E-01  .961E-01  .961E-01
  .962E-01  .964E-01  .968E-01  .970E-01  .971E-01  .966E-01  .956E-01  .946E-01
  .937E-01  .928E-01  .919E-01  .912E-01  .906E-01  .901E-01  .897E-01  .894E-01
  .891E-01  .889E-01  .887E-01  .886E-01  .883E-01  .881E-01  .879E-01  .878E-01
  .876E-01  .876E-01  .875E-01  .874E-01  .874E-01  .873E-01  .873E-01  .872E-01
  .872E-01  .872E-01  .872E-01  .000E+00  .000E+00  .000E+00  .000E+00  .000E+00
  .000E+00  .000E+00  .000E+00  .000E+00
  .491E+00  .314E+00  .298E+00  .377E+00  .253E+00  .356E+00  .324E+00  .679E+00
  .106E+01  .719E+00  .205E+01  .142E+01  .160E+01  .182E+01  .177E+01  .188E+01
  .231E+01  .296E+01  .448E+01  .567E+01  .894E+01  .106E+02  .965E+01  .103E+02
  .139E+02  .115E+02  .794E+01  .672E+01  .568E+01  .662E+01  .598E+01  .506E+01
  .466E+01  .459E+01  .441E+01  .415E+01  .391E+01  .370E+01  .347E+01  .339E+01
  .340E+01  .332E+01  .327E+01  .323E+01  .316E+01  .307E+01  .299E+01  .293E+01
  .289E+01  .286E+01  .283E+01  .277E+01  .271E+01  .267E+01  .264E+01  .261E+01
  .259E+01  .258E+01  .256E+01  .255E+01  .254E+01  .252E+01  .251E+01  .250E+01
  .249E+01  .248E+01  .248E+01  .248E+01  .247E+01  .247E+01  .247E+01  .247E+01
  .247E+01  .247E+01  .247E+01  .247E+01  .247E+01  .247E+01  .246E+01  .246E+01
  .246E+01  .246E+01  .246E+01  .246E+01  .246E+01  .246E+01  .246E+01  .246E+01
  .246E+01  .246E+01  .246E+01  .000E+00  .000E+00  .000E+00  .000E+00  .000E+00
  .000E+00  .000E+00  .000E+00  .000E+00
  .319E+00  .198E+00  .207E+00  .258E+00  .194E+00  .194E+00  .226E+00  .292E+00
  .378E+00  .262E+00  .455E+00  .344E+00  .349E+00  .423E+00  .364E+00  .387E+00
  .458E+00  .517E+00  .652E+00  .700E+00  .969E+00  .108E+01  .928E+00  .948E+00
  .120E+01  .938E+00  .573E+00  .457E+00  .345E+00  .382E+00  .324E+00  .249E+00
  .188E+00  .154E+00  .127E+00  .111E+00  .101E+00  .937E-01  .865E-01  .789E-01
  .710E-01  .545E-01  .460E-01  .351E-01  .276E-01  .218E-01  .178E-01  .150E-01
  .128E-01  .110E-01  .945E-02  .794E-02  .680E-02  .582E-02  .502E-02  .437E-02
  .384E-02  .341E-02  .306E-02  .275E-02  .248E-02  .204E-02  .170E-02  .143E-02
  .122E-02  .105E-02  .918E-03  .807E-03  .715E-03  .638E-03  .573E-03  .518E-03
  .471E-03  .430E-03  .394E-03  .362E-03  .299E-03  .250E-03  .213E-03  .183E-03
  .159E-03  .140E-03  .124E-03  .110E-03  .990E-04  .893E-04  .738E-04  .620E-04
  .528E-04  .455E-04  .396E-04  .000E+00  .000E+00  .000E+00  .000E+00  .000E+00
  .000E+00  .000E+00  .000E+00  .000E+00
  .785E+00  .512E+00  .560E+00  .728E+00  .572E+00  .595E+00  .764E+00  .108E+01
  .151E+01  .113E+01  .210E+01  .169E+01  .182E+01  .234E+01  .212E+01  .238E+01
  .310E+01  .381E+01  .520E+01  .602E+01  .893E+01  .106E+02  .969E+01  .105E+02
  .140E+02  .115E+02  .774E+01  .674E+01  .552E+01  .658E+01  .596E+01  .489E+01
  .393E+01  .340E+01  .296E+01  .273E+01  .262E+01  .253E+01  .244E+01  .233E+01
  .218E+01  .184E+01  .169E+01  .140E+01  .119E+01  .101E+01  .875E+00  .782E+00
  .708E+00  .641E+00  .581E+00  .537E+00  .501E+00  .465E+00  .431E+00  .402E+00
  .378E+00  .356E+00  .338E+00  .321E+00  .305E+00  .276E+00  .250E+00  .229E+00
  .210E+00  .194E+00  .181E+00  .169E+00  .158E+00  .149E+00  .141E+00  .134E+00
  .127E+00  .121E+00  .116E+00  .111E+00  .101E+00  .922E-01  .850E-01  .788E-01
  .734E-01  .688E-01  .647E-01  .610E-01  .578E-01  .549E-01  .498E-01  .457E-01
  .422E-01  .391E-01  .365E-01  .000E+00  .000E+00  .000E+00  .000E+00  .000E+00
  .000E+00  .000E+00  .000E+00  .000E+00
  .689E+01  .681E+01  .684E+01  .689E+01  .684E+01  .684E+01  .689E+01  .689E+01
  .689E+01  .684E+01  .890E+01  .682E+01  .690E+01  .690E+01  .689E+01  .682E+01
  .691E+01  .690E+01  .691E+01  .700E+01  .972E+01  .117E+02  .738E+01  .741E+01
  .963E+01  .866E+01  .719E+01  .721E+01  .723E+01  .951E+01  .112E+02  .763E+01
  .972E+01  .702E+01  .703E+01  .690E+01  .690E+01  .690E+01  .690E+01  .691E+01
  .691E+01  .691E+01  .207E+02  .692E+01  .692E+01  .692E+01  .692E+01  .692E+01
  .692E+01  .692E+01  .692E+01  .681E+01  .681E+01  .681E+01  .681E+01  .681E+01
  .681E+01  .681E+01  .681E+01  .681E+01  .681E+01  .681E+01  .681E+01  .681E+01
  .681E+01  .681E+01  .681E+01  .681E+01  .681E+01  .681E+01  .681E+01  .681E+01
  .681E+01  .681E+01  .681E+01  .681E+01  .681E+01  .681E+01  .681E+01  .681E+01
  .681E+01  .681E+01  .681E+01  .681E+01  .681E+01  .681E+01  .681E+01  .681E+01
  .681E+01  .681E+01  .681E+01  .000E+00  .000E+00  .000E+00  .000E+00  .000E+00
  .000E+00  .000E+00  .000E+00  .000E+00
  .688E+01  .686E+01  .686E+01  .702E+01  .686E+01  .686E+01  .747E+01  .687E+01
  .697E+01  .686E+01  .106E+02  .755E+01  .705E+01  .705E+01  .705E+01  .113E+02
  .694E+01  .694E+01  .695E+01  .705E+01  .968E+01  .117E+02  .734E+01  .736E+01
  .968E+01  .861E+01  .724E+01  .715E+01  .705E+01  .958E+01  .826E+01  .755E+01
  .695E+01  .696E+01  .696E+01  .696E+01  .696E+01  .696E+01  .697E+01  .686E+01
  .686E+01  .686E+01  .686E+01  .686E+01  .686E+01  .686E+01  .686E+01  .686E+01
  .686E+01  .686E+01  .686E+01  .686E+01  .686E+01  .686E+01  .686E+01  .686E+01
  .686E+01  .686E+01  .686E+01  .686E+01  .686E+01  .686E+01  .686E+01  .686E+01
  .686E+01  .686E+01  .686E+01  .686E+01  .686E+01  .686E+01  .686E+01  .686E+01
  .686E+01  .686E+01  .686E+01  .686E+01  .686E+01  .686E+01  .686E+01  .686E+01
  .686E+01  .686E+01  .686E+01  .686E+01  .686E+01  .686E+01  .686E+01  .686E+01
  .686E+01  .686E+01  .686E+01  .000E+00  .000E+00  .000E+00  .000E+00  .000E+00
  .000E+00  .000E+00  .000E+00  .000E+00
  .689E+01  .681E+01  .684E+01  .689E+01  .684E+01  .684E+01  .689E+01  .689E+01
  .689E+01  .684E+01  .890E+01  .682E+01  .690E+01  .690E+01  .689E+01  .682E+01
  .691E+01  .690E+01  .691E+01  .700E+01  .972E+01  .117E+02  .738E+01  .741E+01
  .963E+01  .866E+01  .719E+01  .721E+01  .723E+01  .951E+01  .112E+02  .763E+01
  .972E+01  .702E+01  .703E+01  .690E+01  .690E+01  .690E+01  .690E+01  .691E+01
  .691E+01  .691E+01  .207E+02  .692E+01  .692E+01  .692E+01  .692E+01  .692E+01
  .692E+01  .692E+01  .692E+01  .681E+01  .681E+01  .681E+01  .681E+01  .681E+01
  .681E+01  .681E+01  .681E+01  .681E+01  .681E+01  .681E+01  .681E+01  .681E+01
  .681E+01  .681E+01  .681E+01  .681E+01  .681E+01  .681E+01  .681E+01  .681E+01
  .681E+01  .681E+01  .681E+01  .681E+01  .681E+01  .681E+01  .681E+01  .681E+01
  .681E+01  .681E+01  .681E+01  .681E+01  .681E+01  .681E+01  .681E+01  .681E+01
  .681E+01  .681E+01  .681E+01  .000E+00  .000E+00  .000E+00  .000E+00  .000E+00
  .000E+00  .000E+00  .000E+00  .000E+00
Damping =  .02. Data of Sd,Sv,Sa,Pssv,ttSd,ttSv,ttSa :
  .306E-02  .303E-02  .337E-02  .398E-02  .435E-02  .458E-02  .704E-02  .853E-02
  .128E-01  .138E-01  .165E-01  .186E-01  .191E-01  .223E-01  .260E-01  .308E-01
  .490E-01  .704E-01  .101E+00  .122E+00  .166E+00  .204E+00  .214E+00  .231E+00
  .240E+00  .229E+00  .233E+00  .223E+00  .207E+00  .195E+00  .212E+00  .201E+00
  .193E+00  .183E+00  .169E+00  .168E+00  .169E+00  .172E+00  .173E+00  .171E+00
  .168E+00  .158E+00  .151E+00  .142E+00  .131E+00  .120E+00  .112E+00  .106E+00
  .102E+00  .972E-01  .929E-01  .923E-01  .941E-01  .948E-01  .950E-01  .951E-01
  .952E-01  .955E-01  .959E-01  .961E-01  .962E-01  .958E-01  .950E-01  .941E-01
  .933E-01  .925E-01  .917E-01  .910E-01  .905E-01  .900E-01  .896E-01  .893E-01
  .890E-01  .888E-01  .886E-01  .885E-01  .882E-01  .880E-01  .879E-01  .877E-01
  .876E-01  .875E-01  .875E-01  .873E-01  .874E-01  .872E-01  .872E-01  .870E-01
  .871E-01  .873E-01  .875E-01  .000E+00  .000E+00  .000E+00  .000E+00  .000E+00
  .000E+00  .000E+00  .000E+00  .000E+00
  .135E+00  .197E+00  .213E+00  .224E+00  .238E+00  .286E+00  .424E+00  .403E+00
  .710E+00  .829E+00  .119E+01  .113E+01  .998E+00  .101E+01  .105E+01  .117E+01
  .191E+01  .276E+01  .405E+01  .494E+01  .663E+01  .775E+01  .774E+01  .789E+01
  .783E+01  .717E+01  .678E+01  .607E+01  .536E+01  .482E+01  .456E+01  .458E+01
  .450E+01  .441E+01  .425E+01  .403E+01  .382E+01  .362E+01  .340E+01  .330E+01
  .332E+01  .327E+01  .323E+01  .319E+01  .313E+01  .305E+01  .298E+01  .292E+01
  .288E+01  .285E+01  .282E+01  .276E+01  .271E+01  .267E+01  .264E+01  .261E+01
  .259E+01  .258E+01  .256E+01  .255E+01  .254E+01  .252E+01  .251E+01  .250E+01
  .249E+01  .249E+01  .248E+01  .248E+01  .248E+01  .247E+01  .247E+01  .247E+01
  .247E+01  .247E+01  .247E+01  .247E+01  .247E+01  .247E+01  .246E+01  .246E+01
  .246E+01  .246E+01  .246E+01  .246E+01  .246E+01  .246E+01  .246E+01  .246E+01
  .246E+01  .246E+01  .246E+01  .000E+00  .000E+00  .000E+00  .000E+00  .000E+00
  .000E+00  .000E+00  .000E+00  .000E+00
  .196E+00  .176E+00  .178E+00  .193E+00  .193E+00  .188E+00  .238E+00  .242E+00
  .310E+00  .288E+00  .300E+00  .297E+00  .270E+00  .282E+00  .294E+00  .315E+00
  .415E+00  .500E+00  .609E+00  .638E+00  .755E+00  .816E+00  .757E+00  .730E+00
  .679E+00  .586E+00  .493E+00  .395E+00  .314E+00  .254E+00  .241E+00  .201E+00
  .171E+00  .145E+00  .119E+00  .107E+00  .985E-01  .908E-01  .836E-01  .763E-01
  .690E-01  .537E-01  .431E-01  .346E-01  .274E-01  .220E-01  .180E-01  .152E-01
  .130E-01  .112E-01  .964E-02  .792E-02  .679E-02  .584E-02  .506E-02  .442E-02
  .391E-02  .348E-02  .313E-02  .282E-02  .256E-02  .212E-02  .178E-02  .152E-02
  .131E-02  .114E-02  .101E-02  .896E-03  .802E-03  .724E-03  .658E-03  .602E-03
  .554E-03  .512E-03  .475E-03  .442E-03  .375E-03  .324E-03  .284E-03  .252E-03
  .226E-03  .209E-03  .196E-03  .183E-03  .173E-03  .163E-03  .147E-03  .133E-03
  .123E-03  .114E-03  .106E-03  .000E+00  .000E+00  .000E+00  .000E+00  .000E+00
  .000E+00  .000E+00  .000E+00  .000E+00
  .481E+00  .453E+00  .481E+00  .544E+00  .569E+00  .576E+00  .804E+00  .893E+00
  .124E+01  .123E+01  .138E+01  .146E+01  .141E+01  .156E+01  .172E+01  .194E+01
  .280E+01  .369E+01  .487E+01  .547E+01  .694E+01  .799E+01  .791E+01  .807E+01
  .793E+01  .720E+01  .664E+01  .583E+01  .500E+01  .437E+01  .444E+01  .395E+01
  .357E+01  .320E+01  .279E+01  .264E+01  .253E+01  .245E+01  .236E+01  .224E+01
  .211E+01  .181E+01  .158E+01  .138E+01  .117E+01  .101E+01  .879E+00  .785E+00
  .709E+00  .643E+00  .584E+00  .527E+00  .493E+00  .458E+00  .426E+00  .398E+00
  .374E+00  .353E+00  .335E+00  .318E+00  .302E+00  .274E+00  .249E+00  .228E+00
  .209E+00  .194E+00  .180E+00  .168E+00  .158E+00  .149E+00  .141E+00  .134E+00
  .127E+00  .121E+00  .116E+00  .111E+00  .101E+00  .922E-01  .849E-01  .787E-01
  .734E-01  .688E-01  .647E-01  .610E-01  .578E-01  .548E-01  .498E-01  .456E-01
  .421E-01  .392E-01  .367E-01  .000E+00  .000E+00  .000E+00  .000E+00  .000E+00
  .000E+00  .000E+00  .000E+00  .000E+00
  .689E+01  .690E+01  .690E+01  .689E+01  .689E+01  .689E+01  .689E+01  .689E+01
  .689E+01  .689E+01  .690E+01  .691E+01  .691E+01  .690E+01  .682E+01  .682E+01
  .690E+01  .691E+01  .692E+01  .700E+01  .701E+01  .702E+01  .704E+01  .714E+01
  .715E+01  .716E+01  .719E+01  .709E+01  .711E+01  .712E+01  .759E+01  .701E+01
  .701E+01  .702E+01  .702E+01  .690E+01  .690E+01  .690E+01  .690E+01  .691E+01
  .691E+01  .691E+01  .691E+01  .691E+01  .692E+01  .692E+01  .692E+01  .692E+01
  .692E+01  .692E+01  .692E+01  .681E+01  .681E+01  .681E+01  .681E+01  .681E+01
  .681E+01  .681E+01  .681E+01  .681E+01  .681E+01  .681E+01  .681E+01  .681E+01
  .681E+01  .681E+01  .681E+01  .681E+01  .681E+01  .681E+01  .681E+01  .681E+01
  .681E+01  .681E+01  .681E+01  .681E+01  .681E+01  .681E+01  .681E+01  .681E+01
  .681E+01  .681E+01  .681E+01  .681E+01  .681E+01  .681E+01  .681E+01  .681E+01
  .681E+01  .681E+01  .681E+01  .000E+00  .000E+00  .000E+00  .000E+00  .000E+00
  .000E+00  .000E+00  .000E+00  .000E+00
  .698E+01  .686E+01  .686E+01  .687E+01  .687E+01  .686E+01  .687E+01  .688E+01
  .688E+01  .702E+01  .726E+01  .740E+01  .705E+01  .705E+01  .705E+01  .680E+01
  .693E+01  .694E+01  .695E+01  .705E+01  .705E+01  .707E+01  .709E+01  .709E+01
  .711E+01  .711E+01  .713E+01  .703E+01  .705E+01  .705E+01  .695E+01  .695E+01
  .695E+01  .696E+01  .696E+01  .696E+01  .696E+01  .696E+01  .696E+01  .686E+01
  .686E+01  .686E+01  .686E+01  .686E+01  .686E+01  .686E+01  .686E+01  .686E+01
  .686E+01  .686E+01  .686E+01  .686E+01  .686E+01  .686E+01  .686E+01  .686E+01
  .686E+01  .686E+01  .686E+01  .686E+01  .686E+01  .686E+01  .686E+01  .686E+01
  .686E+01  .686E+01  .686E+01  .686E+01  .686E+01  .686E+01  .686E+01  .686E+01
  .686E+01  .686E+01  .686E+01  .686E+01  .686E+01  .686E+01  .686E+01  .686E+01
  .686E+01  .686E+01  .686E+01  .686E+01  .686E+01  .686E+01  .686E+01  .686E+01
  .686E+01  .686E+01  .686E+01  .000E+00  .000E+00  .000E+00  .000E+00  .000E+00
  .000E+00  .000E+00  .000E+00  .000E+00
  .689E+01  .690E+01  .690E+01  .689E+01  .689E+01  .689E+01  .689E+01  .689E+01
  .689E+01  .689E+01  .690E+01  .691E+01  .691E+01  .690E+01  .682E+01  .682E+01
  .690E+01  .691E+01  .691E+01  .692E+01  .701E+01  .702E+01  .704E+01  .713E+01
  .715E+01  .716E+01  .718E+01  .709E+01  .711E+01  .699E+01  .759E+01  .700E+01
  .701E+01  .701E+01  .702E+01  .690E+01  .690E+01  .690E+01  .690E+01  .690E+01
  .690E+01  .691E+01  .691E+01  .691E+01  .691E+01  .691E+01  .691E+01  .691E+01
  .691E+01  .691E+01  .691E+01  .680E+01  .680E+01  .680E+01  .680E+01  .680E+01
  .680E+01  .680E+01  .680E+01  .680E+01  .680E+01  .680E+01  .680E+01  .680E+01
  .680E+01  .680E+01  .680E+01  .680E+01  .680E+01  .680E+01  .679E+01  .679E+01
  .679E+01  .679E+01  .679E+01  .679E+01  .679E+01  .678E+01  .678E+01  .678E+01
  .688E+01  .688E+01  .688E+01  .688E+01  .688E+01  .688E+01  .688E+01  .688E+01
  .687E+01  .687E+01  .687E+01  .000E+00  .000E+00  .000E+00  .000E+00  .000E+00
  .000E+00  .000E+00  .000E+00  .000E+00
Damping =  .05. Data of Sd,Sv,Sa,Pssv,ttSd,ttSv,ttSa :
  .291E-02  .316E-02  .347E-02  .390E-02  .433E-02  .476E-02  .672E-02  .860E-02
  .113E-01  .138E-01  .163E-01  .179E-01  .189E-01  .210E-01  .243E-01  .295E-01
  .452E-01  .647E-01  .897E-01  .110E+00  .136E+00  .166E+00  .182E+00  .192E+00
  .198E+00  .196E+00  .198E+00  .193E+00  .182E+00  .183E+00  .187E+00  .185E+00
  .178E+00  .169E+00  .156E+00  .159E+00  .162E+00  .163E+00  .164E+00  .163E+00
