Response and Fourier amplitude spectra (91 periods,  .04 - 15.0 sec)   for      
Corrected accelerogram   24207-M0150-01010.01       Chan  7:  Radl       from   
Uncorrected Accelerogram Data             Processed: 03/04/11, CGS  207fa001    
Record of Sat Jan 13, 2001 18:26:11.0 PST             (Avol1 v8.9,05/09 CSMIP)  
CSMIP Preliminary Processing            (Origin:  To be determined)             
24207-M0150-01010.01                 Start time:  1/14/01, 02:26:11.0 UTC (GPS) 
Station No. 24207   34.334N, 118.396W    MtWtny  s/n  150 (17 Chns of 17 at Sta)
Sylmar - Pacoima Dam                      CGS                                   
Chan  7:  Radl                      Location: 80% Height: Center                
Record of Sat Jan 13, 2001 18:26:11.0 PST    Sat Jan 13, 2001 18:26:11.0 PST    
Hypocenter:  To be determined.               ML:  To be determined.
Instr Period =  .0102 sec,  Damping =  .670,  Sensitivity =  .62  v/g
                        Record length = 41.000 sec.
                                     Uncor Max  =  -.044 g , at   7.055 sec.
RMS accel of (uncor) record  =        .   Chn. metadata effective date: 09/02/99
Accelerogram bandpass filtered with 3 dB pts at   .50 and 40.00 cyc/sec
                 instrument- and baseline-corrected





Record of Sat Jan 13, 2001 18:26:11.0 PST    Sat Jan 13, 2001 18:26:11.0 PST

24207-M0150-01010.01      Sylmar - Pacoima Dam    Chan  7:  Radl

24207-M0150-01010.01      Sylmar - Pacoima Dam    Chan  7:  Radl

Units for spectra are inches and sec, except Sa is in fraction of g.

    7  100    7   18   17  200    1    3    1   24   13  150    024207    5    0
    2   26   11    0   14    1   14 2001   10    3  700 8200   41   20   76   -1
 8200    0  100    3  150    1    1  410    2    0    0    0    0    0    0    0
    0    4    0    0 8200    1  212    1   18    4    0    0    3    1    0 8200
    3 8200    1   91    5   17    5    0    0    0    0    0    0    3    1    2
    2    2    4    0   68   99    0    1    0    0    0    1    0    0    0  222
    1    0    2    0
      .010      .670    41.000      .003      .000   624.000     -.044     7.055
    97.600      .298      .478      .000     5.000      .000     4.000      .000
     2.500   -25.229     2.500  2016.000     5.000    30.000      .000     -.008
      .000      .007     2.000    15.000    34.334  -118.396      .013      .088
     6.898      .003      .012   594.000     5.400     9.900    12.700   100.040
     1.000    -1.006      .000      .000      .000      .000      .000      .000
     7.200     8.900     5.800   980.665      .005    41.000    15.534      .000
      .000    40.000      .000    41.000      .005      .500      .000      .000
     7.050   -42.905     6.870    -1.743     6.790      .114      .000      .500
    40.000      .005      .005      .000      .005      .016      .000      .000
      .174      .240      .128      .141      .006      .001      .000      .000
      .000      .000      .000      .000      .000      .000      .000      .000
      .000      .000      .000      .000
      .000      .020      .050      .100      .200
      .040      .042      .044      .046      .048      .050      .055      .060
      .065      .070      .075      .080      .085      .090      .095      .100
      .110      .120      .130      .140      .150      .160      .170      .180
      .190      .200      .220      .240      .260      .280      .300      .320
      .340      .360      .380      .400      .420      .440      .460      .480
      .500      .550      .600      .650      .700      .750      .800      .850
      .900      .950     1.000     1.100     1.200     1.300     1.400     1.500
     1.600     1.700     1.800     1.900     2.000     2.200     2.400     2.600
     2.800     3.000     3.200     3.400     3.600     3.800     4.000     4.200
     4.400     4.600     4.800     5.000     5.500     6.000     6.500     7.000
     7.500     8.000     8.500     9.000     9.500    10.000    11.000    12.000
    13.000    14.000    15.000      .000      .000      .000      .000      .000
      .000      .000      .000      .000
Fourier amplitude spectra in in/sec.
  .237E-01  .354E-01  .168E-01  .347E-01  .655E-01  .105E-01  .138E-01  .816E-01
  .149E+00  .435E+00  .232E+00  .564E+00  .310E-01  .125E+00  .164E+00  .302E+00
  .396E+00  .598E+00  .451E+00  .352E+00  .405E+00  .198E+00  .910E+00  .420E+00
  .238E+01  .205E+01  .219E+01  .359E+01  .412E+01  .470E+01  .504E+01  .259E+01
  .217E+01  .223E+01  .103E+01  .822E+00  .548E+00  .130E+01  .903E+00  .976E+00
  .171E+01  .255E+00  .103E+01  .997E+00  .771E+00  .511E+00  .523E+00  .250E+00
  .198E+00  .282E+00  .289E+00  .299E+00  .157E+00  .277E-01  .523E-01  .100E+00
  .806E-01  .961E-01  .719E-01  .513E-01  .510E-01  .139E-01  .115E-01  .110E-01
  .130E-01  .822E-02  .529E-02  .335E-02  .245E-02  .174E-02  .131E-02  .642E-03
  .460E-03  .468E-03  .323E-03  .147E-03  .191E-03  .121E-03  .120E-03  .592E-04
  .105E-03  .553E-04  .292E-04  .798E-04  .809E-04  .477E-04  .400E-04  .669E-04
  .412E-04  .879E-05  .420E-04  .000E+00  .000E+00  .000E+00  .000E+00  .000E+00
  .000E+00  .000E+00  .000E+00  .000E+00
Damping =  .00. Data of Sd,Sv,Sa,Pssv,ttSd,ttSv,ttSa :
  .776E-03  .998E-03  .106E-02  .117E-02  .150E-02  .107E-02  .141E-02  .226E-02
  .258E-02  .721E-02  .528E-02  .102E-01  .619E-02  .498E-02  .732E-02  .101E-01
  .877E-02  .146E-01  .171E-01  .190E-01  .185E-01  .200E-01  .288E-01  .458E-01
  .835E-01  .821E-01  .105E+00  .150E+00  .184E+00  .227E+00  .249E+00  .192E+00
  .155E+00  .143E+00  .134E+00  .128E+00  .122E+00  .116E+00  .109E+00  .102E+00
  .136E+00  .922E-01  .101E+00  .111E+00  .104E+00  .800E-01  .727E-01  .658E-01
  .608E-01  .581E-01  .552E-01  .574E-01  .547E-01  .533E-01  .517E-01  .516E-01
  .516E-01  .518E-01  .522E-01  .525E-01  .526E-01  .523E-01  .516E-01  .509E-01
  .502E-01  .495E-01  .488E-01  .482E-01  .477E-01  .473E-01  .469E-01  .467E-01
  .465E-01  .463E-01  .462E-01  .460E-01  .458E-01  .456E-01  .455E-01  .454E-01
  .452E-01  .452E-01  .451E-01  .450E-01  .450E-01  .450E-01  .449E-01  .449E-01
  .449E-01  .449E-01  .449E-01  .000E+00  .000E+00  .000E+00  .000E+00  .000E+00
  .000E+00  .000E+00  .000E+00  .000E+00
  .411E-01  .633E-01  .479E-01  .728E-01  .106E+00  .672E-01  .732E-01  .150E+00
  .182E+00  .554E+00  .306E+00  .697E+00  .329E+00  .268E+00  .304E+00  .478E+00
  .409E+00  .734E+00  .653E+00  .685E+00  .616E+00  .506E+00  .100E+01  .134E+01
  .269E+01  .253E+01  .283E+01  .396E+01  .447E+01  .513E+01  .521E+01  .386E+01
  .313E+01  .282E+01  .257E+01  .223E+01  .208E+01  .205E+01  .200E+01  .191E+01
  .177E+01  .147E+01  .128E+01  .119E+01  .113E+01  .107E+01  .102E+01  .981E+00
  .958E+00  .940E+00  .924E+00  .891E+00  .858E+00  .830E+00  .809E+00  .792E+00
  .778E+00  .768E+00  .758E+00  .749E+00  .741E+00  .727E+00  .717E+00  .710E+00
  .705E+00  .701E+00  .699E+00  .696E+00  .695E+00  .694E+00  .693E+00  .692E+00
  .692E+00  .691E+00  .691E+00  .690E+00  .689E+00  .689E+00  .688E+00  .688E+00
  .688E+00  .687E+00  .687E+00  .687E+00  .687E+00  .687E+00  .687E+00  .687E+00
  .686E+00  .686E+00  .686E+00  .000E+00  .000E+00  .000E+00  .000E+00  .000E+00
  .000E+00  .000E+00  .000E+00  .000E+00
  .496E-01  .579E-01  .561E-01  .567E-01  .664E-01  .440E-01  .477E-01  .641E-01
  .625E-01  .150E+00  .960E-01  .164E+00  .876E-01  .629E-01  .830E-01  .104E+00
  .741E-01  .104E+00  .103E+00  .992E-01  .840E-01  .797E-01  .102E+00  .145E+00
  .237E+00  .210E+00  .221E+00  .267E+00  .279E+00  .295E+00  .283E+00  .191E+00
  .137E+00  .113E+00  .951E-01  .817E-01  .707E-01  .615E-01  .525E-01  .454E-01
  .558E-01  .312E-01  .288E-01  .269E-01  .217E-01  .145E-01  .116E-01  .932E-02
  .767E-02  .658E-02  .564E-02  .485E-02  .389E-02  .323E-02  .270E-02  .235E-02
  .206E-02  .183E-02  .165E-02  .149E-02  .135E-02  .110E-02  .916E-03  .770E-03
  .655E-03  .562E-03  .487E-03  .426E-03  .376E-03  .335E-03  .300E-03  .271E-03
  .245E-03  .224E-03  .205E-03  .188E-03  .155E-03  .130E-03  .110E-03  .947E-04
  .823E-04  .722E-04  .638E-04  .569E-04  .510E-04  .460E-04  .380E-04  .319E-04
  .272E-04  .234E-04  .204E-04  .000E+00  .000E+00  .000E+00  .000E+00  .000E+00
  .000E+00  .000E+00  .000E+00  .000E+00
  .122E+00  .149E+00  .152E+00  .160E+00  .196E+00  .135E+00  .161E+00  .236E+00
  .250E+00  .647E+00  .442E+00  .805E+00  .457E+00  .348E+00  .484E+00  .638E+00
  .501E+00  .764E+00  .824E+00  .854E+00  .774E+00  .784E+00  .106E+01  .160E+01
  .276E+01  .258E+01  .299E+01  .393E+01  .445E+01  .508E+01  .522E+01  .376E+01
  .286E+01  .250E+01  .222E+01  .201E+01  .182E+01  .166E+01  .148E+01  .134E+01
  .171E+01  .105E+01  .106E+01  .107E+01  .932E+00  .670E+00  .571E+00  .487E+00
  .424E+00  .384E+00  .347E+00  .328E+00  .287E+00  .258E+00  .232E+00  .216E+00
  .203E+00  .192E+00  .182E+00  .174E+00  .165E+00  .149E+00  .135E+00  .123E+00
  .113E+00  .104E+00  .958E-01  .891E-01  .832E-01  .782E-01  .737E-01  .698E-01
  .663E-01  .632E-01  .604E-01  .579E-01  .523E-01  .478E-01  .440E-01  .407E-01
  .379E-01  .355E-01  .333E-01  .314E-01  .298E-01  .283E-01  .257E-01  .235E-01
  .217E-01  .201E-01  .188E-01  .000E+00  .000E+00  .000E+00  .000E+00  .000E+00
  .000E+00  .000E+00  .000E+00  .000E+00
  .705E+01  .706E+01  .705E+01  .704E+01  .705E+01  .706E+01  .692E+01  .703E+01
  .681E+01  .705E+01  .680E+01  .718E+01  .696E+01  .696E+01  .720E+01  .707E+01
  .696E+01  .766E+01  .707E+01  .717E+01  .692E+01  .694E+01  .963E+01  .706E+01
  .835E+01  .961E+01  .732E+01  .880E+01  .791E+01  .868E+01  .112E+02  .763E+01
  .750E+01  .719E+01  .705E+01  .706E+01  .707E+01  .707E+01  .708E+01  .955E+01
  .359E+02  .693E+01  .208E+02  .957E+01  .903E+01  .734E+01  .173E+02  .736E+01
  .695E+01  .695E+01  .695E+01  .203E+02  .718E+01  .718E+01  .678E+01  .678E+01
  .678E+01  .678E+01  .678E+01  .678E+01  .678E+01  .678E+01  .678E+01  .678E+01
  .678E+01  .678E+01  .678E+01  .678E+01  .678E+01  .678E+01  .678E+01  .678E+01
  .678E+01  .678E+01  .678E+01  .678E+01  .678E+01  .678E+01  .678E+01  .678E+01
  .678E+01  .678E+01  .678E+01  .678E+01  .678E+01  .678E+01  .678E+01  .678E+01
  .678E+01  .678E+01  .678E+01  .000E+00  .000E+00  .000E+00  .000E+00  .000E+00
  .000E+00  .000E+00  .000E+00  .000E+00
  .725E+01  .701E+01  .703E+01  .702E+01  .724E+01  .701E+01  .700E+01  .701E+01
  .725E+01  .724E+01  .670E+01  .760E+01  .686E+01  .686E+01  .709E+01  .709E+01
  .830E+01  .769E+01  .711E+01  .713E+01  .688E+01  .698E+01  .958E+01  .711E+01
  .839E+01  .956E+01  .738E+01  .873E+01  .797E+01  .874E+01  .111E+02  .770E+01
  .725E+01  .712E+01  .713E+01  .713E+01  .699E+01  .700E+01  .700E+01  .700E+01
  .701E+01  .701E+01  .701E+01  .970E+01  .686E+01  .686E+01  .686E+01  .686E+01
  .686E+01  .686E+01  .686E+01  .686E+01  .686E+01  .686E+01  .686E+01  .686E+01
  .686E+01  .686E+01  .686E+01  .686E+01  .686E+01  .686E+01  .686E+01  .686E+01
  .686E+01  .686E+01  .686E+01  .686E+01  .686E+01  .686E+01  .686E+01  .686E+01
  .686E+01  .686E+01  .686E+01  .686E+01  .686E+01  .686E+01  .686E+01  .686E+01
  .686E+01  .686E+01  .686E+01  .686E+01  .686E+01  .686E+01  .686E+01  .686E+01
  .686E+01  .686E+01  .686E+01  .000E+00  .000E+00  .000E+00  .000E+00  .000E+00
  .000E+00  .000E+00  .000E+00  .000E+00
  .705E+01  .706E+01  .705E+01  .704E+01  .705E+01  .706E+01  .692E+01  .703E+01
  .681E+01  .705E+01  .680E+01  .718E+01  .696E+01  .696E+01  .720E+01  .707E+01
  .696E+01  .766E+01  .707E+01  .717E+01  .692E+01  .694E+01  .963E+01  .706E+01
  .835E+01  .961E+01  .732E+01  .880E+01  .791E+01  .868E+01  .112E+02  .763E+01
  .750E+01  .719E+01  .705E+01  .706E+01  .707E+01  .707E+01  .708E+01  .955E+01
  .359E+02  .693E+01  .208E+02  .957E+01  .903E+01  .734E+01  .173E+02  .736E+01
  .695E+01  .695E+01  .695E+01  .203E+02  .718E+01  .718E+01  .678E+01  .678E+01
  .678E+01  .678E+01  .678E+01  .678E+01  .678E+01  .678E+01  .678E+01  .678E+01
  .678E+01  .678E+01  .678E+01  .678E+01  .678E+01  .678E+01  .678E+01  .678E+01
  .678E+01  .678E+01  .678E+01  .678E+01  .678E+01  .678E+01  .678E+01  .678E+01
  .678E+01  .678E+01  .678E+01  .678E+01  .678E+01  .678E+01  .678E+01  .678E+01
  .678E+01  .678E+01  .678E+01  .000E+00  .000E+00  .000E+00  .000E+00  .000E+00
  .000E+00  .000E+00  .000E+00  .000E+00
Damping =  .02. Data of Sd,Sv,Sa,Pssv,ttSd,ttSv,ttSa :
  .806E-03  .855E-03  .915E-03  .109E-02  .124E-02  .121E-02  .154E-02  .185E-02
  .241E-02  .437E-02  .417E-02  .634E-02  .572E-02  .475E-02  .636E-02  .783E-02
  .727E-02  .119E-01  .158E-01  .161E-01  .163E-01  .187E-01  .233E-01  .363E-01
  .489E-01  .503E-01  .881E-01  .123E+00  .144E+00  .156E+00  .164E+00  .151E+00
  .135E+00  .127E+00  .124E+00  .119E+00  .114E+00  .108E+00  .101E+00  .949E-01
  .942E-01  .894E-01  .876E-01  .847E-01  .792E-01  .751E-01  .691E-01  .631E-01
  .602E-01  .576E-01  .548E-01  .520E-01  .527E-01  .518E-01  .510E-01  .510E-01
  .511E-01  .513E-01  .516E-01  .519E-01  .520E-01  .518E-01  .512E-01  .506E-01
  .499E-01  .493E-01  .487E-01  .481E-01  .476E-01  .472E-01  .469E-01  .467E-01
  .465E-01  .463E-01  .461E-01  .460E-01  .458E-01  .456E-01  .455E-01  .453E-01
  .452E-01  .452E-01  .451E-01  .450E-01  .450E-01  .450E-01  .449E-01  .449E-01
  .449E-01  .449E-01  .450E-01  .000E+00  .000E+00  .000E+00  .000E+00  .000E+00
  .000E+00  .000E+00  .000E+00  .000E+00
  .302E-01  .378E-01  .343E-01  .400E-01  .576E-01  .603E-01  .659E-01  .938E-01
  .127E+00  .253E+00  .275E+00  .349E+00  .276E+00  .188E+00  .246E+00  .327E+00
  .285E+00  .487E+00  .579E+00  .588E+00  .534E+00  .482E+00  .624E+00  .102E+01
  .138E+01  .139E+01  .235E+01  .312E+01  .338E+01  .353E+01  .352E+01  .314E+01
  .280E+01  .258E+01  .237E+01  .208E+01  .198E+01  .195E+01  .190E+01  .181E+01
  .170E+01  .145E+01  .126E+01  .113E+01  .110E+01  .105E+01  .101E+01  .973E+00
  .950E+00  .933E+00  .917E+00  .886E+00  .855E+00  .829E+00  .809E+00  .792E+00
  .779E+00  .768E+00  .759E+00  .750E+00  .742E+00  .729E+00  .719E+00  .712E+00
  .707E+00  .703E+00  .700E+00  .698E+00  .696E+00  .695E+00  .694E+00  .693E+00
  .692E+00  .692E+00  .691E+00  .691E+00  .690E+00  .689E+00  .689E+00  .688E+00
  .688E+00  .688E+00  .688E+00  .687E+00  .687E+00  .687E+00  .687E+00  .687E+00
  .687E+00  .687E+00  .686E+00  .000E+00  .000E+00  .000E+00  .000E+00  .000E+00
  .000E+00  .000E+00  .000E+00  .000E+00
  .515E-01  .496E-01  .483E-01  .525E-01  .549E-01  .493E-01  .519E-01  .525E-01
  .583E-01  .917E-01  .759E-01  .101E+00  .812E-01  .600E-01  .722E-01  .803E-01
  .615E-01  .843E-01  .959E-01  .839E-01  .738E-01  .747E-01  .826E-01  .115E+00
  .139E+00  .129E+00  .186E+00  .219E+00  .218E+00  .203E+00  .187E+00  .151E+00
  .119E+00  .100E+00  .878E-01  .764E-01  .662E-01  .573E-01  .487E-01  .421E-01
  .386E-01  .303E-01  .249E-01  .206E-01  .165E-01  .137E-01  .111E-01  .894E-02
  .764E-02  .655E-02  .563E-02  .442E-02  .378E-02  .316E-02  .268E-02  .234E-02
  .206E-02  .184E-02  .165E-02  .149E-02  .135E-02  .112E-02  .931E-03  .787E-03
  .673E-03  .581E-03  .507E-03  .446E-03  .397E-03  .355E-03  .320E-03  .291E-03
  .265E-03  .244E-03  .225E-03  .208E-03  .174E-03  .148E-03  .128E-03  .112E-03
  .997E-04  .893E-04  .805E-04  .731E-04  .669E-04  .615E-04  .528E-04  .460E-04
  .407E-04  .364E-04  .329E-04  .000E+00  .000E+00  .000E+00  .000E+00  .000E+00
  .000E+00  .000E+00  .000E+00  .000E+00
  .127E+00  .128E+00  .131E+00  .148E+00  .162E+00  .152E+00  .176E+00  .193E+00
  .233E+00  .392E+00  .350E+00  .498E+00  .423E+00  .331E+00  .421E+00  .492E+00
  .415E+00  .621E+00  .766E+00  .721E+00  .681E+00  .734E+00  .862E+00  .127E+01
  .162E+01  .158E+01  .251E+01  .322E+01  .348E+01  .349E+01  .344E+01  .297E+01
  .249E+01  .221E+01  .205E+01  .187E+01  .171E+01  .155E+01  .137E+01  .124E+01
  .118E+01  .102E+01  .917E+00  .819E+00  .710E+00  .629E+00  .543E+00  .466E+00
  .420E+00  .381E+00  .344E+00  .297E+00  .276E+00  .251E+00  .229E+00  .214E+00
  .201E+00  .190E+00  .180E+00  .172E+00  .163E+00  .148E+00  .134E+00  .122E+00
  .112E+00  .103E+00  .955E-01  .889E-01  .831E-01  .781E-01  .737E-01  .698E-01
  .663E-01  .632E-01  .604E-01  .578E-01  .523E-01  .478E-01  .440E-01  .407E-01
  .379E-01  .355E-01  .333E-01  .314E-01  .298E-01  .282E-01  .257E-01  .235E-01
  .217E-01  .202E-01  .188E-01  .000E+00  .000E+00  .000E+00  .000E+00  .000E+00
  .000E+00  .000E+00  .000E+00  .000E+00
  .705E+01  .705E+01  .705E+01  .705E+01  .705E+01  .705E+01  .705E+01  .692E+01
  .692E+01  .705E+01  .728E+01  .706E+01  .707E+01  .707E+01  .706E+01  .707E+01
  .696E+01  .707E+01  .707E+01  .717E+01  .692E+01  .694E+01  .693E+01  .707E+01
  .719E+01  .732E+01  .733E+01  .736E+01  .738E+01  .769E+01  .773E+01  .762E+01
  .718E+01  .719E+01  .705E+01  .705E+01  .707E+01  .707E+01  .708E+01  .691E+01
  .692E+01  .693E+01  .693E+01  .694E+01  .732E+01  .734E+01  .735E+01  .736E+01
  .695E+01  .695E+01  .695E+01  .718E+01  .718E+01  .718E+01  .678E+01  .678E+01
  .678E+01  .678E+01  .678E+01  .678E+01  .678E+01  .678E+01  .678E+01  .678E+01
  .678E+01  .678E+01  .678E+01  .678E+01  .678E+01  .678E+01  .678E+01  .678E+01
  .678E+01  .678E+01  .678E+01  .678E+01  .678E+01  .678E+01  .678E+01  .678E+01
  .678E+01  .678E+01  .678E+01  .678E+01  .678E+01  .678E+01  .678E+01  .678E+01
  .678E+01  .678E+01  .678E+01  .000E+00  .000E+00  .000E+00  .000E+00  .000E+00
  .000E+00  .000E+00  .000E+00  .000E+00
  .724E+01  .701E+01  .702E+01  .703E+01  .724E+01  .700E+01  .701E+01  .724E+01
  .701E+01  .724E+01  .726E+01  .716E+01  .709E+01  .686E+01  .709E+01  .709E+01
  .759E+01  .733E+01  .711E+01  .713E+01  .688E+01  .688E+01  .688E+01  .711E+01
  .820E+01  .726E+01  .727E+01  .729E+01  .732E+01  .776E+01  .766E+01  .724E+01
  .725E+01  .711E+01  .713E+01  .713E+01  .699E+01  .699E+01  .700E+01  .700E+01
  .700E+01  .701E+01  .701E+01  .686E+01  .686E+01  .686E+01  .686E+01  .686E+01
  .686E+01  .686E+01  .686E+01  .686E+01  .686E+01  .686E+01  .686E+01  .686E+01
  .686E+01  .686E+01  .686E+01  .686E+01  .686E+01  .686E+01  .686E+01  .686E+01
  .686E+01  .686E+01  .686E+01  .686E+01  .686E+01  .686E+01  .686E+01  .686E+01
  .686E+01  .686E+01  .686E+01  .686E+01  .686E+01  .686E+01  .686E+01  .686E+01
  .686E+01  .686E+01  .686E+01  .686E+01  .686E+01  .686E+01  .686E+01  .686E+01
  .686E+01  .686E+01  .686E+01  .000E+00  .000E+00  .000E+00  .000E+00  .000E+00
  .000E+00  .000E+00  .000E+00  .000E+00
  .705E+01  .705E+01  .705E+01  .705E+01  .705E+01  .705E+01  .705E+01  .692E+01
  .692E+01  .705E+01  .728E+01  .706E+01  .707E+01  .707E+01  .706E+01  .707E+01
  .695E+01  .706E+01  .707E+01  .717E+01  .692E+01  .693E+01  .693E+01  .707E+01
  .719E+01  .732E+01  .732E+01  .736E+01  .738E+01  .769E+01  .773E+01  .762E+01
  .717E+01  .719E+01  .705E+01  .705E+01  .706E+01  .707E+01  .707E+01  .691E+01
  .691E+01  .692E+01  .693E+01  .693E+01  .732E+01  .734E+01  .734E+01  .694E+01
  .694E+01  .694E+01  .694E+01  .717E+01  .717E+01  .718E+01  .677E+01  .677E+01
  .677E+01  .677E+01  .677E+01  .677E+01  .677E+01  .677E+01  .677E+01  .677E+01
  .677E+01  .677E+01  .677E+01  .676E+01  .676E+01  .676E+01  .676E+01  .676E+01
  .676E+01  .676E+01  .676E+01  .676E+01  .675E+01  .675E+01  .675E+01  .675E+01
  .675E+01  .675E+01  .675E+01  .675E+01  .674E+01  .674E+01  .674E+01  .674E+01
  .674E+01  .674E+01  .674E+01  .000E+00  .000E+00  .000E+00  .000E+00  .000E+00
  .000E+00  .000E+00  .000E+00  .000E+00
Damping =  .05. Data of Sd,Sv,Sa,Pssv,ttSd,ttSv,ttSa :
  .784E-03  .849E-03  .928E-03  .105E-02  .115E-02  .119E-02  .150E-02  .180E-02
  .239E-02  .355E-02  .414E-02  .519E-02  .533E-02  .525E-02  .608E-02  .691E-02
  .733E-02  .108E-01  .140E-01  .146E-01  .148E-01  .175E-01  .219E-01  .306E-01
  .398E-01  .462E-01  .711E-01  .975E-01  .114E+00  .122E+00  .125E+00  .119E+00
  .115E+00  .110E+00  .111E+00  .108E+00  .103E+00  .980E-01  .910E-01  .879E-01
