Response and Fourier amplitude spectra (91 periods,  .04 - 15.0 sec)   for      
Corrected accelerogram   24207-M0150-01010.01       Chan 11:  Tang       from   
Uncorrected Accelerogram Data             Processed: 03/04/11, CGS  207fa001    
Record of Sat Jan 13, 2001 18:26:11.0 PST             (Avol1 v8.9,05/09 CSMIP)  
CSMIP Preliminary Processing            (Origin:  To be determined)             
24207-M0150-01010.01                 Start time:  1/14/01, 02:26:11.0 UTC (GPS) 
Station No. 24207   34.334N, 118.396W    MtWtny  s/n  150 (17 Chns of 17 at Sta)
Sylmar - Pacoima Dam                      CGS                                   
Chan 11:  Tang                      Location: Dam Base                          
Record of Sat Jan 13, 2001 18:26:11.0 PST    Sat Jan 13, 2001 18:26:11.0 PST    
Hypocenter:  To be determined.               ML:  To be determined.
Instr Period =  .0102 sec,  Damping =  .660,  Sensitivity =  .63  v/g
                        Record length = 41.000 sec.
                                     Uncor Max  =   .021 g , at   6.720 sec.
RMS accel of (uncor) record  =        .   Chn. metadata effective date: 09/02/99
Accelerogram bandpass filtered with 3 dB pts at   .50 and 40.00 cyc/sec
                 instrument- and baseline-corrected





Record of Sat Jan 13, 2001 18:26:11.0 PST    Sat Jan 13, 2001 18:26:11.0 PST

24207-M0150-01010.01      Sylmar - Pacoima Dam    Chan 11:  Tang

24207-M0150-01010.01      Sylmar - Pacoima Dam    Chan 11:  Tang

Units for spectra are inches and sec, except Sa is in fraction of g.

   11  100   11   18   17  200    1    3    1   24   13  150    024207    5    0
    2   26   11    0   14    1   14 2001   10    3 1000 8200   41   20   76   -1
 8200    1  100    3  150    1    1  410    2    0    0    0    0    0    0    0
    0    4    0    0 8200    1  212    1   18    4    0    0    3    1    0 8200
    3 8200    1   91    5   17    5    0    0    0    0    0    0    3    1    2
    2    2    4    0   68   99    0    1    0    0    0    1    0    0    0  222
    1    0    2    0
      .010      .660    41.000      .001      .000   626.000      .021     6.720
    98.100      .298      .476      .000     5.000      .000     4.000      .000
     2.500   -11.939     2.500  2016.000     5.000    30.000      .000      .004
     -.001     -.005     2.000    15.000    34.334  -118.396      .006      .027
     4.444     -.006     -.003   594.000     5.400     9.900    12.700   100.040
     1.000     1.009      .000      .000      .000      .000      .000      .000
     7.200     8.900     5.800   980.665      .005    41.000    15.613      .000
      .000    40.000      .000    41.000      .005      .500      .000      .000
     6.720    20.357     6.680     -.865     6.735     -.064      .000      .500
    40.000      .005      .005      .000      .005      .005      .000      .000
      .057      .150      .042      .025      .003      .000      .000      .000
      .000      .000      .000      .000      .000      .000      .000      .000
      .000      .000      .000      .000
      .000      .020      .050      .100      .200
      .040      .042      .044      .046      .048      .050      .055      .060
      .065      .070      .075      .080      .085      .090      .095      .100
      .110      .120      .130      .140      .150      .160      .170      .180
      .190      .200      .220      .240      .260      .280      .300      .320
      .340      .360      .380      .400      .420      .440      .460      .480
      .500      .550      .600      .650      .700      .750      .800      .850
      .900      .950     1.000     1.100     1.200     1.300     1.400     1.500
     1.600     1.700     1.800     1.900     2.000     2.200     2.400     2.600
     2.800     3.000     3.200     3.400     3.600     3.800     4.000     4.200
     4.400     4.600     4.800     5.000     5.500     6.000     6.500     7.000
     7.500     8.000     8.500     9.000     9.500    10.000    11.000    12.000
    13.000    14.000    15.000      .000      .000      .000      .000      .000
      .000      .000      .000      .000
Fourier amplitude spectra in in/sec.
  .722E-02  .497E-01  .746E-02  .613E-01  .586E-01  .897E-01  .390E-01  .230E-01
  .794E-01  .120E+00  .150E+00  .251E+00  .269E+00  .183E+00  .216E+00  .116E+00
  .503E-01  .150E+00  .323E+00  .596E+00  .739E+00  .649E+00  .605E+00  .796E+00
  .849E+00  .723E+00  .325E+00  .520E+00  .419E+00  .597E+00  .741E+00  .586E+00
  .703E+00  .739E+00  .652E+00  .683E+00  .745E+00  .601E+00  .547E+00  .518E+00
  .527E+00  .495E+00  .496E+00  .614E+00  .535E+00  .461E+00  .415E+00  .193E+00
  .215E+00  .330E+00  .359E+00  .131E+00  .177E+00  .127E+00  .890E-01  .823E-01
  .884E-01  .608E-01  .263E-01  .475E-01  .546E-01  .411E-01  .250E-01  .157E-01
  .817E-02  .369E-02  .177E-02  .189E-02  .160E-02  .137E-02  .705E-03  .612E-03
  .440E-03  .342E-03  .353E-03  .302E-03  .268E-03  .121E-03  .164E-03  .436E-04
  .617E-04  .595E-04  .975E-05  .547E-04  .681E-04  .514E-04  .446E-04  .679E-04
  .495E-04  .255E-04  .426E-04  .000E+00  .000E+00  .000E+00  .000E+00  .000E+00
  .000E+00  .000E+00  .000E+00  .000E+00
Damping =  .00. Data of Sd,Sv,Sa,Pssv,ttSd,ttSv,ttSa :
  .457E-03  .463E-03  .470E-03  .625E-03  .807E-03  .822E-03  .990E-03  .995E-03
  .104E-02  .146E-02  .330E-02  .501E-02  .450E-02  .488E-02  .479E-02  .385E-02
  .350E-02  .520E-02  .928E-02  .141E-01  .182E-01  .193E-01  .190E-01  .235E-01
  .258E-01  .235E-01  .212E-01  .231E-01  .207E-01  .292E-01  .358E-01  .343E-01
  .387E-01  .444E-01  .457E-01  .455E-01  .501E-01  .465E-01  .484E-01  .488E-01
  .480E-01  .457E-01  .496E-01  .661E-01  .643E-01  .588E-01  .562E-01  .460E-01
  .435E-01  .504E-01  .587E-01  .365E-01  .451E-01  .359E-01  .353E-01  .348E-01
  .345E-01  .344E-01  .344E-01  .344E-01  .342E-01  .334E-01  .324E-01  .315E-01
  .306E-01  .297E-01  .290E-01  .284E-01  .279E-01  .274E-01  .271E-01  .269E-01
  .267E-01  .265E-01  .264E-01  .263E-01  .261E-01  .260E-01  .259E-01  .258E-01
  .257E-01  .256E-01  .256E-01  .256E-01  .255E-01  .255E-01  .255E-01  .255E-01
  .254E-01  .254E-01  .254E-01  .000E+00  .000E+00  .000E+00  .000E+00  .000E+00
  .000E+00  .000E+00  .000E+00  .000E+00
  .373E-01  .505E-01  .388E-01  .769E-01  .977E-01  .865E-01  .799E-01  .578E-01
  .792E-01  .126E+00  .220E+00  .320E+00  .297E+00  .272E+00  .250E+00  .172E+00
  .160E+00  .180E+00  .364E+00  .628E+00  .763E+00  .750E+00  .674E+00  .817E+00
  .855E+00  .733E+00  .590E+00  .597E+00  .507E+00  .648E+00  .749E+00  .672E+00
  .715E+00  .768E+00  .753E+00  .708E+00  .748E+00  .681E+00  .664E+00  .645E+00
  .617E+00  .565E+00  .565E+00  .638E+00  .592E+00  .515E+00  .443E+00  .409E+00
  .393E+00  .378E+00  .369E+00  .328E+00  .340E+00  .345E+00  .347E+00  .348E+00
  .348E+00  .349E+00  .350E+00  .351E+00  .353E+00  .354E+00  .354E+00  .354E+00
  .353E+00  .352E+00  .351E+00  .350E+00  .349E+00  .348E+00  .347E+00  .346E+00
  .345E+00  .345E+00  .344E+00  .344E+00  .343E+00  .343E+00  .342E+00  .342E+00
  .342E+00  .341E+00  .341E+00  .341E+00  .341E+00  .341E+00  .341E+00  .340E+00
  .340E+00  .340E+00  .340E+00  .000E+00  .000E+00  .000E+00  .000E+00  .000E+00
  .000E+00  .000E+00  .000E+00  .000E+00
  .292E-01  .268E-01  .248E-01  .302E-01  .358E-01  .336E-01  .335E-01  .283E-01
  .252E-01  .305E-01  .600E-01  .800E-01  .637E-01  .616E-01  .543E-01  .394E-01
  .296E-01  .369E-01  .562E-01  .735E-01  .828E-01  .769E-01  .672E-01  .743E-01
  .731E-01  .600E-01  .449E-01  .410E-01  .313E-01  .381E-01  .407E-01  .343E-01
  .343E-01  .350E-01  .324E-01  .291E-01  .291E-01  .246E-01  .234E-01  .217E-01
  .196E-01  .155E-01  .141E-01  .160E-01  .134E-01  .107E-01  .897E-02  .652E-02
  .549E-02  .571E-02  .600E-02  .308E-02  .320E-02  .218E-02  .184E-02  .158E-02
  .138E-02  .122E-02  .109E-02  .974E-03  .873E-03  .705E-03  .576E-03  .476E-03
  .399E-03  .338E-03  .290E-03  .251E-03  .220E-03  .194E-03  .173E-03  .156E-03
  .141E-03  .128E-03  .117E-03  .108E-03  .882E-04  .738E-04  .626E-04  .538E-04
  .467E-04  .410E-04  .362E-04  .323E-04  .289E-04  .261E-04  .215E-04  .181E-04
  .154E-04  .133E-04  .116E-04  .000E+00  .000E+00  .000E+00  .000E+00  .000E+00
  .000E+00  .000E+00  .000E+00  .000E+00
  .717E-01  .693E-01  .671E-01  .854E-01  .106E+00  .103E+00  .113E+00  .104E+00
  .101E+00  .131E+00  .276E+00  .393E+00  .332E+00  .340E+00  .317E+00  .242E+00
  .200E+00  .272E+00  .448E+00  .632E+00  .763E+00  .756E+00  .701E+00  .822E+00
  .854E+00  .737E+00  .606E+00  .605E+00  .500E+00  .655E+00  .750E+00  .674E+00
  .716E+00  .775E+00  .756E+00  .715E+00  .750E+00  .664E+00  .661E+00  .639E+00
  .603E+00  .522E+00  .519E+00  .639E+00  .577E+00  .492E+00  .441E+00  .340E+00
  .304E+00  .333E+00  .369E+00  .208E+00  .236E+00  .174E+00  .158E+00  .146E+00
  .136E+00  .127E+00  .120E+00  .114E+00  .107E+00  .953E-01  .849E-01  .761E-01
  .686E-01  .623E-01  .569E-01  .524E-01  .486E-01  .454E-01  .426E-01  .402E-01
  .381E-01  .362E-01  .345E-01  .330E-01  .298E-01  .272E-01  .250E-01  .231E-01
  .215E-01  .201E-01  .189E-01  .178E-01  .169E-01  .160E-01  .145E-01  .133E-01
  .123E-01  .114E-01  .107E-01  .000E+00  .000E+00  .000E+00  .000E+00  .000E+00
  .000E+00  .000E+00  .000E+00  .000E+00
  .673E+01  .673E+01  .671E+01  .673E+01  .712E+01  .669E+01  .669E+01  .670E+01
  .671E+01  .755E+01  .671E+01  .672E+01  .672E+01  .673E+01  .674E+01  .673E+01
  .662E+01  .673E+01  .673E+01  .926E+01  .101E+02  .708E+01  .719E+01  .138E+02
  .184E+02  .113E+02  .690E+01  .873E+01  .759E+01  .112E+02  .257E+02  .729E+01
  .172E+02  .115E+02  .834E+01  .902E+01  .247E+02  .706E+01  .708E+01  .709E+01
  .711E+01  .143E+02  .210E+02  .148E+02  .147E+02  .883E+01  .166E+02  .824E+01
  .746E+01  .365E+02  .280E+02  .672E+01  .138E+02  .672E+01  .673E+01  .673E+01
  .673E+01  .673E+01  .673E+01  .673E+01  .673E+01  .673E+01  .673E+01  .673E+01
  .673E+01  .673E+01  .673E+01  .673E+01  .673E+01  .673E+01  .673E+01  .673E+01
  .673E+01  .673E+01  .673E+01  .673E+01  .673E+01  .673E+01  .673E+01  .673E+01
  .673E+01  .673E+01  .673E+01  .673E+01  .673E+01  .673E+01  .673E+01  .673E+01
  .673E+01  .673E+01  .673E+01  .000E+00  .000E+00  .000E+00  .000E+00  .000E+00
  .000E+00  .000E+00  .000E+00  .000E+00
  .678E+01  .243E+02  .652E+01  .866E+01  .713E+01  .890E+01  .668E+01  .668E+01
  .308E+02  .753E+01  .699E+01  .674E+01  .789E+01  .675E+01  .676E+01  .676E+01
  .659E+01  .676E+01  .723E+01  .923E+01  .978E+01  .704E+01  .724E+01  .138E+02
  .183E+02  .137E+02  .684E+01  .868E+01  .766E+01  .111E+02  .247E+02  .786E+01
  .173E+02  .116E+02  .843E+01  .892E+01  .248E+02  .715E+01  .696E+01  .698E+01
  .699E+01  .678E+01  .678E+01  .149E+02  .923E+01  .865E+01  .168E+02  .679E+01
  .679E+01  .679E+01  .277E+02  .667E+01  .667E+01  .667E+01  .667E+01  .667E+01
  .667E+01  .667E+01  .667E+01  .667E+01  .667E+01  .667E+01  .667E+01  .667E+01
  .667E+01  .667E+01  .667E+01  .667E+01  .667E+01  .667E+01  .667E+01  .667E+01
  .667E+01  .667E+01  .667E+01  .667E+01  .667E+01  .667E+01  .667E+01  .667E+01
  .667E+01  .667E+01  .667E+01  .667E+01  .667E+01  .667E+01  .667E+01  .667E+01
  .667E+01  .667E+01  .667E+01  .000E+00  .000E+00  .000E+00  .000E+00  .000E+00
  .000E+00  .000E+00  .000E+00  .000E+00
  .673E+01  .673E+01  .671E+01  .673E+01  .712E+01  .669E+01  .669E+01  .670E+01
  .671E+01  .755E+01  .671E+01  .672E+01  .672E+01  .673E+01  .674E+01  .673E+01
  .662E+01  .673E+01  .673E+01  .926E+01  .101E+02  .708E+01  .719E+01  .138E+02
  .184E+02  .113E+02  .690E+01  .873E+01  .759E+01  .112E+02  .257E+02  .729E+01
  .172E+02  .115E+02  .834E+01  .902E+01  .247E+02  .706E+01  .708E+01  .709E+01
  .711E+01  .143E+02  .210E+02  .148E+02  .147E+02  .883E+01  .166E+02  .824E+01
  .746E+01  .365E+02  .280E+02  .672E+01  .138E+02  .672E+01  .673E+01  .673E+01
  .673E+01  .673E+01  .673E+01  .673E+01  .673E+01  .673E+01  .673E+01  .673E+01
  .673E+01  .673E+01  .673E+01  .673E+01  .673E+01  .673E+01  .673E+01  .673E+01
  .673E+01  .673E+01  .673E+01  .673E+01  .673E+01  .673E+01  .673E+01  .673E+01
  .673E+01  .673E+01  .673E+01  .673E+01  .673E+01  .673E+01  .673E+01  .673E+01
  .673E+01  .673E+01  .673E+01  .000E+00  .000E+00  .000E+00  .000E+00  .000E+00
  .000E+00  .000E+00  .000E+00  .000E+00
Damping =  .02. Data of Sd,Sv,Sa,Pssv,ttSd,ttSv,ttSa :
  .383E-03  .427E-03  .437E-03  .481E-03  .532E-03  .660E-03  .932E-03  .106E-02
  .126E-02  .161E-02  .250E-02  .349E-02  .380E-02  .413E-02  .396E-02  .352E-02
  .344E-02  .538E-02  .860E-02  .115E-01  .145E-01  .160E-01  .168E-01  .177E-01
  .188E-01  .195E-01  .192E-01  .189E-01  .188E-01  .218E-01  .276E-01  .291E-01
  .301E-01  .333E-01  .361E-01  .380E-01  .398E-01  .418E-01  .431E-01  .435E-01
  .430E-01  .421E-01  .439E-01  .444E-01  .461E-01  .439E-01  .415E-01  .400E-01
  .395E-01  .380E-01  .356E-01  .356E-01  .358E-01  .354E-01  .348E-01  .344E-01
  .342E-01  .341E-01  .341E-01  .340E-01  .338E-01  .331E-01  .322E-01  .313E-01
  .305E-01  .297E-01  .290E-01  .284E-01  .279E-01  .275E-01  .272E-01  .270E-01
  .268E-01  .266E-01  .265E-01  .264E-01  .262E-01  .260E-01  .259E-01  .258E-01
  .257E-01  .257E-01  .256E-01  .256E-01  .256E-01  .255E-01  .255E-01  .255E-01
  .255E-01  .255E-01  .255E-01  .000E+00  .000E+00  .000E+00  .000E+00  .000E+00
  .000E+00  .000E+00  .000E+00  .000E+00
  .234E-01  .283E-01  .294E-01  .364E-01  .445E-01  .541E-01  .656E-01  .573E-01
  .612E-01  .888E-01  .138E+00  .188E+00  .197E+00  .209E+00  .186E+00  .148E+00
  .141E+00  .184E+00  .313E+00  .426E+00  .552E+00  .609E+00  .610E+00  .612E+00
  .625E+00  .615E+00  .549E+00  .486E+00  .436E+00  .492E+00  .578E+00  .572E+00
  .585E+00  .603E+00  .604E+00  .622E+00  .621E+00  .607E+00  .610E+00  .594E+00
  .570E+00  .552E+00  .550E+00  .537E+00  .503E+00  .463E+00  .431E+00  .409E+00
  .392E+00  .377E+00  .362E+00  .330E+00  .334E+00  .340E+00  .342E+00  .344E+00
  .344E+00  .345E+00  .347E+00  .348E+00  .349E+00  .351E+00  .351E+00  .351E+00
  .351E+00  .350E+00  .349E+00  .348E+00  .347E+00  .346E+00  .346E+00  .345E+00
  .345E+00  .344E+00  .344E+00  .343E+00  .343E+00  .342E+00  .342E+00  .341E+00
  .341E+00  .341E+00  .341E+00  .341E+00  .340E+00  .340E+00  .340E+00  .340E+00
  .340E+00  .340E+00  .340E+00  .000E+00  .000E+00  .000E+00  .000E+00  .000E+00
  .000E+00  .000E+00  .000E+00  .000E+00
  .245E-01  .247E-01  .231E-01  .233E-01  .236E-01  .271E-01  .315E-01  .302E-01
  .305E-01  .337E-01  .456E-01  .556E-01  .537E-01  .522E-01  .449E-01  .360E-01
  .291E-01  .383E-01  .521E-01  .601E-01  .660E-01  .640E-01  .593E-01  .559E-01
  .535E-01  .499E-01  .406E-01  .336E-01  .285E-01  .285E-01  .314E-01  .291E-01
  .267E-01  .262E-01  .256E-01  .243E-01  .231E-01  .221E-01  .209E-01  .193E-01
  .176E-01  .142E-01  .125E-01  .108E-01  .962E-02  .799E-02  .664E-02  .567E-02
  .500E-02  .431E-02  .365E-02  .303E-02  .256E-02  .216E-02  .183E-02  .158E-02
  .138E-02  .122E-02  .109E-02  .979E-03  .880E-03  .716E-03  .589E-03  .491E-03
  .414E-03  .354E-03  .306E-03  .268E-03  .237E-03  .211E-03  .190E-03  .173E-03
  .158E-03  .145E-03  .133E-03  .124E-03  .104E-03  .893E-04  .777E-04  .686E-04
  .612E-04  .551E-04  .500E-04  .457E-04  .421E-04  .389E-04  .337E-04  .297E-04
  .265E-04  .239E-04  .218E-04  .000E+00  .000E+00  .000E+00  .000E+00  .000E+00
  .000E+00  .000E+00  .000E+00  .000E+00
  .602E-01  .638E-01  .623E-01  .657E-01  .696E-01  .830E-01  .106E+00  .111E+00
  .122E+00  .144E+00  .209E+00  .274E+00  .281E+00  .288E+00  .262E+00  .221E+00
  .196E+00  .282E+00  .416E+00  .517E+00  .609E+00  .628E+00  .619E+00  .617E+00
  .623E+00  .611E+00  .548E+00  .494E+00  .455E+00  .490E+00  .579E+00  .571E+00
  .557E+00  .581E+00  .597E+00  .597E+00  .596E+00  .597E+00  .589E+00  .570E+00
  .541E+00  .481E+00  .460E+00  .429E+00  .413E+00  .368E+00  .326E+00  .296E+00
  .276E+00  .251E+00  .224E+00  .203E+00  .187E+00  .171E+00  .156E+00  .144E+00
  .134E+00  .126E+00  .119E+00  .112E+00  .106E+00  .945E-01  .844E-01  .758E-01
  .685E-01  .623E-01  .570E-01  .526E-01  .488E-01  .455E-01  .428E-01  .404E-01
  .382E-01  .364E-01  .347E-01  .331E-01  .299E-01  .273E-01  .250E-01  .232E-01
  .216E-01  .202E-01  .190E-01  .179E-01  .169E-01  .160E-01  .146E-01  .133E-01
  .123E-01  .114E-01  .107E-01  .000E+00  .000E+00  .000E+00  .000E+00  .000E+00
  .000E+00  .000E+00  .000E+00  .000E+00
  .672E+01  .673E+01  .673E+01  .673E+01  .673E+01  .669E+01  .670E+01  .670E+01
  .671E+01  .671E+01  .671E+01  .672E+01  .672E+01  .673E+01  .673E+01  .674E+01
  .673E+01  .673E+01  .673E+01  .674E+01  .675E+01  .684E+01  .686E+01  .686E+01
  .687E+01  .688E+01  .690E+01  .692E+01  .693E+01  .694E+01  .726E+01  .729E+01
  .732E+01  .717E+01  .701E+01  .703E+01  .705E+01  .706E+01  .707E+01  .709E+01
  .711E+01  .689E+01  .691E+01  .759E+01  .872E+01  .846E+01  .777E+01  .743E+01
  .745E+01  .748E+01  .752E+01  .672E+01  .672E+01  .672E+01  .672E+01  .673E+01
  .673E+01  .673E+01  .673E+01  .673E+01  .673E+01  .673E+01  .673E+01  .673E+01
  .673E+01  .673E+01  .673E+01  .673E+01  .673E+01  .673E+01  .673E+01  .673E+01
  .673E+01  .673E+01  .673E+01  .673E+01  .673E+01  .673E+01  .673E+01  .673E+01
  .673E+01  .673E+01  .673E+01  .673E+01  .673E+01  .673E+01  .673E+01  .673E+01
  .673E+01  .673E+01  .673E+01  .000E+00  .000E+00  .000E+00  .000E+00  .000E+00
  .000E+00  .000E+00  .000E+00  .000E+00
  .667E+01  .667E+01  .679E+01  .668E+01  .668E+01  .668E+01  .668E+01  .668E+01
  .683E+01  .715E+01  .669E+01  .674E+01  .674E+01  .675E+01  .676E+01  .676E+01
  .659E+01  .676E+01  .676E+01  .678E+01  .679E+01  .680E+01  .681E+01  .682E+01
  .682E+01  .683E+01  .684E+01  .686E+01  .686E+01  .730E+01  .734E+01  .722E+01
  .723E+01  .726E+01  .711E+01  .713E+01  .714E+01  .695E+01  .696E+01  .697E+01
  .699E+01  .678E+01  .678E+01  .678E+01  .678E+01  .678E+01  .678E+01  .679E+01
  .679E+01  .679E+01  .679E+01  .679E+01  .667E+01  .667E+01  .667E+01  .667E+01
  .667E+01  .667E+01  .667E+01  .667E+01  .667E+01  .667E+01  .667E+01  .667E+01
  .667E+01  .667E+01  .667E+01  .667E+01  .667E+01  .667E+01  .667E+01  .667E+01
  .667E+01  .667E+01  .667E+01  .667E+01  .667E+01  .667E+01  .667E+01  .667E+01
  .667E+01  .667E+01  .667E+01  .667E+01  .667E+01  .667E+01  .667E+01  .667E+01
  .667E+01  .667E+01  .667E+01  .000E+00  .000E+00  .000E+00  .000E+00  .000E+00
  .000E+00  .000E+00  .000E+00  .000E+00
  .672E+01  .673E+01  .673E+01  .673E+01  .673E+01  .669E+01  .670E+01  .670E+01
  .671E+01  .670E+01  .671E+01  .672E+01  .672E+01  .673E+01  .673E+01  .673E+01
  .673E+01  .672E+01  .673E+01  .674E+01  .675E+01  .684E+01  .685E+01  .686E+01
  .687E+01  .688E+01  .690E+01  .691E+01  .693E+01  .694E+01  .726E+01  .729E+01
  .732E+01  .717E+01  .701E+01  .702E+01  .704E+01  .705E+01  .707E+01  .709E+01
  .711E+01  .689E+01  .690E+01  .759E+01  .871E+01  .845E+01  .777E+01  .742E+01
  .745E+01  .747E+01  .751E+01  .671E+01  .671E+01  .671E+01  .672E+01  .672E+01
  .672E+01  .672E+01  .672E+01  .671E+01  .671E+01  .671E+01  .671E+01  .671E+01
  .671E+01  .671E+01  .671E+01  .671E+01  .671E+01  .671E+01  .670E+01  .670E+01
  .670E+01  .670E+01  .670E+01  .670E+01  .670E+01  .670E+01  .669E+01  .669E+01
  .669E+01  .669E+01  .669E+01  .669E+01  .669E+01  .669E+01  .669E+01  .668E+01
  .668E+01  .668E+01  .668E+01  .000E+00  .000E+00  .000E+00  .000E+00  .000E+00
  .000E+00  .000E+00  .000E+00  .000E+00
Damping =  .05. Data of Sd,Sv,Sa,Pssv,ttSd,ttSv,ttSa :
  .361E-03  .399E-03  .425E-03  .450E-03  .500E-03  .597E-03  .840E-03  .103E-02
  .127E-02  .164E-02  .224E-02  .289E-02  .330E-02  .358E-02  .357E-02  .346E-02
  .372E-02  .535E-02  .783E-02  .103E-01  .126E-01  .140E-01  .148E-01  .156E-01
  .164E-01  .170E-01  .173E-01  .171E-01  .174E-01  .194E-01  .221E-01  .237E-01
  .258E-01  .286E-01  .312E-01  .330E-01  .345E-01  .358E-01  .367E-01  .375E-01
