Response and Fourier amplitude spectra (91 periods,  .04 - 15.0 sec)   for      
Corrected accelerogram   24207-M0150-01010.01       Chan 14: 360 Deg     from   
Uncorrected Accelerogram Data             Processed: 03/04/11, CGS  207fa001    
Record of Sat Jan 13, 2001 18:26:11.0 PST             (Avol1 v8.9,05/09 CSMIP)  
CSMIP Preliminary Processing            (Origin:  To be determined)             
24207-M0150-01010.01                 Start time:  1/14/01, 02:26:11.0 UTC (GPS) 
Station No. 24207   34.334N, 118.396W    MtWtny  s/n  150 (17 Chns of 17 at Sta)
Sylmar - Pacoima Dam                      CGS                                   
Chan 14: 360 DegR                   Location: Right (North) Abutment            
Record of Sat Jan 13, 2001 18:26:11.0 PST    Sat Jan 13, 2001 18:26:11.0 PST    
Hypocenter:  To be determined.               ML:  To be determined.
Instr Period =  .0106 sec,  Damping =  .660,  Sensitivity =  .63  v/g
                        Record length = 41.000 sec.
                                     Uncor Max  =   .051 g , at   6.770 sec.
RMS accel of (uncor) record  =        .   Chn. metadata effective date: 09/02/99
Accelerogram bandpass filtered with 3 dB pts at   .50 and 40.00 cyc/sec
                 instrument- and baseline-corrected





Record of Sat Jan 13, 2001 18:26:11.0 PST    Sat Jan 13, 2001 18:26:11.0 PST

24207-M0150-01010.01      Sylmar - Pacoima Dam    Chan 14: 360 Deg

24207-M0150-01010.01      Sylmar - Pacoima Dam    Chan 14: 360 Deg

Units for spectra are inches and sec, except Sa is in fraction of g.

   14  100   14   18   17  200    1    3    1   24   13  150    024207    5    0
    2   26   11    0   14    1   14 2001   10    3  360 8200   41   20   76   -1
 8200    0  100    3  150    1    1  410    2    0    0    0    0    0    0    0
    0    4    0    0 8200    1  212    1   18    4    0    0    3    1    0 8200
    3 8200    1   91    5   17    5    0    0    0    0    0    0    3    1    2
    2    2    4    0   68   99    0    1    0    0    0    1    0    0    0  222
    1    0    2    0
      .011      .660    41.000      .002      .000   625.000      .051     6.770
    94.600      .298      .477      .000     5.000      .000     4.000      .000
     2.500   -25.838     2.500  2016.000     5.000    30.000      .000     -.004
     -.001      .003     2.000    15.000    34.334  -118.396      .012      .044
     3.514      .001      .006   594.000     5.400     9.900    12.700   100.040
     1.000     1.001      .000      .000      .000      .000      .000      .000
     7.200     8.900     5.800   980.665      .005    41.000    15.056      .000
      .000    40.000      .000    41.000      .005      .500      .000      .000
     6.765    50.294     6.730    -1.525     6.775     -.095      .000      .500
    40.000      .005      .005      .000      .005      .008      .000      .000
      .133      .170      .107      .046      .005      .001      .000      .000
      .000      .000      .000      .000      .000      .000      .000      .000
      .000      .000      .000      .000
      .000      .020      .050      .100      .200
      .040      .042      .044      .046      .048      .050      .055      .060
      .065      .070      .075      .080      .085      .090      .095      .100
      .110      .120      .130      .140      .150      .160      .170      .180
      .190      .200      .220      .240      .260      .280      .300      .320
      .340      .360      .380      .400      .420      .440      .460      .480
      .500      .550      .600      .650      .700      .750      .800      .850
      .900      .950     1.000     1.100     1.200     1.300     1.400     1.500
     1.600     1.700     1.800     1.900     2.000     2.200     2.400     2.600
     2.800     3.000     3.200     3.400     3.600     3.800     4.000     4.200
     4.400     4.600     4.800     5.000     5.500     6.000     6.500     7.000
     7.500     8.000     8.500     9.000     9.500    10.000    11.000    12.000
    13.000    14.000    15.000      .000      .000      .000      .000      .000
      .000      .000      .000      .000
Fourier amplitude spectra in in/sec.
  .145E+00  .355E-01  .857E-01  .590E-01  .952E-01  .139E+00  .925E-01  .112E+00
  .569E-01  .242E+00  .909E+00  .106E+01  .683E+00  .384E+00  .408E+00  .306E+00
  .297E+00  .422E+00  .109E+01  .147E+01  .172E+01  .118E+01  .130E+01  .209E+01
  .244E+01  .231E+01  .170E+01  .151E+01  .629E+00  .881E+00  .735E+00  .108E+01
  .115E+01  .825E+00  .112E+01  .107E+01  .840E+00  .402E+00  .118E+01  .867E+00
  .494E+00  .714E+00  .904E+00  .361E+00  .453E+00  .340E+00  .683E+00  .538E+00
  .303E+00  .432E+00  .462E+00  .116E+00  .160E+00  .121E+00  .852E-01  .684E-01
  .905E-01  .530E-01  .269E-01  .455E-01  .507E-01  .403E-01  .262E-01  .167E-01
  .860E-02  .390E-02  .153E-02  .148E-02  .177E-02  .177E-02  .907E-03  .692E-03
  .699E-03  .601E-03  .470E-03  .323E-03  .314E-03  .140E-03  .134E-03  .884E-04
  .949E-05  .746E-04  .810E-04  .374E-04  .203E-04  .609E-04  .649E-04  .143E-04
  .441E-04  .624E-04  .532E-04  .000E+00  .000E+00  .000E+00  .000E+00  .000E+00
  .000E+00  .000E+00  .000E+00  .000E+00
Damping =  .00. Data of Sd,Sv,Sa,Pssv,ttSd,ttSv,ttSa :
  .144E-02  .117E-02  .118E-02  .123E-02  .138E-02  .221E-02  .257E-02  .268E-02
  .390E-02  .531E-02  .114E-01  .164E-01  .112E-01  .115E-01  .114E-01  .119E-01
  .113E-01  .134E-01  .253E-01  .350E-01  .418E-01  .430E-01  .478E-01  .609E-01
  .752E-01  .759E-01  .613E-01  .596E-01  .466E-01  .480E-01  .499E-01  .577E-01
  .626E-01  .618E-01  .687E-01  .743E-01  .604E-01  .598E-01  .879E-01  .695E-01
  .628E-01  .698E-01  .899E-01  .616E-01  .564E-01  .541E-01  .883E-01  .831E-01
  .710E-01  .662E-01  .743E-01  .511E-01  .510E-01  .501E-01  .491E-01  .484E-01
  .480E-01  .477E-01  .473E-01  .469E-01  .466E-01  .458E-01  .448E-01  .437E-01
  .426E-01  .417E-01  .410E-01  .404E-01  .400E-01  .396E-01  .393E-01  .390E-01
  .388E-01  .386E-01  .384E-01  .383E-01  .381E-01  .379E-01  .378E-01  .377E-01
  .377E-01  .377E-01  .376E-01  .376E-01  .376E-01  .376E-01  .375E-01  .375E-01
  .374E-01  .374E-01  .374E-01  .000E+00  .000E+00  .000E+00  .000E+00  .000E+00
  .000E+00  .000E+00  .000E+00  .000E+00
  .145E+00  .109E+00  .114E+00  .121E+00  .141E+00  .158E+00  .188E+00  .211E+00
  .301E+00  .381E+00  .935E+00  .127E+01  .821E+00  .711E+00  .656E+00  .643E+00
  .596E+00  .627E+00  .120E+01  .158E+01  .175E+01  .173E+01  .180E+01  .212E+01
  .248E+01  .238E+01  .175E+01  .154E+01  .113E+01  .113E+01  .109E+01  .113E+01
  .116E+01  .108E+01  .113E+01  .116E+01  .923E+00  .947E+00  .120E+01  .978E+00
  .983E+00  .967E+00  .960E+00  .944E+00  .896E+00  .838E+00  .790E+00  .758E+00
  .733E+00  .711E+00  .690E+00  .647E+00  .610E+00  .605E+00  .607E+00  .609E+00
  .610E+00  .611E+00  .612E+00  .612E+00  .613E+00  .614E+00  .614E+00  .614E+00
  .613E+00  .611E+00  .610E+00  .609E+00  .608E+00  .607E+00  .606E+00  .605E+00
  .605E+00  .604E+00  .604E+00  .603E+00  .602E+00  .602E+00  .601E+00  .601E+00
  .600E+00  .600E+00  .600E+00  .600E+00  .600E+00  .600E+00  .599E+00  .599E+00
  .599E+00  .599E+00  .599E+00  .000E+00  .000E+00  .000E+00  .000E+00  .000E+00
  .000E+00  .000E+00  .000E+00  .000E+00
  .919E-01  .680E-01  .623E-01  .594E-01  .612E-01  .905E-01  .868E-01  .761E-01
  .943E-01  .111E+00  .208E+00  .262E+00  .158E+00  .146E+00  .130E+00  .121E+00
  .958E-01  .950E-01  .153E+00  .183E+00  .190E+00  .172E+00  .169E+00  .192E+00
  .213E+00  .194E+00  .129E+00  .106E+00  .705E-01  .626E-01  .567E-01  .577E-01
  .554E-01  .488E-01  .487E-01  .475E-01  .350E-01  .316E-01  .425E-01  .308E-01
  .257E-01  .236E-01  .256E-01  .149E-01  .118E-01  .984E-02  .141E-01  .118E-01
  .896E-02  .750E-02  .759E-02  .432E-02  .362E-02  .303E-02  .256E-02  .220E-02
  .192E-02  .169E-02  .149E-02  .133E-02  .119E-02  .967E-03  .795E-03  .661E-03
  .556E-03  .474E-03  .409E-03  .358E-03  .315E-03  .280E-03  .251E-03  .226E-03
  .205E-03  .187E-03  .171E-03  .157E-03  .129E-03  .108E-03  .915E-04  .788E-04
  .685E-04  .602E-04  .533E-04  .475E-04  .426E-04  .384E-04  .317E-04  .266E-04
  .227E-04  .195E-04  .170E-04  .000E+00  .000E+00  .000E+00  .000E+00  .000E+00
  .000E+00  .000E+00  .000E+00  .000E+00
  .226E+00  .175E+00  .168E+00  .168E+00  .181E+00  .278E+00  .293E+00  .281E+00
  .377E+00  .477E+00  .957E+00  .129E+01  .828E+00  .806E+00  .756E+00  .746E+00
  .648E+00  .700E+00  .122E+01  .157E+01  .175E+01  .169E+01  .177E+01  .213E+01
  .249E+01  .238E+01  .175E+01  .156E+01  .113E+01  .108E+01  .104E+01  .113E+01
  .116E+01  .108E+01  .114E+01  .117E+01  .904E+00  .854E+00  .120E+01  .910E+00
  .790E+00  .797E+00  .942E+00  .596E+00  .506E+00  .453E+00  .694E+00  .614E+00
  .495E+00  .438E+00  .467E+00  .292E+00  .267E+00  .242E+00  .221E+00  .203E+00
  .189E+00  .176E+00  .165E+00  .155E+00  .146E+00  .131E+00  .117E+00  .106E+00
  .956E-01  .874E-01  .805E-01  .747E-01  .697E-01  .655E-01  .617E-01  .584E-01
  .554E-01  .527E-01  .503E-01  .481E-01  .435E-01  .397E-01  .365E-01  .339E-01
  .316E-01  .296E-01  .278E-01  .262E-01  .248E-01  .236E-01  .214E-01  .196E-01
  .181E-01  .168E-01  .157E-01  .000E+00  .000E+00  .000E+00  .000E+00  .000E+00
  .000E+00  .000E+00  .000E+00  .000E+00
  .677E+01  .675E+01  .676E+01  .685E+01  .686E+01  .676E+01  .675E+01  .687E+01
  .687E+01  .675E+01  .774E+01  .716E+01  .702E+01  .678E+01  .678E+01  .678E+01
  .666E+01  .677E+01  .725E+01  .778E+01  .972E+01  .697E+01  .698E+01  .763E+01
  .107E+02  .110E+02  .140E+02  .113E+02  .709E+01  .697E+01  .699E+01  .145E+02
  .264E+02  .810E+01  .112E+02  .102E+02  .112E+02  .688E+01  .274E+02  .126E+02
  .715E+01  .102E+02  .189E+02  .761E+01  .768E+01  .739E+01  .339E+02  .151E+02
  .106E+02  .361E+02  .280E+02  .676E+01  .676E+01  .676E+01  .676E+01  .676E+01
  .676E+01  .676E+01  .676E+01  .677E+01  .677E+01  .677E+01  .677E+01  .677E+01
  .677E+01  .677E+01  .677E+01  .677E+01  .677E+01  .677E+01  .677E+01  .677E+01
  .677E+01  .677E+01  .677E+01  .677E+01  .677E+01  .677E+01  .677E+01  .677E+01
  .677E+01  .677E+01  .677E+01  .677E+01  .677E+01  .677E+01  .677E+01  .677E+01
  .677E+01  .677E+01  .677E+01  .000E+00  .000E+00  .000E+00  .000E+00  .000E+00
  .000E+00  .000E+00  .000E+00  .000E+00
  .190E+02  .684E+01  .886E+01  .728E+01  .749E+01  .108E+02  .673E+01  .689E+01
  .689E+01  .688E+01  .776E+01  .746E+01  .700E+01  .680E+01  .681E+01  .681E+01
  .664E+01  .780E+01  .722E+01  .782E+01  .976E+01  .693E+01  .694E+01  .786E+01
  .108E+02  .108E+02  .140E+02  .113E+02  .690E+01  .690E+01  .707E+01  .145E+02
  .273E+02  .819E+01  .263E+02  .103E+02  .719E+01  .720E+01  .275E+02  .682E+01
  .682E+01  .682E+01  .682E+01  .683E+01  .683E+01  .683E+01  .683E+01  .683E+01
  .683E+01  .683E+01  .683E+01  .683E+01  .683E+01  .672E+01  .672E+01  .672E+01
  .672E+01  .672E+01  .672E+01  .672E+01  .672E+01  .672E+01  .672E+01  .672E+01
  .672E+01  .672E+01  .672E+01  .672E+01  .672E+01  .672E+01  .672E+01  .672E+01
  .672E+01  .672E+01  .672E+01  .672E+01  .672E+01  .672E+01  .672E+01  .672E+01
  .672E+01  .672E+01  .672E+01  .672E+01  .672E+01  .672E+01  .672E+01  .672E+01
  .672E+01  .672E+01  .672E+01  .000E+00  .000E+00  .000E+00  .000E+00  .000E+00
  .000E+00  .000E+00  .000E+00  .000E+00
  .677E+01  .675E+01  .676E+01  .685E+01  .686E+01  .676E+01  .675E+01  .687E+01
  .687E+01  .675E+01  .774E+01  .716E+01  .702E+01  .678E+01  .678E+01  .678E+01
  .666E+01  .677E+01  .725E+01  .778E+01  .972E+01  .697E+01  .698E+01  .763E+01
  .107E+02  .110E+02  .140E+02  .113E+02  .709E+01  .697E+01  .699E+01  .145E+02
  .264E+02  .810E+01  .112E+02  .102E+02  .112E+02  .688E+01  .274E+02  .126E+02
  .715E+01  .102E+02  .189E+02  .761E+01  .768E+01  .739E+01  .339E+02  .151E+02
  .106E+02  .361E+02  .280E+02  .676E+01  .676E+01  .676E+01  .676E+01  .676E+01
  .676E+01  .676E+01  .676E+01  .677E+01  .677E+01  .677E+01  .677E+01  .677E+01
  .677E+01  .677E+01  .677E+01  .677E+01  .677E+01  .677E+01  .677E+01  .677E+01
  .677E+01  .677E+01  .677E+01  .677E+01  .677E+01  .677E+01  .677E+01  .677E+01
  .677E+01  .677E+01  .677E+01  .677E+01  .677E+01  .677E+01  .677E+01  .677E+01
  .677E+01  .677E+01  .677E+01  .000E+00  .000E+00  .000E+00  .000E+00  .000E+00
  .000E+00  .000E+00  .000E+00  .000E+00
Damping =  .02. Data of Sd,Sv,Sa,Pssv,ttSd,ttSv,ttSa :
  .918E-03  .883E-03  .964E-03  .113E-02  .135E-02  .150E-02  .183E-02  .238E-02
  .317E-02  .515E-02  .734E-02  .938E-02  .103E-01  .103E-01  .975E-02  .973E-02
  .853E-02  .137E-01  .200E-01  .243E-01  .322E-01  .381E-01  .432E-01  .490E-01
  .511E-01  .528E-01  .476E-01  .435E-01  .419E-01  .442E-01  .451E-01  .425E-01
  .426E-01  .464E-01  .508E-01  .535E-01  .554E-01  .571E-01  .582E-01  .582E-01
  .573E-01  .556E-01  .530E-01  .518E-01  .490E-01  .487E-01  .487E-01  .536E-01
  .545E-01  .512E-01  .486E-01  .500E-01  .501E-01  .494E-01  .486E-01  .480E-01
  .476E-01  .473E-01  .470E-01  .466E-01  .463E-01  .455E-01  .446E-01  .436E-01
  .426E-01  .417E-01  .410E-01  .405E-01  .400E-01  .397E-01  .394E-01  .391E-01
  .389E-01  .387E-01  .385E-01  .384E-01  .381E-01  .380E-01  .379E-01  .378E-01
  .377E-01  .377E-01  .377E-01  .376E-01  .376E-01  .376E-01  .375E-01  .374E-01
  .374E-01  .375E-01  .375E-01  .000E+00  .000E+00  .000E+00  .000E+00  .000E+00
  .000E+00  .000E+00  .000E+00  .000E+00
  .598E-01  .724E-01  .793E-01  .856E-01  .881E-01  .845E-01  .121E+00  .168E+00
  .197E+00  .338E+00  .549E+00  .706E+00  .639E+00  .592E+00  .530E+00  .493E+00
  .386E+00  .572E+00  .882E+00  .104E+01  .135E+01  .152E+01  .160E+01  .166E+01
  .162E+01  .168E+01  .139E+01  .125E+01  .110E+01  .108E+01  .101E+01  .883E+00
  .830E+00  .828E+00  .848E+00  .848E+00  .856E+00  .889E+00  .919E+00  .942E+00
  .950E+00  .944E+00  .937E+00  .920E+00  .879E+00  .830E+00  .787E+00  .756E+00
  .731E+00  .710E+00  .689E+00  .648E+00  .613E+00  .597E+00  .601E+00  .602E+00
  .604E+00  .605E+00  .607E+00  .608E+00  .609E+00  .610E+00  .610E+00  .610E+00
  .610E+00  .609E+00  .608E+00  .607E+00  .606E+00  .605E+00  .604E+00  .604E+00
  .603E+00  .603E+00  .602E+00  .602E+00  .601E+00  .601E+00  .600E+00  .600E+00
  .600E+00  .599E+00  .599E+00  .599E+00  .599E+00  .599E+00  .599E+00  .599E+00
  .599E+00  .599E+00  .599E+00  .000E+00  .000E+00  .000E+00  .000E+00  .000E+00
  .000E+00  .000E+00  .000E+00  .000E+00
  .586E-01  .512E-01  .509E-01  .544E-01  .602E-01  .615E-01  .616E-01  .679E-01
  .770E-01  .107E+00  .134E+00  .150E+00  .145E+00  .130E+00  .111E+00  .994E-01
  .722E-01  .979E-01  .121E+00  .127E+00  .147E+00  .152E+00  .153E+00  .155E+00
  .145E+00  .135E+00  .101E+00  .775E-01  .634E-01  .576E-01  .513E-01  .424E-01
  .377E-01  .367E-01  .361E-01  .342E-01  .322E-01  .302E-01  .282E-01  .259E-01
  .235E-01  .188E-01  .151E-01  .125E-01  .102E-01  .886E-02  .780E-02  .760E-02
  .689E-02  .580E-02  .502E-02  .427E-02  .360E-02  .303E-02  .258E-02  .223E-02
  .195E-02  .172E-02  .153E-02  .136E-02  .123E-02  .100E-02  .832E-03  .699E-03
  .596E-03  .514E-03  .449E-03  .397E-03  .354E-03  .319E-03  .289E-03  .264E-03
  .242E-03  .223E-03  .207E-03  .192E-03  .163E-03  .141E-03  .123E-03  .110E-03
  .982E-04  .890E-04  .812E-04  .746E-04  .689E-04  .639E-04  .557E-04  .492E-04
  .442E-04  .400E-04  .365E-04  .000E+00  .000E+00  .000E+00  .000E+00  .000E+00
  .000E+00  .000E+00  .000E+00  .000E+00
  .144E+00  .132E+00  .138E+00  .154E+00  .177E+00  .189E+00  .209E+00  .249E+00
  .307E+00  .462E+00  .615E+00  .737E+00  .758E+00  .720E+00  .645E+00  .612E+00
  .487E+00  .720E+00  .968E+00  .109E+01  .135E+01  .150E+01  .160E+01  .171E+01
  .169E+01  .166E+01  .136E+01  .114E+01  .101E+01  .991E+00  .944E+00  .834E+00
  .787E+00  .811E+00  .840E+00  .840E+00  .829E+00  .815E+00  .795E+00  .762E+00
  .720E+00  .635E+00  .555E+00  .501E+00  .440E+00  .408E+00  .383E+00  .396E+00
  .381E+00  .338E+00  .306E+00  .285E+00  .262E+00  .239E+00  .218E+00  .201E+00
  .187E+00  .175E+00  .164E+00  .154E+00  .145E+00  .130E+00  .117E+00  .105E+00
  .955E-01  .874E-01  .806E-01  .748E-01  .699E-01  .656E-01  .618E-01  .585E-01
  .555E-01  .528E-01  .504E-01  .482E-01  .436E-01  .398E-01  .366E-01  .339E-01
  .316E-01  .296E-01  .279E-01  .263E-01  .249E-01  .236E-01  .214E-01  .196E-01
  .181E-01  .168E-01  .157E-01  .000E+00  .000E+00  .000E+00  .000E+00  .000E+00
  .000E+00  .000E+00  .000E+00  .000E+00
  .677E+01  .677E+01  .675E+01  .675E+01  .675E+01  .675E+01  .686E+01  .686E+01
  .675E+01  .675E+01  .688E+01  .716E+01  .677E+01  .678E+01  .678E+01  .678E+01
  .678E+01  .678E+01  .678E+01  .687E+01  .688E+01  .689E+01  .690E+01  .690E+01
  .691E+01  .732E+01  .715E+01  .707E+01  .696E+01  .697E+01  .699E+01  .700E+01
  .701E+01  .757E+01  .686E+01  .686E+01  .687E+01  .688E+01  .688E+01  .688E+01
  .688E+01  .718E+01  .693E+01  .761E+01  .735E+01  .738E+01  .908E+01  .917E+01
  .885E+01  .893E+01  .676E+01  .676E+01  .676E+01  .676E+01  .676E+01  .676E+01
  .676E+01  .676E+01  .676E+01  .676E+01  .676E+01  .677E+01  .677E+01  .677E+01
  .677E+01  .677E+01  .677E+01  .677E+01  .677E+01  .677E+01  .677E+01  .677E+01
  .677E+01  .677E+01  .677E+01  .677E+01  .677E+01  .677E+01  .677E+01  .677E+01
  .677E+01  .677E+01  .677E+01  .677E+01  .677E+01  .677E+01  .677E+01  .677E+01
  .677E+01  .677E+01  .677E+01  .000E+00  .000E+00  .000E+00  .000E+00  .000E+00
  .000E+00  .000E+00  .000E+00  .000E+00
  .672E+01  .684E+01  .684E+01  .684E+01  .697E+01  .697E+01  .688E+01  .688E+01
  .673E+01  .688E+01  .689E+01  .714E+01  .696E+01  .680E+01  .680E+01  .681E+01
  .664E+01  .681E+01  .722E+01  .725E+01  .692E+01  .693E+01  .694E+01  .695E+01
  .725E+01  .727E+01  .721E+01  .713E+01  .690E+01  .690E+01  .690E+01  .691E+01
  .691E+01  .691E+01  .695E+01  .696E+01  .682E+01  .682E+01  .682E+01  .682E+01
  .682E+01  .682E+01  .682E+01  .683E+01  .683E+01  .683E+01  .683E+01  .683E+01
  .683E+01  .683E+01  .683E+01  .683E+01  .683E+01  .672E+01  .672E+01  .672E+01
  .672E+01  .672E+01  .672E+01  .672E+01  .672E+01  .672E+01  .672E+01  .672E+01
  .672E+01  .672E+01  .672E+01  .672E+01  .672E+01  .672E+01  .672E+01  .672E+01
  .672E+01  .672E+01  .672E+01  .672E+01  .672E+01  .672E+01  .672E+01  .672E+01
  .672E+01  .672E+01  .672E+01  .672E+01  .672E+01  .672E+01  .672E+01  .672E+01
  .672E+01  .672E+01  .672E+01  .000E+00  .000E+00  .000E+00  .000E+00  .000E+00
  .000E+00  .000E+00  .000E+00  .000E+00
  .677E+01  .677E+01  .675E+01  .675E+01  .675E+01  .675E+01  .686E+01  .686E+01
  .675E+01  .675E+01  .688E+01  .716E+01  .677E+01  .678E+01  .678E+01  .678E+01
  .678E+01  .677E+01  .678E+01  .687E+01  .688E+01  .689E+01  .689E+01  .690E+01
  .691E+01  .732E+01  .715E+01  .707E+01  .696E+01  .697E+01  .698E+01  .699E+01
  .700E+01  .686E+01  .686E+01  .686E+01  .686E+01  .687E+01  .688E+01  .688E+01
  .688E+01  .717E+01  .693E+01  .760E+01  .734E+01  .738E+01  .907E+01  .916E+01
  .885E+01  .892E+01  .675E+01  .675E+01  .675E+01  .675E+01  .675E+01  .675E+01
  .675E+01  .675E+01  .675E+01  .675E+01  .675E+01  .675E+01  .675E+01  .675E+01
  .675E+01  .675E+01  .675E+01  .675E+01  .675E+01  .674E+01  .674E+01  .674E+01
  .674E+01  .674E+01  .674E+01  .674E+01  .674E+01  .674E+01  .674E+01  .674E+01
  .674E+01  .673E+01  .673E+01  .673E+01  .673E+01  .673E+01  .673E+01  .673E+01
  .673E+01  .673E+01  .673E+01  .000E+00  .000E+00  .000E+00  .000E+00  .000E+00
  .000E+00  .000E+00  .000E+00  .000E+00
Damping =  .05. Data of Sd,Sv,Sa,Pssv,ttSd,ttSv,ttSa :
  .865E-03  .896E-03  .950E-03  .111E-02  .128E-02  .142E-02  .175E-02  .225E-02
  .322E-02  .463E-02  .617E-02  .770E-02  .884E-02  .913E-02  .914E-02  .911E-02
  .956E-02  .135E-01  .183E-01  .222E-01  .274E-01  .328E-01  .374E-01  .414E-01
  .434E-01  .433E-01  .403E-01  .387E-01  .380E-01  .392E-01  .399E-01  .403E-01
  .414E-01  .446E-01  .479E-01  .503E-01  .521E-01  .535E-01  .543E-01  .543E-01
