Response and Fourier amplitude spectra (91 periods,  .04 - 15.0 sec)   for      
Corrected accelerogram   24207-M0150-01010.01       Chan 10:  Up         from   
Uncorrected Accelerogram Data             Processed: 03/04/11, CGS  207fa001    
Record of Sat Jan 13, 2001 18:26:11.0 PST             (Avol1 v8.9,05/09 CSMIP)  
CSMIP Preliminary Processing            (Origin:  To be determined)             
24207-M0150-01010.01                 Start time:  1/14/01, 02:26:11.0 UTC (GPS) 
Station No. 24207   34.334N, 118.396W    MtWtny  s/n  150 (17 Chns of 17 at Sta)
Sylmar - Pacoima Dam                      CGS                                   
Chan 10:  Up                        Location: Dam Base                          
Record of Sat Jan 13, 2001 18:26:11.0 PST    Sat Jan 13, 2001 18:26:11.0 PST    
Hypocenter:  To be determined.               ML:  To be determined.
Instr Period =  .0110 sec,  Damping =  .660,  Sensitivity =  .62  v/g
                        Record length = 41.000 sec.
                                     Uncor Max  =   .007 g , at   6.775 sec.
RMS accel of (uncor) record  =        .   Chn. metadata effective date: 03/23/00
Accelerogram bandpass filtered with 3 dB pts at   .50 and 40.00 cyc/sec
                 instrument- and baseline-corrected





Record of Sat Jan 13, 2001 18:26:11.0 PST    Sat Jan 13, 2001 18:26:11.0 PST

24207-M0150-01010.01      Sylmar - Pacoima Dam    Chan 10:  Up

24207-M0150-01010.01      Sylmar - Pacoima Dam    Chan 10:  Up

Units for spectra are inches and sec, except Sa is in fraction of g.

   10  100   10   18   17  200    1    3    1   24   13  150    024207    5    0
    2   26   11    0   14    1   14 2001   10    3  500 8200   41   20   76   -1
 8200    1  100    3  150    1    1  410    2    0    0    0    0    0    0    0
    0    4    0    0 8200    1  212    1   18    4    0    0    3    1    0 8200
    3 8200    1   91    5   17    5    0    0    0    0    0    0    3    1    2
    2    2    4    0   68   99    0    1    0    0    0    1    0    0    0  222
    1    0    2    0
      .011      .660    41.000      .001      .000   624.000      .007     6.775
    90.600      .298      .478      .000     5.000      .000     4.000      .000
     2.500    33.018     2.500  2016.000     5.000    30.000      .000      .000
     -.001     -.001     2.000    15.000    34.334  -118.396      .015      .027
     1.858     -.004      .001   594.000     5.400     9.900    12.700   100.040
     1.000    -1.034      .000      .000      .000      .000      .000      .000
     7.200     8.900     5.800   980.665      .005    41.000    14.419      .000
      .000    40.000      .000    41.000      .005      .500      .000      .000
     6.770     7.005     6.590     -.232     8.250      .021      .000      .500
    40.000      .005      .005      .000      .005      .005      .000      .000
      .025      .160      .017      .009      .002      .000      .000      .000
      .000      .000      .000      .000      .000      .000      .000      .000
      .000      .000      .000      .000
      .000      .020      .050      .100      .200
      .040      .042      .044      .046      .048      .050      .055      .060
      .065      .070      .075      .080      .085      .090      .095      .100
      .110      .120      .130      .140      .150      .160      .170      .180
      .190      .200      .220      .240      .260      .280      .300      .320
      .340      .360      .380      .400      .420      .440      .460      .480
      .500      .550      .600      .650      .700      .750      .800      .850
      .900      .950     1.000     1.100     1.200     1.300     1.400     1.500
     1.600     1.700     1.800     1.900     2.000     2.200     2.400     2.600
     2.800     3.000     3.200     3.400     3.600     3.800     4.000     4.200
     4.400     4.600     4.800     5.000     5.500     6.000     6.500     7.000
     7.500     8.000     8.500     9.000     9.500    10.000    11.000    12.000
    13.000    14.000    15.000      .000      .000      .000      .000      .000
      .000      .000      .000      .000
Fourier amplitude spectra in in/sec.
  .794E-01  .135E-01  .390E-01  .471E-01  .782E-01  .957E-01  .495E-01  .183E-01
  .684E-01  .659E-01  .983E-01  .202E+00  .164E+00  .460E-01  .125E+00  .113E+00
  .952E-01  .164E+00  .298E+00  .301E+00  .218E+00  .380E+00  .262E+00  .369E+00
  .560E+00  .548E+00  .121E+00  .146E+00  .425E+00  .271E+00  .214E+00  .166E+00
  .720E-01  .998E-01  .242E+00  .317E+00  .462E+00  .263E+00  .344E+00  .496E+00
  .299E+00  .471E+00  .414E+00  .749E-01  .153E+00  .437E+00  .473E+00  .248E+00
  .996E-01  .286E+00  .299E+00  .396E-01  .360E-01  .132E+00  .778E-01  .933E-01
  .588E-01  .285E-01  .393E-01  .285E-01  .268E-01  .365E-01  .208E-01  .945E-02
  .277E-02  .306E-02  .239E-02  .294E-02  .256E-02  .174E-02  .155E-02  .121E-02
  .101E-02  .906E-03  .749E-03  .659E-03  .339E-03  .191E-03  .136E-03  .575E-04
  .979E-04  .630E-04  .218E-04  .454E-04  .538E-04  .451E-04  .384E-04  .479E-04
  .436E-04  .390E-04  .419E-04  .000E+00  .000E+00  .000E+00  .000E+00  .000E+00
  .000E+00  .000E+00  .000E+00  .000E+00
Damping =  .00. Data of Sd,Sv,Sa,Pssv,ttSd,ttSv,ttSa :
  .541E-03  .306E-03  .438E-03  .450E-03  .872E-03  .768E-03  .581E-03  .698E-03
  .965E-03  .168E-02  .195E-02  .267E-02  .227E-02  .171E-02  .205E-02  .298E-02
  .375E-02  .382E-02  .724E-02  .678E-02  .624E-02  .104E-01  .104E-01  .118E-01
  .180E-01  .180E-01  .802E-02  .102E-01  .190E-01  .162E-01  .124E-01  .119E-01
  .130E-01  .125E-01  .193E-01  .262E-01  .313E-01  .270E-01  .278E-01  .390E-01
  .275E-01  .448E-01  .411E-01  .262E-01  .244E-01  .526E-01  .616E-01  .427E-01
  .384E-01  .459E-01  .481E-01  .219E-01  .197E-01  .283E-01  .274E-01  .232E-01
  .187E-01  .168E-01  .180E-01  .180E-01  .174E-01  .151E-01  .128E-01  .111E-01
  .103E-01  .100E-01  .979E-02  .961E-02  .946E-02  .932E-02  .921E-02  .910E-02
  .901E-02  .892E-02  .885E-02  .878E-02  .866E-02  .856E-02  .850E-02  .846E-02
  .845E-02  .844E-02  .844E-02  .843E-02  .843E-02  .842E-02  .841E-02  .840E-02
  .839E-02  .838E-02  .838E-02  .000E+00  .000E+00  .000E+00  .000E+00  .000E+00
  .000E+00  .000E+00  .000E+00  .000E+00
  .813E-01  .346E-01  .555E-01  .592E-01  .107E+00  .919E-01  .600E-01  .683E-01
  .842E-01  .139E+00  .154E+00  .208E+00  .168E+00  .113E+00  .134E+00  .182E+00
  .198E+00  .189E+00  .345E+00  .304E+00  .260E+00  .395E+00  .378E+00  .390E+00
  .588E+00  .559E+00  .228E+00  .287E+00  .459E+00  .365E+00  .251E+00  .229E+00
  .259E+00  .244E+00  .292E+00  .386E+00  .468E+00  .373E+00  .368E+00  .510E+00
  .346E+00  .500E+00  .419E+00  .265E+00  .218E+00  .441E+00  .481E+00  .340E+00
  .299E+00  .306E+00  .303E+00  .163E+00  .148E+00  .153E+00  .144E+00  .125E+00
  .128E+00  .123E+00  .112E+00  .105E+00  .102E+00  .982E-01  .956E-01  .941E-01
  .932E-01  .926E-01  .922E-01  .919E-01  .917E-01  .915E-01  .914E-01  .913E-01
  .912E-01  .911E-01  .911E-01  .911E-01  .910E-01  .910E-01  .910E-01  .910E-01
  .910E-01  .910E-01  .910E-01  .910E-01  .910E-01  .910E-01  .910E-01  .910E-01
  .910E-01  .910E-01  .910E-01  .000E+00  .000E+00  .000E+00  .000E+00  .000E+00
  .000E+00  .000E+00  .000E+00  .000E+00
  .346E-01  .177E-01  .231E-01  .217E-01  .387E-01  .314E-01  .196E-01  .198E-01
  .234E-01  .351E-01  .355E-01  .426E-01  .322E-01  .216E-01  .232E-01  .305E-01
  .317E-01  .271E-01  .438E-01  .354E-01  .284E-01  .417E-01  .368E-01  .373E-01
  .511E-01  .460E-01  .169E-01  .181E-01  .288E-01  .211E-01  .141E-01  .119E-01
  .115E-01  .988E-02  .136E-01  .167E-01  .181E-01  .143E-01  .134E-01  .173E-01
  .112E-01  .151E-01  .117E-01  .635E-02  .510E-02  .956E-02  .984E-02  .604E-02
  .485E-02  .520E-02  .492E-02  .185E-02  .140E-02  .171E-02  .143E-02  .105E-02
  .745E-03  .596E-03  .568E-03  .511E-03  .445E-03  .319E-03  .227E-03  .168E-03
  .134E-03  .114E-03  .978E-04  .850E-04  .746E-04  .660E-04  .588E-04  .528E-04
  .476E-04  .431E-04  .393E-04  .359E-04  .293E-04  .243E-04  .206E-04  .177E-04
  .154E-04  .135E-04  .119E-04  .106E-04  .955E-05  .861E-05  .711E-05  .597E-05
  .508E-05  .437E-05  .381E-05  .000E+00  .000E+00  .000E+00  .000E+00  .000E+00
  .000E+00  .000E+00  .000E+00  .000E+00
  .850E-01  .458E-01  .626E-01  .614E-01  .114E+00  .965E-01  .664E-01  .731E-01
  .932E-01  .151E+00  .164E+00  .209E+00  .168E+00  .120E+00  .135E+00  .187E+00
  .214E+00  .200E+00  .350E+00  .304E+00  .261E+00  .410E+00  .384E+00  .413E+00
  .597E+00  .565E+00  .229E+00  .267E+00  .460E+00  .363E+00  .260E+00  .235E+00
  .240E+00  .219E+00  .318E+00  .411E+00  .468E+00  .386E+00  .379E+00  .510E+00
  .345E+00  .511E+00  .431E+00  .253E+00  .219E+00  .440E+00  .484E+00  .315E+00
  .268E+00  .304E+00  .302E+00  .125E+00  .103E+00  .137E+00  .123E+00  .972E-01
  .733E-01  .622E-01  .628E-01  .597E-01  .546E-01  .431E-01  .335E-01  .268E-01
  .231E-01  .210E-01  .192E-01  .178E-01  .165E-01  .154E-01  .145E-01  .136E-01
  .129E-01  .122E-01  .116E-01  .110E-01  .989E-02  .897E-02  .821E-02  .759E-02
  .708E-02  .663E-02  .624E-02  .589E-02  .557E-02  .529E-02  .480E-02  .440E-02
  .406E-02  .376E-02  .351E-02  .000E+00  .000E+00  .000E+00  .000E+00  .000E+00
  .000E+00  .000E+00  .000E+00  .000E+00
  .101E+02  .677E+01  .663E+01  .832E+01  .734E+01  .263E+02  .793E+01  .663E+01
  .723E+01  .700E+01  .700E+01  .797E+01  .225E+02  .640E+01  .132E+02  .709E+01
  .655E+01  .655E+01  .764E+01  .222E+02  .756E+01  .792E+01  .699E+01  .719E+01
  .798E+01  .934E+01  .738E+01  .670E+01  .126E+02  .774E+01  .855E+01  .818E+01
  .711E+01  .697E+01  .818E+01  .823E+01  .316E+02  .855E+01  .109E+02  .260E+02
  .102E+02  .105E+02  .113E+02  .906E+01  .142E+02  .268E+02  .124E+02  .977E+01
  .988E+01  .149E+02  .277E+02  .792E+01  .113E+02  .109E+02  .105E+02  .101E+02
  .863E+01  .819E+01  .822E+01  .823E+01  .824E+01  .825E+01  .826E+01  .826E+01
  .653E+01  .653E+01  .653E+01  .653E+01  .653E+01  .653E+01  .653E+01  .653E+01
  .653E+01  .653E+01  .653E+01  .653E+01  .653E+01  .653E+01  .653E+01  .824E+01
  .824E+01  .824E+01  .824E+01  .824E+01  .824E+01  .824E+01  .824E+01  .824E+01
  .824E+01  .824E+01  .824E+01  .000E+00  .000E+00  .000E+00  .000E+00  .000E+00
  .000E+00  .000E+00  .000E+00  .000E+00
  .101E+02  .679E+01  .714E+01  .843E+01  .733E+01  .383E+02  .794E+01  .607E+01
  .725E+01  .698E+01  .698E+01  .123E+02  .204E+02  .638E+01  .134E+02  .707E+01
  .630E+01  .628E+01  .761E+01  .222E+02  .759E+01  .788E+01  .695E+01  .723E+01
  .803E+01  .939E+01  .743E+01  .664E+01  .127E+02  .780E+01  .938E+01  .715E+01
  .703E+01  .705E+01  .808E+01  .813E+01  .317E+02  .867E+01  .111E+02  .258E+02
  .103E+02  .104E+02  .115E+02  .891E+01  .143E+02  .266E+02  .198E+02  .997E+01
  .968E+01  .151E+02  .274E+02  .807E+01  .659E+01  .107E+02  .108E+02  .659E+01
  .839E+01  .840E+01  .840E+01  .659E+01  .659E+01  .807E+01  .659E+01  .659E+01
  .659E+01  .659E+01  .659E+01  .659E+01  .659E+01  .659E+01  .659E+01  .659E+01
  .659E+01  .659E+01  .659E+01  .659E+01  .659E+01  .659E+01  .659E+01  .659E+01
  .659E+01  .659E+01  .659E+01  .659E+01  .659E+01  .659E+01  .659E+01  .659E+01
  .659E+01  .659E+01  .659E+01  .000E+00  .000E+00  .000E+00  .000E+00  .000E+00
  .000E+00  .000E+00  .000E+00  .000E+00
  .101E+02  .677E+01  .663E+01  .832E+01  .734E+01  .263E+02  .793E+01  .663E+01
  .723E+01  .700E+01  .700E+01  .797E+01  .225E+02  .640E+01  .132E+02  .709E+01
  .655E+01  .655E+01  .764E+01  .222E+02  .756E+01  .792E+01  .699E+01  .719E+01
  .798E+01  .934E+01  .738E+01  .670E+01  .126E+02  .774E+01  .855E+01  .818E+01
  .711E+01  .697E+01  .818E+01  .823E+01  .316E+02  .855E+01  .109E+02  .260E+02
  .102E+02  .105E+02  .113E+02  .906E+01  .142E+02  .268E+02  .124E+02  .977E+01
  .988E+01  .149E+02  .277E+02  .792E+01  .113E+02  .109E+02  .105E+02  .101E+02
  .863E+01  .819E+01  .822E+01  .823E+01  .824E+01  .825E+01  .826E+01  .826E+01
  .653E+01  .653E+01  .653E+01  .653E+01  .653E+01  .653E+01  .653E+01  .653E+01
  .653E+01  .653E+01  .653E+01  .653E+01  .653E+01  .653E+01  .653E+01  .824E+01
  .824E+01  .824E+01  .824E+01  .824E+01  .824E+01  .824E+01  .824E+01  .824E+01
  .824E+01  .824E+01  .824E+01  .000E+00  .000E+00  .000E+00  .000E+00  .000E+00
  .000E+00  .000E+00  .000E+00  .000E+00
Damping =  .02. Data of Sd,Sv,Sa,Pssv,ttSd,ttSv,ttSa :
  .215E-03  .197E-03  .242E-03  .266E-03  .358E-03  .353E-03  .321E-03  .603E-03
  .865E-03  .858E-03  .128E-02  .173E-02  .143E-02  .130E-02  .168E-02  .200E-02
  .230E-02  .249E-02  .428E-02  .474E-02  .548E-02  .766E-02  .860E-02  .894E-02
  .104E-01  .105E-01  .699E-02  .836E-02  .103E-01  .116E-01  .905E-02  .101E-01
  .110E-01  .113E-01  .145E-01  .197E-01  .209E-01  .208E-01  .196E-01  .211E-01
  .223E-01  .305E-01  .284E-01  .235E-01  .214E-01  .361E-01  .396E-01  .328E-01
  .315E-01  .268E-01  .293E-01  .194E-01  .171E-01  .229E-01  .223E-01  .192E-01
  .170E-01  .156E-01  .168E-01  .170E-01  .166E-01  .147E-01  .127E-01  .112E-01
  .102E-01  .998E-02  .977E-02  .960E-02  .945E-02  .932E-02  .920E-02  .910E-02
  .901E-02  .893E-02  .886E-02  .879E-02  .867E-02  .858E-02  .851E-02  .846E-02
  .845E-02  .845E-02  .844E-02  .843E-02  .843E-02  .842E-02  .841E-02  .840E-02
  .839E-02  .839E-02  .838E-02  .000E+00  .000E+00  .000E+00  .000E+00  .000E+00
  .000E+00  .000E+00  .000E+00  .000E+00
  .309E-01  .207E-01  .207E-01  .255E-01  .342E-01  .306E-01  .299E-01  .457E-01
  .678E-01  .686E-01  .973E-01  .131E+00  .103E+00  .809E-01  .100E+00  .116E+00
  .128E+00  .121E+00  .198E+00  .194E+00  .229E+00  .306E+00  .317E+00  .304E+00
  .334E+00  .329E+00  .196E+00  .245E+00  .250E+00  .257E+00  .211E+00  .209E+00
  .228E+00  .218E+00  .220E+00  .293E+00  .287E+00  .274E+00  .263E+00  .268E+00
  .273E+00  .349E+00  .297E+00  .239E+00  .203E+00  .298E+00  .315E+00  .258E+00
  .250E+00  .226E+00  .193E+00  .153E+00  .147E+00  .139E+00  .132E+00  .125E+00
  .122E+00  .118E+00  .109E+00  .106E+00  .103E+00  .993E-01  .967E-01  .951E-01
  .941E-01  .934E-01  .929E-01  .925E-01  .922E-01  .920E-01  .918E-01  .917E-01
  .916E-01  .915E-01  .915E-01  .914E-01  .913E-01  .913E-01  .912E-01  .912E-01
  .912E-01  .912E-01  .911E-01  .911E-01  .911E-01  .911E-01  .911E-01  .911E-01
  .911E-01  .911E-01  .910E-01  .000E+00  .000E+00  .000E+00  .000E+00  .000E+00
  .000E+00  .000E+00  .000E+00  .000E+00
  .137E-01  .114E-01  .128E-01  .128E-01  .159E-01  .144E-01  .109E-01  .171E-01
  .209E-01  .179E-01  .232E-01  .277E-01  .202E-01  .165E-01  .191E-01  .204E-01
  .194E-01  .178E-01  .260E-01  .248E-01  .249E-01  .306E-01  .305E-01  .282E-01
  .295E-01  .270E-01  .148E-01  .149E-01  .156E-01  .151E-01  .103E-01  .101E-01
  .977E-02  .889E-02  .103E-01  .126E-01  .121E-01  .110E-01  .946E-02  .939E-02
  .912E-02  .103E-01  .807E-02  .570E-02  .447E-02  .658E-02  .633E-02  .465E-02
  .399E-02  .304E-02  .300E-02  .164E-02  .122E-02  .139E-02  .117E-02  .873E-03
  .681E-03  .555E-03  .533E-03  .484E-03  .425E-03  .312E-03  .227E-03  .170E-03
  .136E-03  .116E-03  .100E-03  .872E-04  .768E-04  .682E-04  .610E-04  .549E-04
  .497E-04  .452E-04  .414E-04  .380E-04  .313E-04  .264E-04  .226E-04  .197E-04
  .173E-04  .154E-04  .139E-04  .126E-04  .115E-04  .105E-04  .897E-05  .779E-05
  .687E-05  .612E-05  .550E-05  .000E+00  .000E+00  .000E+00  .000E+00  .000E+00
  .000E+00  .000E+00  .000E+00  .000E+00
  .338E-01  .294E-01  .346E-01  .363E-01  .469E-01  .444E-01  .367E-01  .632E-01
  .837E-01  .770E-01  .107E+00  .136E+00  .105E+00  .909E-01  .111E+00  .126E+00
  .131E+00  .130E+00  .207E+00  .213E+00  .230E+00  .301E+00  .318E+00  .312E+00
  .344E+00  .330E+00  .200E+00  .219E+00  .250E+00  .260E+00  .190E+00  .199E+00
  .204E+00  .196E+00  .240E+00  .309E+00  .313E+00  .296E+00  .267E+00  .277E+00
  .280E+00  .348E+00  .297E+00  .228E+00  .192E+00  .303E+00  .311E+00  .242E+00
  .220E+00  .177E+00  .184E+00  .111E+00  .898E-01  .111E+00  .100E+00  .802E-01
  .669E-01  .578E-01  .587E-01  .563E-01  .520E-01  .420E-01  .332E-01  .270E-01
  .230E-01  .209E-01  .192E-01  .177E-01  .165E-01  .154E-01  .145E-01  .136E-01
  .129E-01  .122E-01  .116E-01  .111E-01  .990E-02  .898E-02  .822E-02  .759E-02
  .708E-02  .663E-02  .624E-02  .589E-02  .557E-02  .529E-02  .480E-02  .440E-02
  .406E-02  .376E-02  .351E-02  .000E+00  .000E+00  .000E+00  .000E+00  .000E+00
  .000E+00  .000E+00  .000E+00  .000E+00
  .532E+01  .655E+01  .656E+01  .677E+01  .686E+01  .686E+01  .655E+01  .687E+01
  .688E+01  .656E+01  .700E+01  .718E+01  .680E+01  .668E+01  .668E+01  .669E+01
  .555E+01  .669E+01  .686E+01  .687E+01  .696E+01  .689E+01  .690E+01  .691E+01
  .722E+01  .734E+01  .738E+01  .669E+01  .741E+01  .774E+01  .708E+01  .709E+01
  .711E+01  .697E+01  .819E+01  .823E+01  .828E+01  .855E+01  .860E+01  .101E+02
  .102E+02  .103E+02  .898E+01  .874E+01  .876E+01  .118E+02  .116E+02  .850E+01
  .854E+01  .953E+01  .117E+02  .791E+01  .109E+02  .109E+02  .105E+02  .101E+02
  .861E+01  .819E+01  .822E+01  .822E+01  .823E+01  .824E+01  .825E+01  .825E+01
  .653E+01  .653E+01  .653E+01  .653E+01  .653E+01  .653E+01  .653E+01  .653E+01
  .653E+01  .653E+01  .653E+01  .653E+01  .653E+01  .653E+01  .653E+01  .824E+01
  .824E+01  .824E+01  .824E+01  .824E+01  .824E+01  .824E+01  .824E+01  .824E+01
  .824E+01  .824E+01  .824E+01  .000E+00  .000E+00  .000E+00  .000E+00  .000E+00
  .000E+00  .000E+00  .000E+00  .000E+00
  .531E+01  .510E+01  .540E+01  .541E+01  .684E+01  .684E+01  .545E+01  .688E+01
  .689E+01  .690E+01  .698E+01  .728E+01  .682E+01  .670E+01  .666E+01  .666E+01
  .553E+01  .667E+01  .682E+01  .718E+01  .692E+01  .693E+01  .694E+01  .696E+01
  .717E+01  .729E+01  .664E+01  .664E+01  .735E+01  .780E+01  .714E+01  .702E+01
  .703E+01  .705E+01  .809E+01  .813E+01  .818E+01  .844E+01  .871E+01  .102E+02
  .103E+02  .101E+02  .884E+01  .889E+01  .893E+01  .117E+02  .118E+02  .868E+01
  .835E+01  .839E+01  .115E+02  .807E+01  .659E+01  .659E+01  .659E+01  .659E+01
  .839E+01  .840E+01  .840E+01  .659E+01  .659E+01  .659E+01  .659E+01  .659E+01
  .659E+01  .659E+01  .659E+01  .659E+01  .659E+01  .659E+01  .659E+01  .659E+01
  .659E+01  .659E+01  .659E+01  .659E+01  .659E+01  .659E+01  .659E+01  .659E+01
  .659E+01  .659E+01  .659E+01  .659E+01  .659E+01  .659E+01  .659E+01  .659E+01
  .659E+01  .659E+01  .659E+01  .000E+00  .000E+00  .000E+00  .000E+00  .000E+00
  .000E+00  .000E+00  .000E+00  .000E+00
  .532E+01  .655E+01  .656E+01  .677E+01  .686E+01  .686E+01  .655E+01  .687E+01
  .688E+01  .656E+01  .700E+01  .718E+01  .680E+01  .668E+01  .668E+01  .669E+01
  .555E+01  .669E+01  .686E+01  .687E+01  .688E+01  .689E+01  .690E+01  .691E+01
  .722E+01  .734E+01  .738E+01  .669E+01  .740E+01  .773E+01  .707E+01  .709E+01
  .711E+01  .697E+01  .818E+01  .823E+01  .828E+01  .855E+01  .859E+01  .101E+02
  .102E+02  .103E+02  .898E+01  .873E+01  .875E+01  .118E+02  .116E+02  .849E+01
  .853E+01  .953E+01  .117E+02  .791E+01  .109E+02  .109E+02  .105E+02  .101E+02
  .860E+01  .818E+01  .820E+01  .822E+01  .822E+01  .823E+01  .823E+01  .823E+01
  .652E+01  .652E+01  .652E+01  .652E+01  .651E+01  .651E+01  .651E+01  .651E+01
  .651E+01  .651E+01  .651E+01  .651E+01  .650E+01  .650E+01  .649E+01  .649E+01
  .648E+01  .648E+01  .648E+01  .648E+01  .648E+01  .648E+01  .647E+01  .647E+01
  .647E+01  .647E+01  .647E+01  .000E+00  .000E+00  .000E+00  .000E+00  .000E+00
  .000E+00  .000E+00  .000E+00  .000E+00
Damping =  .05. Data of Sd,Sv,Sa,Pssv,ttSd,ttSv,ttSa :
  .143E-03  .167E-03  .192E-03  .216E-03  .269E-03  .306E-03  .339E-03  .512E-03
  .694E-03  .739E-03  .886E-03  .110E-02  .113E-02  .126E-02  .148E-02  .168E-02
  .183E-02  .230E-02  .336E-02  .394E-02  .483E-02  .612E-02  .694E-02  .714E-02
  .696E-02  .705E-02  .606E-02  .675E-02  .737E-02  .768E-02  .785E-02  .845E-02
  .899E-02  .964E-02  .106E-01  .139E-01  .152E-01  .147E-01  .146E-01  .134E-01
