Response and Fourier amplitude spectra (91 periods,  .04 - 15.0 sec)   for      
Corrected accelerogram   24207-M0150-01010.01       Chan 16:  Up         from   
Uncorrected Accelerogram Data             Processed: 03/04/11, CGS  207fa001    
Record of Sat Jan 13, 2001 18:26:11.0 PST             (Avol1 v8.9,05/09 CSMIP)  
CSMIP Preliminary Processing            (Origin:  To be determined)             
24207-M0150-01010.01                 Start time:  1/14/01, 02:26:11.0 UTC (GPS) 
Station No. 24207   34.334N, 118.396W    MtWtny  s/n  150 (17 Chns of 17 at Sta)
Sylmar - Pacoima Dam                      CGS                                   
Chan 16:  Up                        Location: Left (South) Abutment             
Record of Sat Jan 13, 2001 18:26:11.0 PST    Sat Jan 13, 2001 18:26:11.0 PST    
Hypocenter:  To be determined.               ML:  To be determined.
Instr Period =  .0107 sec,  Damping =  .660,  Sensitivity =  .63  v/g
                        Record length = 41.000 sec.
                                     Uncor Max  =   .023 g , at   6.760 sec.
RMS accel of (uncor) record  =        .   Chn. metadata effective date: 09/02/99
Accelerogram bandpass filtered with 3 dB pts at   .50 and 40.00 cyc/sec
                 instrument- and baseline-corrected





Record of Sat Jan 13, 2001 18:26:11.0 PST    Sat Jan 13, 2001 18:26:11.0 PST

24207-M0150-01010.01      Sylmar - Pacoima Dam    Chan 16:  Up

24207-M0150-01010.01      Sylmar - Pacoima Dam    Chan 16:  Up

Units for spectra are inches and sec, except Sa is in fraction of g.

   16  100   16   18   17  200    1    3    1   24   13  150    024207    5    0
    2   26   11    0   14    1   14 2001   10    3  500 8200   41   20   76   -1
 8200    0  100    3  150    1    1  410    2    0    0    0    0    0    0    0
    0    4    0    0 8200    1  212    1   18    4    0    0    3    1    0 8200
    3 8200    1   91    5   17    5    0    0    0    0    0    0    3    1    2
    2    2    4    0   68   99    0    1    0    0    0    1    0    0    0  222
    1    0    2    0
      .011      .660    41.000      .002      .000   625.000      .023     6.760
    93.600      .298      .477      .000     5.000      .000     4.000      .000
     2.500    27.091     2.500  2016.000     5.000    30.000      .000      .002
      .000     -.003     2.000    15.000    34.334  -118.396      .006      .045
     7.331     -.005      .000   594.000     5.400     9.900    12.700   100.040
     1.000    -1.016      .000      .000      .000      .000      .000      .000
     7.200     8.900     5.800   980.665      .005    41.000    14.897      .000
      .000    40.000      .000    41.000      .005      .500      .000      .000
     6.990    20.835     6.790      .345     6.540      .027      .000      .500
    40.000      .005      .005      .000      .005      .006      .000      .000
      .067      .060      .035      .018      .002      .000      .000      .000
      .000      .000      .000      .000      .000      .000      .000      .000
      .000      .000      .000      .000
      .000      .020      .050      .100      .200
      .040      .042      .044      .046      .048      .050      .055      .060
      .065      .070      .075      .080      .085      .090      .095      .100
      .110      .120      .130      .140      .150      .160      .170      .180
      .190      .200      .220      .240      .260      .280      .300      .320
      .340      .360      .380      .400      .420      .440      .460      .480
      .500      .550      .600      .650      .700      .750      .800      .850
      .900      .950     1.000     1.100     1.200     1.300     1.400     1.500
     1.600     1.700     1.800     1.900     2.000     2.200     2.400     2.600
     2.800     3.000     3.200     3.400     3.600     3.800     4.000     4.200
     4.400     4.600     4.800     5.000     5.500     6.000     6.500     7.000
     7.500     8.000     8.500     9.000     9.500    10.000    11.000    12.000
    13.000    14.000    15.000      .000      .000      .000      .000      .000
      .000      .000      .000      .000
Fourier amplitude spectra in in/sec.
  .206E+00  .947E-01  .526E+00  .429E+00  .391E+00  .359E+00  .515E+00  .797E+00
  .453E+00  .751E+00  .682E+00  .144E+01  .805E+00  .687E+00  .601E+00  .500E+00
  .259E+00  .345E+00  .406E+00  .110E+01  .725E+00  .756E+00  .117E+01  .987E+00
  .864E+00  .731E+00  .298E+00  .357E+00  .598E+00  .448E+00  .433E+00  .428E+00
  .196E+00  .152E+00  .308E+00  .289E+00  .461E+00  .262E+00  .330E+00  .509E+00
  .236E+00  .476E+00  .390E+00  .608E-01  .120E+00  .437E+00  .485E+00  .259E+00
  .108E+00  .291E+00  .294E+00  .350E-01  .193E-01  .136E+00  .817E-01  .950E-01
  .611E-01  .287E-01  .375E-01  .294E-01  .283E-01  .364E-01  .197E-01  .941E-02
  .259E-02  .270E-02  .247E-02  .286E-02  .263E-02  .157E-02  .175E-02  .125E-02
  .817E-03  .799E-03  .583E-03  .409E-03  .285E-03  .165E-03  .123E-03  .351E-04
  .862E-04  .639E-04  .214E-04  .449E-04  .646E-04  .644E-04  .441E-04  .468E-04
  .514E-04  .472E-04  .422E-04  .000E+00  .000E+00  .000E+00  .000E+00  .000E+00
  .000E+00  .000E+00  .000E+00  .000E+00
Damping =  .00. Data of Sd,Sv,Sa,Pssv,ttSd,ttSv,ttSa :
  .166E-02  .144E-02  .391E-02  .325E-02  .433E-02  .402E-02  .541E-02  .771E-02
  .570E-02  .848E-02  .935E-02  .207E-01  .137E-01  .116E-01  .985E-02  .937E-02
  .857E-02  .851E-02  .120E-01  .274E-01  .228E-01  .299E-01  .336E-01  .297E-01
  .295E-01  .264E-01  .153E-01  .155E-01  .277E-01  .237E-01  .243E-01  .244E-01
  .207E-01  .195E-01  .205E-01  .272E-01  .314E-01  .252E-01  .277E-01  .398E-01
  .249E-01  .444E-01  .405E-01  .234E-01  .204E-01  .525E-01  .637E-01  .423E-01
  .377E-01  .471E-01  .474E-01  .233E-01  .192E-01  .289E-01  .280E-01  .238E-01
  .186E-01  .158E-01  .167E-01  .170E-01  .164E-01  .144E-01  .139E-01  .134E-01
  .130E-01  .127E-01  .124E-01  .122E-01  .120E-01  .119E-01  .118E-01  .117E-01
  .116E-01  .115E-01  .114E-01  .114E-01  .113E-01  .112E-01  .111E-01  .110E-01
  .110E-01  .109E-01  .109E-01  .109E-01  .109E-01  .109E-01  .108E-01  .108E-01
  .108E-01  .108E-01  .108E-01  .000E+00  .000E+00  .000E+00  .000E+00  .000E+00
  .000E+00  .000E+00  .000E+00  .000E+00
  .249E+00  .200E+00  .554E+00  .444E+00  .534E+00  .511E+00  .620E+00  .807E+00
  .552E+00  .753E+00  .789E+00  .163E+01  .978E+00  .811E+00  .650E+00  .588E+00
  .478E+00  .450E+00  .560E+00  .123E+01  .929E+00  .118E+01  .124E+01  .104E+01
  .960E+00  .830E+00  .474E+00  .445E+00  .670E+00  .550E+00  .513E+00  .463E+00
  .425E+00  .393E+00  .376E+00  .424E+00  .470E+00  .358E+00  .384E+00  .520E+00
  .307E+00  .501E+00  .407E+00  .282E+00  .261E+00  .440E+00  .497E+00  .337E+00
  .302E+00  .315E+00  .300E+00  .203E+00  .197E+00  .186E+00  .181E+00  .176E+00
  .171E+00  .166E+00  .161E+00  .156E+00  .152E+00  .147E+00  .143E+00  .140E+00
  .139E+00  .137E+00  .136E+00  .136E+00  .135E+00  .135E+00  .135E+00  .134E+00
  .134E+00  .135E+00  .135E+00  .135E+00  .135E+00  .135E+00  .135E+00  .135E+00
  .135E+00  .135E+00  .136E+00  .136E+00  .136E+00  .136E+00  .136E+00  .136E+00
  .136E+00  .136E+00  .136E+00  .000E+00  .000E+00  .000E+00  .000E+00  .000E+00
  .000E+00  .000E+00  .000E+00  .000E+00
  .106E+00  .837E-01  .206E+00  .157E+00  .192E+00  .164E+00  .183E+00  .219E+00
  .138E+00  .177E+00  .170E+00  .331E+00  .195E+00  .147E+00  .112E+00  .958E-01
  .724E-01  .604E-01  .723E-01  .143E+00  .104E+00  .119E+00  .119E+00  .939E-01
  .836E-01  .676E-01  .324E-01  .275E-01  .420E-01  .309E-01  .276E-01  .243E-01
  .183E-01  .154E-01  .145E-01  .174E-01  .182E-01  .133E-01  .134E-01  .177E-01
  .102E-01  .150E-01  .115E-01  .567E-02  .425E-02  .954E-02  .102E-01  .599E-02
  .476E-02  .534E-02  .485E-02  .197E-02  .136E-02  .175E-02  .146E-02  .108E-02
  .743E-03  .558E-03  .526E-03  .481E-03  .420E-03  .305E-03  .247E-03  .203E-03
  .170E-03  .144E-03  .124E-03  .108E-03  .951E-04  .844E-04  .754E-04  .678E-04
  .613E-04  .557E-04  .508E-04  .466E-04  .380E-04  .317E-04  .268E-04  .230E-04
  .200E-04  .175E-04  .155E-04  .138E-04  .123E-04  .111E-04  .917E-05  .770E-05
  .655E-05  .564E-05  .491E-05  .000E+00  .000E+00  .000E+00  .000E+00  .000E+00
  .000E+00  .000E+00  .000E+00  .000E+00
  .261E+00  .216E+00  .558E+00  .444E+00  .567E+00  .505E+00  .618E+00  .808E+00
  .551E+00  .761E+00  .784E+00  .163E+01  .102E+01  .813E+00  .651E+00  .589E+00
  .489E+00  .445E+00  .578E+00  .123E+01  .954E+00  .117E+01  .124E+01  .104E+01
  .976E+00  .831E+00  .438E+00  .406E+00  .670E+00  .531E+00  .508E+00  .478E+00
  .382E+00  .340E+00  .338E+00  .427E+00  .470E+00  .359E+00  .379E+00  .521E+00
  .312E+00  .508E+00  .424E+00  .226E+00  .183E+00  .440E+00  .501E+00  .313E+00
  .263E+00  .312E+00  .298E+00  .133E+00  .100E+00  .139E+00  .126E+00  .995E-01
  .731E-01  .582E-01  .581E-01  .561E-01  .516E-01  .412E-01  .364E-01  .325E-01
  .292E-01  .266E-01  .244E-01  .226E-01  .210E-01  .197E-01  .185E-01  .175E-01
  .166E-01  .157E-01  .150E-01  .143E-01  .129E-01  .117E-01  .107E-01  .990E-02
  .920E-02  .860E-02  .808E-02  .761E-02  .720E-02  .683E-02  .620E-02  .567E-02
  .523E-02  .485E-02  .452E-02  .000E+00  .000E+00  .000E+00  .000E+00  .000E+00
  .000E+00  .000E+00  .000E+00  .000E+00
  .719E+01  .653E+01  .928E+01  .197E+02  .698E+01  .722E+01  .820E+01  .101E+02
  .772E+01  .804E+01  .725E+01  .705E+01  .682E+01  .683E+01  .121E+02  .114E+02
  .661E+01  .701E+01  .725E+01  .811E+01  .694E+01  .696E+01  .112E+02  .899E+01
  .797E+01  .933E+01  .724E+01  .724E+01  .127E+02  .106E+02  .856E+01  .819E+01
  .710E+01  .697E+01  .698E+01  .822E+01  .316E+02  .855E+01  .930E+01  .259E+02
  .102E+02  .105E+02  .113E+02  .905E+01  .113E+02  .268E+02  .124E+02  .977E+01
  .947E+01  .149E+02  .277E+02  .791E+01  .113E+02  .109E+02  .105E+02  .101E+02
  .101E+02  .813E+01  .823E+01  .824E+01  .826E+01  .653E+01  .653E+01  .653E+01
  .653E+01  .653E+01  .653E+01  .653E+01  .653E+01  .653E+01  .653E+01  .653E+01
  .653E+01  .653E+01  .653E+01  .653E+01  .653E+01  .653E+01  .653E+01  .653E+01
  .653E+01  .653E+01  .653E+01  .653E+01  .653E+01  .653E+01  .653E+01  .653E+01
  .653E+01  .653E+01  .653E+01  .000E+00  .000E+00  .000E+00  .000E+00  .000E+00
  .000E+00  .000E+00  .000E+00  .000E+00
  .730E+01  .694E+01  .924E+01  .197E+02  .697E+01  .581E+01  .824E+01  .111E+02
  .771E+01  .186E+02  .730E+01  .715E+01  .680E+01  .681E+01  .120E+02  .726E+01
  .664E+01  .705E+01  .728E+01  .843E+01  .691E+01  .692E+01  .111E+02  .894E+01
  .792E+01  .878E+01  .719E+01  .730E+01  .128E+02  .712E+01  .879E+01  .700E+01
  .701E+01  .705E+01  .706E+01  .813E+01  .317E+02  .866E+01  .918E+01  .258E+02
  .103E+02  .101E+02  .115E+02  .679E+01  .679E+01  .266E+02  .130E+02  .998E+01
  .836E+01  .151E+02  .264E+02  .657E+01  .720E+01  .657E+01  .673E+01  .673E+01
  .673E+01  .673E+01  .673E+01  .673E+01  .673E+01  .673E+01  .673E+01  .673E+01
  .673E+01  .673E+01  .673E+01  .673E+01  .673E+01  .673E+01  .673E+01  .673E+01
  .678E+01  .678E+01  .678E+01  .678E+01  .678E+01  .678E+01  .678E+01  .678E+01
  .678E+01  .678E+01  .678E+01  .678E+01  .678E+01  .678E+01  .678E+01  .678E+01
  .678E+01  .678E+01  .678E+01  .000E+00  .000E+00  .000E+00  .000E+00  .000E+00
  .000E+00  .000E+00  .000E+00  .000E+00
  .719E+01  .653E+01  .928E+01  .197E+02  .698E+01  .722E+01  .820E+01  .101E+02
  .772E+01  .804E+01  .725E+01  .705E+01  .682E+01  .683E+01  .121E+02  .114E+02
  .661E+01  .701E+01  .725E+01  .811E+01  .694E+01  .696E+01  .112E+02  .899E+01
  .797E+01  .933E+01  .724E+01  .724E+01  .127E+02  .106E+02  .856E+01  .819E+01
  .710E+01  .697E+01  .698E+01  .822E+01  .316E+02  .855E+01  .930E+01  .259E+02
  .102E+02  .105E+02  .113E+02  .905E+01  .113E+02  .268E+02  .124E+02  .977E+01
  .947E+01  .149E+02  .277E+02  .791E+01  .113E+02  .109E+02  .105E+02  .101E+02
  .101E+02  .813E+01  .823E+01  .824E+01  .826E+01  .653E+01  .653E+01  .653E+01
  .653E+01  .653E+01  .653E+01  .653E+01  .653E+01  .653E+01  .653E+01  .653E+01
  .653E+01  .653E+01  .653E+01  .653E+01  .653E+01  .653E+01  .653E+01  .653E+01
  .653E+01  .653E+01  .653E+01  .653E+01  .653E+01  .653E+01  .653E+01  .653E+01
  .653E+01  .653E+01  .653E+01  .000E+00  .000E+00  .000E+00  .000E+00  .000E+00
  .000E+00  .000E+00  .000E+00  .000E+00
Damping =  .02. Data of Sd,Sv,Sa,Pssv,ttSd,ttSv,ttSa :
  .912E-03  .945E-03  .120E-02  .171E-02  .182E-02  .190E-02  .252E-02  .379E-02
  .375E-02  .409E-02  .514E-02  .676E-02  .636E-02  .603E-02  .517E-02  .486E-02
  .519E-02  .610E-02  .894E-02  .149E-01  .181E-01  .218E-01  .166E-01  .185E-01
  .203E-01  .184E-01  .132E-01  .139E-01  .188E-01  .178E-01  .178E-01  .191E-01
  .183E-01  .178E-01  .183E-01  .199E-01  .195E-01  .191E-01  .186E-01  .201E-01
  .205E-01  .300E-01  .273E-01  .212E-01  .190E-01  .349E-01  .399E-01  .326E-01
  .308E-01  .269E-01  .287E-01  .207E-01  .174E-01  .231E-01  .228E-01  .195E-01
  .168E-01  .153E-01  .154E-01  .158E-01  .155E-01  .143E-01  .138E-01  .134E-01
  .130E-01  .127E-01  .124E-01  .122E-01  .120E-01  .119E-01  .118E-01  .117E-01
  .116E-01  .115E-01  .115E-01  .114E-01  .113E-01  .112E-01  .111E-01  .110E-01
  .110E-01  .110E-01  .109E-01  .109E-01  .109E-01  .109E-01  .109E-01  .108E-01
  .108E-01  .108E-01  .108E-01  .000E+00  .000E+00  .000E+00  .000E+00  .000E+00
  .000E+00  .000E+00  .000E+00  .000E+00
  .126E+00  .121E+00  .155E+00  .211E+00  .224E+00  .231E+00  .264E+00  .367E+00
  .352E+00  .362E+00  .427E+00  .535E+00  .473E+00  .417E+00  .376E+00  .311E+00
  .290E+00  .325E+00  .413E+00  .671E+00  .730E+00  .856E+00  .603E+00  .646E+00
  .679E+00  .568E+00  .426E+00  .424E+00  .514E+00  .490E+00  .414E+00  .426E+00
  .395E+00  .352E+00  .336E+00  .320E+00  .308E+00  .263E+00  .263E+00  .261E+00
  .268E+00  .354E+00  .298E+00  .275E+00  .256E+00  .290E+00  .316E+00  .254E+00
  .268E+00  .237E+00  .209E+00  .202E+00  .194E+00  .186E+00  .178E+00  .174E+00
  .169E+00  .164E+00  .160E+00  .156E+00  .152E+00  .147E+00  .143E+00  .141E+00
  .139E+00  .138E+00  .137E+00  .136E+00  .135E+00  .135E+00  .135E+00  .135E+00
  .135E+00  .135E+00  .135E+00  .135E+00  .135E+00  .135E+00  .135E+00  .135E+00
  .135E+00  .135E+00  .135E+00  .136E+00  .136E+00  .136E+00  .136E+00  .136E+00
  .136E+00  .136E+00  .136E+00  .000E+00  .000E+00  .000E+00  .000E+00  .000E+00
  .000E+00  .000E+00  .000E+00  .000E+00
  .582E-01  .547E-01  .632E-01  .825E-01  .808E-01  .783E-01  .848E-01  .107E+00
  .904E-01  .851E-01  .942E-01  .107E+00  .900E-01  .766E-01  .589E-01  .498E-01
  .437E-01  .435E-01  .541E-01  .776E-01  .825E-01  .873E-01  .591E-01  .584E-01
  .575E-01  .469E-01  .280E-01  .247E-01  .284E-01  .232E-01  .203E-01  .191E-01
  .162E-01  .141E-01  .130E-01  .127E-01  .113E-01  .101E-01  .897E-02  .895E-02
  .841E-02  .102E-01  .775E-02  .514E-02  .396E-02  .634E-02  .639E-02  .462E-02
  .389E-02  .305E-02  .294E-02  .175E-02  .124E-02  .140E-02  .119E-02  .890E-03
  .671E-03  .550E-03  .489E-03  .451E-03  .399E-03  .312E-03  .255E-03  .212E-03
  .179E-03  .153E-03  .133E-03  .117E-03  .104E-03  .929E-04  .837E-04  .758E-04
  .691E-04  .633E-04  .583E-04  .539E-04  .450E-04  .383E-04  .331E-04  .289E-04
  .256E-04  .229E-04  .206E-04  .187E-04  .171E-04  .157E-04  .134E-04  .117E-04
  .103E-04  .915E-05  .823E-05  .000E+00  .000E+00  .000E+00  .000E+00  .000E+00
  .000E+00  .000E+00  .000E+00  .000E+00
  .143E+00  .141E+00  .171E+00  .234E+00  .238E+00  .238E+00  .288E+00  .397E+00
  .363E+00  .367E+00  .431E+00  .531E+00  .470E+00  .421E+00  .342E+00  .306E+00
  .296E+00  .319E+00  .432E+00  .667E+00  .758E+00  .856E+00  .615E+00  .645E+00
  .671E+00  .577E+00  .378E+00  .364E+00  .454E+00  .399E+00  .373E+00  .375E+00
  .337E+00  .311E+00  .303E+00  .312E+00  .291E+00  .272E+00  .253E+00  .264E+00
  .258E+00  .343E+00  .285E+00  .205E+00  .170E+00  .292E+00  .314E+00  .241E+00
  .215E+00  .178E+00  .180E+00  .118E+00  .910E-01  .112E+00  .102E+00  .818E-01
  .658E-01  .564E-01  .536E-01  .524E-01  .488E-01  .408E-01  .361E-01  .323E-01
  .291E-01  .265E-01  .244E-01  .226E-01  .210E-01  .197E-01  .185E-01  .175E-01
  .166E-01  .157E-01  .150E-01  .143E-01  .129E-01  .117E-01  .107E-01  .991E-02
  .921E-02  .861E-02  .809E-02  .761E-02  .721E-02  .683E-02  .620E-02  .566E-02
  .523E-02  .486E-02  .454E-02  .000E+00  .000E+00  .000E+00  .000E+00  .000E+00
  .000E+00  .000E+00  .000E+00  .000E+00
  .539E+01  .515E+01  .539E+01  .539E+01  .539E+01  .542E+01  .709E+01  .709E+01
  .734E+01  .734E+01  .714E+01  .701E+01  .682E+01  .682E+01  .683E+01  .684E+01
  .702E+01  .702E+01  .725E+01  .727E+01  .687E+01  .689E+01  .726E+01  .746E+01
  .731E+01  .723E+01  .724E+01  .724E+01  .716E+01  .718E+01  .707E+01  .709E+01
  .709E+01  .697E+01  .698E+01  .822E+01  .826E+01  .855E+01  .859E+01  .101E+02
  .102E+02  .102E+02  .898E+01  .873E+01  .874E+01  .118E+02  .120E+02  .850E+01
  .855E+01  .121E+02  .117E+02  .790E+01  .744E+01  .109E+02  .105E+02  .101E+02
  .860E+01  .653E+01  .823E+01  .824E+01  .825E+01  .653E+01  .653E+01  .653E+01
  .653E+01  .653E+01  .653E+01  .653E+01  .653E+01  .653E+01  .653E+01  .653E+01
  .653E+01  .653E+01  .653E+01  .653E+01  .653E+01  .653E+01  .653E+01  .653E+01
  .653E+01  .653E+01  .653E+01  .653E+01  .653E+01  .653E+01  .653E+01  .653E+01
  .653E+01  .653E+01  .653E+01  .000E+00  .000E+00  .000E+00  .000E+00  .000E+00
  .000E+00  .000E+00  .000E+00  .000E+00
  .538E+01  .514E+01  .538E+01  .538E+01  .541E+01  .581E+01  .707E+01  .708E+01
  .735E+01  .732E+01  .716E+01  .703E+01  .536E+01  .680E+01  .534E+01  .520E+01
  .705E+01  .700E+01  .728E+01  .723E+01  .691E+01  .693E+01  .739E+01  .733E+01
  .736E+01  .728E+01  .719E+01  .720E+01  .721E+01  .711E+01  .713E+01  .700E+01
  .701E+01  .705E+01  .706E+01  .813E+01  .815E+01  .865E+01  .918E+01  .102E+02
  .678E+01  .101E+02  .885E+01  .679E+01  .679E+01  .116E+02  .118E+02  .836E+01
  .836E+01  .836E+01  .806E+01  .657E+01  .657E+01  .657E+01  .657E+01  .673E+01
  .673E+01  .673E+01  .673E+01  .673E+01  .673E+01  .673E+01  .673E+01  .673E+01
  .673E+01  .673E+01  .673E+01  .673E+01  .673E+01  .657E+01  .657E+01  .657E+01
  .657E+01  .657E+01  .678E+01  .678E+01  .678E+01  .678E+01  .678E+01  .678E+01
  .678E+01  .678E+01  .678E+01  .678E+01  .678E+01  .678E+01  .678E+01  .678E+01
  .678E+01  .678E+01  .678E+01  .000E+00  .000E+00  .000E+00  .000E+00  .000E+00
  .000E+00  .000E+00  .000E+00  .000E+00
  .539E+01  .515E+01  .539E+01  .539E+01  .539E+01  .542E+01  .709E+01  .709E+01
  .734E+01  .734E+01  .714E+01  .701E+01  .682E+01  .682E+01  .683E+01  .684E+01
  .702E+01  .702E+01  .725E+01  .727E+01  .687E+01  .688E+01  .726E+01  .746E+01
  .730E+01  .722E+01  .724E+01  .724E+01  .716E+01  .718E+01  .707E+01  .708E+01
  .709E+01  .697E+01  .698E+01  .821E+01  .826E+01  .855E+01  .859E+01  .101E+02
  .102E+02  .102E+02  .897E+01  .873E+01  .874E+01  .118E+02  .120E+02  .849E+01
  .854E+01  .120E+02  .117E+02  .790E+01  .743E+01  .109E+02  .105E+02  .101E+02
  .859E+01  .652E+01  .652E+01  .823E+01  .824E+01  .652E+01  .652E+01  .652E+01
  .652E+01  .652E+01  .652E+01  .652E+01  .652E+01  .652E+01  .652E+01  .652E+01
  .652E+01  .651E+01  .651E+01  .651E+01  .651E+01  .651E+01  .651E+01  .651E+01
  .651E+01  .651E+01  .651E+01  .651E+01  .651E+01  .651E+01  .651E+01  .651E+01
  .651E+01  .651E+01  .651E+01  .000E+00  .000E+00  .000E+00  .000E+00  .000E+00
  .000E+00  .000E+00  .000E+00  .000E+00
Damping =  .05. Data of Sd,Sv,Sa,Pssv,ttSd,ttSv,ttSa :
  .720E-03  .770E-03  .999E-03  .130E-02  .145E-02  .150E-02  .178E-02  .240E-02
  .257E-02  .275E-02  .350E-02  .412E-02  .456E-02  .455E-02  .422E-02  .399E-02
  .437E-02  .496E-02  .658E-02  .106E-01  .140E-01  .155E-01  .129E-01  .128E-01
  .149E-01  .144E-01  .117E-01  .118E-01  .147E-01  .149E-01  .157E-01  .162E-01
  .153E-01  .155E-01  .159E-01  .151E-01  .138E-01  .132E-01  .136E-01  .144E-01
